<?xml version="1.0" encoding="UTF-8"?>
<osm version="0.6" generator="JOSM" upload="false">
  <node id="-768" visible="true" lat="44.685013598813" lon="-72.323897336303">
    <tag k="addr:city" v="Craftsbury Common"/>
    <tag k="addr:housenumber" v="620"/>
    <tag k="addr:street" v="Urie Road"/>
    <tag k="addr:state" v="VT"/>
    <tag k="ref:vcgi:esiteid" v="656742"/>
  </node>
  <node id="-769" visible="true" lat="44.733533272495" lon="-72.359323135917">
    <tag k="addr:city" v="Albany"/>
    <tag k="addr:housenumber" v="820"/>
    <tag k="addr:street" v="Center Hill Road"/>
    <tag k="addr:state" v="VT"/>
    <tag k="ref:vcgi:esiteid" v="656772"/>
  </node>
</osm>
