<?xml version="1.0" encoding="UTF-8"?>
<osm version="0.6" generator="JOSM" upload="false">
  <node id="-2116" visible="true" lat="44.89185785" lon="-73.29840635">
    <tag k="addr:city" v="Alburgh"/>
    <tag k="addr:housenumber" v="313"/>
    <tag k="addr:street" v="Hidden Drive"/>
    <tag k="addr:state" v="VT"/>
    <tag k="ref:vcgi:esiteid" v="618626"/>
  </node>
  <node id="-2118" visible="true" lat="44.89111574" lon="-73.29718394">
    <tag k="addr:city" v="Alburgh"/>
    <tag k="addr:housenumber" v="420"/>
    <tag k="addr:street" v="Hidden Drive"/>
    <tag k="addr:state" v="VT"/>
    <tag k="ref:vcgi:esiteid" v="618629"/>
  </node>
  <node id="-2473" visible="true" lat="44.89220494" lon="-73.30396835">
    <tag k="addr:city" v="Alburgh"/>
    <tag k="addr:housenumber" v="35"/>
    <tag k="addr:street" v="Hidden Drive"/>
    <tag k="addr:state" v="VT"/>
    <tag k="ref:vcgi:esiteid" v="772959"/>
  </node>
</osm>
