<?xml version="1.0" encoding="UTF-8"?>
<osm version="0.6" generator="JOSM" upload="false">
  <node id="-698" visible="true" lat="43.263894045844" lon="-72.729235177307">
    <tag k="addr:city" v="Chester"/>
    <tag k="addr:housenumber" v="857"/>
    <tag k="addr:street" v="Middletown Road"/>
    <tag k="addr:state" v="VT"/>
    <tag k="ref:vcgi:esiteid" v="656611"/>
  </node>
  <node id="-699" visible="true" lat="43.266650116039" lon="-72.70789352722">
    <tag k="addr:city" v="Chester"/>
    <tag k="addr:housenumber" v="591"/>
    <tag k="addr:street" v="Hill Top Road"/>
    <tag k="addr:state" v="VT"/>
    <tag k="ref:vcgi:esiteid" v="656667"/>
  </node>
  <node id="-700" visible="true" lat="43.250911528334" lon="-72.733806710278">
    <tag k="addr:city" v="Chester"/>
    <tag k="addr:housenumber" v="490"/>
    <tag k="addr:street" v="Little Pond Road"/>
    <tag k="addr:state" v="VT"/>
    <tag k="ref:vcgi:esiteid" v="656763"/>
  </node>
  <node id="-966" visible="true" lat="43.243015394351" lon="-72.754591151454">
    <tag k="addr:city" v="Chester"/>
    <tag k="addr:housenumber" v="1678"/>
    <tag k="addr:street" v="Little Pond Road"/>
    <tag k="addr:state" v="VT"/>
    <tag k="ref:vcgi:esiteid" v="773934"/>
  </node>
</osm>
