<?xml version="1.0" encoding="UTF-8"?>
<osm version="0.6" generator="JOSM" upload="false">
  <node id="-766" visible="true" lat="43.789318524818" lon="-72.650904488954">
    <tag k="addr:city" v="Bethel"/>
    <tag k="addr:housenumber" v="98"/>
    <tag k="addr:street" v="Old Route 12"/>
    <tag k="addr:state" v="VT"/>
    <tag k="ref:vcgi:esiteid" v="6623"/>
  </node>
  <node id="-936" visible="true" lat="43.789791260664" lon="-72.653761464932">
    <tag k="addr:city" v="Bethel"/>
    <tag k="addr:housenumber" v="96"/>
    <tag k="addr:street" v="Lichtenberger Road"/>
    <tag k="addr:state" v="VT"/>
    <tag k="ref:vcgi:esiteid" v="656779"/>
  </node>
</osm>
