<?xml version="1.0" encoding="UTF-8"?>
<osm version="0.6" generator="JOSM" upload="false">
  <node id="-343" visible="true" lat="44.325133738473" lon="-72.036382653708">
    <tag k="addr:city" v="Barnet"/>
    <tag k="addr:housenumber" v="438"/>
    <tag k="addr:street" v="United States Route 5 North"/>
    <tag k="addr:state" v="VT"/>
    <tag k="ref:vcgi:esiteid" v="6956"/>
  </node>
  <node id="-625" visible="true" lat="44.29883361209" lon="-72.046306749988">
    <tag k="addr:city" v="Barnet"/>
    <tag k="addr:housenumber" v="1591"/>
    <tag k="addr:street" v="United States Route 5 South"/>
    <tag k="addr:state" v="VT"/>
    <tag k="ref:vcgi:esiteid" v="7245"/>
  </node>
  <node id="-694" visible="true" lat="44.296356258039" lon="-72.048724368232">
    <tag k="addr:city" v="Barnet"/>
    <tag k="addr:housenumber" v="1803"/>
    <tag k="addr:street" v="United States Route 5 South"/>
    <tag k="addr:state" v="VT"/>
    <tag k="ref:vcgi:esiteid" v="7316"/>
  </node>
  <node id="-1008" visible="true" lat="44.299730637566" lon="-72.046781618172">
    <tag k="addr:city" v="Barnet"/>
    <tag k="addr:housenumber" v="1550"/>
    <tag k="addr:street" v="United States Route 5 South"/>
    <tag k="addr:state" v="VT"/>
    <tag k="ref:vcgi:esiteid" v="7632"/>
  </node>
</osm>
