<?xml version="1.0" encoding="UTF-8"?>
<osm version="0.6" generator="JOSM" upload="false">
  <node id="-106" visible="true" lat="43.79268695" lon="-72.65446522">
    <!-- conflict: "315 Old Route 12, , VT" No match in OSM, but a different address exists <5m away: "50 Lichtenberger Road, , VT" -->
    <tag k="addr:housenumber" v="315"/>
    <tag k="addr:street" v="Old Route 12"/>
    <tag k="addr:state" v="VT"/>
    <tag k="ref:vcgi:esiteid" v="5944"/>
  </node>
  <node id="-112" visible="true" lat="43.78855119" lon="-72.64946622">
    <!-- conflict: "311 Old Route 12, , VT" No match in OSM, but a different address exists <5m away: "145 Lichtenberger Road, , VT" -->
    <tag k="addr:housenumber" v="311"/>
    <tag k="addr:street" v="Old Route 12"/>
    <tag k="addr:state" v="VT"/>
    <tag k="ref:vcgi:esiteid" v="5950"/>
  </node>
  <node id="-724" visible="true" lat="43.67316238" lon="-72.58547249">
    <!-- conflict: "34 Midsomer Meadows Lane, , VT" No match in OSM, but a different address exists <5m away: "143 Starry Hill Drive, Barnard, VT" -->
    <tag k="addr:housenumber" v="34"/>
    <tag k="addr:street" v="Midsomer Meadows Lane"/>
    <tag k="addr:state" v="VT"/>
    <tag k="ref:vcgi:esiteid" v="6579"/>
  </node>
  <node id="-883" visible="true" lat="43.78567942" lon="-72.64867834">
    <!-- conflict: "309 Old Route 12, , VT" No match in OSM, but a different address exists <5m away: "381 Lichtenberger Road, , VT" -->
    <tag k="addr:housenumber" v="309"/>
    <tag k="addr:street" v="Old Route 12"/>
    <tag k="addr:state" v="VT"/>
    <tag k="ref:vcgi:esiteid" v="617595"/>
  </node>
  <node id="-971" visible="true" lat="43.67475231" lon="-72.58430702">
    <!-- conflict: "32 Midsomer Meadows Lane, , VT" No match in OSM, but a different address exists <5m away: "42 Starry Hill Drive, , VT" -->
    <tag k="addr:housenumber" v="32"/>
    <tag k="addr:street" v="Midsomer Meadows Lane"/>
    <tag k="addr:state" v="VT"/>
    <tag k="ref:vcgi:esiteid" v="765571"/>
  </node>
</osm>
