<?xml version="1.0" encoding="UTF-8"?>
<osm version="0.6" generator="JOSM" upload="false">
  <node id="-828" visible="true" lat="44.202714458571" lon="-72.493159301478">
    <!-- conflict: "43 Winter Meadow, Barre, VT" Fuzzy match to "43 Winter Meadows, Barre, VT" -->
    <tag k="addr:city" v="Barre"/>
    <tag k="addr:housenumber" v="43"/>
    <tag k="addr:street" v="Winter Meadow"/>
    <tag k="addr:state" v="VT"/>
    <tag k="ref:vcgi:esiteid" v="8546"/>
  </node>
  <node id="-882" visible="true" lat="44.20197759824" lon="-72.493423644262">
    <!-- conflict: "31 Winter Meadow, Barre, VT" Fuzzy match to "31 Winter Meadows, Barre, VT" -->
    <tag k="addr:city" v="Barre"/>
    <tag k="addr:housenumber" v="31"/>
    <tag k="addr:street" v="Winter Meadow"/>
    <tag k="addr:state" v="VT"/>
    <tag k="ref:vcgi:esiteid" v="8608"/>
  </node>
  <node id="-951" visible="true" lat="44.201368413183" lon="-72.493829238946">
    <!-- conflict: "21 Winter Meadow, Barre, VT" Fuzzy match to "21 Winter Meadows, Barre, VT" -->
    <tag k="addr:city" v="Barre"/>
    <tag k="addr:housenumber" v="21"/>
    <tag k="addr:street" v="Winter Meadow"/>
    <tag k="addr:state" v="VT"/>
    <tag k="ref:vcgi:esiteid" v="8692"/>
  </node>
  <node id="-963" visible="true" lat="44.201219234855" lon="-72.494419250294">
    <!-- conflict: "18 Winter Meadow, Barre, VT" Fuzzy match to "18 Winter Meadows, Barre, VT" -->
    <tag k="addr:city" v="Barre"/>
    <tag k="addr:housenumber" v="18"/>
    <tag k="addr:street" v="Winter Meadow"/>
    <tag k="addr:state" v="VT"/>
    <tag k="ref:vcgi:esiteid" v="8706"/>
  </node>
  <node id="-987" visible="true" lat="44.201075489283" lon="-72.49399586246">
    <!-- conflict: "17 Winter Meadow, Barre, VT" Fuzzy match to "17 Winter Meadows, Barre, VT" -->
    <tag k="addr:city" v="Barre"/>
    <tag k="addr:housenumber" v="17"/>
    <tag k="addr:street" v="Winter Meadow"/>
    <tag k="addr:state" v="VT"/>
    <tag k="ref:vcgi:esiteid" v="8734"/>
  </node>
  <node id="-1019" visible="true" lat="44.200754814599" lon="-72.494732902917">
    <!-- conflict: "12 Winter Meadow, Barre, VT" Fuzzy match to "12 Winter Meadows, Barre, VT" -->
    <tag k="addr:city" v="Barre"/>
    <tag k="addr:housenumber" v="12"/>
    <tag k="addr:street" v="Winter Meadow"/>
    <tag k="addr:state" v="VT"/>
    <tag k="ref:vcgi:esiteid" v="8770"/>
  </node>
  <node id="-1042" visible="true" lat="44.200654075175" lon="-72.494198268426">
    <!-- conflict: "11 Winter Meadow, Barre, VT" Fuzzy match to "11 Winter Meadows, Barre, VT" -->
    <tag k="addr:city" v="Barre"/>
    <tag k="addr:housenumber" v="11"/>
    <tag k="addr:street" v="Winter Meadow"/>
    <tag k="addr:state" v="VT"/>
    <tag k="ref:vcgi:esiteid" v="8796"/>
  </node>
  <node id="-1077" visible="true" lat="44.200510358992" lon="-72.494812944484">
    <!-- conflict: "8 Winter Meadow, Barre, VT" Fuzzy match to "8 Winter Meadows, Barre, VT" -->
    <tag k="addr:city" v="Barre"/>
    <tag k="addr:housenumber" v="8"/>
    <tag k="addr:street" v="Winter Meadow"/>
    <tag k="addr:state" v="VT"/>
    <tag k="ref:vcgi:esiteid" v="8834"/>
  </node>
  <node id="-1101" visible="true" lat="44.20037967624" lon="-72.494330842777">
    <!-- conflict: "7 Winter Meadow, Barre, VT" Fuzzy match to "7 Winter Meadows, Barre, VT" -->
    <tag k="addr:city" v="Barre"/>
    <tag k="addr:housenumber" v="7"/>
    <tag k="addr:street" v="Winter Meadow"/>
    <tag k="addr:state" v="VT"/>
    <tag k="ref:vcgi:esiteid" v="8862"/>
  </node>
  <node id="-1143" visible="true" lat="44.200163566281" lon="-72.494395573784">
    <!-- conflict: "3 Winter Meadow, Barre, VT" Fuzzy match to "3 Winter Meadows, Barre, VT" -->
    <tag k="addr:city" v="Barre"/>
    <tag k="addr:housenumber" v="3"/>
    <tag k="addr:street" v="Winter Meadow"/>
    <tag k="addr:state" v="VT"/>
    <tag k="ref:vcgi:esiteid" v="8907"/>
  </node>
</osm>
