<?xml version="1.0" encoding="UTF-8"?>
<osm version="0.6" generator="JOSM" upload="false">
  <node id="-2899" visible="true" lat="44.156197115168" lon="-72.446565231141">
    <tag k="addr:city" v="East Barre"/>
    <tag k="addr:housenumber" v="22"/>
    <tag k="addr:street" v="East Allen Street"/>
    <tag k="addr:state" v="VT"/>
    <tag k="ref:vcgi:esiteid" v="13868"/>
  </node>
  <node id="-3533" visible="true" lat="44.196672019886" lon="-72.478272855122">
    <tag k="addr:city" v="Barre"/>
    <tag k="addr:housenumber" v="71"/>
    <tag k="addr:street" v="Windy Wood Road"/>
    <tag k="addr:state" v="VT"/>
    <tag k="ref:vcgi:esiteid" v="656756"/>
  </node>
  <node id="-3817" visible="true" lat="44.167206292493" lon="-72.470770003463">
    <tag k="addr:city" v="Barre"/>
    <tag k="addr:housenumber" v="223"/>
    <tag k="addr:street" v="Websterville Road"/>
    <tag k="addr:state" v="VT"/>
    <tag k="ref:vcgi:esiteid" v="773102"/>
  </node>
  <node id="-3822" visible="true" lat="44.163228027477" lon="-72.492339709975">
    <tag k="addr:city" v="Granitville"/>
    <tag k="addr:housenumber" v="437"/>
    <tag k="addr:street" v="Graniteville Road"/>
    <tag k="addr:state" v="VT"/>
    <tag k="ref:vcgi:esiteid" v="773560"/>
  </node>
  <node id="-3823" visible="true" lat="44.205178776577" lon="-72.477774875049">
    <tag k="addr:city" v="Barre"/>
    <tag k="addr:housenumber" v="29"/>
    <tag k="addr:street" v="Countryside Drive"/>
    <tag k="addr:state" v="VT"/>
    <tag k="ref:vcgi:esiteid" v="773648"/>
  </node>
  <node id="-3824" visible="true" lat="44.167692927749" lon="-72.515687363922">
    <tag k="addr:city" v="Barre"/>
    <tag k="addr:housenumber" v="55"/>
    <tag k="addr:street" v="Snowbridge Road"/>
    <tag k="addr:state" v="VT"/>
    <tag k="ref:vcgi:esiteid" v="773652"/>
  </node>
  <node id="-3825" visible="true" lat="44.179109133979" lon="-72.464547258695">
    <tag k="addr:city" v="Barre"/>
    <tag k="addr:housenumber" v="90"/>
    <tag k="addr:street" v="East Cobble Hill Road"/>
    <tag k="addr:state" v="VT"/>
    <tag k="ref:vcgi:esiteid" v="773799"/>
  </node>
</osm>
