<?xml version="1.0" encoding="UTF-8"?>
<osm version="0.6" generator="JOSM" upload="false">
  <node id="-364" visible="true" lat="44.763150618824" lon="-72.642242863679">
    <tag k="addr:city" v="Belvidere Center"/>
    <tag k="addr:housenumber" v="1000"/>
    <tag k="addr:street" v="109"/>
    <tag k="addr:state" v="VT"/>
    <tag k="ref:vcgi:esiteid" v="773572"/>
  </node>
  <node id="-365" visible="true" lat="44.762986759491" lon="-72.643101280442">
    <tag k="addr:city" v="Belvidere Center"/>
    <tag k="addr:housenumber" v="1028"/>
    <tag k="addr:street" v="109"/>
    <tag k="addr:state" v="VT"/>
    <tag k="ref:vcgi:esiteid" v="773573"/>
  </node>
  <node id="-367" visible="true" lat="44.77882852636" lon="-72.625960480228">
    <tag k="addr:city" v="Belvidere Center"/>
    <tag k="addr:housenumber" v="751"/>
    <tag k="addr:street" v="118 North"/>
    <tag k="addr:state" v="VT"/>
    <tag k="ref:vcgi:esiteid" v="773856"/>
  </node>
</osm>
