<?xml version="1.0" encoding="UTF-8"?>
<osm version="0.6" generator="JOSM" upload="false">
  <node id="-4546" visible="true" lat="42.866351033267" lon="-73.195213075537">
    <tag k="addr:city" v="Bennington"/>
    <tag k="addr:housenumber" v="10"/>
    <tag k="addr:street" v="United States Route 7 South"/>
    <tag k="addr:state" v="VT"/>
    <tag k="ref:vcgi:esiteid" v="20921"/>
  </node>
  <node id="-4610" visible="true" lat="42.86231739089" lon="-73.199347644821">
    <tag k="addr:city" v="Bennington"/>
    <tag k="addr:housenumber" v="349"/>
    <tag k="addr:street" v="United States Route 7 South"/>
    <tag k="addr:state" v="VT"/>
    <tag k="ref:vcgi:esiteid" v="20986"/>
  </node>
  <node id="-4618" visible="true" lat="42.862043440798" lon="-73.19851185658">
    <tag k="addr:city" v="Bennington"/>
    <tag k="addr:housenumber" v="357"/>
    <tag k="addr:street" v="United States Route 7 South"/>
    <tag k="addr:state" v="VT"/>
    <tag k="ref:vcgi:esiteid" v="20994"/>
  </node>
  <node id="-4628" visible="true" lat="42.861615293022" lon="-73.198777567804">
    <tag k="addr:city" v="Bennington"/>
    <tag k="addr:housenumber" v="413"/>
    <tag k="addr:street" v="United States Route 7 South"/>
    <tag k="addr:state" v="VT"/>
    <tag k="ref:vcgi:esiteid" v="21004"/>
  </node>
  <node id="-4659" visible="true" lat="42.858171370668" lon="-73.202228805795">
    <tag k="addr:city" v="Bennington"/>
    <tag k="addr:housenumber" v="693"/>
    <tag k="addr:street" v="United States Route 7 South"/>
    <tag k="addr:state" v="VT"/>
    <tag k="ref:vcgi:esiteid" v="21035"/>
  </node>
  <node id="-4661" visible="true" lat="42.857648969851" lon="-73.202526596574">
    <tag k="addr:city" v="Bennington"/>
    <tag k="addr:housenumber" v="709"/>
    <tag k="addr:street" v="United States Route 7 South"/>
    <tag k="addr:state" v="VT"/>
    <tag k="ref:vcgi:esiteid" v="21037"/>
  </node>
  <node id="-4669" visible="true" lat="42.857027615633" lon="-73.202925574772">
    <tag k="addr:city" v="Bennington"/>
    <tag k="addr:housenumber" v="767"/>
    <tag k="addr:street" v="United States Route 7 South"/>
    <tag k="addr:state" v="VT"/>
    <tag k="ref:vcgi:esiteid" v="21045"/>
  </node>
  <node id="-5843" visible="true" lat="42.855466639439" lon="-73.204147682116">
    <tag k="addr:city" v="Bennington"/>
    <tag k="addr:housenumber" v="885"/>
    <tag k="addr:street" v="United States Route 7 South"/>
    <tag k="addr:state" v="VT"/>
    <tag k="ref:vcgi:esiteid" v="617947"/>
  </node>
  <node id="-5897" visible="true" lat="42.854625982641" lon="-73.202200430128">
    <tag k="addr:city" v="Bennington"/>
    <tag k="addr:housenumber" v="922"/>
    <tag k="addr:street" v="United States Route 7 South"/>
    <tag k="addr:state" v="VT"/>
    <tag k="ref:vcgi:esiteid" v="750345"/>
  </node>
  <node id="-5995" visible="true" lat="42.854937472771" lon="-73.257938058968">
    <tag k="addr:city" v="Bennington"/>
    <tag k="addr:housenumber" v="991"/>
    <tag k="addr:street" v="Horst Road"/>
    <tag k="addr:state" v="VT"/>
    <tag k="ref:vcgi:esiteid" v="762142"/>
  </node>
  <node id="-6067" visible="true" lat="42.875588354047" lon="-73.18752097008">
    <tag k="addr:city" v="Bennington"/>
    <tag k="addr:housenumber" v="39"/>
    <tag k="addr:street" v="Wentworth Way"/>
    <tag k="addr:state" v="VT"/>
    <tag k="ref:vcgi:esiteid" v="773046"/>
  </node>
  <node id="-6069" visible="true" lat="42.861113990167" lon="-73.165551843859">
    <tag k="addr:city" v="Bennington"/>
    <tag k="addr:housenumber" v="332"/>
    <tag k="addr:street" v="Sunset Drive"/>
    <tag k="addr:state" v="VT"/>
    <tag k="ref:vcgi:esiteid" v="773072"/>
  </node>
  <node id="-6070" visible="true" lat="42.879665373651" lon="-73.207246134704">
    <tag k="addr:city" v="Bennington"/>
    <tag k="addr:housenumber" v="22"/>
    <tag k="addr:street" v="Lyle Drive"/>
    <tag k="addr:state" v="VT"/>
    <tag k="ref:vcgi:esiteid" v="773075"/>
  </node>
  <node id="-6071" visible="true" lat="42.879749957685" lon="-73.20728447166">
    <tag k="addr:city" v="Bennington"/>
    <tag k="addr:housenumber" v="26"/>
    <tag k="addr:street" v="Lyle Drive"/>
    <tag k="addr:state" v="VT"/>
    <tag k="ref:vcgi:esiteid" v="773076"/>
  </node>
  <node id="-6072" visible="true" lat="42.879822793323" lon="-73.207326003886">
    <tag k="addr:city" v="Bennington"/>
    <tag k="addr:housenumber" v="32"/>
    <tag k="addr:street" v="Lyle Drive"/>
    <tag k="addr:state" v="VT"/>
    <tag k="ref:vcgi:esiteid" v="773077"/>
  </node>
  <node id="-6073" visible="true" lat="42.879902678307" lon="-73.207364341229">
    <tag k="addr:city" v="Bennington"/>
    <tag k="addr:housenumber" v="36"/>
    <tag k="addr:street" v="Lyle Drive"/>
    <tag k="addr:state" v="VT"/>
    <tag k="ref:vcgi:esiteid" v="773078"/>
  </node>
  <node id="-6074" visible="true" lat="42.879963766946" lon="-73.207389900448">
    <tag k="addr:city" v="Bennington"/>
    <tag k="addr:housenumber" v="42"/>
    <tag k="addr:street" v="Lyle Drive"/>
    <tag k="addr:state" v="VT"/>
    <tag k="ref:vcgi:esiteid" v="773079"/>
  </node>
  <node id="-6075" visible="true" lat="42.880067146477" lon="-73.207447405503">
    <tag k="addr:city" v="Bennington"/>
    <tag k="addr:housenumber" v="46"/>
    <tag k="addr:street" v="Lyle Drive"/>
    <tag k="addr:state" v="VT"/>
    <tag k="ref:vcgi:esiteid" v="773080"/>
  </node>
  <node id="-6076" visible="true" lat="42.868187256059" lon="-73.199180547439">
    <tag k="addr:city" v="Bennington"/>
    <tag k="addr:housenumber" v="26"/>
    <tag k="addr:street" v="Greenview Drive"/>
    <tag k="addr:state" v="VT"/>
    <tag k="ref:vcgi:esiteid" v="773244"/>
  </node>
  <node id="-6077" visible="true" lat="42.908364322274" lon="-73.209606869582">
    <tag k="addr:city" v="Bennington"/>
    <tag k="addr:housenumber" v="493"/>
    <tag k="addr:street" v="Harwood Hill Road"/>
    <tag k="addr:state" v="VT"/>
    <tag k="ref:vcgi:esiteid" v="773396"/>
  </node>
  <node id="-6078" visible="true" lat="42.891714314128" lon="-73.1787722146">
    <tag k="addr:city" v="Bennington"/>
    <tag k="addr:housenumber" v="455"/>
    <tag k="addr:street" v="North Branch Street"/>
    <tag k="addr:state" v="VT"/>
    <tag k="ref:vcgi:esiteid" v="773932"/>
  </node>
  <node id="-6079" visible="true" lat="42.89215599866" lon="-73.180983455833">
    <tag k="addr:city" v="Bennington"/>
    <tag k="addr:housenumber" v="251"/>
    <tag k="addr:street" v="Chapel Road"/>
    <tag k="addr:state" v="VT"/>
    <tag k="ref:vcgi:esiteid" v="773933"/>
  </node>
</osm>
