<?xml version="1.0" encoding="UTF-8"?>
<osm version="0.6" generator="JOSM" upload="false">
  <node id="-1212" visible="true" lat="43.817863570403" lon="-72.642785172828">
    <tag k="addr:city" v="Bethel"/>
    <tag k="addr:housenumber" v="1192"/>
    <tag k="addr:street" v="Peavine Boulevard"/>
    <tag k="addr:state" v="VT"/>
    <tag k="ref:vcgi:esiteid" v="773791"/>
  </node>
  <node id="-1489" visible="true" lat="43.831602132708" lon="-72.635011951791">
    <tag k="addr:city" v="Bethel"/>
    <tag k="addr:housenumber" v="95"/>
    <tag k="addr:street" v="Church Street"/>
    <tag k="addr:state" v="VT"/>
    <tag k="ref:vcgi:esiteid" v="1052121"/>
  </node>
</osm>
