<?xml version="1.0" encoding="UTF-8"?>
<osm version="0.6" generator="JOSM" upload="false">
  <node id="-1974" visible="true" lat="43.81205617" lon="-73.09284423">
    <tag k="addr:city" v="Brandon"/>
    <tag k="addr:housenumber" v="884"/>
    <tag k="addr:street" v="Prospect Street"/>
    <tag k="addr:state" v="VT"/>
    <tag k="ref:vcgi:esiteid" v="656585"/>
  </node>
  <node id="-1975" visible="true" lat="43.81117934" lon="-73.04283351">
    <tag k="addr:city" v="Brandon"/>
    <tag k="addr:housenumber" v="686"/>
    <tag k="addr:street" v="Van Cortland Road"/>
    <tag k="addr:state" v="VT"/>
    <tag k="ref:vcgi:esiteid" v="656586"/>
  </node>
</osm>
