<?xml version="1.0" encoding="UTF-8"?>
<osm version="0.6" generator="JOSM" upload="false">
  <node id="-1727" visible="true" lat="44.100601993273" lon="-73.097425636827">
    <tag k="addr:city" v="Bristol"/>
    <tag k="addr:housenumber" v="2008"/>
    <tag k="addr:street" v="South 116 Road"/>
    <tag k="addr:state" v="VT"/>
    <tag k="ref:vcgi:esiteid" v="656754"/>
  </node>
  <node id="-1913" visible="true" lat="44.085347455619" lon="-73.089804803599">
    <tag k="addr:city" v="Bristol"/>
    <tag k="addr:housenumber" v="3282"/>
    <tag k="addr:street" v="South 116 Road"/>
    <tag k="addr:state" v="VT"/>
    <tag k="ref:vcgi:esiteid" v="773386"/>
  </node>
  <node id="-1914" visible="true" lat="44.106646296148" lon="-73.096129683863">
    <tag k="addr:city" v="Bristol"/>
    <tag k="addr:housenumber" v="1569"/>
    <tag k="addr:street" v="South 116 Road"/>
    <tag k="addr:state" v="VT"/>
    <tag k="ref:vcgi:esiteid" v="773921"/>
  </node>
</osm>
