<?xml version="1.0" encoding="UTF-8"?>
<osm version="0.6" generator="JOSM" upload="false">
  <node id="-705" visible="true" lat="44.870530115671" lon="-72.161589158445">
    <tag k="addr:city" v="Orleans"/>
    <tag k="addr:housenumber" v="964"/>
    <tag k="addr:street" v="Hinman Settler Road"/>
    <tag k="addr:state" v="VT"/>
    <tag k="ref:vcgi:esiteid" v="656490"/>
  </node>
  <node id="-706" visible="true" lat="44.860924873539" lon="-72.162942884991">
    <tag k="addr:city" v="Orleans"/>
    <tag k="addr:housenumber" v="53"/>
    <tag k="addr:street" v="Parker Road"/>
    <tag k="addr:state" v="VT"/>
    <tag k="ref:vcgi:esiteid" v="656819"/>
  </node>
  <node id="-707" visible="true" lat="44.821998824177" lon="-72.17238967409">
    <tag k="addr:city" v="Orleans"/>
    <tag k="addr:housenumber" v="434"/>
    <tag k="addr:street" v="Hinman Settler Road"/>
    <tag k="addr:state" v="VT"/>
    <tag k="ref:vcgi:esiteid" v="656820"/>
  </node>
  <node id="-708" visible="true" lat="44.820711227069" lon="-72.073086836441">
    <tag k="addr:city" v="Orleans"/>
    <tag k="addr:housenumber" v="2654"/>
    <tag k="addr:street" v="Willoughby Lake Road"/>
    <tag k="addr:state" v="VT"/>
    <tag k="ref:vcgi:esiteid" v="656821"/>
  </node>
  <node id="-709" visible="true" lat="44.807437651938" lon="-72.080234482609">
    <tag k="addr:city" v="Orleans"/>
    <tag k="addr:housenumber" v="1620"/>
    <tag k="addr:street" v="Willoughby Lake Road"/>
    <tag k="addr:state" v="VT"/>
    <tag k="ref:vcgi:esiteid" v="656822"/>
  </node>
</osm>
