<?xml version="1.0" encoding="UTF-8"?>
<osm version="0.6" generator="JOSM" upload="false">
  <node id="-100" visible="true" lat="44.226014753134" lon="-72.963802492159">
    <!-- conflict: "930 Gore Road, Starksboro, VT" Fuzzy match to "930 Gore Road, Buel's Gore, VT" -->
    <tag k="addr:city" v="Starksboro"/>
    <tag k="addr:housenumber" v="930"/>
    <tag k="addr:street" v="Gore Road"/>
    <tag k="addr:state" v="VT"/>
    <tag k="ref:vcgi:esiteid" v="41804"/>
  </node>
  <node id="-101" visible="true" lat="44.223216745396" lon="-72.950543922503">
    <!-- conflict: "352 Old County Road, Starksboro, VT" Fuzzy match to "352 Old County Road, Buel's Gore, VT" -->
    <tag k="addr:city" v="Starksboro"/>
    <tag k="addr:housenumber" v="352"/>
    <tag k="addr:street" v="Old County Road"/>
    <tag k="addr:state" v="VT"/>
    <tag k="ref:vcgi:esiteid" v="41805"/>
  </node>
  <node id="-102" visible="true" lat="44.223077168726" lon="-72.95115834736">
    <!-- conflict: "350 Old County Road, Starksboro, VT" Fuzzy match to "350 Old County Road, Buel's Gore, VT" -->
    <tag k="addr:city" v="Starksboro"/>
    <tag k="addr:housenumber" v="350"/>
    <tag k="addr:street" v="Old County Road"/>
    <tag k="addr:state" v="VT"/>
    <tag k="ref:vcgi:esiteid" v="41806"/>
  </node>
  <node id="-103" visible="true" lat="44.221412193596" lon="-72.95186688909">
    <!-- conflict: "6339 Vermont Route 17, Starksboro, VT" Fuzzy match to "6339 Vermont Route 17, Buel's Gore, VT" -->
    <tag k="addr:city" v="Starksboro"/>
    <tag k="addr:housenumber" v="6339"/>
    <tag k="addr:street" v="Vermont Route 17"/>
    <tag k="addr:state" v="VT"/>
    <tag k="ref:vcgi:esiteid" v="41807"/>
  </node>
  <node id="-104" visible="true" lat="44.221177469531" lon="-72.963372615327">
    <!-- conflict: "578 Gore Road, Starksboro, VT" Fuzzy match to "578 Gore Road, Buel's Gore, VT" -->
    <tag k="addr:city" v="Starksboro"/>
    <tag k="addr:housenumber" v="578"/>
    <tag k="addr:street" v="Gore Road"/>
    <tag k="addr:state" v="VT"/>
    <tag k="ref:vcgi:esiteid" v="41808"/>
  </node>
  <node id="-105" visible="true" lat="44.220670908044" lon="-72.95484495655">
    <!-- conflict: "129 Old County Road, Starksboro, VT" Fuzzy match to "129 Old County Road, Buel's Gore, VT" -->
    <tag k="addr:city" v="Starksboro"/>
    <tag k="addr:housenumber" v="129"/>
    <tag k="addr:street" v="Old County Road"/>
    <tag k="addr:state" v="VT"/>
    <tag k="ref:vcgi:esiteid" v="41809"/>
  </node>
  <node id="-106" visible="true" lat="44.216548931195" lon="-72.953304777246">
    <!-- conflict: "6164 Vermont Route 17, Starksboro, VT" Fuzzy match to "6164 Vermont Route 17, Buel's Gore, VT" -->
    <tag k="addr:city" v="Starksboro"/>
    <tag k="addr:housenumber" v="6164"/>
    <tag k="addr:street" v="Vermont Route 17"/>
    <tag k="addr:state" v="VT"/>
    <tag k="ref:vcgi:esiteid" v="41810"/>
  </node>
  <node id="-107" visible="true" lat="44.215452258701" lon="-72.958041990691">
    <!-- conflict: "5904 Vermont Route 17, Starksboro, VT" Fuzzy match to "5904 Vermont Route 17, Buel's Gore, VT" -->
    <tag k="addr:city" v="Starksboro"/>
    <tag k="addr:housenumber" v="5904"/>
    <tag k="addr:street" v="Vermont Route 17"/>
    <tag k="addr:state" v="VT"/>
    <tag k="ref:vcgi:esiteid" v="41811"/>
  </node>
  <node id="-108" visible="true" lat="44.214910498458" lon="-72.960373931151">
    <!-- conflict: "5720 Vermont Route 17, Starksboro, VT" Fuzzy match to "5720 Vermont Route 17, Buel's Gore, VT" -->
    <tag k="addr:city" v="Starksboro"/>
    <tag k="addr:housenumber" v="5720"/>
    <tag k="addr:street" v="Vermont Route 17"/>
    <tag k="addr:state" v="VT"/>
    <tag k="ref:vcgi:esiteid" v="41812"/>
  </node>
  <node id="-109" visible="true" lat="44.21122656453" lon="-72.931477653902">
    <!-- conflict: "7903 Vermont Route 17, Starksboro, VT" Fuzzy match to "7903 Vermont Route 17, Buel's Gore, VT" -->
    <tag k="addr:city" v="Starksboro"/>
    <tag k="addr:housenumber" v="7903"/>
    <tag k="addr:street" v="Vermont Route 17"/>
    <tag k="addr:state" v="VT"/>
    <tag k="ref:vcgi:esiteid" v="41813"/>
  </node>
  <node id="-110" visible="true" lat="44.210789702753" lon="-72.960608970111">
    <!-- conflict: "253 Stave Brook Drive, Starksboro, VT" Fuzzy match to "253 Stave Brook Drive, Buel's Gore, VT" -->
    <tag k="addr:city" v="Starksboro"/>
    <tag k="addr:housenumber" v="253"/>
    <tag k="addr:street" v="Stave Brook Drive"/>
    <tag k="addr:state" v="VT"/>
    <tag k="ref:vcgi:esiteid" v="41815"/>
  </node>
  <node id="-111" visible="true" lat="44.211416510321" lon="-72.960522259131">
    <!-- conflict: "245 Stave Brook Drive, Starksboro, VT" Fuzzy match to "245 Stave Brook Drive, Buel's Gore, VT" -->
    <tag k="addr:city" v="Starksboro"/>
    <tag k="addr:housenumber" v="245"/>
    <tag k="addr:street" v="Stave Brook Drive"/>
    <tag k="addr:state" v="VT"/>
    <tag k="ref:vcgi:esiteid" v="41816"/>
  </node>
  <node id="-112" visible="true" lat="44.220728316538" lon="-72.948661554866">
    <!-- conflict: "6469 Vermont Route 17, Starksboro, VT" Fuzzy match to "6469 Vermont Route 17, Buel's Gore, VT" -->
    <tag k="addr:city" v="Starksboro"/>
    <tag k="addr:housenumber" v="6469"/>
    <tag k="addr:street" v="Vermont Route 17"/>
    <tag k="addr:state" v="VT"/>
    <tag k="ref:vcgi:esiteid" v="41817"/>
  </node>
  <node id="-113" visible="true" lat="44.223954120407" lon="-72.963318056227">
    <!-- conflict: "840 Gore Road, Starksboro, VT" Fuzzy match to "840 Gore Road, Buel's Gore, VT" -->
    <tag k="addr:city" v="Starksboro"/>
    <tag k="addr:housenumber" v="840"/>
    <tag k="addr:street" v="Gore Road"/>
    <tag k="addr:state" v="VT"/>
    <tag k="ref:vcgi:esiteid" v="41818"/>
  </node>
  <node id="-114" visible="true" lat="44.226070662784" lon="-72.964251203953">
    <!-- conflict: "928 Gore Road, Starksboro, VT" Fuzzy match to "928 Gore Road, Buel's Gore, VT" -->
    <tag k="addr:city" v="Starksboro"/>
    <tag k="addr:housenumber" v="928"/>
    <tag k="addr:street" v="Gore Road"/>
    <tag k="addr:state" v="VT"/>
    <tag k="ref:vcgi:esiteid" v="248644"/>
  </node>
  <node id="-115" visible="true" lat="44.217788978756" lon="-72.952716288955">
    <!-- conflict: "6174 Vermont Route 17, Starksboro, VT" Fuzzy match to "6174 Vermont Route 17, Buel's Gore, VT" -->
    <tag k="addr:city" v="Starksboro"/>
    <tag k="addr:housenumber" v="6174"/>
    <tag k="addr:street" v="Vermont Route 17"/>
    <tag k="addr:state" v="VT"/>
    <tag k="ref:vcgi:esiteid" v="344297"/>
  </node>
  <node id="-116" visible="true" lat="44.229966014458" lon="-72.964366181375">
    <!-- conflict: "1190 Gore Road, Starksboro, VT" Fuzzy match to "1190 Gore Road, Buel's Gore, VT" -->
    <tag k="addr:city" v="Starksboro"/>
    <tag k="addr:housenumber" v="1190"/>
    <tag k="addr:street" v="Gore Road"/>
    <tag k="addr:state" v="VT"/>
    <tag k="ref:vcgi:esiteid" v="759068"/>
  </node>
  <node id="-117" visible="true" lat="44.230857969206" lon="-72.964554019441">
    <!-- conflict: "1250 Gore Road, Starksboro, VT" Fuzzy match to "1250 Gore Road, Buel's Gore, VT" -->
    <tag k="addr:city" v="Starksboro"/>
    <tag k="addr:housenumber" v="1250"/>
    <tag k="addr:street" v="Gore Road"/>
    <tag k="addr:state" v="VT"/>
    <tag k="ref:vcgi:esiteid" v="759069"/>
  </node>
  <node id="-118" visible="true" lat="44.215822037067" lon="-72.95520656806">
    <!-- conflict: "6162 Vermont Route 17, Starksboro, VT" Fuzzy match to "6162 Vermont Route 17, Buel's Gore, VT" -->
    <tag k="addr:city" v="Starksboro"/>
    <tag k="addr:housenumber" v="6162"/>
    <tag k="addr:street" v="Vermont Route 17"/>
    <tag k="addr:state" v="VT"/>
    <tag k="ref:vcgi:esiteid" v="759384"/>
  </node>
  <node id="-119" visible="true" lat="44.198565803558" lon="-72.935655873796">
    <!-- conflict: "7884 Vermont Route 17, Waitsfield, VT" Fuzzy match to "7884 Vermont Route 17, Buel's Gore, VT" -->
    <tag k="addr:city" v="Waitsfield"/>
    <tag k="addr:housenumber" v="7884"/>
    <tag k="addr:street" v="Vermont Route 17"/>
    <tag k="addr:state" v="VT"/>
    <tag k="ref:vcgi:esiteid" v="1050801"/>
  </node>
</osm>
