<?xml version="1.0" encoding="UTF-8"?>
<osm version="0.6" generator="JOSM" upload="false">
  <node id="-217" visible="true" lat="44.641797543561" lon="-71.981858340849">
    <tag k="addr:city" v="West Burke"/>
    <tag k="addr:housenumber" v="4156"/>
    <tag k="addr:street" v="United States Route 5"/>
    <tag k="addr:state" v="VT"/>
    <tag k="ref:vcgi:esiteid" v="41937"/>
  </node>
  <node id="-224" visible="true" lat="44.641505852753" lon="-71.979134420447">
    <tag k="addr:city" v="West Burke"/>
    <tag k="addr:housenumber" v="4040"/>
    <tag k="addr:street" v="United States Route 5"/>
    <tag k="addr:state" v="VT"/>
    <tag k="ref:vcgi:esiteid" v="41946"/>
  </node>
  <node id="-225" visible="true" lat="44.641465448839" lon="-71.981651397353">
    <tag k="addr:city" v="West Burke"/>
    <tag k="addr:housenumber" v="4155"/>
    <tag k="addr:street" v="United States Route 5"/>
    <tag k="addr:state" v="VT"/>
    <tag k="ref:vcgi:esiteid" v="41947"/>
  </node>
  <node id="-227" visible="true" lat="44.641544309635" lon="-71.983688727873">
    <tag k="addr:city" v="West Burke"/>
    <tag k="addr:housenumber" v="4249"/>
    <tag k="addr:street" v="United States Route 5"/>
    <tag k="addr:state" v="VT"/>
    <tag k="ref:vcgi:esiteid" v="41949"/>
  </node>
  <node id="-232" visible="true" lat="44.641149045665" lon="-71.978905763393">
    <tag k="addr:city" v="West Burke"/>
    <tag k="addr:housenumber" v="4020"/>
    <tag k="addr:street" v="United States Route 5"/>
    <tag k="addr:state" v="VT"/>
    <tag k="ref:vcgi:esiteid" v="41954"/>
  </node>
  <node id="-237" visible="true" lat="44.640855315215" lon="-71.978753176226">
    <tag k="addr:city" v="West Burke"/>
    <tag k="addr:housenumber" v="3996"/>
    <tag k="addr:street" v="United States Route 5"/>
    <tag k="addr:state" v="VT"/>
    <tag k="ref:vcgi:esiteid" v="41960"/>
  </node>
  <node id="-241" visible="true" lat="44.64071628421" lon="-71.979167333453">
    <tag k="addr:city" v="West Burke"/>
    <tag k="addr:housenumber" v="3995"/>
    <tag k="addr:street" v="United States Route 5"/>
    <tag k="addr:state" v="VT"/>
    <tag k="ref:vcgi:esiteid" v="41965"/>
  </node>
  <node id="-244" visible="true" lat="44.640454770931" lon="-71.978974429071">
    <tag k="addr:city" v="West Burke"/>
    <tag k="addr:housenumber" v="3979"/>
    <tag k="addr:street" v="United States Route 5"/>
    <tag k="addr:state" v="VT"/>
    <tag k="ref:vcgi:esiteid" v="41968"/>
  </node>
  <node id="-257" visible="true" lat="44.639195919852" lon="-71.978463258785">
    <tag k="addr:city" v="West Burke"/>
    <tag k="addr:housenumber" v="3887"/>
    <tag k="addr:street" v="United States Route 5"/>
    <tag k="addr:state" v="VT"/>
    <tag k="ref:vcgi:esiteid" v="41981"/>
  </node>
  <node id="-274" visible="true" lat="44.637924595583" lon="-71.978281278365">
    <tag k="addr:city" v="West Burke"/>
    <tag k="addr:housenumber" v="3799"/>
    <tag k="addr:street" v="United States Route 5"/>
    <tag k="addr:state" v="VT"/>
    <tag k="ref:vcgi:esiteid" v="41998"/>
  </node>
  <node id="-279" visible="true" lat="44.637942004946" lon="-71.977770986203">
    <tag k="addr:city" v="West Burke"/>
    <tag k="addr:housenumber" v="3786"/>
    <tag k="addr:street" v="United States Route 5"/>
    <tag k="addr:state" v="VT"/>
    <tag k="ref:vcgi:esiteid" v="42003"/>
  </node>
  <node id="-449" visible="true" lat="44.618527938858" lon="-71.971745357104">
    <tag k="addr:city" v="West Burke"/>
    <tag k="addr:housenumber" v="2316"/>
    <tag k="addr:street" v="United States Route 5"/>
    <tag k="addr:state" v="VT"/>
    <tag k="ref:vcgi:esiteid" v="42177"/>
  </node>
  <node id="-1157" visible="true" lat="44.594617716155" lon="-71.957138421833">
    <tag k="addr:city" v="West Burke"/>
    <tag k="addr:housenumber" v="3745"/>
    <tag k="addr:street" v="Darling Hill Road"/>
    <tag k="addr:state" v="VT"/>
    <tag k="ref:vcgi:esiteid" v="656621"/>
  </node>
  <node id="-1158" visible="true" lat="44.59858333274" lon="-71.959777780274">
    <tag k="addr:city" v="West Burke"/>
    <tag k="addr:housenumber" v="625"/>
    <tag k="addr:street" v="West Darling Hill Road"/>
    <tag k="addr:state" v="VT"/>
    <tag k="ref:vcgi:esiteid" v="656622"/>
  </node>
  <node id="-1159" visible="true" lat="44.602916667419" lon="-71.968361110246">
    <tag k="addr:city" v="West Burke"/>
    <tag k="addr:housenumber" v="48"/>
    <tag k="addr:street" v="West Darling Hill Road"/>
    <tag k="addr:state" v="VT"/>
    <tag k="ref:vcgi:esiteid" v="656623"/>
  </node>
  <node id="-1160" visible="true" lat="44.588974131524" lon="-71.955865682392">
    <tag k="addr:city" v="East Burke"/>
    <tag k="addr:housenumber" v="565"/>
    <tag k="addr:street" v="East Darling Hill Road"/>
    <tag k="addr:state" v="VT"/>
    <tag k="ref:vcgi:esiteid" v="656624"/>
  </node>
  <node id="-1161" visible="true" lat="44.589138888974" lon="-71.949722220508">
    <tag k="addr:city" v="East Burke"/>
    <tag k="addr:housenumber" v="245"/>
    <tag k="addr:street" v="Garden Drive"/>
    <tag k="addr:state" v="VT"/>
    <tag k="ref:vcgi:esiteid" v="656625"/>
  </node>
  <node id="-1162" visible="true" lat="44.594805556284" lon="-71.945222219583">
    <tag k="addr:city" v="East Burke"/>
    <tag k="addr:housenumber" v="46"/>
    <tag k="addr:street" v="Sweetwater Lane"/>
    <tag k="addr:state" v="VT"/>
    <tag k="ref:vcgi:esiteid" v="656626"/>
  </node>
  <node id="-1163" visible="true" lat="44.596839979303" lon="-71.942333010697">
    <tag k="addr:city" v="East Burke"/>
    <tag k="addr:housenumber" v="642"/>
    <tag k="addr:street" v="Burke Hollow Road"/>
    <tag k="addr:state" v="VT"/>
    <tag k="ref:vcgi:esiteid" v="656627"/>
  </node>
  <node id="-1164" visible="true" lat="44.607055556361" lon="-71.937250000067">
    <tag k="addr:city" v="East Burke"/>
    <tag k="addr:housenumber" v="1400"/>
    <tag k="addr:street" v="Burke Hollow Road"/>
    <tag k="addr:state" v="VT"/>
    <tag k="ref:vcgi:esiteid" v="656628"/>
  </node>
  <node id="-1165" visible="true" lat="44.610833332776" lon="-71.916944440565">
    <tag k="addr:city" v="East Burke"/>
    <tag k="addr:housenumber" v="95"/>
    <tag k="addr:street" v="White School Road"/>
    <tag k="addr:state" v="VT"/>
    <tag k="ref:vcgi:esiteid" v="656629"/>
  </node>
  <node id="-1166" visible="true" lat="44.612019716495" lon="-71.907012272041">
    <tag k="addr:city" v="East Burke"/>
    <tag k="addr:housenumber" v="126"/>
    <tag k="addr:street" v="Victory Road"/>
    <tag k="addr:state" v="VT"/>
    <tag k="ref:vcgi:esiteid" v="656630"/>
  </node>
  <node id="-1167" visible="true" lat="44.607611110871" lon="-71.906805559966">
    <tag k="addr:city" v="East Burke"/>
    <tag k="addr:housenumber" v="2800"/>
    <tag k="addr:street" v="Pinkham Road"/>
    <tag k="addr:state" v="VT"/>
    <tag k="ref:vcgi:esiteid" v="656631"/>
  </node>
  <node id="-1168" visible="true" lat="44.600037967828" lon="-71.890485673934">
    <tag k="addr:city" v="East Burke"/>
    <tag k="addr:housenumber" v="1752"/>
    <tag k="addr:street" v="Pinkham Road"/>
    <tag k="addr:state" v="VT"/>
    <tag k="ref:vcgi:esiteid" v="656632"/>
  </node>
  <node id="-1169" visible="true" lat="44.606421852712" lon="-71.883770828661">
    <tag k="addr:city" v="East Burke"/>
    <tag k="addr:housenumber" v="146"/>
    <tag k="addr:street" v="Joanne Drive"/>
    <tag k="addr:state" v="VT"/>
    <tag k="ref:vcgi:esiteid" v="656633"/>
  </node>
  <node id="-1170" visible="true" lat="44.598111110795" lon="-71.903138890486">
    <tag k="addr:city" v="East Burke"/>
    <tag k="addr:housenumber" v="814"/>
    <tag k="addr:street" v="Dashney Road"/>
    <tag k="addr:state" v="VT"/>
    <tag k="ref:vcgi:esiteid" v="656634"/>
  </node>
  <node id="-1171" visible="true" lat="44.590750715936" lon="-71.887981047795">
    <tag k="addr:city" v="East Burke"/>
    <tag k="addr:housenumber" v="902"/>
    <tag k="addr:street" v="Pinkham Road"/>
    <tag k="addr:state" v="VT"/>
    <tag k="ref:vcgi:esiteid" v="656635"/>
  </node>
  <node id="-1172" visible="true" lat="44.593416667338" lon="-71.913777780322">
    <tag k="addr:city" v="East Burke"/>
    <tag k="addr:housenumber" v="93"/>
    <tag k="addr:street" v="Dashney Road"/>
    <tag k="addr:state" v="VT"/>
    <tag k="ref:vcgi:esiteid" v="656636"/>
  </node>
  <node id="-1173" visible="true" lat="44.588361259" lon="-71.91287080339">
    <tag k="addr:city" v="East Burke"/>
    <tag k="addr:housenumber" v="267"/>
    <tag k="addr:street" v="High Meadow Road"/>
    <tag k="addr:state" v="VT"/>
    <tag k="ref:vcgi:esiteid" v="656637"/>
  </node>
  <node id="-1174" visible="true" lat="44.587072698644" lon="-71.903721012487">
    <tag k="addr:city" v="East Burke"/>
    <tag k="addr:housenumber" v="16"/>
    <tag k="addr:street" v="Mountain Brook Road"/>
    <tag k="addr:state" v="VT"/>
    <tag k="ref:vcgi:esiteid" v="656638"/>
  </node>
  <node id="-1175" visible="true" lat="44.583679735477" lon="-71.908968930575">
    <tag k="addr:city" v="East Burke"/>
    <tag k="addr:housenumber" v="440"/>
    <tag k="addr:street" v="Bear Path Lane"/>
    <tag k="addr:state" v="VT"/>
    <tag k="ref:vcgi:esiteid" v="656639"/>
  </node>
  <node id="-1176" visible="true" lat="44.583464279128" lon="-71.892609814985">
    <tag k="addr:city" v="East Burke"/>
    <tag k="addr:housenumber" v="671"/>
    <tag k="addr:street" v="Toll Road"/>
    <tag k="addr:state" v="VT"/>
    <tag k="ref:vcgi:esiteid" v="656640"/>
  </node>
  <node id="-1177" visible="true" lat="44.582711881368" lon="-71.892892902122">
    <tag k="addr:city" v="East Burke"/>
    <tag k="addr:housenumber" v="723"/>
    <tag k="addr:street" v="Toll Road"/>
    <tag k="addr:state" v="VT"/>
    <tag k="ref:vcgi:esiteid" v="656641"/>
  </node>
  <node id="-1178" visible="true" lat="44.570805555731" lon="-71.894916669786">
    <tag k="addr:city" v="East Burke"/>
    <tag k="addr:housenumber" v="2344"/>
    <tag k="addr:street" v="Toll Road"/>
    <tag k="addr:state" v="VT"/>
    <tag k="ref:vcgi:esiteid" v="656642"/>
  </node>
  <node id="-1179" visible="true" lat="44.625023580832" lon="-71.971902353277">
    <tag k="addr:city" v="West Burke"/>
    <tag k="addr:housenumber" v="2683"/>
    <tag k="addr:street" v="United States Route 5"/>
    <tag k="addr:state" v="VT"/>
    <tag k="ref:vcgi:esiteid" v="750022"/>
  </node>
  <node id="-1201" visible="true" lat="44.619034082535" lon="-71.970071240072">
    <tag k="addr:city" v="West Burke"/>
    <tag k="addr:housenumber" v="2372"/>
    <tag k="addr:street" v="United States Route 5"/>
    <tag k="addr:state" v="VT"/>
    <tag k="ref:vcgi:esiteid" v="755920"/>
  </node>
  <node id="-1266" visible="true" lat="44.636382920827" lon="-71.976287155821">
    <tag k="addr:city" v="West Burke"/>
    <tag k="addr:housenumber" v="3600"/>
    <tag k="addr:street" v="United States Route 5"/>
    <tag k="addr:state" v="VT"/>
    <tag k="ref:vcgi:esiteid" v="767680"/>
  </node>
  <node id="-1289" visible="true" lat="44.644432164151" lon="-71.947607570108">
    <tag k="addr:city" v="West Burke"/>
    <tag k="addr:housenumber" v="1394"/>
    <tag k="addr:street" v="Sugarhouse Road"/>
    <tag k="addr:state" v="VT"/>
    <tag k="ref:vcgi:esiteid" v="770965"/>
  </node>
  <node id="-1302" visible="true" lat="44.590929511392" lon="-71.90319632777">
    <tag k="addr:city" v="East Burke"/>
    <tag k="addr:housenumber" v="2106"/>
    <tag k="addr:street" v="Mountain Road"/>
    <tag k="addr:state" v="VT"/>
    <tag k="ref:vcgi:esiteid" v="773411"/>
  </node>
  <node id="-1304" visible="true" lat="44.593239322102" lon="-71.901332343842">
    <tag k="addr:city" v="East Burke"/>
    <tag k="addr:housenumber" v="44"/>
    <tag k="addr:street" v="Rexford Road"/>
    <tag k="addr:state" v="VT"/>
    <tag k="ref:vcgi:esiteid" v="773575"/>
  </node>
  <node id="-1305" visible="true" lat="44.618068020796" lon="-71.972647390411">
    <tag k="addr:city" v="West Burke"/>
    <tag k="addr:housenumber" v="2337"/>
    <tag k="addr:street" v="5"/>
    <tag k="addr:state" v="VT"/>
    <tag k="ref:vcgi:esiteid" v="773640"/>
  </node>
  <node id="-1306" visible="true" lat="44.613825068729" lon="-71.973356240058">
    <tag k="addr:city" v="West Burke"/>
    <tag k="addr:housenumber" v="1977"/>
    <tag k="addr:street" v="5"/>
    <tag k="addr:state" v="VT"/>
    <tag k="ref:vcgi:esiteid" v="773781"/>
  </node>
</osm>
