<?xml version="1.0" encoding="UTF-8"?>
<osm version="0.6" generator="JOSM" upload="false">
  <node id="-12473" visible="true" lat="44.48290699" lon="-73.19810395">
    <tag k="addr:city" v="Burlington"/>
    <tag k="addr:housenumber" v="78"/>
    <tag k="addr:street" v="Mansfield Avenue"/>
    <tag k="addr:state" v="VT"/>
    <tag k="ref:vcgi:esiteid" v="656597"/>
  </node>
  <node id="-12914" visible="true" lat="44.48829544" lon="-73.18553736">
    <tag k="addr:city" v="Burlington"/>
    <tag k="addr:housenumber" v="25"/>
    <tag k="addr:street" v="Mill Street"/>
    <tag k="addr:state" v="VT"/>
    <tag k="ref:vcgi:esiteid" v="772958"/>
  </node>
  <node id="-12915" visible="true" lat="44.46916756" lon="-73.20783147">
    <tag k="addr:city" v="Burlington"/>
    <tag k="addr:housenumber" v="394"/>
    <tag k="addr:street" v="South Union Street"/>
    <tag k="addr:state" v="VT"/>
    <tag k="ref:vcgi:esiteid" v="772996"/>
  </node>
</osm>
