<?xml version="1.0" encoding="UTF-8"?>
<osm version="0.6" generator="JOSM" upload="false">
  <node id="-101" visible="true" lat="44.054713820316" lon="-72.535612128965">
    <!-- conflict: "2541 Cemetery Street, Brookfield, VT" Fuzzy match to "2541 Cemetery Street, Chelsea, VT" -->
    <tag k="addr:city" v="Brookfield"/>
    <tag k="addr:housenumber" v="2541"/>
    <tag k="addr:street" v="Cemetery Street"/>
    <tag k="addr:state" v="VT"/>
    <tag k="ref:vcgi:esiteid" v="65103"/>
  </node>
  <node id="-102" visible="true" lat="44.053677318719" lon="-72.525994555813">
    <!-- conflict: "10 Hopkins Road, Brookfield, VT" Fuzzy match to "10 Hopkins Road, Chelsea, VT" -->
    <tag k="addr:city" v="Brookfield"/>
    <tag k="addr:housenumber" v="10"/>
    <tag k="addr:street" v="Hopkins Road"/>
    <tag k="addr:state" v="VT"/>
    <tag k="ref:vcgi:esiteid" v="65104"/>
  </node>
  <node id="-103" visible="true" lat="44.053224828207" lon="-72.528841050722">
    <!-- conflict: "12 Hopkins Road, Brookfield, VT" Fuzzy match to "12 Hopkins Road, Chelsea, VT" -->
    <tag k="addr:city" v="Brookfield"/>
    <tag k="addr:housenumber" v="12"/>
    <tag k="addr:street" v="Hopkins Road"/>
    <tag k="addr:state" v="VT"/>
    <tag k="ref:vcgi:esiteid" v="65105"/>
  </node>
  <node id="-104" visible="true" lat="44.052560274028" lon="-72.526122545645">
    <!-- conflict: "11 Hopkins Road, Brookfield, VT" Fuzzy match to "11 Hopkins Road, Chelsea, VT" -->
    <tag k="addr:city" v="Brookfield"/>
    <tag k="addr:housenumber" v="11"/>
    <tag k="addr:street" v="Hopkins Road"/>
    <tag k="addr:state" v="VT"/>
    <tag k="ref:vcgi:esiteid" v="65106"/>
  </node>
  <node id="-105" visible="true" lat="44.052101454558" lon="-72.534429559482">
    <!-- conflict: "48 Hopkins Road, Brookfield, VT" Fuzzy match to "48 Hopkins Road, Chelsea, VT" -->
    <tag k="addr:city" v="Brookfield"/>
    <tag k="addr:housenumber" v="48"/>
    <tag k="addr:street" v="Hopkins Road"/>
    <tag k="addr:state" v="VT"/>
    <tag k="ref:vcgi:esiteid" v="65107"/>
  </node>
  <node id="-106" visible="true" lat="44.051904560203" lon="-72.524797374745">
    <!-- conflict: "1 Hopkins Road, Brookfield, VT" Fuzzy match to "1 Hopkins Road, Chelsea, VT" -->
    <tag k="addr:city" v="Brookfield"/>
    <tag k="addr:housenumber" v="1"/>
    <tag k="addr:street" v="Hopkins Road"/>
    <tag k="addr:state" v="VT"/>
    <tag k="ref:vcgi:esiteid" v="65108"/>
  </node>
  <node id="-107" visible="true" lat="44.051041957626" lon="-72.529443016027">
    <!-- conflict: "27 Hopkins Road, Brookfield, VT" Fuzzy match to "27 Hopkins Road, Chelsea, VT" -->
    <tag k="addr:city" v="Brookfield"/>
    <tag k="addr:housenumber" v="27"/>
    <tag k="addr:street" v="Hopkins Road"/>
    <tag k="addr:state" v="VT"/>
    <tag k="ref:vcgi:esiteid" v="65109"/>
  </node>
  <node id="-108" visible="true" lat="44.051143915186" lon="-72.531254660856">
    <!-- conflict: "43 Hopkins Road, Brookfield, VT" Fuzzy match to "43 Hopkins Road, Chelsea, VT" -->
    <tag k="addr:city" v="Brookfield"/>
    <tag k="addr:housenumber" v="43"/>
    <tag k="addr:street" v="Hopkins Road"/>
    <tag k="addr:state" v="VT"/>
    <tag k="ref:vcgi:esiteid" v="65110"/>
  </node>
  <node id="-109" visible="true" lat="44.050526972222" lon="-72.533913843687">
    <!-- conflict: "57 Hopkins Road, Brookfield, VT" Fuzzy match to "57 Hopkins Road, Chelsea, VT" -->
    <tag k="addr:city" v="Brookfield"/>
    <tag k="addr:housenumber" v="57"/>
    <tag k="addr:street" v="Hopkins Road"/>
    <tag k="addr:state" v="VT"/>
    <tag k="ref:vcgi:esiteid" v="65111"/>
  </node>
  <node id="-110" visible="true" lat="44.050324793134" lon="-72.534226647086">
    <!-- conflict: "59 Hopkins Road, Brookfield, VT" Fuzzy match to "59 Hopkins Road, Chelsea, VT" -->
    <tag k="addr:city" v="Brookfield"/>
    <tag k="addr:housenumber" v="59"/>
    <tag k="addr:street" v="Hopkins Road"/>
    <tag k="addr:state" v="VT"/>
    <tag k="ref:vcgi:esiteid" v="65112"/>
  </node>
  <node id="-133" visible="true" lat="44.033346355789" lon="-72.454220138043">
    <!-- conflict: "34 Doyle Road, Washington, VT" Fuzzy match to "34 Doyle Road, Chelsea, VT" -->
    <tag k="addr:city" v="Washington"/>
    <tag k="addr:housenumber" v="34"/>
    <tag k="addr:street" v="Doyle Road"/>
    <tag k="addr:state" v="VT"/>
    <tag k="ref:vcgi:esiteid" v="65135"/>
  </node>
  <node id="-135" visible="true" lat="44.031606073105" lon="-72.454713069939">
    <!-- conflict: "211 Washington Turnpike, Washington, VT" Fuzzy match to "211 Washington Turnpike, Chelsea, VT" -->
    <tag k="addr:city" v="Washington"/>
    <tag k="addr:housenumber" v="211"/>
    <tag k="addr:street" v="Washington Turnpike"/>
    <tag k="addr:state" v="VT"/>
    <tag k="ref:vcgi:esiteid" v="65137"/>
  </node>
  <node id="-137" visible="true" lat="44.031216973723" lon="-72.45610162049">
    <!-- conflict: "15 Doyle Road, Washington, VT" Fuzzy match to "15 Doyle Road, Chelsea, VT" -->
    <tag k="addr:city" v="Washington"/>
    <tag k="addr:housenumber" v="15"/>
    <tag k="addr:street" v="Doyle Road"/>
    <tag k="addr:state" v="VT"/>
    <tag k="ref:vcgi:esiteid" v="65139"/>
  </node>
  <node id="-141" visible="true" lat="44.030198047821" lon="-72.456620330851">
    <!-- conflict: "7 Doyle Road, Washington, VT" Fuzzy match to "7 Doyle Road, Chelsea, VT" -->
    <tag k="addr:city" v="Washington"/>
    <tag k="addr:housenumber" v="7"/>
    <tag k="addr:street" v="Doyle Road"/>
    <tag k="addr:state" v="VT"/>
    <tag k="ref:vcgi:esiteid" v="65143"/>
  </node>
  <node id="-151" visible="true" lat="44.024091118866" lon="-72.42768974549">
    <!-- conflict: "22 Taylor Drive, Washington, VT" Fuzzy match to "22 Taylor Drive, Chelsea, VT" -->
    <tag k="addr:city" v="Washington"/>
    <tag k="addr:housenumber" v="22"/>
    <tag k="addr:street" v="Taylor Drive"/>
    <tag k="addr:state" v="VT"/>
    <tag k="ref:vcgi:esiteid" v="65153"/>
  </node>
  <node id="-152" visible="true" lat="44.023953789588" lon="-72.426774218932">
    <!-- conflict: "18 Taylor Drive, Washington, VT" Fuzzy match to "18 Taylor Drive, Chelsea, VT" -->
    <tag k="addr:city" v="Washington"/>
    <tag k="addr:housenumber" v="18"/>
    <tag k="addr:street" v="Taylor Drive"/>
    <tag k="addr:state" v="VT"/>
    <tag k="ref:vcgi:esiteid" v="65154"/>
  </node>
  <node id="-157" visible="true" lat="44.023484582403" lon="-72.426598740514">
    <!-- conflict: "16 Taylor Drive, Washington, VT" Fuzzy match to "16 Taylor Drive, Chelsea, VT" -->
    <tag k="addr:city" v="Washington"/>
    <tag k="addr:housenumber" v="16"/>
    <tag k="addr:street" v="Taylor Drive"/>
    <tag k="addr:state" v="VT"/>
    <tag k="ref:vcgi:esiteid" v="65159"/>
  </node>
  <node id="-662" visible="true" lat="43.96084405087" lon="-72.441637117345">
    <!-- conflict: "121 Holt Hill Road, Tunbridge, VT" Fuzzy match to "121 Holt Hill Road, Chelsea, VT" -->
    <tag k="addr:city" v="Tunbridge"/>
    <tag k="addr:housenumber" v="121"/>
    <tag k="addr:street" v="Holt Hill Road"/>
    <tag k="addr:state" v="VT"/>
    <tag k="ref:vcgi:esiteid" v="65697"/>
  </node>
  <node id="-672" visible="true" lat="43.956009719724" lon="-72.436936562348">
    <!-- conflict: "68 Holt Hill Road, Tunbridge, VT" Fuzzy match to "68 Holt Hill Road, Chelsea, VT" -->
    <tag k="addr:city" v="Tunbridge"/>
    <tag k="addr:housenumber" v="68"/>
    <tag k="addr:street" v="Holt Hill Road"/>
    <tag k="addr:state" v="VT"/>
    <tag k="ref:vcgi:esiteid" v="65707"/>
  </node>
  <node id="-673" visible="true" lat="43.95567784144" lon="-72.439591593641">
    <!-- conflict: "57 Holt Hill Road, Tunbridge, VT" Fuzzy match to "57 Holt Hill Road, Chelsea, VT" -->
    <tag k="addr:city" v="Tunbridge"/>
    <tag k="addr:housenumber" v="57"/>
    <tag k="addr:street" v="Holt Hill Road"/>
    <tag k="addr:state" v="VT"/>
    <tag k="ref:vcgi:esiteid" v="65708"/>
  </node>
  <node id="-678" visible="true" lat="43.952992293553" lon="-72.441109843156">
    <!-- conflict: "36 Holt Hill Road, Tunbridge, VT" Fuzzy match to "36 Holt Hill Road, Chelsea, VT" -->
    <tag k="addr:city" v="Tunbridge"/>
    <tag k="addr:housenumber" v="36"/>
    <tag k="addr:street" v="Holt Hill Road"/>
    <tag k="addr:state" v="VT"/>
    <tag k="ref:vcgi:esiteid" v="65713"/>
  </node>
  <node id="-680" visible="true" lat="43.951496583103" lon="-72.442890505847">
    <!-- conflict: "25 Holt Hill Road, Tunbridge, VT" Fuzzy match to "25 Holt Hill Road, Chelsea, VT" -->
    <tag k="addr:city" v="Tunbridge"/>
    <tag k="addr:housenumber" v="25"/>
    <tag k="addr:street" v="Holt Hill Road"/>
    <tag k="addr:state" v="VT"/>
    <tag k="ref:vcgi:esiteid" v="65715"/>
  </node>
  <node id="-681" visible="true" lat="43.951283309378" lon="-72.44226951066">
    <!-- conflict: "24 Holt Hill Road, Tunbridge, VT" Fuzzy match to "24 Holt Hill Road, Chelsea, VT" -->
    <tag k="addr:city" v="Tunbridge"/>
    <tag k="addr:housenumber" v="24"/>
    <tag k="addr:street" v="Holt Hill Road"/>
    <tag k="addr:state" v="VT"/>
    <tag k="ref:vcgi:esiteid" v="65716"/>
  </node>
  <node id="-684" visible="true" lat="43.950409547236" lon="-72.445230736849">
    <!-- conflict: "11 Holt Hill Road, Tunbridge, VT" Fuzzy match to "11 Holt Hill Road, Chelsea, VT" -->
    <tag k="addr:city" v="Tunbridge"/>
    <tag k="addr:housenumber" v="11"/>
    <tag k="addr:street" v="Holt Hill Road"/>
    <tag k="addr:state" v="VT"/>
    <tag k="ref:vcgi:esiteid" v="65719"/>
  </node>
  <node id="-685" visible="true" lat="43.950151528098" lon="-72.445448897098">
    <!-- conflict: "9 Holt Hill Road, Tunbridge, VT" Fuzzy match to "9 Holt Hill Road, Chelsea, VT" -->
    <tag k="addr:city" v="Tunbridge"/>
    <tag k="addr:housenumber" v="9"/>
    <tag k="addr:street" v="Holt Hill Road"/>
    <tag k="addr:state" v="VT"/>
    <tag k="ref:vcgi:esiteid" v="65720"/>
  </node>
  <node id="-686" visible="true" lat="43.949948165384" lon="-72.441827007187">
    <!-- conflict: "20 Holt Hill Road, Tunbridge, VT" Fuzzy match to "20 Holt Hill Road, Chelsea, VT" -->
    <tag k="addr:city" v="Tunbridge"/>
    <tag k="addr:housenumber" v="20"/>
    <tag k="addr:street" v="Holt Hill Road"/>
    <tag k="addr:state" v="VT"/>
    <tag k="ref:vcgi:esiteid" v="65721"/>
  </node>
  <node id="-688" visible="true" lat="43.948758464423" lon="-72.444504931106">
    <!-- conflict: "30 Harolyn Hill Road, Tunbridge, VT" Fuzzy match to "30 Harolyn Hill Road, Chelsea, VT" -->
    <tag k="addr:city" v="Tunbridge"/>
    <tag k="addr:housenumber" v="30"/>
    <tag k="addr:street" v="Harolyn Hill Road"/>
    <tag k="addr:state" v="VT"/>
    <tag k="ref:vcgi:esiteid" v="65723"/>
  </node>
  <node id="-689" visible="true" lat="43.947533946262" lon="-72.442353441941">
    <!-- conflict: "48 Harolyn Hill Road, Tunbridge, VT" Fuzzy match to "48 Harolyn Hill Road, Chelsea, VT" -->
    <tag k="addr:city" v="Tunbridge"/>
    <tag k="addr:housenumber" v="48"/>
    <tag k="addr:street" v="Harolyn Hill Road"/>
    <tag k="addr:state" v="VT"/>
    <tag k="ref:vcgi:esiteid" v="65724"/>
  </node>
  <node id="-691" visible="true" lat="43.944280008418" lon="-72.431016158324">
    <!-- conflict: "110 Harolyn Hill Road, Tunbridge, VT" Fuzzy match to "110 Harolyn Hill Road, Chelsea, VT" -->
    <tag k="addr:city" v="Tunbridge"/>
    <tag k="addr:housenumber" v="110"/>
    <tag k="addr:street" v="Harolyn Hill Road"/>
    <tag k="addr:state" v="VT"/>
    <tag k="ref:vcgi:esiteid" v="65728"/>
  </node>
  <node id="-692" visible="true" lat="43.943589548156" lon="-72.427628704547">
    <!-- conflict: "164 County Road, Tunbridge, VT" Fuzzy match to "164 County Road, Chelsea, VT" -->
    <tag k="addr:city" v="Tunbridge"/>
    <tag k="addr:housenumber" v="164"/>
    <tag k="addr:street" v="County Road"/>
    <tag k="addr:state" v="VT"/>
    <tag k="ref:vcgi:esiteid" v="65729"/>
  </node>
  <node id="-693" visible="true" lat="43.943078378507" lon="-72.427796551933">
    <!-- conflict: "168 County Road, Tunbridge, VT" Fuzzy match to "168 County Road, Chelsea, VT" -->
    <tag k="addr:city" v="Tunbridge"/>
    <tag k="addr:housenumber" v="168"/>
    <tag k="addr:street" v="County Road"/>
    <tag k="addr:state" v="VT"/>
    <tag k="ref:vcgi:esiteid" v="65730"/>
  </node>
  <node id="-706" visible="true" lat="44.050824177962" lon="-72.532753854677">
    <!-- conflict: "49 Hopkins Road, Brookfield, VT" Fuzzy match to "49 Hopkins Road, Chelsea, VT" -->
    <tag k="addr:city" v="Brookfield"/>
    <tag k="addr:housenumber" v="49"/>
    <tag k="addr:street" v="Hopkins Road"/>
    <tag k="addr:state" v="VT"/>
    <tag k="ref:vcgi:esiteid" v="65745"/>
  </node>
  <node id="-723" visible="true" lat="43.948982431117" lon="-72.445844861122">
    <!-- conflict: "15 Harolyn Hill Road, Tunbridge, VT" Fuzzy match to "15 Harolyn Hill Road, Chelsea, VT" -->
    <tag k="addr:city" v="Tunbridge"/>
    <tag k="addr:housenumber" v="15"/>
    <tag k="addr:street" v="Harolyn Hill Road"/>
    <tag k="addr:state" v="VT"/>
    <tag k="ref:vcgi:esiteid" v="65762"/>
  </node>
  <node id="-724" visible="true" lat="43.946653728892" lon="-72.446651013684">
    <!-- conflict: "86 Bicknell Hill Road, Tunbridge, VT" Fuzzy match to "86 Bicknell Hill Road, Chelsea, VT" -->
    <tag k="addr:city" v="Tunbridge"/>
    <tag k="addr:housenumber" v="86"/>
    <tag k="addr:street" v="Bicknell Hill Road"/>
    <tag k="addr:state" v="VT"/>
    <tag k="ref:vcgi:esiteid" v="65763"/>
  </node>
  <node id="-734" visible="true" lat="43.97246885242" lon="-72.388808178221">
    <!-- conflict: "156 Beedle Road, Vershire, VT" Fuzzy match to "156 Beedle Road, Chelsea, VT" -->
    <tag k="addr:city" v="Vershire"/>
    <tag k="addr:housenumber" v="156"/>
    <tag k="addr:street" v="Beedle Road"/>
    <tag k="addr:state" v="VT"/>
    <tag k="ref:vcgi:esiteid" v="65774"/>
  </node>
  <node id="-789" visible="true" lat="43.960078292129" lon="-72.433600776008">
    <!-- conflict: "100 Holt Hill Road, Tunbridge, VT" Fuzzy match to "100 Holt Hill Road, Chelsea, VT" -->
    <tag k="addr:city" v="Tunbridge"/>
    <tag k="addr:housenumber" v="100"/>
    <tag k="addr:street" v="Holt Hill Road"/>
    <tag k="addr:state" v="VT"/>
    <tag k="ref:vcgi:esiteid" v="332245"/>
  </node>
  <node id="-809" visible="true" lat="43.946789688891" lon="-72.4465669643">
    <!-- conflict: "86A Bicknell Hill Road, Tunbridge, VT" Fuzzy match to "86A Bicknell Hill Road, Chelsea, VT" -->
    <tag k="addr:city" v="Tunbridge"/>
    <tag k="addr:housenumber" v="86A"/>
    <tag k="addr:street" v="Bicknell Hill Road"/>
    <tag k="addr:state" v="VT"/>
    <tag k="ref:vcgi:esiteid" v="335529"/>
  </node>
  <node id="-818" visible="true" lat="43.963421904413" lon="-72.431417558182">
    <!-- conflict: "126 Holt Hill Road, Tunbridge, VT" Fuzzy match to "126 Holt Hill Road, Chelsea, VT" -->
    <tag k="addr:city" v="Tunbridge"/>
    <tag k="addr:housenumber" v="126"/>
    <tag k="addr:street" v="Holt Hill Road"/>
    <tag k="addr:state" v="VT"/>
    <tag k="ref:vcgi:esiteid" v="339767"/>
  </node>
  <node id="-830" visible="true" lat="44.032997397358" lon="-72.454633364171">
    <!-- conflict: "32 Doyle Road, Washington, VT" Fuzzy match to "32 Doyle Road, Chelsea, VT" -->
    <tag k="addr:city" v="Washington"/>
    <tag k="addr:housenumber" v="32"/>
    <tag k="addr:street" v="Doyle Road"/>
    <tag k="addr:state" v="VT"/>
    <tag k="ref:vcgi:esiteid" v="449683"/>
  </node>
  <node id="-834" visible="true" lat="44.055266430412" lon="-72.534124807068">
    <!-- conflict: "2566 Cemetery Street, Brookfield, VT" Fuzzy match to "2566 Cemetery Street, Chelsea, VT" -->
    <tag k="addr:city" v="Brookfield"/>
    <tag k="addr:housenumber" v="2566"/>
    <tag k="addr:street" v="Cemetery Street"/>
    <tag k="addr:state" v="VT"/>
    <tag k="ref:vcgi:esiteid" v="454901"/>
  </node>
  <node id="-838" visible="true" lat="43.957073657389" lon="-72.434092112741">
    <!-- conflict: "76 Holt Hill Road, Tunbridge, VT" Fuzzy match to "76 Holt Hill Road, Chelsea, VT" -->
    <tag k="addr:city" v="Tunbridge"/>
    <tag k="addr:housenumber" v="76"/>
    <tag k="addr:street" v="Holt Hill Road"/>
    <tag k="addr:state" v="VT"/>
    <tag k="ref:vcgi:esiteid" v="613081"/>
  </node>
  <node id="-895" visible="true" lat="43.974407528811" lon="-72.389334396171">
    <!-- conflict: "1500 McIver Road, Vershire, VT" Fuzzy match to "1500 McIver Road, Chelsea, VT" -->
    <tag k="addr:city" v="Vershire"/>
    <tag k="addr:housenumber" v="1500"/>
    <tag k="addr:street" v="McIver Road"/>
    <tag k="addr:state" v="VT"/>
    <tag k="ref:vcgi:esiteid" v="771835"/>
  </node>
  <node id="-907" visible="true" lat="43.958811150405" lon="-72.434662487277">
    <!-- conflict: "88 Holt Hill Road, Tunbridge, VT" Fuzzy match to "88 Holt Hill Road, Chelsea, VT" -->
    <tag k="addr:city" v="Tunbridge"/>
    <tag k="addr:housenumber" v="88"/>
    <tag k="addr:street" v="Holt Hill Road"/>
    <tag k="addr:state" v="VT"/>
    <tag k="ref:vcgi:esiteid" v="900093"/>
  </node>
</osm>
