<?xml version="1.0" encoding="UTF-8"?>
<osm version="0.6" generator="JOSM" upload="false">
  <node id="-518" visible="true" lat="44.571958014358" lon="-73.103646734509">
    <!-- conflict: "348 Brigham Hill Road, Essex Junction, VT" Fuzzy match to "348 Brigham Hill Road, Colchester, VT" -->
    <tag k="addr:city" v="Essex Junction"/>
    <tag k="addr:housenumber" v="348"/>
    <tag k="addr:street" v="Brigham Hill Road"/>
    <tag k="addr:state" v="VT"/>
    <tag k="ref:vcgi:esiteid" v="69888"/>
  </node>
  <node id="-532" visible="true" lat="44.570203254761" lon="-73.100442386897">
    <!-- conflict: "327 Brigham Hill Road, Essex Junction, VT" Fuzzy match to "327 Brigham Hill Road, Colchester, VT" -->
    <tag k="addr:city" v="Essex Junction"/>
    <tag k="addr:housenumber" v="327"/>
    <tag k="addr:street" v="Brigham Hill Road"/>
    <tag k="addr:state" v="VT"/>
    <tag k="ref:vcgi:esiteid" v="69904"/>
  </node>
  <node id="-538" visible="true" lat="44.569604344824" lon="-73.10353229284">
    <!-- conflict: "330 Brigham Hill Road, Essex Junction, VT" Fuzzy match to "330 Brigham Hill Road, Colchester, VT" -->
    <tag k="addr:city" v="Essex Junction"/>
    <tag k="addr:housenumber" v="330"/>
    <tag k="addr:street" v="Brigham Hill Road"/>
    <tag k="addr:state" v="VT"/>
    <tag k="ref:vcgi:esiteid" v="69911"/>
  </node>
  <node id="-553" visible="true" lat="44.568685003775" lon="-73.101708867578">
    <!-- conflict: "320 Brigham Hill Road, Essex Junction, VT" Fuzzy match to "320 Brigham Hill Road, Colchester, VT" -->
    <tag k="addr:city" v="Essex Junction"/>
    <tag k="addr:housenumber" v="320"/>
    <tag k="addr:street" v="Brigham Hill Road"/>
    <tag k="addr:state" v="VT"/>
    <tag k="ref:vcgi:esiteid" v="69926"/>
  </node>
  <node id="-3783" visible="true" lat="44.538179410959" lon="-73.24425109495">
    <!-- conflict: "97 Bay Meadow Estate, Colchester, VT" Fuzzy match to "97 Bay Meadow Estates, Colchester, VT" -->
    <tag k="addr:city" v="Colchester"/>
    <tag k="addr:housenumber" v="97"/>
    <tag k="addr:street" v="Bay Meadow Estate"/>
    <tag k="addr:state" v="VT"/>
    <tag k="ref:vcgi:esiteid" v="73561"/>
  </node>
  <node id="-3794" visible="true" lat="44.537889840302" lon="-73.243902701561">
    <!-- conflict: "121 Bay Meadow Estate, Colchester, VT" Fuzzy match to "121 Bay Meadow Estates, Colchester, VT" -->
    <tag k="addr:city" v="Colchester"/>
    <tag k="addr:housenumber" v="121"/>
    <tag k="addr:street" v="Bay Meadow Estate"/>
    <tag k="addr:state" v="VT"/>
    <tag k="ref:vcgi:esiteid" v="73573"/>
  </node>
  <node id="-3807" visible="true" lat="44.537573909575" lon="-73.243678679636">
    <!-- conflict: "141 Bay Meadow Estate, Colchester, VT" Fuzzy match to "141 Bay Meadow Estates, Colchester, VT" -->
    <tag k="addr:city" v="Colchester"/>
    <tag k="addr:housenumber" v="141"/>
    <tag k="addr:street" v="Bay Meadow Estate"/>
    <tag k="addr:state" v="VT"/>
    <tag k="ref:vcgi:esiteid" v="73588"/>
  </node>
  <node id="-4964" visible="true" lat="44.506023025846" lon="-73.189771009525">
    <!-- conflict: "69 Upper North Street, Winooski, VT" Fuzzy match to "69 Upper North Street, Colchester, VT" -->
    <tag k="addr:city" v="Winooski"/>
    <tag k="addr:housenumber" v="69"/>
    <tag k="addr:street" v="Upper North Street"/>
    <tag k="addr:state" v="VT"/>
    <tag k="ref:vcgi:esiteid" v="74970"/>
  </node>
  <node id="-4977" visible="true" lat="44.505550523237" lon="-73.189640880069">
    <!-- conflict: "37 Upper North Street, Winooski, VT" Fuzzy match to "37 Upper North Street, Colchester, VT" -->
    <tag k="addr:city" v="Winooski"/>
    <tag k="addr:housenumber" v="37"/>
    <tag k="addr:street" v="Upper North Street"/>
    <tag k="addr:state" v="VT"/>
    <tag k="ref:vcgi:esiteid" v="74987"/>
  </node>
  <node id="-5350" visible="true" lat="44.498534627692" lon="-73.157945560008">
    <!-- conflict: "122 Johnson Avenue, Colchester, VT" No match in OSM, but a different address exists <5m away: "192 Johnson Avenue, Colchester, VT" -->
    <tag k="addr:city" v="Colchester"/>
    <tag k="addr:housenumber" v="122"/>
    <tag k="addr:street" v="Johnson Avenue"/>
    <tag k="addr:state" v="VT"/>
    <tag k="ref:vcgi:esiteid" v="75436"/>
  </node>
  <node id="-5361" visible="true" lat="44.497798910623" lon="-73.160784205266">
    <!-- conflict: "174 Canterbury Way, Saint Michales College, VT" Fuzzy match to "174 Canterbury Way, Colchester, VT" -->
    <tag k="addr:city" v="Saint Michales College"/>
    <tag k="addr:housenumber" v="174"/>
    <tag k="addr:street" v="Canterbury Way"/>
    <tag k="addr:state" v="VT"/>
    <tag k="ref:vcgi:esiteid" v="75448"/>
  </node>
  <node id="-5364" visible="true" lat="44.498044208002" lon="-73.161296254891">
    <!-- conflict: "166 Canterbury Way, Saint Michales College, VT" Fuzzy match to "166 Canterbury Way, Colchester, VT" -->
    <tag k="addr:city" v="Saint Michales College"/>
    <tag k="addr:housenumber" v="166"/>
    <tag k="addr:street" v="Canterbury Way"/>
    <tag k="addr:state" v="VT"/>
    <tag k="ref:vcgi:esiteid" v="75452"/>
  </node>
  <node id="-5368" visible="true" lat="44.497677886863" lon="-73.161591062057">
    <!-- conflict: "144 Canterbury Way, Saint Michales College, VT" Fuzzy match to "144 Canterbury Way, Colchester, VT" -->
    <tag k="addr:city" v="Saint Michales College"/>
    <tag k="addr:housenumber" v="144"/>
    <tag k="addr:street" v="Canterbury Way"/>
    <tag k="addr:state" v="VT"/>
    <tag k="ref:vcgi:esiteid" v="75456"/>
  </node>
  <node id="-5371" visible="true" lat="44.497388521856" lon="-73.162394548523">
    <!-- conflict: "98 Canterbury Way, Saint Michales College, VT" Fuzzy match to "98 Canterbury Way, Colchester, VT" -->
    <tag k="addr:city" v="Saint Michales College"/>
    <tag k="addr:housenumber" v="98"/>
    <tag k="addr:street" v="Canterbury Way"/>
    <tag k="addr:state" v="VT"/>
    <tag k="ref:vcgi:esiteid" v="75461"/>
  </node>
  <node id="-5372" visible="true" lat="44.497397274458" lon="-73.1618335662">
    <!-- conflict: "119 Cashman Road, Saint Michales College, VT" Fuzzy match to "119 Cashman Road, Colchester, VT" -->
    <tag k="addr:city" v="Saint Michales College"/>
    <tag k="addr:housenumber" v="119"/>
    <tag k="addr:street" v="Cashman Road"/>
    <tag k="addr:state" v="VT"/>
    <tag k="ref:vcgi:esiteid" v="75462"/>
  </node>
  <node id="-5373" visible="true" lat="44.497381644358" lon="-73.161055334403">
    <!-- conflict: "137 Cashman Road, Saint Michales College, VT" Fuzzy match to "137 Cashman Road, Colchester, VT" -->
    <tag k="addr:city" v="Saint Michales College"/>
    <tag k="addr:housenumber" v="137"/>
    <tag k="addr:street" v="Cashman Road"/>
    <tag k="addr:state" v="VT"/>
    <tag k="ref:vcgi:esiteid" v="75463"/>
  </node>
  <node id="-5374" visible="true" lat="44.49704735628" lon="-73.162333522008">
    <!-- conflict: "17 Pontigny Place, Saint Michales College, VT" Fuzzy match to "17 Pontigny Place, Colchester, VT" -->
    <tag k="addr:city" v="Saint Michales College"/>
    <tag k="addr:housenumber" v="17"/>
    <tag k="addr:street" v="Pontigny Place"/>
    <tag k="addr:state" v="VT"/>
    <tag k="ref:vcgi:esiteid" v="75467"/>
  </node>
  <node id="-5375" visible="true" lat="44.497148425395" lon="-73.161935183874">
    <!-- conflict: "107 Cashman Road, Saint Michales College, VT" Fuzzy match to "107 Cashman Road, Colchester, VT" -->
    <tag k="addr:city" v="Saint Michales College"/>
    <tag k="addr:housenumber" v="107"/>
    <tag k="addr:street" v="Cashman Road"/>
    <tag k="addr:state" v="VT"/>
    <tag k="ref:vcgi:esiteid" v="75468"/>
  </node>
  <node id="-5376" visible="true" lat="44.49707978042" lon="-73.167387074769">
    <!-- conflict: "124 Sullivan Lane, Saint Michales College, VT" Fuzzy match to "124 Sullivan Lane, Colchester, VT" -->
    <tag k="addr:city" v="Saint Michales College"/>
    <tag k="addr:housenumber" v="124"/>
    <tag k="addr:street" v="Sullivan Lane"/>
    <tag k="addr:state" v="VT"/>
    <tag k="ref:vcgi:esiteid" v="75472"/>
  </node>
  <node id="-5377" visible="true" lat="44.497104349407" lon="-73.166688028009">
    <!-- conflict: "500 Campus Road, Saint Michales College, VT" Fuzzy match to "500 Campus Road, Colchester, VT" -->
    <tag k="addr:city" v="Saint Michales College"/>
    <tag k="addr:housenumber" v="500"/>
    <tag k="addr:street" v="Campus Road"/>
    <tag k="addr:state" v="VT"/>
    <tag k="ref:vcgi:esiteid" v="75473"/>
  </node>
  <node id="-5378" visible="true" lat="44.497000383725" lon="-73.166040763538">
    <!-- conflict: "540 Campus Road, Saint Michales College, VT" Fuzzy match to "540 Campus Road, Colchester, VT" -->
    <tag k="addr:city" v="Saint Michales College"/>
    <tag k="addr:housenumber" v="540"/>
    <tag k="addr:street" v="Campus Road"/>
    <tag k="addr:state" v="VT"/>
    <tag k="ref:vcgi:esiteid" v="75474"/>
  </node>
  <node id="-5379" visible="true" lat="44.496771684727" lon="-73.167739217048">
    <!-- conflict: "70 Sullivan Lane, Saint Michales College, VT" Fuzzy match to "70 Sullivan Lane, Colchester, VT" -->
    <tag k="addr:city" v="Saint Michales College"/>
    <tag k="addr:housenumber" v="70"/>
    <tag k="addr:street" v="Sullivan Lane"/>
    <tag k="addr:state" v="VT"/>
    <tag k="ref:vcgi:esiteid" v="75475"/>
  </node>
  <node id="-5380" visible="true" lat="44.496687051639" lon="-73.160552499096">
    <!-- conflict: "11 Johnson Avenue, Saint Michales College, VT" Fuzzy match to "11 Johnson Avenue, Colchester, VT" -->
    <tag k="addr:city" v="Saint Michales College"/>
    <tag k="addr:housenumber" v="11"/>
    <tag k="addr:street" v="Johnson Avenue"/>
    <tag k="addr:state" v="VT"/>
    <tag k="ref:vcgi:esiteid" v="75477"/>
  </node>
  <node id="-5383" visible="true" lat="44.496763472594" lon="-73.162641983471">
    <!-- conflict: "22 Pontigny Place, Saint Michales College, VT" Fuzzy match to "22 Pontigny Place, Colchester, VT" -->
    <tag k="addr:city" v="Saint Michales College"/>
    <tag k="addr:housenumber" v="22"/>
    <tag k="addr:street" v="Pontigny Place"/>
    <tag k="addr:state" v="VT"/>
    <tag k="ref:vcgi:esiteid" v="75480"/>
  </node>
  <node id="-5385" visible="true" lat="44.496618221407" lon="-73.1640932374">
    <!-- conflict: "677 Campus Road, Saint Michales College, VT" Fuzzy match to "677 Campus Road, Colchester, VT" -->
    <tag k="addr:city" v="Saint Michales College"/>
    <tag k="addr:housenumber" v="677"/>
    <tag k="addr:street" v="Campus Road"/>
    <tag k="addr:state" v="VT"/>
    <tag k="ref:vcgi:esiteid" v="75483"/>
  </node>
  <node id="-5386" visible="true" lat="44.496528524072" lon="-73.160770434789">
    <!-- conflict: "653 College Parkway, Saint Michales College, VT" Fuzzy match to "653 College Parkway, Colchester, VT" -->
    <tag k="addr:city" v="Saint Michales College"/>
    <tag k="addr:housenumber" v="653"/>
    <tag k="addr:street" v="College Parkway"/>
    <tag k="addr:state" v="VT"/>
    <tag k="ref:vcgi:esiteid" v="75485"/>
  </node>
  <node id="-5387" visible="true" lat="44.496456604872" lon="-73.163010827844">
    <!-- conflict: "22 Canterbury Way, Saint Michales College, VT" Fuzzy match to "22 Canterbury Way, Colchester, VT" -->
    <tag k="addr:city" v="Saint Michales College"/>
    <tag k="addr:housenumber" v="22"/>
    <tag k="addr:street" v="Canterbury Way"/>
    <tag k="addr:state" v="VT"/>
    <tag k="ref:vcgi:esiteid" v="75488"/>
  </node>
  <node id="-5388" visible="true" lat="44.496488069963" lon="-73.162339779437">
    <!-- conflict: "38 Pontigny Place, Saint Michales College, VT" Fuzzy match to "38 Pontigny Place, Colchester, VT" -->
    <tag k="addr:city" v="Saint Michales College"/>
    <tag k="addr:housenumber" v="38"/>
    <tag k="addr:street" v="Pontigny Place"/>
    <tag k="addr:state" v="VT"/>
    <tag k="ref:vcgi:esiteid" v="75489"/>
  </node>
  <node id="-5389" visible="true" lat="44.496196150778" lon="-73.162601991929">
    <!-- conflict: "40 Pontigny Place, Saint Michales College, VT" Fuzzy match to "40 Pontigny Place, Colchester, VT" -->
    <tag k="addr:city" v="Saint Michales College"/>
    <tag k="addr:housenumber" v="40"/>
    <tag k="addr:street" v="Pontigny Place"/>
    <tag k="addr:state" v="VT"/>
    <tag k="ref:vcgi:esiteid" v="75491"/>
  </node>
  <node id="-5390" visible="true" lat="44.496844319467" lon="-73.160884781826">
    <!-- conflict: "134 Cashman Road, Saint Michales College, VT" Fuzzy match to "134 Cashman Road, Colchester, VT" -->
    <tag k="addr:city" v="Saint Michales College"/>
    <tag k="addr:housenumber" v="134"/>
    <tag k="addr:street" v="Cashman Road"/>
    <tag k="addr:state" v="VT"/>
    <tag k="ref:vcgi:esiteid" v="75493"/>
  </node>
  <node id="-5391" visible="true" lat="44.495960485322" lon="-73.165371180535">
    <!-- conflict: "27 Alumni Corner, Saint Michales College, VT" Fuzzy match to "27 Alumni Corner, Colchester, VT" -->
    <tag k="addr:city" v="Saint Michales College"/>
    <tag k="addr:housenumber" v="27"/>
    <tag k="addr:street" v="Alumni Corner"/>
    <tag k="addr:state" v="VT"/>
    <tag k="ref:vcgi:esiteid" v="75495"/>
  </node>
  <node id="-5392" visible="true" lat="44.496260996145" lon="-73.161634884354">
    <!-- conflict: "62 Cashman Road, Saint Michales College, VT" Fuzzy match to "62 Cashman Road, Colchester, VT" -->
    <tag k="addr:city" v="Saint Michales College"/>
    <tag k="addr:housenumber" v="62"/>
    <tag k="addr:street" v="Cashman Road"/>
    <tag k="addr:state" v="VT"/>
    <tag k="ref:vcgi:esiteid" v="75496"/>
  </node>
  <node id="-5393" visible="true" lat="44.49586090114" lon="-73.164523186054">
    <!-- conflict: "86 Place Saint Michel, Saint Michales College, VT" Fuzzy match to "86 Place Saint Michel, Colchester, VT" -->
    <tag k="addr:city" v="Saint Michales College"/>
    <tag k="addr:housenumber" v="86"/>
    <tag k="addr:street" v="Place Saint Michel"/>
    <tag k="addr:state" v="VT"/>
    <tag k="ref:vcgi:esiteid" v="75497"/>
  </node>
  <node id="-5394" visible="true" lat="44.495725910436" lon="-73.162201353392">
    <!-- conflict: "24 Cashman Road, Saint Michales College, VT" Fuzzy match to "24 Cashman Road, Colchester, VT" -->
    <tag k="addr:city" v="Saint Michales College"/>
    <tag k="addr:housenumber" v="24"/>
    <tag k="addr:street" v="Cashman Road"/>
    <tag k="addr:state" v="VT"/>
    <tag k="ref:vcgi:esiteid" v="75499"/>
  </node>
  <node id="-5395" visible="true" lat="44.49544598357" lon="-73.163241781033">
    <!-- conflict: "25 Place Saint Michel, Saint Michales College, VT" Fuzzy match to "25 Place Saint Michel, Colchester, VT" -->
    <tag k="addr:city" v="Saint Michales College"/>
    <tag k="addr:housenumber" v="25"/>
    <tag k="addr:street" v="Place Saint Michel"/>
    <tag k="addr:state" v="VT"/>
    <tag k="ref:vcgi:esiteid" v="75501"/>
  </node>
  <node id="-5396" visible="true" lat="44.495024496962" lon="-73.164633492887">
    <!-- conflict: "102 Place Saint Michel, Saint Michales College, VT" Fuzzy match to "102 Place Saint Michel, Colchester, VT" -->
    <tag k="addr:city" v="Saint Michales College"/>
    <tag k="addr:housenumber" v="102"/>
    <tag k="addr:street" v="Place Saint Michel"/>
    <tag k="addr:state" v="VT"/>
    <tag k="ref:vcgi:esiteid" v="75503"/>
  </node>
  <node id="-5397" visible="true" lat="44.495036477496" lon="-73.163902913513">
    <!-- conflict: "154 Place Saint Michel, Saint Michales College, VT" Fuzzy match to "154 Place Saint Michel, Colchester, VT" -->
    <tag k="addr:city" v="Saint Michales College"/>
    <tag k="addr:housenumber" v="154"/>
    <tag k="addr:street" v="Place Saint Michel"/>
    <tag k="addr:state" v="VT"/>
    <tag k="ref:vcgi:esiteid" v="75504"/>
  </node>
  <node id="-5398" visible="true" lat="44.495075669602" lon="-73.16545802251">
    <!-- conflict: "212 Lyons Lane, Saint Michales College, VT" Fuzzy match to "212 Lyons Lane, Colchester, VT" -->
    <tag k="addr:city" v="Saint Michales College"/>
    <tag k="addr:housenumber" v="212"/>
    <tag k="addr:street" v="Lyons Lane"/>
    <tag k="addr:state" v="VT"/>
    <tag k="ref:vcgi:esiteid" v="75505"/>
  </node>
  <node id="-5399" visible="true" lat="44.494514253382" lon="-73.167025429645">
    <!-- conflict: "150 Lyons Lane, Saint Michales College, VT" Fuzzy match to "150 Lyons Lane, Colchester, VT" -->
    <tag k="addr:city" v="Saint Michales College"/>
    <tag k="addr:housenumber" v="150"/>
    <tag k="addr:street" v="Lyons Lane"/>
    <tag k="addr:state" v="VT"/>
    <tag k="ref:vcgi:esiteid" v="75508"/>
  </node>
  <node id="-5400" visible="true" lat="44.494253413415" lon="-73.163154966885">
    <!-- conflict: "810 Campus Road, Saint Michales College, VT" Fuzzy match to "810 Campus Road, Colchester, VT" -->
    <tag k="addr:city" v="Saint Michales College"/>
    <tag k="addr:housenumber" v="810"/>
    <tag k="addr:street" v="Campus Road"/>
    <tag k="addr:state" v="VT"/>
    <tag k="ref:vcgi:esiteid" v="75509"/>
  </node>
  <node id="-5401" visible="true" lat="44.49426378616" lon="-73.168510673781">
    <!-- conflict: "132 Campus Road, Saint Michales College, VT" Fuzzy match to "132 Campus Road, Colchester, VT" -->
    <tag k="addr:city" v="Saint Michales College"/>
    <tag k="addr:housenumber" v="132"/>
    <tag k="addr:street" v="Campus Road"/>
    <tag k="addr:state" v="VT"/>
    <tag k="ref:vcgi:esiteid" v="75511"/>
  </node>
  <node id="-5402" visible="true" lat="44.493771894433" lon="-73.166227947492">
    <!-- conflict: "18 Campus Road, Saint Michales College, VT" Fuzzy match to "18 Campus Road, Colchester, VT" -->
    <tag k="addr:city" v="Saint Michales College"/>
    <tag k="addr:housenumber" v="18"/>
    <tag k="addr:street" v="Campus Road"/>
    <tag k="addr:state" v="VT"/>
    <tag k="ref:vcgi:esiteid" v="75513"/>
  </node>
  <node id="-5404" visible="true" lat="44.493556374293" lon="-73.165016804257">
    <!-- conflict: "22 Campus Road, Saint Michales College, VT" Fuzzy match to "22 Campus Road, Colchester, VT" -->
    <tag k="addr:city" v="Saint Michales College"/>
    <tag k="addr:housenumber" v="22"/>
    <tag k="addr:street" v="Campus Road"/>
    <tag k="addr:state" v="VT"/>
    <tag k="ref:vcgi:esiteid" v="75518"/>
  </node>
  <node id="-5406" visible="true" lat="44.493459158119" lon="-73.165879721453">
    <!-- conflict: "20 Campus Road, Saint Michales College, VT" Fuzzy match to "20 Campus Road, Colchester, VT" -->
    <tag k="addr:city" v="Saint Michales College"/>
    <tag k="addr:housenumber" v="20"/>
    <tag k="addr:street" v="Campus Road"/>
    <tag k="addr:state" v="VT"/>
    <tag k="ref:vcgi:esiteid" v="75521"/>
  </node>
  <node id="-5407" visible="true" lat="44.493141793173" lon="-73.163986082221">
    <!-- conflict: "423 College Parkway, Saint Michales College, VT" Fuzzy match to "423 College Parkway, Colchester, VT" -->
    <tag k="addr:city" v="Saint Michales College"/>
    <tag k="addr:housenumber" v="423"/>
    <tag k="addr:street" v="College Parkway"/>
    <tag k="addr:state" v="VT"/>
    <tag k="ref:vcgi:esiteid" v="75522"/>
  </node>
  <node id="-5415" visible="true" lat="44.492689730872" lon="-73.170867735323">
    <!-- conflict: "31 Gorge Road, Winooski, VT" Fuzzy match to "31 Gorge Road, Colchester, VT" -->
    <tag k="addr:city" v="Winooski"/>
    <tag k="addr:housenumber" v="31"/>
    <tag k="addr:street" v="Gorge Road"/>
    <tag k="addr:state" v="VT"/>
    <tag k="ref:vcgi:esiteid" v="75534"/>
  </node>
  <node id="-5416" visible="true" lat="44.492756896764" lon="-73.162917151551">
    <!-- conflict: "19 Lime Kiln Road, Saint Michales College, VT" Fuzzy match to "19 Lime Kiln Road, Colchester, VT" -->
    <tag k="addr:city" v="Saint Michales College"/>
    <tag k="addr:housenumber" v="19"/>
    <tag k="addr:street" v="Lime Kiln Road"/>
    <tag k="addr:state" v="VT"/>
    <tag k="ref:vcgi:esiteid" v="75535"/>
  </node>
  <node id="-5419" visible="true" lat="44.492507432454" lon="-73.170882504179">
    <!-- conflict: "41 Gorge Road, Winooski, VT" Fuzzy match to "41 Gorge Road, Colchester, VT" -->
    <tag k="addr:city" v="Winooski"/>
    <tag k="addr:housenumber" v="41"/>
    <tag k="addr:street" v="Gorge Road"/>
    <tag k="addr:state" v="VT"/>
    <tag k="ref:vcgi:esiteid" v="75540"/>
  </node>
  <node id="-5420" visible="true" lat="44.492208674574" lon="-73.165396960095">
    <!-- conflict: "276 College Parkway, Saint Michales College, VT" Fuzzy match to "276 College Parkway, Colchester, VT" -->
    <tag k="addr:city" v="Saint Michales College"/>
    <tag k="addr:housenumber" v="276"/>
    <tag k="addr:street" v="College Parkway"/>
    <tag k="addr:state" v="VT"/>
    <tag k="ref:vcgi:esiteid" v="75541"/>
  </node>
  <node id="-5422" visible="true" lat="44.492437237565" lon="-73.164201259024">
    <!-- conflict: "66 Observatory Lane, Saint Michales College, VT" Fuzzy match to "66 Observatory Lane, Colchester, VT" -->
    <tag k="addr:city" v="Saint Michales College"/>
    <tag k="addr:housenumber" v="66"/>
    <tag k="addr:street" v="Observatory Lane"/>
    <tag k="addr:state" v="VT"/>
    <tag k="ref:vcgi:esiteid" v="75543"/>
  </node>
  <node id="-5423" visible="true" lat="44.492124928632" lon="-73.170976668629">
    <!-- conflict: "73 Gorge Road, Winooski, VT" Fuzzy match to "73 Gorge Road, Colchester, VT" -->
    <tag k="addr:city" v="Winooski"/>
    <tag k="addr:housenumber" v="73"/>
    <tag k="addr:street" v="Gorge Road"/>
    <tag k="addr:state" v="VT"/>
    <tag k="ref:vcgi:esiteid" v="75544"/>
  </node>
  <node id="-5424" visible="true" lat="44.492138910584" lon="-73.170483461659">
    <!-- conflict: "85 Gorge Road, Winooski, VT" Fuzzy match to "85 Gorge Road, Colchester, VT" -->
    <tag k="addr:city" v="Winooski"/>
    <tag k="addr:housenumber" v="85"/>
    <tag k="addr:street" v="Gorge Road"/>
    <tag k="addr:state" v="VT"/>
    <tag k="ref:vcgi:esiteid" v="75545"/>
  </node>
  <node id="-5425" visible="true" lat="44.492323491795" lon="-73.162920874115">
    <!-- conflict: "35 Lime Kiln Road, Saint Michales College, VT" Fuzzy match to "35 Lime Kiln Road, Colchester, VT" -->
    <tag k="addr:city" v="Saint Michales College"/>
    <tag k="addr:housenumber" v="35"/>
    <tag k="addr:street" v="Lime Kiln Road"/>
    <tag k="addr:state" v="VT"/>
    <tag k="ref:vcgi:esiteid" v="75547"/>
  </node>
  <node id="-5426" visible="true" lat="44.49162047413" lon="-73.164208882283">
    <!-- conflict: "31 Observatory Lane, Saint Michales College, VT" Fuzzy match to "31 Observatory Lane, Colchester, VT" -->
    <tag k="addr:city" v="Saint Michales College"/>
    <tag k="addr:housenumber" v="31"/>
    <tag k="addr:street" v="Observatory Lane"/>
    <tag k="addr:state" v="VT"/>
    <tag k="ref:vcgi:esiteid" v="75548"/>
  </node>
  <node id="-5427" visible="true" lat="44.491637506688" lon="-73.163220511344">
    <!-- conflict: "11 Observatory Lane, Saint Michales College, VT" Fuzzy match to "11 Observatory Lane, Colchester, VT" -->
    <tag k="addr:city" v="Saint Michales College"/>
    <tag k="addr:housenumber" v="11"/>
    <tag k="addr:street" v="Observatory Lane"/>
    <tag k="addr:state" v="VT"/>
    <tag k="ref:vcgi:esiteid" v="75549"/>
  </node>
  <node id="-5428" visible="true" lat="44.491216295504" lon="-73.163292018673">
    <!-- conflict: "13 Observatory Lane, Saint Michales College, VT" Fuzzy match to "13 Observatory Lane, Colchester, VT" -->
    <tag k="addr:city" v="Saint Michales College"/>
    <tag k="addr:housenumber" v="13"/>
    <tag k="addr:street" v="Observatory Lane"/>
    <tag k="addr:state" v="VT"/>
    <tag k="ref:vcgi:esiteid" v="75550"/>
  </node>
  <node id="-5429" visible="true" lat="44.491002318822" lon="-73.159831624815">
    <!-- conflict: "242 Knight Hill Road, Saint Michales College, VT" Fuzzy match to "242 Knight Hill Road, Colchester, VT" -->
    <tag k="addr:city" v="Saint Michales College"/>
    <tag k="addr:housenumber" v="242"/>
    <tag k="addr:street" v="Knight Hill Road"/>
    <tag k="addr:state" v="VT"/>
    <tag k="ref:vcgi:esiteid" v="75552"/>
  </node>
  <node id="-5430" visible="true" lat="44.490331669025" lon="-73.170340050015">
    <!-- conflict: "154 Gorge Road, Winooski, VT" Fuzzy match to "154 Gorge Road, Colchester, VT" -->
    <tag k="addr:city" v="Winooski"/>
    <tag k="addr:housenumber" v="154"/>
    <tag k="addr:street" v="Gorge Road"/>
    <tag k="addr:state" v="VT"/>
    <tag k="ref:vcgi:esiteid" v="75554"/>
  </node>
  <node id="-5633" visible="true" lat="44.594785051186" lon="-73.164332511532">
    <!-- conflict: "400 United States Route 7, Colchester, VT" No match in OSM, but a different address exists <5m away: "400 U.S. Route 7, Colchester, VT" -->
    <tag k="addr:city" v="Colchester"/>
    <tag k="addr:housenumber" v="400"/>
    <tag k="addr:street" v="United States Route 7"/>
    <tag k="addr:state" v="VT"/>
    <tag k="ref:vcgi:esiteid" v="75773"/>
  </node>
  <node id="-5877" visible="true" lat="44.49593426623" lon="-73.168077077189">
    <!-- conflict: "20 Sullivan Lane, Saint Michales College, VT" Fuzzy match to "20 Sullivan Lane, Colchester, VT" -->
    <tag k="addr:city" v="Saint Michales College"/>
    <tag k="addr:housenumber" v="20"/>
    <tag k="addr:street" v="Sullivan Lane"/>
    <tag k="addr:state" v="VT"/>
    <tag k="ref:vcgi:esiteid" v="76021"/>
  </node>
  <node id="-5878" visible="true" lat="44.496267904519" lon="-73.167805399768">
    <!-- conflict: "32 Sullivan Lane, Saint Michales College, VT" Fuzzy match to "32 Sullivan Lane, Colchester, VT" -->
    <tag k="addr:city" v="Saint Michales College"/>
    <tag k="addr:housenumber" v="32"/>
    <tag k="addr:street" v="Sullivan Lane"/>
    <tag k="addr:state" v="VT"/>
    <tag k="ref:vcgi:esiteid" v="76022"/>
  </node>
  <node id="-5879" visible="true" lat="44.495163535017" lon="-73.162689597361">
    <!-- conflict: "808 Campus Road, Saint Michales College, VT" Fuzzy match to "808 Campus Road, Colchester, VT" -->
    <tag k="addr:city" v="Saint Michales College"/>
    <tag k="addr:housenumber" v="808"/>
    <tag k="addr:street" v="Campus Road"/>
    <tag k="addr:state" v="VT"/>
    <tag k="ref:vcgi:esiteid" v="76024"/>
  </node>
  <node id="-5911" visible="true" lat="44.490372147704" lon="-73.162554769524">
    <!-- conflict: "164 Lime Kiln Road, Saint Michales College, VT" Fuzzy match to "164 Lime Kiln Road, Colchester, VT" -->
    <tag k="addr:city" v="Saint Michales College"/>
    <tag k="addr:housenumber" v="164"/>
    <tag k="addr:street" v="Lime Kiln Road"/>
    <tag k="addr:state" v="VT"/>
    <tag k="ref:vcgi:esiteid" v="76057"/>
  </node>
  <node id="-6082" visible="true" lat="44.532415665192" lon="-73.126139389742">
    <!-- conflict: "851 Sand Road, Essex Junction, VT" Fuzzy match to "851 Sand Road, Colchester, VT" -->
    <tag k="addr:city" v="Essex Junction"/>
    <tag k="addr:housenumber" v="851"/>
    <tag k="addr:street" v="Sand Road"/>
    <tag k="addr:state" v="VT"/>
    <tag k="ref:vcgi:esiteid" v="94675"/>
  </node>
  <node id="-6083" visible="true" lat="44.531649535055" lon="-73.126915407663">
    <!-- conflict: "852 Sand Road, Essex Junction, VT" Fuzzy match to "852 Sand Road, Colchester, VT" -->
    <tag k="addr:city" v="Essex Junction"/>
    <tag k="addr:housenumber" v="852"/>
    <tag k="addr:street" v="Sand Road"/>
    <tag k="addr:state" v="VT"/>
    <tag k="ref:vcgi:esiteid" v="94685"/>
  </node>
  <node id="-6159" visible="true" lat="44.493099847818" lon="-73.170994756348">
    <!-- conflict: "9 Gorge Road, Winooski, VT" Fuzzy match to "9 Gorge Road, Colchester, VT" -->
    <tag k="addr:city" v="Winooski"/>
    <tag k="addr:housenumber" v="9"/>
    <tag k="addr:street" v="Gorge Road"/>
    <tag k="addr:state" v="VT"/>
    <tag k="ref:vcgi:esiteid" v="331570"/>
  </node>
  <node id="-6238" visible="true" lat="44.492281834571" lon="-73.16469282717">
    <!-- conflict: "76 Observatory Lane, Saint Michales College, VT" Fuzzy match to "76 Observatory Lane, Colchester, VT" -->
    <tag k="addr:city" v="Saint Michales College"/>
    <tag k="addr:housenumber" v="76"/>
    <tag k="addr:street" v="Observatory Lane"/>
    <tag k="addr:state" v="VT"/>
    <tag k="ref:vcgi:esiteid" v="337663"/>
  </node>
  <node id="-6328" visible="true" lat="44.495534146794" lon="-73.165468677384">
    <!-- conflict: "57 Alumni Corner, Saint Michales College, VT" Fuzzy match to "57 Alumni Corner, Colchester, VT" -->
    <tag k="addr:city" v="Saint Michales College"/>
    <tag k="addr:housenumber" v="57"/>
    <tag k="addr:street" v="Alumni Corner"/>
    <tag k="addr:state" v="VT"/>
    <tag k="ref:vcgi:esiteid" v="448665"/>
  </node>
  <node id="-6329" visible="true" lat="44.495451753747" lon="-73.164590731931">
    <!-- conflict: "94 Place Saint Michel, Saint Michales College, VT" Fuzzy match to "94 Place Saint Michel, Colchester, VT" -->
    <tag k="addr:city" v="Saint Michales College"/>
    <tag k="addr:housenumber" v="94"/>
    <tag k="addr:street" v="Place Saint Michel"/>
    <tag k="addr:state" v="VT"/>
    <tag k="ref:vcgi:esiteid" v="448668"/>
  </node>
  <node id="-6433" visible="true" lat="44.491862088436" lon="-73.161400157738">
    <!-- conflict: "160 Knight Hill Road, Saint Michales College, VT" Fuzzy match to "160 Knight Hill Road, Colchester, VT" -->
    <tag k="addr:city" v="Saint Michales College"/>
    <tag k="addr:housenumber" v="160"/>
    <tag k="addr:street" v="Knight Hill Road"/>
    <tag k="addr:state" v="VT"/>
    <tag k="ref:vcgi:esiteid" v="452466"/>
  </node>
  <node id="-6481" visible="true" lat="44.497348096547" lon="-73.159976582995">
    <!-- conflict: "170 Cashman Road, Saint Michales College, VT" Fuzzy match to "170 Cashman Road, Colchester, VT" -->
    <tag k="addr:city" v="Saint Michales College"/>
    <tag k="addr:housenumber" v="170"/>
    <tag k="addr:street" v="Cashman Road"/>
    <tag k="addr:state" v="VT"/>
    <tag k="ref:vcgi:esiteid" v="611382"/>
  </node>
  <node id="-6635" visible="true" lat="44.545882530055" lon="-73.245321919273">
    <!-- conflict: "85 Barnabas Court, Colchester, VT" No match in OSM, but a different address exists <5m away: "93 Barnabas Court, Colchester, VT" -->
    <tag k="addr:city" v="Colchester"/>
    <tag k="addr:housenumber" v="85"/>
    <tag k="addr:street" v="Barnabas Court"/>
    <tag k="addr:state" v="VT"/>
    <tag k="ref:vcgi:esiteid" v="656087"/>
  </node>
  <node id="-6637" visible="true" lat="44.545420148876" lon="-73.245143550726">
    <!-- conflict: "282 Barnabas Court, Colchester, VT" No match in OSM, but a different address exists <5m away: "72 Barnabas Court, Colchester, VT" -->
    <tag k="addr:city" v="Colchester"/>
    <tag k="addr:housenumber" v="282"/>
    <tag k="addr:street" v="Barnabas Court"/>
    <tag k="addr:state" v="VT"/>
    <tag k="ref:vcgi:esiteid" v="656089"/>
  </node>
  <node id="-6640" visible="true" lat="44.545973271881" lon="-73.245154147284">
    <!-- conflict: "97 Barnabas Court, Colchester, VT" No match in OSM, but a different address exists <5m away: "95 Barnabas Court, Colchester, VT" -->
    <tag k="addr:city" v="Colchester"/>
    <tag k="addr:housenumber" v="97"/>
    <tag k="addr:street" v="Barnabas Court"/>
    <tag k="addr:state" v="VT"/>
    <tag k="ref:vcgi:esiteid" v="656092"/>
  </node>
  <node id="-6641" visible="true" lat="44.545738063287" lon="-73.243484085259">
    <!-- conflict: "175 Barnabas Court, Colchester, VT" No match in OSM, but a different address exists <5m away: "171 Barnabas Court, Colchester, VT" -->
    <tag k="addr:city" v="Colchester"/>
    <tag k="addr:housenumber" v="175"/>
    <tag k="addr:street" v="Barnabas Court"/>
    <tag k="addr:state" v="VT"/>
    <tag k="ref:vcgi:esiteid" v="656093"/>
  </node>
  <node id="-6644" visible="true" lat="44.545631299735" lon="-73.24347450121">
    <!-- conflict: "175 Barnabas Court, Colchester, VT" No match in OSM, but a different address exists <5m away: "179 Barnabas Court, Colchester, VT" -->
    <tag k="addr:city" v="Colchester"/>
    <tag k="addr:housenumber" v="175"/>
    <tag k="addr:street" v="Barnabas Court"/>
    <tag k="addr:state" v="VT"/>
    <tag k="ref:vcgi:esiteid" v="656096"/>
  </node>
  <node id="-6752" visible="true" lat="44.496806213391" lon="-73.164303832899">
    <!-- conflict: "661 Campus Road, Saint Michales College, VT" Fuzzy match to "661 Campus Road, Colchester, VT" -->
    <tag k="addr:city" v="Saint Michales College"/>
    <tag k="addr:housenumber" v="661"/>
    <tag k="addr:street" v="Campus Road"/>
    <tag k="addr:state" v="VT"/>
    <tag k="ref:vcgi:esiteid" v="753794"/>
  </node>
  <node id="-6753" visible="true" lat="44.497022923867" lon="-73.161621589561">
    <!-- conflict: "111 Cashman Road, Saint Michales College, VT" Fuzzy match to "111 Cashman Road, Colchester, VT" -->
    <tag k="addr:city" v="Saint Michales College"/>
    <tag k="addr:housenumber" v="111"/>
    <tag k="addr:street" v="Cashman Road"/>
    <tag k="addr:state" v="VT"/>
    <tag k="ref:vcgi:esiteid" v="753796"/>
  </node>
  <node id="-6763" visible="true" lat="44.493470768772" lon="-73.159983101725">
    <!-- conflict: "159 Knight Hill Road, Saint Michales College, VT" Fuzzy match to "159 Knight Hill Road, Colchester, VT" -->
    <tag k="addr:city" v="Saint Michales College"/>
    <tag k="addr:housenumber" v="159"/>
    <tag k="addr:street" v="Knight Hill Road"/>
    <tag k="addr:state" v="VT"/>
    <tag k="ref:vcgi:esiteid" v="754153"/>
  </node>
  <node id="-6893" visible="true" lat="44.49031066571" lon="-73.171211860153">
    <!-- conflict: "183 Gorge Road, Winooski, VT" Fuzzy match to "183 Gorge Road, Colchester, VT" -->
    <tag k="addr:city" v="Winooski"/>
    <tag k="addr:housenumber" v="183"/>
    <tag k="addr:street" v="Gorge Road"/>
    <tag k="addr:state" v="VT"/>
    <tag k="ref:vcgi:esiteid" v="761039"/>
  </node>
  <node id="-6895" visible="true" lat="44.496534841948" lon="-73.168680166297">
    <!-- conflict: "419 Campus Road, Saint Michales College, VT" Fuzzy match to "419 Campus Road, Colchester, VT" -->
    <tag k="addr:city" v="Saint Michales College"/>
    <tag k="addr:housenumber" v="419"/>
    <tag k="addr:street" v="Campus Road"/>
    <tag k="addr:state" v="VT"/>
    <tag k="ref:vcgi:esiteid" v="761508"/>
  </node>
  <node id="-6942" visible="true" lat="44.49498073379" lon="-73.160999496469">
    <!-- conflict: "35 Knight Hill Road, Saint Michales College, VT" Fuzzy match to "35 Knight Hill Road, Colchester, VT" -->
    <tag k="addr:city" v="Saint Michales College"/>
    <tag k="addr:housenumber" v="35"/>
    <tag k="addr:street" v="Knight Hill Road"/>
    <tag k="addr:state" v="VT"/>
    <tag k="ref:vcgi:esiteid" v="767405"/>
  </node>
  <node id="-6943" visible="true" lat="44.492402545353" lon="-73.160615214448">
    <!-- conflict: "158 Knight Hill Road, Saint Michales College, VT" Fuzzy match to "158 Knight Hill Road, Colchester, VT" -->
    <tag k="addr:city" v="Saint Michales College"/>
    <tag k="addr:housenumber" v="158"/>
    <tag k="addr:street" v="Knight Hill Road"/>
    <tag k="addr:state" v="VT"/>
    <tag k="ref:vcgi:esiteid" v="767406"/>
  </node>
  <node id="-6944" visible="true" lat="44.595706491311" lon="-73.166030398984">
    <!-- conflict: "430 United States Route 7, Colchester, VT" No match in OSM, but a different address exists <5m away: "430 U.S. Route 7, Colchester, VT" -->
    <tag k="addr:city" v="Colchester"/>
    <tag k="addr:housenumber" v="430"/>
    <tag k="addr:street" v="United States Route 7"/>
    <tag k="addr:state" v="VT"/>
    <tag k="ref:vcgi:esiteid" v="767527"/>
  </node>
</osm>
