<?xml version="1.0" encoding="UTF-8"?>
<osm version="0.6" generator="JOSM" upload="false">
  <node id="-679" visible="true" lat="43.917165376697" lon="-73.209909805555">
    <tag k="addr:city" v="Middlebury"/>
    <tag k="addr:housenumber" v="5703"/>
    <tag k="addr:street" v="30"/>
    <tag k="addr:state" v="VT"/>
    <tag k="ref:vcgi:esiteid" v="500016"/>
  </node>
  <node id="-710" visible="true" lat="43.986215217263" lon="-73.197598653558">
    <tag k="addr:city" v="Middlebury"/>
    <tag k="addr:housenumber" v="114"/>
    <tag k="addr:street" v="Bardon Drive"/>
    <tag k="addr:state" v="VT"/>
    <tag k="ref:vcgi:esiteid" v="655307"/>
  </node>
  <node id="-760" visible="true" lat="43.963151872119" lon="-73.206201576773">
    <tag k="addr:city" v="Middlebury"/>
    <tag k="addr:housenumber" v="108"/>
    <tag k="addr:street" v="School Road"/>
    <tag k="addr:state" v="VT"/>
    <tag k="ref:vcgi:esiteid" v="773976"/>
  </node>
</osm>
