<?xml version="1.0" encoding="UTF-8"?>
<osm version="0.6" generator="JOSM" upload="false">
  <node id="-404" visible="true" lat="44.8634518722" lon="-72.265528548117">
    <tag k="addr:city" v="Coventry"/>
    <tag k="addr:housenumber" v="269"/>
    <tag k="addr:street" v="United States Route 5"/>
    <tag k="addr:state" v="VT"/>
    <tag k="ref:vcgi:esiteid" v="78750"/>
  </node>
  <node id="-406" visible="true" lat="44.862792924682" lon="-72.266817144384">
    <tag k="addr:city" v="Coventry"/>
    <tag k="addr:housenumber" v="231"/>
    <tag k="addr:street" v="United States Route 5"/>
    <tag k="addr:state" v="VT"/>
    <tag k="ref:vcgi:esiteid" v="78752"/>
  </node>
  <node id="-407" visible="true" lat="44.862544354917" lon="-72.264881321858">
    <tag k="addr:city" v="Coventry"/>
    <tag k="addr:housenumber" v="348"/>
    <tag k="addr:street" v="United States Route 5"/>
    <tag k="addr:state" v="VT"/>
    <tag k="ref:vcgi:esiteid" v="78753"/>
  </node>
  <node id="-417" visible="true" lat="44.860093624775" lon="-72.26844902729">
    <tag k="addr:city" v="Coventry"/>
    <tag k="addr:housenumber" v="23"/>
    <tag k="addr:street" v="United States Route 5"/>
    <tag k="addr:state" v="VT"/>
    <tag k="ref:vcgi:esiteid" v="78765"/>
  </node>
  <node id="-585" visible="true" lat="44.909471123538" lon="-72.218851098972">
    <tag k="addr:city" v="Newport"/>
    <tag k="addr:housenumber" v="1105"/>
    <tag k="addr:street" v="Airport Road"/>
    <tag k="addr:state" v="VT"/>
    <tag k="ref:vcgi:esiteid" v="611146"/>
  </node>
  <node id="-755" visible="true" lat="44.871499448439" lon="-72.215170372452">
    <tag k="addr:city" v="Newport"/>
    <tag k="addr:housenumber" v="3936"/>
    <tag k="addr:street" v="Airport Road"/>
    <tag k="addr:state" v="VT"/>
    <tag k="ref:vcgi:esiteid" v="773081"/>
  </node>
  <node id="-758" visible="true" lat="44.883763269504" lon="-72.24526588931">
    <tag k="addr:city" v="Newport"/>
    <tag k="addr:housenumber" v="455"/>
    <tag k="addr:street" v="Hi Acres Road"/>
    <tag k="addr:state" v="VT"/>
    <tag k="ref:vcgi:esiteid" v="773854"/>
  </node>
  <node id="-759" visible="true" lat="44.882924890476" lon="-72.244056384538">
    <tag k="addr:city" v="Newport"/>
    <tag k="addr:housenumber" v="453"/>
    <tag k="addr:street" v="Hi Acres Road"/>
    <tag k="addr:state" v="VT"/>
    <tag k="ref:vcgi:esiteid" v="773911"/>
  </node>
  <node id="-760" visible="true" lat="44.886973393719" lon="-72.243957770398">
    <tag k="addr:city" v="Newport"/>
    <tag k="addr:housenumber" v="457"/>
    <tag k="addr:street" v="Hi Acres Road"/>
    <tag k="addr:state" v="VT"/>
    <tag k="ref:vcgi:esiteid" v="773912"/>
  </node>
</osm>
