<?xml version="1.0" encoding="UTF-8"?>
<osm version="0.6" generator="JOSM" upload="false">
  <node id="-976" visible="true" lat="43.357214052778" lon="-73.045991502781">
    <tag k="addr:city" v="Danby"/>
    <tag k="addr:housenumber" v="166"/>
    <tag k="addr:street" v="Tinmouth Road"/>
    <tag k="addr:state" v="VT"/>
    <tag k="ref:vcgi:esiteid" v="773226"/>
  </node>
  <node id="-977" visible="true" lat="43.392892715288" lon="-73.055304091508">
    <tag k="addr:city" v="Danby"/>
    <tag k="addr:housenumber" v="2575"/>
    <tag k="addr:street" v="Old Otis Road"/>
    <tag k="addr:state" v="VT"/>
    <tag k="ref:vcgi:esiteid" v="773412"/>
  </node>
</osm>
