<?xml version="1.0" encoding="UTF-8"?>
<osm version="0.6" generator="JOSM" upload="false">
  <node id="-1598" visible="true" lat="43.267234011369" lon="-73.077122848495">
    <tag k="addr:city" v="Dorset"/>
    <tag k="addr:housenumber" v="233"/>
    <tag k="addr:street" v="Twin Willows Lane"/>
    <tag k="addr:state" v="VT"/>
    <tag k="ref:vcgi:esiteid" v="500081"/>
  </node>
  <node id="-1599" visible="true" lat="43.267013600005" lon="-73.077746142914">
    <tag k="addr:city" v="Dorset"/>
    <tag k="addr:housenumber" v="237"/>
    <tag k="addr:street" v="Twin Willows Lane"/>
    <tag k="addr:state" v="VT"/>
    <tag k="ref:vcgi:esiteid" v="500092"/>
  </node>
</osm>
