<?xml version="1.0" encoding="UTF-8"?>
<osm version="0.6" generator="JOSM" upload="false">
  <node id="-572" visible="true" lat="42.928319123354" lon="-72.536698971945">
    <tag k="addr:city" v="Putney"/>
    <tag k="addr:housenumber" v="1238"/>
    <tag k="addr:street" v="United States Route 5"/>
    <tag k="addr:state" v="VT"/>
    <tag k="ref:vcgi:esiteid" v="89459"/>
  </node>
  <node id="-786" visible="true" lat="42.908440733833" lon="-72.544190565354">
    <tag k="addr:city" v="Brattleboro"/>
    <tag k="addr:housenumber" v="471"/>
    <tag k="addr:street" v="United States Route 5"/>
    <tag k="addr:state" v="VT"/>
    <tag k="ref:vcgi:esiteid" v="89678"/>
  </node>
  <node id="-788" visible="true" lat="42.908284330872" lon="-72.545052687013">
    <tag k="addr:city" v="Brattleboro"/>
    <tag k="addr:housenumber" v="451"/>
    <tag k="addr:street" v="United States Route 5"/>
    <tag k="addr:state" v="VT"/>
    <tag k="ref:vcgi:esiteid" v="89680"/>
  </node>
  <node id="-884" visible="true" lat="42.897141598551" lon="-72.551545303855">
    <tag k="addr:city" v="Brattleboro"/>
    <tag k="addr:housenumber" v="7"/>
    <tag k="addr:street" v="United States Route 5"/>
    <tag k="addr:state" v="VT"/>
    <tag k="ref:vcgi:esiteid" v="89778"/>
  </node>
  <node id="-929" visible="true" lat="42.91566227485" lon="-72.536151223856">
    <tag k="addr:city" v="Brattleboro"/>
    <tag k="addr:housenumber" v="780"/>
    <tag k="addr:street" v="United States Route 5"/>
    <tag k="addr:state" v="VT"/>
    <tag k="ref:vcgi:esiteid" v="89825"/>
  </node>
  <node id="-998" visible="true" lat="42.921281112955" lon="-72.638244978114">
    <tag k="addr:city" v="Brattleboro"/>
    <tag k="addr:housenumber" v="192"/>
    <tag k="addr:street" v="Hopkins Road"/>
    <tag k="addr:state" v="VT"/>
    <tag k="ref:vcgi:esiteid" v="89912"/>
  </node>
  <node id="-1144" visible="true" lat="42.925586112794" lon="-72.61568953805">
    <tag k="addr:city" v="Brattleboro"/>
    <tag k="addr:housenumber" v="255"/>
    <tag k="addr:street" v="Leonard Road"/>
    <tag k="addr:state" v="VT"/>
    <tag k="ref:vcgi:esiteid" v="773499"/>
  </node>
  <node id="-1146" visible="true" lat="42.922890479437" lon="-72.626723599223">
    <tag k="addr:city" v="Brattleboro"/>
    <tag k="addr:housenumber" v="360"/>
    <tag k="addr:street" v="Beaver Pond Road"/>
    <tag k="addr:state" v="VT"/>
    <tag k="ref:vcgi:esiteid" v="773844"/>
  </node>
  <node id="-1147" visible="true" lat="42.934856902742" lon="-72.569679601711">
    <tag k="addr:city" v="Putney"/>
    <tag k="addr:housenumber" v="937"/>
    <tag k="addr:street" v="East West Road"/>
    <tag k="addr:state" v="VT"/>
    <tag k="ref:vcgi:esiteid" v="773855"/>
  </node>
</osm>
