<?xml version="1.0" encoding="UTF-8"?>
<osm version="0.6" generator="JOSM" upload="false">
  <node id="-680" visible="true" lat="44.271186056502" lon="-72.484463435599">
    <tag k="addr:city" v="East Montpelier"/>
    <tag k="addr:housenumber" v="3070"/>
    <tag k="addr:street" v="United States Route 2"/>
    <tag k="addr:state" v="VT"/>
    <tag k="ref:vcgi:esiteid" v="91351"/>
  </node>
  <node id="-684" visible="true" lat="44.270944770893" lon="-72.486572258226">
    <tag k="addr:city" v="East Montpelier"/>
    <tag k="addr:housenumber" v="2952"/>
    <tag k="addr:street" v="United States Route 2"/>
    <tag k="addr:state" v="VT"/>
    <tag k="ref:vcgi:esiteid" v="91356"/>
  </node>
  <node id="-687" visible="true" lat="44.270955483171" lon="-72.45852015706">
    <tag k="addr:city" v="East Montpelier"/>
    <tag k="addr:housenumber" v="4473"/>
    <tag k="addr:street" v="United States Route 2"/>
    <tag k="addr:state" v="VT"/>
    <tag k="ref:vcgi:esiteid" v="91360"/>
  </node>
  <node id="-689" visible="true" lat="44.270816792297" lon="-72.459472125632">
    <tag k="addr:city" v="East Montpelier"/>
    <tag k="addr:housenumber" v="4379"/>
    <tag k="addr:street" v="United States Route 2"/>
    <tag k="addr:state" v="VT"/>
    <tag k="ref:vcgi:esiteid" v="91362"/>
  </node>
  <node id="-695" visible="true" lat="44.270643448378" lon="-72.487458286457">
    <tag k="addr:city" v="East Montpelier"/>
    <tag k="addr:housenumber" v="2915"/>
    <tag k="addr:street" v="United States Route 2"/>
    <tag k="addr:state" v="VT"/>
    <tag k="ref:vcgi:esiteid" v="91369"/>
  </node>
  <node id="-699" visible="true" lat="44.27047101338" lon="-72.486954919158">
    <tag k="addr:city" v="East Montpelier"/>
    <tag k="addr:housenumber" v="2910"/>
    <tag k="addr:street" v="United States Route 2"/>
    <tag k="addr:state" v="VT"/>
    <tag k="ref:vcgi:esiteid" v="91373"/>
  </node>
  <node id="-704" visible="true" lat="44.270188726312" lon="-72.487725488766">
    <tag k="addr:city" v="East Montpelier"/>
    <tag k="addr:housenumber" v="2875"/>
    <tag k="addr:street" v="United States Route 2"/>
    <tag k="addr:state" v="VT"/>
    <tag k="ref:vcgi:esiteid" v="91378"/>
  </node>
  <node id="-706" visible="true" lat="44.270085730601" lon="-72.470963701273">
    <tag k="addr:city" v="East Montpelier"/>
    <tag k="addr:housenumber" v="3773"/>
    <tag k="addr:street" v="United States Route 2"/>
    <tag k="addr:state" v="VT"/>
    <tag k="ref:vcgi:esiteid" v="91380"/>
  </node>
  <node id="-708" visible="true" lat="44.270036138966" lon="-72.48719906001">
    <tag k="addr:city" v="East Montpelier"/>
    <tag k="addr:housenumber" v="2878"/>
    <tag k="addr:street" v="United States Route 2"/>
    <tag k="addr:state" v="VT"/>
    <tag k="ref:vcgi:esiteid" v="91382"/>
  </node>
  <node id="-717" visible="true" lat="44.269330420063" lon="-72.46234248323">
    <tag k="addr:city" v="East Montpelier"/>
    <tag k="addr:housenumber" v="4213"/>
    <tag k="addr:street" v="United States Route 2"/>
    <tag k="addr:state" v="VT"/>
    <tag k="ref:vcgi:esiteid" v="91392"/>
  </node>
  <node id="-719" visible="true" lat="44.26927359132" lon="-72.46076620453">
    <tag k="addr:city" v="East Montpelier"/>
    <tag k="addr:housenumber" v="4243"/>
    <tag k="addr:street" v="United States Route 2"/>
    <tag k="addr:state" v="VT"/>
    <tag k="ref:vcgi:esiteid" v="91394"/>
  </node>
  <node id="-720" visible="true" lat="44.269132055413" lon="-72.460084183437">
    <tag k="addr:city" v="East Montpelier"/>
    <tag k="addr:housenumber" v="4323"/>
    <tag k="addr:street" v="United States Route 2"/>
    <tag k="addr:state" v="VT"/>
    <tag k="ref:vcgi:esiteid" v="91395"/>
  </node>
  <node id="-724" visible="true" lat="44.268906987567" lon="-72.488221399337">
    <tag k="addr:city" v="East Montpelier"/>
    <tag k="addr:housenumber" v="2784"/>
    <tag k="addr:street" v="United States Route 2"/>
    <tag k="addr:state" v="VT"/>
    <tag k="ref:vcgi:esiteid" v="91399"/>
  </node>
  <node id="-725" visible="true" lat="44.268819250947" lon="-72.466004594172">
    <tag k="addr:city" v="East Montpelier"/>
    <tag k="addr:housenumber" v="4038"/>
    <tag k="addr:street" v="United States Route 2"/>
    <tag k="addr:state" v="VT"/>
    <tag k="ref:vcgi:esiteid" v="91400"/>
  </node>
  <node id="-727" visible="true" lat="44.268685737523" lon="-72.466737016363">
    <tag k="addr:city" v="East Montpelier"/>
    <tag k="addr:housenumber" v="3998"/>
    <tag k="addr:street" v="United States Route 2"/>
    <tag k="addr:state" v="VT"/>
    <tag k="ref:vcgi:esiteid" v="91403"/>
  </node>
  <node id="-728" visible="true" lat="44.268632329881" lon="-72.48838161588">
    <tag k="addr:city" v="East Montpelier"/>
    <tag k="addr:housenumber" v="2764"/>
    <tag k="addr:street" v="United States Route 2"/>
    <tag k="addr:state" v="VT"/>
    <tag k="ref:vcgi:esiteid" v="91404"/>
  </node>
  <node id="-729" visible="true" lat="44.268456229395" lon="-72.466262794306">
    <tag k="addr:city" v="East Montpelier"/>
    <tag k="addr:housenumber" v="4028"/>
    <tag k="addr:street" v="United States Route 2"/>
    <tag k="addr:state" v="VT"/>
    <tag k="ref:vcgi:esiteid" v="91405"/>
  </node>
  <node id="-733" visible="true" lat="44.268186009762" lon="-72.489342919746">
    <tag k="addr:city" v="East Montpelier"/>
    <tag k="addr:housenumber" v="2713"/>
    <tag k="addr:street" v="United States Route 2"/>
    <tag k="addr:state" v="VT"/>
    <tag k="ref:vcgi:esiteid" v="91411"/>
  </node>
  <node id="-734" visible="true" lat="44.268025792405" lon="-72.489785426014">
    <tag k="addr:city" v="East Montpelier"/>
    <tag k="addr:housenumber" v="2689"/>
    <tag k="addr:street" v="United States Route 2"/>
    <tag k="addr:state" v="VT"/>
    <tag k="ref:vcgi:esiteid" v="91412"/>
  </node>
  <node id="-736" visible="true" lat="44.267843347834" lon="-72.455863857684">
    <tag k="addr:city" v="East Montpelier"/>
    <tag k="addr:housenumber" v="4458"/>
    <tag k="addr:street" v="United States Route 2"/>
    <tag k="addr:state" v="VT"/>
    <tag k="ref:vcgi:esiteid" v="91414"/>
  </node>
  <node id="-743" visible="true" lat="44.267140782855" lon="-72.490388147461">
    <tag k="addr:city" v="East Montpelier"/>
    <tag k="addr:housenumber" v="2624"/>
    <tag k="addr:street" v="United States Route 2"/>
    <tag k="addr:state" v="VT"/>
    <tag k="ref:vcgi:esiteid" v="91421"/>
  </node>
  <node id="-746" visible="true" lat="44.267018711815" lon="-72.490502588518">
    <tag k="addr:city" v="East Montpelier"/>
    <tag k="addr:housenumber" v="2614"/>
    <tag k="addr:street" v="United States Route 2"/>
    <tag k="addr:state" v="VT"/>
    <tag k="ref:vcgi:esiteid" v="91424"/>
  </node>
  <node id="-748" visible="true" lat="44.266829257691" lon="-72.492215975255">
    <tag k="addr:city" v="East Montpelier"/>
    <tag k="addr:housenumber" v="2537"/>
    <tag k="addr:street" v="United States Route 2"/>
    <tag k="addr:state" v="VT"/>
    <tag k="ref:vcgi:esiteid" v="91426"/>
  </node>
  <node id="-755" visible="true" lat="44.26627840183" lon="-72.491654850543">
    <tag k="addr:city" v="East Montpelier"/>
    <tag k="addr:housenumber" v="2540"/>
    <tag k="addr:street" v="United States Route 2"/>
    <tag k="addr:state" v="VT"/>
    <tag k="ref:vcgi:esiteid" v="91433"/>
  </node>
  <node id="-758" visible="true" lat="44.266098330842" lon="-72.494323521518">
    <tag k="addr:city" v="East Montpelier"/>
    <tag k="addr:housenumber" v="2419"/>
    <tag k="addr:street" v="United States Route 2"/>
    <tag k="addr:state" v="VT"/>
    <tag k="ref:vcgi:esiteid" v="91436"/>
  </node>
  <node id="-759" visible="true" lat="44.266085425375" lon="-72.493976959485">
    <tag k="addr:city" v="East Montpelier"/>
    <tag k="addr:housenumber" v="2427"/>
    <tag k="addr:street" v="United States Route 2"/>
    <tag k="addr:state" v="VT"/>
    <tag k="ref:vcgi:esiteid" v="91437"/>
  </node>
  <node id="-766" visible="true" lat="44.26519910172" lon="-72.497277492333">
    <tag k="addr:city" v="East Montpelier"/>
    <tag k="addr:housenumber" v="2283"/>
    <tag k="addr:street" v="United States Route 2"/>
    <tag k="addr:state" v="VT"/>
    <tag k="ref:vcgi:esiteid" v="91444"/>
  </node>
  <node id="-802" visible="true" lat="44.263135349121" lon="-72.496178859876">
    <tag k="addr:city" v="East Montpelier"/>
    <tag k="addr:housenumber" v="2188"/>
    <tag k="addr:street" v="United States Route 2"/>
    <tag k="addr:state" v="VT"/>
    <tag k="ref:vcgi:esiteid" v="91481"/>
  </node>
  <node id="-852" visible="true" lat="44.257675056797" lon="-72.502755617248">
    <tag k="addr:city" v="East Montpelier"/>
    <tag k="addr:housenumber" v="1713"/>
    <tag k="addr:street" v="United States Route 2"/>
    <tag k="addr:state" v="VT"/>
    <tag k="ref:vcgi:esiteid" v="91533"/>
  </node>
  <node id="-861" visible="true" lat="44.256989869988" lon="-72.501397365791">
    <tag k="addr:city" v="East Montpelier"/>
    <tag k="addr:housenumber" v="1678"/>
    <tag k="addr:street" v="United States Route 2"/>
    <tag k="addr:state" v="VT"/>
    <tag k="ref:vcgi:esiteid" v="91542"/>
  </node>
  <node id="-912" visible="true" lat="44.251717959054" lon="-72.502244230145">
    <tag k="addr:city" v="East Montpelier"/>
    <tag k="addr:housenumber" v="1293"/>
    <tag k="addr:street" v="United States Route 2"/>
    <tag k="addr:state" v="VT"/>
    <tag k="ref:vcgi:esiteid" v="91593"/>
  </node>
  <node id="-919" visible="true" lat="44.251186188119" lon="-72.500115013553">
    <tag k="addr:city" v="East Montpelier"/>
    <tag k="addr:housenumber" v="1248"/>
    <tag k="addr:street" v="United States Route 2"/>
    <tag k="addr:state" v="VT"/>
    <tag k="ref:vcgi:esiteid" v="91600"/>
  </node>
  <node id="-958" visible="true" lat="44.240676882795" lon="-72.506432010151">
    <tag k="addr:city" v="Montpelier"/>
    <tag k="addr:housenumber" v="418"/>
    <tag k="addr:street" v="United States Route 2"/>
    <tag k="addr:state" v="VT"/>
    <tag k="ref:vcgi:esiteid" v="91639"/>
  </node>
  <node id="-1043" visible="true" lat="44.270530162394" lon="-72.489259813838">
    <tag k="addr:city" v="East Montpelier"/>
    <tag k="addr:housenumber" v="2839"/>
    <tag k="addr:street" v="United States Route 2"/>
    <tag k="addr:state" v="VT"/>
    <tag k="ref:vcgi:esiteid" v="91726"/>
  </node>
  <node id="-1062" visible="true" lat="44.268060482376" lon="-72.466607918454">
    <tag k="addr:city" v="East Montpelier"/>
    <tag k="addr:housenumber" v="4014"/>
    <tag k="addr:street" v="United States Route 2"/>
    <tag k="addr:state" v="VT"/>
    <tag k="ref:vcgi:esiteid" v="91745"/>
  </node>
  <node id="-1171" visible="true" lat="44.270962557195" lon="-72.484463380485">
    <tag k="addr:city" v="East Montpelier"/>
    <tag k="addr:housenumber" v="3044"/>
    <tag k="addr:street" v="United States Route 2"/>
    <tag k="addr:state" v="VT"/>
    <tag k="ref:vcgi:esiteid" v="91855"/>
  </node>
  <node id="-1245" visible="true" lat="44.269867342777" lon="-72.46762074236">
    <tag k="addr:city" v="East Montpelier"/>
    <tag k="addr:housenumber" v="3947"/>
    <tag k="addr:street" v="United States Route 2"/>
    <tag k="addr:state" v="VT"/>
    <tag k="ref:vcgi:esiteid" v="338353"/>
  </node>
  <node id="-1291" visible="true" lat="44.267708924687" lon="-72.492616703087">
    <tag k="addr:city" v="East Montpelier"/>
    <tag k="addr:housenumber" v="2541"/>
    <tag k="addr:street" v="United States Route 2"/>
    <tag k="addr:state" v="VT"/>
    <tag k="ref:vcgi:esiteid" v="620033"/>
  </node>
  <node id="-1294" visible="true" lat="44.274204370937" lon="-72.451632294652">
    <tag k="addr:city" v="East Montpelier"/>
    <tag k="addr:housenumber" v="4769"/>
    <tag k="addr:street" v="United States Route 2"/>
    <tag k="addr:state" v="VT"/>
    <tag k="ref:vcgi:esiteid" v="620036"/>
  </node>
  <node id="-1344" visible="true" lat="44.272561587611" lon="-72.481191817333">
    <tag k="addr:city" v="East Montpelier"/>
    <tag k="addr:housenumber" v="3167"/>
    <tag k="addr:street" v="United States Route 2"/>
    <tag k="addr:state" v="VT"/>
    <tag k="ref:vcgi:esiteid" v="765662"/>
  </node>
  <node id="-1363" visible="true" lat="44.286560455377" lon="-72.536008783052">
    <tag k="addr:city" v="Montpelier"/>
    <tag k="addr:housenumber" v="358"/>
    <tag k="addr:street" v="Barnes Road"/>
    <tag k="addr:state" v="VT"/>
    <tag k="ref:vcgi:esiteid" v="773399"/>
  </node>
  <node id="-1364" visible="true" lat="44.294375149697" lon="-72.540538010771">
    <tag k="addr:city" v="Montpelier"/>
    <tag k="addr:housenumber" v="1691"/>
    <tag k="addr:street" v="County Road"/>
    <tag k="addr:state" v="VT"/>
    <tag k="ref:vcgi:esiteid" v="773768"/>
  </node>
</osm>
