<?xml version="1.0" encoding="UTF-8"?>
<osm version="0.6" generator="JOSM" upload="false">
  <node id="-4390" visible="true" lat="44.519783945598" lon="-73.120766437777">
    <tag k="addr:city" v="Essex Junction"/>
    <tag k="addr:housenumber" v="30"/>
    <tag k="addr:street" v="Kodiak Lane"/>
    <tag k="addr:state" v="VT"/>
    <tag k="ref:vcgi:esiteid" v="773147"/>
  </node>
  <node id="-4391" visible="true" lat="44.51978394529" lon="-73.121267487486">
    <tag k="addr:city" v="Essex Junction"/>
    <tag k="addr:housenumber" v="23"/>
    <tag k="addr:street" v="Kodiak Lane"/>
    <tag k="addr:state" v="VT"/>
    <tag k="ref:vcgi:esiteid" v="773148"/>
  </node>
  <node id="-4392" visible="true" lat="44.519557948624" lon="-73.121191240747">
    <tag k="addr:city" v="Essex Junction"/>
    <tag k="addr:housenumber" v="41"/>
    <tag k="addr:street" v="Kodiak Lane"/>
    <tag k="addr:state" v="VT"/>
    <tag k="ref:vcgi:esiteid" v="773149"/>
  </node>
  <node id="-4393" visible="true" lat="44.519647568819" lon="-73.12072286771">
    <tag k="addr:city" v="Essex Junction"/>
    <tag k="addr:housenumber" v="36"/>
    <tag k="addr:street" v="Kodiak Lane"/>
    <tag k="addr:state" v="VT"/>
    <tag k="ref:vcgi:esiteid" v="773150"/>
  </node>
  <node id="-4394" visible="true" lat="44.519495605249" lon="-73.120739206365">
    <tag k="addr:city" v="Essex Junction"/>
    <tag k="addr:housenumber" v="52"/>
    <tag k="addr:street" v="Kodiak Lane"/>
    <tag k="addr:state" v="VT"/>
    <tag k="ref:vcgi:esiteid" v="773151"/>
  </node>
  <node id="-4395" visible="true" lat="44.519347537531" lon="-73.120706528745">
    <tag k="addr:city" v="Essex Junction"/>
    <tag k="addr:housenumber" v="58"/>
    <tag k="addr:street" v="Kodiak Lane"/>
    <tag k="addr:state" v="VT"/>
    <tag k="ref:vcgi:esiteid" v="773152"/>
  </node>
  <node id="-4396" visible="true" lat="44.518930608617" lon="-73.120902592591">
    <tag k="addr:city" v="Essex Junction"/>
    <tag k="addr:housenumber" v="76"/>
    <tag k="addr:street" v="Kodiak Lane"/>
    <tag k="addr:state" v="VT"/>
    <tag k="ref:vcgi:esiteid" v="773153"/>
  </node>
  <node id="-4397" visible="true" lat="44.518840988461" lon="-73.12109865548">
    <tag k="addr:city" v="Essex Junction"/>
    <tag k="addr:housenumber" v="80"/>
    <tag k="addr:street" v="Kodiak Lane"/>
    <tag k="addr:state" v="VT"/>
    <tag k="ref:vcgi:esiteid" v="773154"/>
  </node>
  <node id="-4398" visible="true" lat="44.51887995335" lon="-73.121376411419">
    <tag k="addr:city" v="Essex Junction"/>
    <tag k="addr:housenumber" v="86"/>
    <tag k="addr:street" v="Kodiak Lane"/>
    <tag k="addr:state" v="VT"/>
    <tag k="ref:vcgi:esiteid" v="773155"/>
  </node>
  <node id="-4399" visible="true" lat="44.519082573637" lon="-73.121583366562">
    <tag k="addr:city" v="Essex Junction"/>
    <tag k="addr:housenumber" v="90"/>
    <tag k="addr:street" v="Kodiak Lane"/>
    <tag k="addr:state" v="VT"/>
    <tag k="ref:vcgi:esiteid" v="773156"/>
  </node>
  <node id="-4400" visible="true" lat="44.519320261965" lon="-73.121561581917">
    <tag k="addr:city" v="Essex Junction"/>
    <tag k="addr:housenumber" v="98"/>
    <tag k="addr:street" v="Kodiak Lane"/>
    <tag k="addr:state" v="VT"/>
    <tag k="ref:vcgi:esiteid" v="773157"/>
  </node>
  <node id="-4401" visible="true" lat="44.519452743724" lon="-73.12138730316">
    <tag k="addr:city" v="Essex Junction"/>
    <tag k="addr:housenumber" v="106"/>
    <tag k="addr:street" v="Kodiak Lane"/>
    <tag k="addr:state" v="VT"/>
    <tag k="ref:vcgi:esiteid" v="773158"/>
  </node>
</osm>
