<?xml version="1.0" encoding="UTF-8"?>
<osm version="0.6" generator="JOSM" upload="false">
  <node id="-2092" visible="true" lat="44.74256591049" lon="-73.070816180007">
    <tag k="addr:city" v="Fairfax"/>
    <tag k="addr:housenumber" v="49"/>
    <tag k="addr:street" v="Wiggins Road"/>
    <tag k="addr:state" v="VT"/>
    <tag k="ref:vcgi:esiteid" v="500090"/>
  </node>
  <node id="-2093" visible="true" lat="44.742370850598" lon="-73.072023011078">
    <tag k="addr:city" v="Fairfax"/>
    <tag k="addr:housenumber" v="61"/>
    <tag k="addr:street" v="Wiggins Road"/>
    <tag k="addr:state" v="VT"/>
    <tag k="ref:vcgi:esiteid" v="500093"/>
  </node>
  <node id="-2094" visible="true" lat="44.678382745574" lon="-72.957121101697">
    <tag k="addr:city" v="Cambridge"/>
    <tag k="addr:housenumber" v="83"/>
    <tag k="addr:street" v="Comette Road"/>
    <tag k="addr:state" v="VT"/>
    <tag k="ref:vcgi:esiteid" v="600012"/>
  </node>
  <node id="-2195" visible="true" lat="44.663121537486" lon="-73.001396581296">
    <tag k="addr:city" v="Fairfax"/>
    <tag k="addr:housenumber" v="71"/>
    <tag k="addr:street" v="River Road"/>
    <tag k="addr:state" v="VT"/>
    <tag k="ref:vcgi:esiteid" v="646635"/>
  </node>
  <node id="-2349" visible="true" lat="44.677111450671" lon="-72.963415920309">
    <tag k="addr:city" v="Cambridge"/>
    <tag k="addr:housenumber" v="78"/>
    <tag k="addr:street" v="Comette Road"/>
    <tag k="addr:state" v="VT"/>
    <tag k="ref:vcgi:esiteid" v="773522"/>
  </node>
</osm>
