<?xml version="1.0" encoding="UTF-8"?>
<osm version="0.6" generator="JOSM" upload="false">
  <node id="-1226" visible="true" lat="44.80788606" lon="-72.96809246">
    <tag k="addr:housenumber" v="1297"/>
    <tag k="addr:street" v="Church Road"/>
    <tag k="addr:state" v="VT"/>
    <tag k="ref:vcgi:esiteid" v="767768"/>
  </node>
  <node id="-1238" visible="true" lat="44.84765677" lon="-72.97863461">
    <tag k="addr:housenumber" v="745"/>
    <tag k="addr:street" v="Reynolds Road"/>
    <tag k="addr:state" v="VT"/>
    <tag k="ref:vcgi:esiteid" v="773002"/>
  </node>
</osm>
