<?xml version="1.0" encoding="UTF-8"?>
<osm version="0.6" generator="JOSM" upload="false">
  <node id="-1032" visible="true" lat="44.97063939929" lon="-72.964512360839">
    <tag k="addr:city" v="Franklin"/>
    <tag k="addr:housenumber" v="2126"/>
    <tag k="addr:street" v="Browns Corner Road"/>
    <tag k="addr:state" v="VT"/>
    <tag k="ref:vcgi:esiteid" v="656614"/>
  </node>
  <node id="-1033" visible="true" lat="44.999898994044" lon="-72.903281814657">
    <tag k="addr:city" v="Franklin"/>
    <tag k="addr:housenumber" v="1209"/>
    <tag k="addr:street" v="Middle Road"/>
    <tag k="addr:state" v="VT"/>
    <tag k="ref:vcgi:esiteid" v="656758"/>
  </node>
  <node id="-1034" visible="true" lat="44.971786428883" lon="-72.887268350684">
    <tag k="addr:city" v="Franklin"/>
    <tag k="addr:housenumber" v="361"/>
    <tag k="addr:street" v="Black Woods Road"/>
    <tag k="addr:state" v="VT"/>
    <tag k="ref:vcgi:esiteid" v="656759"/>
  </node>
  <node id="-1035" visible="true" lat="44.935747272734" lon="-72.828196158103">
    <tag k="addr:city" v="Enosburg Falls"/>
    <tag k="addr:housenumber" v="2041"/>
    <tag k="addr:street" v="Colton Road"/>
    <tag k="addr:state" v="VT"/>
    <tag k="ref:vcgi:esiteid" v="656760"/>
  </node>
  <node id="-1122" visible="true" lat="44.973174076191" lon="-72.841546731305">
    <tag k="addr:city" v="Enosburg Falls"/>
    <tag k="addr:housenumber" v="588"/>
    <tag k="addr:street" v="Towle Neighborhood Road"/>
    <tag k="addr:state" v="VT"/>
    <tag k="ref:vcgi:esiteid" v="773436"/>
  </node>
  <node id="-1123" visible="true" lat="44.976668395893" lon="-72.887558894273">
    <tag k="addr:city" v="Franklin"/>
    <tag k="addr:housenumber" v="93"/>
    <tag k="addr:street" v="Sandy Bay Road"/>
    <tag k="addr:state" v="VT"/>
    <tag k="ref:vcgi:esiteid" v="773828"/>
  </node>
</osm>
