<?xml version="1.0" encoding="UTF-8"?>
<osm version="0.6" generator="JOSM" upload="false">
  <node id="-2157" visible="true" lat="44.727518838476" lon="-73.114636024097">
    <tag k="addr:city" v="Saint Albans"/>
    <tag k="addr:housenumber" v="149"/>
    <tag k="addr:street" v="Carpenter Hill Road"/>
    <tag k="addr:state" v="VT"/>
    <tag k="ref:vcgi:esiteid" v="656746"/>
  </node>
  <node id="-2158" visible="true" lat="44.700421722553" lon="-73.074620700556">
    <tag k="addr:city" v="Fairfax"/>
    <tag k="addr:housenumber" v="412"/>
    <tag k="addr:street" v="Bovat Road"/>
    <tag k="addr:state" v="VT"/>
    <tag k="ref:vcgi:esiteid" v="656747"/>
  </node>
</osm>
