<?xml version="1.0" encoding="UTF-8"?>
<osm version="0.6" generator="JOSM" upload="false">
  <node id="-100" visible="true" lat="43.843007240144" lon="-73.028682478291">
    <!-- conflict: "59 Town Hill Road, Brandon, VT" Fuzzy match to "59 Town Hill Road, Goshen, VT" -->
    <tag k="addr:city" v="Brandon"/>
    <tag k="addr:housenumber" v="59"/>
    <tag k="addr:street" v="Town Hill Road"/>
    <tag k="addr:state" v="VT"/>
    <tag k="ref:vcgi:esiteid" v="36"/>
  </node>
  <node id="-101" visible="true" lat="43.91906417811" lon="-73.026236198929">
    <!-- conflict: "3464 Goshen Ripton Road, Brandon, VT" Fuzzy match to "3464 Goshen Ripton Road, Goshen, VT" -->
    <tag k="addr:city" v="Brandon"/>
    <tag k="addr:housenumber" v="3464"/>
    <tag k="addr:street" v="Goshen Ripton Road"/>
    <tag k="addr:state" v="VT"/>
    <tag k="ref:vcgi:esiteid" v="112451"/>
  </node>
  <node id="-102" visible="true" lat="43.907075871828" lon="-73.016226956102">
    <!-- conflict: "2479 Goshen Ripton Road, Brandon, VT" Fuzzy match to "2479 Goshen Ripton Road, Goshen, VT" -->
    <tag k="addr:city" v="Brandon"/>
    <tag k="addr:housenumber" v="2479"/>
    <tag k="addr:street" v="Goshen Ripton Road"/>
    <tag k="addr:state" v="VT"/>
    <tag k="ref:vcgi:esiteid" v="112452"/>
  </node>
  <node id="-103" visible="true" lat="43.905441180008" lon="-73.016317511009">
    <!-- conflict: "2401 Goshen Ripton Road, Brandon, VT" Fuzzy match to "2401 Goshen Ripton Road, Goshen, VT" -->
    <tag k="addr:city" v="Brandon"/>
    <tag k="addr:housenumber" v="2401"/>
    <tag k="addr:street" v="Goshen Ripton Road"/>
    <tag k="addr:state" v="VT"/>
    <tag k="ref:vcgi:esiteid" v="112453"/>
  </node>
  <node id="-104" visible="true" lat="43.901941816685" lon="-73.014840139099">
    <!-- conflict: "2129 Goshen Ripton Road, Brandon, VT" Fuzzy match to "2129 Goshen Ripton Road, Goshen, VT" -->
    <tag k="addr:city" v="Brandon"/>
    <tag k="addr:housenumber" v="2129"/>
    <tag k="addr:street" v="Goshen Ripton Road"/>
    <tag k="addr:state" v="VT"/>
    <tag k="ref:vcgi:esiteid" v="112454"/>
  </node>
  <node id="-105" visible="true" lat="43.901367604254" lon="-73.012609757831">
    <!-- conflict: "2121 Goshen Ripton Road, Brandon, VT" Fuzzy match to "2121 Goshen Ripton Road, Goshen, VT" -->
    <tag k="addr:city" v="Brandon"/>
    <tag k="addr:housenumber" v="2121"/>
    <tag k="addr:street" v="Goshen Ripton Road"/>
    <tag k="addr:state" v="VT"/>
    <tag k="ref:vcgi:esiteid" v="112455"/>
  </node>
  <node id="-106" visible="true" lat="43.900936330919" lon="-73.021820932283">
    <!-- conflict: "344 Lady Slipper Lane, Brandon, VT" Fuzzy match to "344 Lady Slipper Lane, Goshen, VT" -->
    <tag k="addr:city" v="Brandon"/>
    <tag k="addr:housenumber" v="344"/>
    <tag k="addr:street" v="Lady Slipper Lane"/>
    <tag k="addr:state" v="VT"/>
    <tag k="ref:vcgi:esiteid" v="112456"/>
  </node>
  <node id="-107" visible="true" lat="43.901207144267" lon="-73.009939217533">
    <!-- conflict: "227 Broken Wire Drive, Brandon, VT" Fuzzy match to "227 Broken Wire Drive, Goshen, VT" -->
    <tag k="addr:city" v="Brandon"/>
    <tag k="addr:housenumber" v="227"/>
    <tag k="addr:street" v="Broken Wire Drive"/>
    <tag k="addr:state" v="VT"/>
    <tag k="ref:vcgi:esiteid" v="112457"/>
  </node>
  <node id="-108" visible="true" lat="43.90039357118" lon="-73.013395665997">
    <!-- conflict: "2029 Goshen Ripton Road, Brandon, VT" Fuzzy match to "2029 Goshen Ripton Road, Goshen, VT" -->
    <tag k="addr:city" v="Brandon"/>
    <tag k="addr:housenumber" v="2029"/>
    <tag k="addr:street" v="Goshen Ripton Road"/>
    <tag k="addr:state" v="VT"/>
    <tag k="ref:vcgi:esiteid" v="112458"/>
  </node>
  <node id="-109" visible="true" lat="43.900147775776" lon="-73.016072062808">
    <!-- conflict: "2010 Goshen Ripton Road, Brandon, VT" Fuzzy match to "2010 Goshen Ripton Road, Goshen, VT" -->
    <tag k="addr:city" v="Brandon"/>
    <tag k="addr:housenumber" v="2010"/>
    <tag k="addr:street" v="Goshen Ripton Road"/>
    <tag k="addr:state" v="VT"/>
    <tag k="ref:vcgi:esiteid" v="112459"/>
  </node>
  <node id="-110" visible="true" lat="43.899635565434" lon="-73.010404912714">
    <!-- conflict: "184 Broken Wire Drive, Brandon, VT" Fuzzy match to "184 Broken Wire Drive, Goshen, VT" -->
    <tag k="addr:city" v="Brandon"/>
    <tag k="addr:housenumber" v="184"/>
    <tag k="addr:street" v="Broken Wire Drive"/>
    <tag k="addr:state" v="VT"/>
    <tag k="ref:vcgi:esiteid" v="112460"/>
  </node>
  <node id="-111" visible="true" lat="43.896444256019" lon="-73.013407659329">
    <!-- conflict: "1742 Goshen Ripton Road, Brandon, VT" Fuzzy match to "1742 Goshen Ripton Road, Goshen, VT" -->
    <tag k="addr:city" v="Brandon"/>
    <tag k="addr:housenumber" v="1742"/>
    <tag k="addr:street" v="Goshen Ripton Road"/>
    <tag k="addr:state" v="VT"/>
    <tag k="ref:vcgi:esiteid" v="112461"/>
  </node>
  <node id="-112" visible="true" lat="43.893910716132" lon="-73.029290582889">
    <!-- conflict: "1101 Dutton Brook Road, Brandon, VT" Fuzzy match to "1101 Dutton Brook Road, Goshen, VT" -->
    <tag k="addr:city" v="Brandon"/>
    <tag k="addr:housenumber" v="1101"/>
    <tag k="addr:street" v="Dutton Brook Road"/>
    <tag k="addr:state" v="VT"/>
    <tag k="ref:vcgi:esiteid" v="112462"/>
  </node>
  <node id="-113" visible="true" lat="43.893889870433" lon="-73.012206992145">
    <!-- conflict: "1544 Goshen Ripton Road, Brandon, VT" Fuzzy match to "1544 Goshen Ripton Road, Goshen, VT" -->
    <tag k="addr:city" v="Brandon"/>
    <tag k="addr:housenumber" v="1544"/>
    <tag k="addr:street" v="Goshen Ripton Road"/>
    <tag k="addr:state" v="VT"/>
    <tag k="ref:vcgi:esiteid" v="112463"/>
  </node>
  <node id="-114" visible="true" lat="43.893235354327" lon="-73.012558467767">
    <!-- conflict: "1518 Goshen Ripton Road, Brandon, VT" Fuzzy match to "1518 Goshen Ripton Road, Goshen, VT" -->
    <tag k="addr:city" v="Brandon"/>
    <tag k="addr:housenumber" v="1518"/>
    <tag k="addr:street" v="Goshen Ripton Road"/>
    <tag k="addr:state" v="VT"/>
    <tag k="ref:vcgi:esiteid" v="112464"/>
  </node>
  <node id="-115" visible="true" lat="43.892854044692" lon="-73.025605582974">
    <!-- conflict: "901 Dutton Brook Road, Brandon, VT" Fuzzy match to "901 Dutton Brook Road, Goshen, VT" -->
    <tag k="addr:city" v="Brandon"/>
    <tag k="addr:housenumber" v="901"/>
    <tag k="addr:street" v="Dutton Brook Road"/>
    <tag k="addr:state" v="VT"/>
    <tag k="ref:vcgi:esiteid" v="112465"/>
  </node>
  <node id="-116" visible="true" lat="43.891025085088" lon="-73.019103198449">
    <!-- conflict: "521 Dutton Brook Road, Brandon, VT" Fuzzy match to "521 Dutton Brook Road, Goshen, VT" -->
    <tag k="addr:city" v="Brandon"/>
    <tag k="addr:housenumber" v="521"/>
    <tag k="addr:street" v="Dutton Brook Road"/>
    <tag k="addr:state" v="VT"/>
    <tag k="ref:vcgi:esiteid" v="112466"/>
  </node>
  <node id="-117" visible="true" lat="43.890603374197" lon="-73.009179491903">
    <!-- conflict: "1307 Goshen Ripton Road, Brandon, VT" Fuzzy match to "1307 Goshen Ripton Road, Goshen, VT" -->
    <tag k="addr:city" v="Brandon"/>
    <tag k="addr:housenumber" v="1307"/>
    <tag k="addr:street" v="Goshen Ripton Road"/>
    <tag k="addr:state" v="VT"/>
    <tag k="ref:vcgi:esiteid" v="112467"/>
  </node>
  <node id="-118" visible="true" lat="43.890248605498" lon="-73.019570731212">
    <!-- conflict: "517 Dutton Brook Road, Brandon, VT" Fuzzy match to "517 Dutton Brook Road, Goshen, VT" -->
    <tag k="addr:city" v="Brandon"/>
    <tag k="addr:housenumber" v="517"/>
    <tag k="addr:street" v="Dutton Brook Road"/>
    <tag k="addr:state" v="VT"/>
    <tag k="ref:vcgi:esiteid" v="112468"/>
  </node>
  <node id="-119" visible="true" lat="43.890122158358" lon="-73.010368466684">
    <!-- conflict: "1291 Goshen Ripton Road, Brandon, VT" Fuzzy match to "1291 Goshen Ripton Road, Goshen, VT" -->
    <tag k="addr:city" v="Brandon"/>
    <tag k="addr:housenumber" v="1291"/>
    <tag k="addr:street" v="Goshen Ripton Road"/>
    <tag k="addr:state" v="VT"/>
    <tag k="ref:vcgi:esiteid" v="112469"/>
  </node>
  <node id="-120" visible="true" lat="43.889839234913" lon="-73.010831503264">
    <!-- conflict: "1288 Goshen Ripton Road, Brandon, VT" Fuzzy match to "1288 Goshen Ripton Road, Goshen, VT" -->
    <tag k="addr:city" v="Brandon"/>
    <tag k="addr:housenumber" v="1288"/>
    <tag k="addr:street" v="Goshen Ripton Road"/>
    <tag k="addr:state" v="VT"/>
    <tag k="ref:vcgi:esiteid" v="112470"/>
  </node>
  <node id="-121" visible="true" lat="43.890052253279" lon="-73.010313435093">
    <!-- conflict: "1283 Goshen Ripton Road, Brandon, VT" Fuzzy match to "1283 Goshen Ripton Road, Goshen, VT" -->
    <tag k="addr:city" v="Brandon"/>
    <tag k="addr:housenumber" v="1283"/>
    <tag k="addr:street" v="Goshen Ripton Road"/>
    <tag k="addr:state" v="VT"/>
    <tag k="ref:vcgi:esiteid" v="112471"/>
  </node>
  <node id="-122" visible="true" lat="43.889681516305" lon="-73.009750424727">
    <!-- conflict: "1245 Goshen Ripton Road, Brandon, VT" Fuzzy match to "1245 Goshen Ripton Road, Goshen, VT" -->
    <tag k="addr:city" v="Brandon"/>
    <tag k="addr:housenumber" v="1245"/>
    <tag k="addr:street" v="Goshen Ripton Road"/>
    <tag k="addr:state" v="VT"/>
    <tag k="ref:vcgi:esiteid" v="112472"/>
  </node>
  <node id="-123" visible="true" lat="43.889371226379" lon="-73.017869375703">
    <!-- conflict: "406 Dutton Brook Road, Brandon, VT" Fuzzy match to "406 Dutton Brook Road, Goshen, VT" -->
    <tag k="addr:city" v="Brandon"/>
    <tag k="addr:housenumber" v="406"/>
    <tag k="addr:street" v="Dutton Brook Road"/>
    <tag k="addr:state" v="VT"/>
    <tag k="ref:vcgi:esiteid" v="112473"/>
  </node>
  <node id="-124" visible="true" lat="43.88791518954" lon="-73.010664144943">
    <!-- conflict: "1110 Goshen Ripton Road, Brandon, VT" Fuzzy match to "1110 Goshen Ripton Road, Goshen, VT" -->
    <tag k="addr:city" v="Brandon"/>
    <tag k="addr:housenumber" v="1110"/>
    <tag k="addr:street" v="Goshen Ripton Road"/>
    <tag k="addr:state" v="VT"/>
    <tag k="ref:vcgi:esiteid" v="112474"/>
  </node>
  <node id="-125" visible="true" lat="43.879826621161" lon="-73.028323343421">
    <!-- conflict: "947 Silver Lake Road, Brandon, VT" Fuzzy match to "947 Silver Lake Road, Goshen, VT" -->
    <tag k="addr:city" v="Brandon"/>
    <tag k="addr:housenumber" v="947"/>
    <tag k="addr:street" v="Silver Lake Road"/>
    <tag k="addr:state" v="VT"/>
    <tag k="ref:vcgi:esiteid" v="112475"/>
  </node>
  <node id="-126" visible="true" lat="43.879359787388" lon="-73.029268196665">
    <!-- conflict: "945 Silver Lake Road, Brandon, VT" Fuzzy match to "945 Silver Lake Road, Goshen, VT" -->
    <tag k="addr:city" v="Brandon"/>
    <tag k="addr:housenumber" v="945"/>
    <tag k="addr:street" v="Silver Lake Road"/>
    <tag k="addr:state" v="VT"/>
    <tag k="ref:vcgi:esiteid" v="112476"/>
  </node>
  <node id="-127" visible="true" lat="43.878030076411" lon="-73.031722088325">
    <!-- conflict: "996 Silver Lake Road, Brandon, VT" Fuzzy match to "996 Silver Lake Road, Goshen, VT" -->
    <tag k="addr:city" v="Brandon"/>
    <tag k="addr:housenumber" v="996"/>
    <tag k="addr:street" v="Silver Lake Road"/>
    <tag k="addr:state" v="VT"/>
    <tag k="ref:vcgi:esiteid" v="112477"/>
  </node>
  <node id="-128" visible="true" lat="43.877972908398" lon="-73.012215991137">
    <!-- conflict: "423 Goshen Ripton Road, Brandon, VT" Fuzzy match to "423 Goshen Ripton Road, Goshen, VT" -->
    <tag k="addr:city" v="Brandon"/>
    <tag k="addr:housenumber" v="423"/>
    <tag k="addr:street" v="Goshen Ripton Road"/>
    <tag k="addr:state" v="VT"/>
    <tag k="ref:vcgi:esiteid" v="112478"/>
  </node>
  <node id="-129" visible="true" lat="43.876729507553" lon="-73.029457143172">
    <!-- conflict: "95 Hayes Road, Brandon, VT" Fuzzy match to "95 Hayes Road, Goshen, VT" -->
    <tag k="addr:city" v="Brandon"/>
    <tag k="addr:housenumber" v="95"/>
    <tag k="addr:street" v="Hayes Road"/>
    <tag k="addr:state" v="VT"/>
    <tag k="ref:vcgi:esiteid" v="112479"/>
  </node>
  <node id="-130" visible="true" lat="43.876391879135" lon="-73.027819625002">
    <!-- conflict: "10 Hayes Road, Brandon, VT" Fuzzy match to "10 Hayes Road, Goshen, VT" -->
    <tag k="addr:city" v="Brandon"/>
    <tag k="addr:housenumber" v="10"/>
    <tag k="addr:street" v="Hayes Road"/>
    <tag k="addr:state" v="VT"/>
    <tag k="ref:vcgi:esiteid" v="112480"/>
  </node>
  <node id="-131" visible="true" lat="43.875978401475" lon="-73.026082011977">
    <!-- conflict: "670 Silver Lake Road, Brandon, VT" Fuzzy match to "670 Silver Lake Road, Goshen, VT" -->
    <tag k="addr:city" v="Brandon"/>
    <tag k="addr:housenumber" v="670"/>
    <tag k="addr:street" v="Silver Lake Road"/>
    <tag k="addr:state" v="VT"/>
    <tag k="ref:vcgi:esiteid" v="112481"/>
  </node>
  <node id="-132" visible="true" lat="43.875884055039" lon="-73.029015743985">
    <!-- conflict: "88 Hayes Road, Brandon, VT" Fuzzy match to "88 Hayes Road, Goshen, VT" -->
    <tag k="addr:city" v="Brandon"/>
    <tag k="addr:housenumber" v="88"/>
    <tag k="addr:street" v="Hayes Road"/>
    <tag k="addr:state" v="VT"/>
    <tag k="ref:vcgi:esiteid" v="112482"/>
  </node>
  <node id="-133" visible="true" lat="43.874956263983" lon="-73.030057930513">
    <!-- conflict: "184 Hayes Road, Brandon, VT" Fuzzy match to "184 Hayes Road, Goshen, VT" -->
    <tag k="addr:city" v="Brandon"/>
    <tag k="addr:housenumber" v="184"/>
    <tag k="addr:street" v="Hayes Road"/>
    <tag k="addr:state" v="VT"/>
    <tag k="ref:vcgi:esiteid" v="112483"/>
  </node>
  <node id="-134" visible="true" lat="43.874690550843" lon="-73.004553938765">
    <!-- conflict: "370 National Forest Road 224, Brandon, VT" Fuzzy match to "370 National Forest Road 224, Goshen, VT" -->
    <tag k="addr:city" v="Brandon"/>
    <tag k="addr:housenumber" v="370"/>
    <tag k="addr:street" v="National Forest Road 224"/>
    <tag k="addr:state" v="VT"/>
    <tag k="ref:vcgi:esiteid" v="112484"/>
  </node>
  <node id="-135" visible="true" lat="43.874592908288" lon="-73.024012050237">
    <!-- conflict: "483 Silver Lake Road, Brandon, VT" Fuzzy match to "483 Silver Lake Road, Goshen, VT" -->
    <tag k="addr:city" v="Brandon"/>
    <tag k="addr:housenumber" v="483"/>
    <tag k="addr:street" v="Silver Lake Road"/>
    <tag k="addr:state" v="VT"/>
    <tag k="ref:vcgi:esiteid" v="112485"/>
  </node>
  <node id="-136" visible="true" lat="43.874283434786" lon="-73.013936811902">
    <!-- conflict: "167 Goshen Ripton Road, Brandon, VT" Fuzzy match to "167 Goshen Ripton Road, Goshen, VT" -->
    <tag k="addr:city" v="Brandon"/>
    <tag k="addr:housenumber" v="167"/>
    <tag k="addr:street" v="Goshen Ripton Road"/>
    <tag k="addr:state" v="VT"/>
    <tag k="ref:vcgi:esiteid" v="112486"/>
  </node>
  <node id="-137" visible="true" lat="43.874201742475" lon="-73.022941948371">
    <!-- conflict: "431 Silver Lake Road, Brandon, VT" Fuzzy match to "431 Silver Lake Road, Goshen, VT" -->
    <tag k="addr:city" v="Brandon"/>
    <tag k="addr:housenumber" v="431"/>
    <tag k="addr:street" v="Silver Lake Road"/>
    <tag k="addr:state" v="VT"/>
    <tag k="ref:vcgi:esiteid" v="112487"/>
  </node>
  <node id="-138" visible="true" lat="43.873979514441" lon="-73.031085998671">
    <!-- conflict: "257 Hayes Road, Brandon, VT" Fuzzy match to "257 Hayes Road, Goshen, VT" -->
    <tag k="addr:city" v="Brandon"/>
    <tag k="addr:housenumber" v="257"/>
    <tag k="addr:street" v="Hayes Road"/>
    <tag k="addr:state" v="VT"/>
    <tag k="ref:vcgi:esiteid" v="112488"/>
  </node>
  <node id="-139" visible="true" lat="43.873715704319" lon="-73.031770135592">
    <!-- conflict: "297 Hayes Road, Brandon, VT" Fuzzy match to "297 Hayes Road, Goshen, VT" -->
    <tag k="addr:city" v="Brandon"/>
    <tag k="addr:housenumber" v="297"/>
    <tag k="addr:street" v="Hayes Road"/>
    <tag k="addr:state" v="VT"/>
    <tag k="ref:vcgi:esiteid" v="112489"/>
  </node>
  <node id="-140" visible="true" lat="43.873407902039" lon="-73.029274375563">
    <!-- conflict: "74 Hayes Road Extension, Brandon, VT" Fuzzy match to "74 Hayes Road Extension, Goshen, VT" -->
    <tag k="addr:city" v="Brandon"/>
    <tag k="addr:housenumber" v="74"/>
    <tag k="addr:street" v="Hayes Road Extension"/>
    <tag k="addr:state" v="VT"/>
    <tag k="ref:vcgi:esiteid" v="112490"/>
  </node>
  <node id="-141" visible="true" lat="43.873208653995" lon="-73.018527798751">
    <!-- conflict: "197 Silver Lake Road, Brandon, VT" Fuzzy match to "197 Silver Lake Road, Goshen, VT" -->
    <tag k="addr:city" v="Brandon"/>
    <tag k="addr:housenumber" v="197"/>
    <tag k="addr:street" v="Silver Lake Road"/>
    <tag k="addr:state" v="VT"/>
    <tag k="ref:vcgi:esiteid" v="112491"/>
  </node>
  <node id="-142" visible="true" lat="43.872748647583" lon="-73.032162978715">
    <!-- conflict: "345 Hayes Road, Brandon, VT" Fuzzy match to "345 Hayes Road, Goshen, VT" -->
    <tag k="addr:city" v="Brandon"/>
    <tag k="addr:housenumber" v="345"/>
    <tag k="addr:street" v="Hayes Road"/>
    <tag k="addr:state" v="VT"/>
    <tag k="ref:vcgi:esiteid" v="112492"/>
  </node>
  <node id="-143" visible="true" lat="43.872715977506" lon="-73.018380189537">
    <!-- conflict: "194 Silver Lake Road, Brandon, VT" Fuzzy match to "194 Silver Lake Road, Goshen, VT" -->
    <tag k="addr:city" v="Brandon"/>
    <tag k="addr:housenumber" v="194"/>
    <tag k="addr:street" v="Silver Lake Road"/>
    <tag k="addr:state" v="VT"/>
    <tag k="ref:vcgi:esiteid" v="112493"/>
  </node>
  <node id="-144" visible="true" lat="43.872213117236" lon="-73.02856872172">
    <!-- conflict: "131 Hayes Road Extension, Brandon, VT" Fuzzy match to "131 Hayes Road Extension, Goshen, VT" -->
    <tag k="addr:city" v="Brandon"/>
    <tag k="addr:housenumber" v="131"/>
    <tag k="addr:street" v="Hayes Road Extension"/>
    <tag k="addr:state" v="VT"/>
    <tag k="ref:vcgi:esiteid" v="112494"/>
  </node>
  <node id="-145" visible="true" lat="43.872408701494" lon="-73.029831696224">
    <!-- conflict: "65 Hayes Road Extension, Brandon, VT" Fuzzy match to "65 Hayes Road Extension, Goshen, VT" -->
    <tag k="addr:city" v="Brandon"/>
    <tag k="addr:housenumber" v="65"/>
    <tag k="addr:street" v="Hayes Road Extension"/>
    <tag k="addr:state" v="VT"/>
    <tag k="ref:vcgi:esiteid" v="112495"/>
  </node>
  <node id="-146" visible="true" lat="43.872460669909" lon="-73.012666125911">
    <!-- conflict: "1323 Flora White Road, Brandon, VT" Fuzzy match to "1323 Flora White Road, Goshen, VT" -->
    <tag k="addr:city" v="Brandon"/>
    <tag k="addr:housenumber" v="1323"/>
    <tag k="addr:street" v="Flora White Road"/>
    <tag k="addr:state" v="VT"/>
    <tag k="ref:vcgi:esiteid" v="112496"/>
  </node>
  <node id="-147" visible="true" lat="43.872246248227" lon="-73.02727653244">
    <!-- conflict: "182 Hayes Road Extension, Brandon, VT" Fuzzy match to "182 Hayes Road Extension, Goshen, VT" -->
    <tag k="addr:city" v="Brandon"/>
    <tag k="addr:housenumber" v="182"/>
    <tag k="addr:street" v="Hayes Road Extension"/>
    <tag k="addr:state" v="VT"/>
    <tag k="ref:vcgi:esiteid" v="112497"/>
  </node>
  <node id="-148" visible="true" lat="43.871943439893" lon="-73.024870580719">
    <!-- conflict: "434 Silver Lake Road, Brandon, VT" Fuzzy match to "434 Silver Lake Road, Goshen, VT" -->
    <tag k="addr:city" v="Brandon"/>
    <tag k="addr:housenumber" v="434"/>
    <tag k="addr:street" v="Silver Lake Road"/>
    <tag k="addr:state" v="VT"/>
    <tag k="ref:vcgi:esiteid" v="112498"/>
  </node>
  <node id="-149" visible="true" lat="43.871121742471" lon="-73.018426383294">
    <!-- conflict: "1686 Carlisle Hill Road, Brandon, VT" Fuzzy match to "1686 Carlisle Hill Road, Goshen, VT" -->
    <tag k="addr:city" v="Brandon"/>
    <tag k="addr:housenumber" v="1686"/>
    <tag k="addr:street" v="Carlisle Hill Road"/>
    <tag k="addr:state" v="VT"/>
    <tag k="ref:vcgi:esiteid" v="112499"/>
  </node>
  <node id="-150" visible="true" lat="43.869845965552" lon="-73.015376907762">
    <!-- conflict: "1610 Carlisle Hill Road, Brandon, VT" Fuzzy match to "1610 Carlisle Hill Road, Goshen, VT" -->
    <tag k="addr:city" v="Brandon"/>
    <tag k="addr:housenumber" v="1610"/>
    <tag k="addr:street" v="Carlisle Hill Road"/>
    <tag k="addr:state" v="VT"/>
    <tag k="ref:vcgi:esiteid" v="112500"/>
  </node>
  <node id="-151" visible="true" lat="43.869993153471" lon="-73.007202445317">
    <!-- conflict: "1011 Flora White Road, Brandon, VT" Fuzzy match to "1011 Flora White Road, Goshen, VT" -->
    <tag k="addr:city" v="Brandon"/>
    <tag k="addr:housenumber" v="1011"/>
    <tag k="addr:street" v="Flora White Road"/>
    <tag k="addr:state" v="VT"/>
    <tag k="ref:vcgi:esiteid" v="112501"/>
  </node>
  <node id="-152" visible="true" lat="43.86932878219" lon="-73.008705630819">
    <!-- conflict: "1000 Flora White Road, Brandon, VT" Fuzzy match to "1000 Flora White Road, Goshen, VT" -->
    <tag k="addr:city" v="Brandon"/>
    <tag k="addr:housenumber" v="1000"/>
    <tag k="addr:street" v="Flora White Road"/>
    <tag k="addr:state" v="VT"/>
    <tag k="ref:vcgi:esiteid" v="112502"/>
  </node>
  <node id="-153" visible="true" lat="43.869401281081" lon="-73.010224718106">
    <!-- conflict: "1515 Carlisle Hill Road, Brandon, VT" Fuzzy match to "1515 Carlisle Hill Road, Goshen, VT" -->
    <tag k="addr:city" v="Brandon"/>
    <tag k="addr:housenumber" v="1515"/>
    <tag k="addr:street" v="Carlisle Hill Road"/>
    <tag k="addr:state" v="VT"/>
    <tag k="ref:vcgi:esiteid" v="112503"/>
  </node>
  <node id="-154" visible="true" lat="43.868203850855" lon="-73.01569133917">
    <!-- conflict: "1492 Carlisle Hill Road, Brandon, VT" Fuzzy match to "1492 Carlisle Hill Road, Goshen, VT" -->
    <tag k="addr:city" v="Brandon"/>
    <tag k="addr:housenumber" v="1492"/>
    <tag k="addr:street" v="Carlisle Hill Road"/>
    <tag k="addr:state" v="VT"/>
    <tag k="ref:vcgi:esiteid" v="112504"/>
  </node>
  <node id="-155" visible="true" lat="43.867949228055" lon="-73.015185459651">
    <!-- conflict: "1479 Carlisle Hill Road, Brandon, VT" Fuzzy match to "1479 Carlisle Hill Road, Goshen, VT" -->
    <tag k="addr:city" v="Brandon"/>
    <tag k="addr:housenumber" v="1479"/>
    <tag k="addr:street" v="Carlisle Hill Road"/>
    <tag k="addr:state" v="VT"/>
    <tag k="ref:vcgi:esiteid" v="112505"/>
  </node>
  <node id="-156" visible="true" lat="43.867333715309" lon="-73.007607835534">
    <!-- conflict: "788 Flora White Road, Brandon, VT" Fuzzy match to "788 Flora White Road, Goshen, VT" -->
    <tag k="addr:city" v="Brandon"/>
    <tag k="addr:housenumber" v="788"/>
    <tag k="addr:street" v="Flora White Road"/>
    <tag k="addr:state" v="VT"/>
    <tag k="ref:vcgi:esiteid" v="112506"/>
  </node>
  <node id="-157" visible="true" lat="43.867329542316" lon="-73.004620331993">
    <!-- conflict: "841 Flora White Road, Brandon, VT" Fuzzy match to "841 Flora White Road, Goshen, VT" -->
    <tag k="addr:city" v="Brandon"/>
    <tag k="addr:housenumber" v="841"/>
    <tag k="addr:street" v="Flora White Road"/>
    <tag k="addr:state" v="VT"/>
    <tag k="ref:vcgi:esiteid" v="112507"/>
  </node>
  <node id="-158" visible="true" lat="43.86592609211" lon="-73.00917949104">
    <!-- conflict: "718 Flora White Road, Brandon, VT" Fuzzy match to "718 Flora White Road, Goshen, VT" -->
    <tag k="addr:city" v="Brandon"/>
    <tag k="addr:housenumber" v="718"/>
    <tag k="addr:street" v="Flora White Road"/>
    <tag k="addr:state" v="VT"/>
    <tag k="ref:vcgi:esiteid" v="112508"/>
  </node>
  <node id="-159" visible="true" lat="43.864953344147" lon="-73.004914658006">
    <!-- conflict: "737 Flora White Road, Brandon, VT" Fuzzy match to "737 Flora White Road, Goshen, VT" -->
    <tag k="addr:city" v="Brandon"/>
    <tag k="addr:housenumber" v="737"/>
    <tag k="addr:street" v="Flora White Road"/>
    <tag k="addr:state" v="VT"/>
    <tag k="ref:vcgi:esiteid" v="112509"/>
  </node>
  <node id="-160" visible="true" lat="43.864199060562" lon="-73.007255275275">
    <!-- conflict: "605 Flora White Road, Brandon, VT" Fuzzy match to "605 Flora White Road, Goshen, VT" -->
    <tag k="addr:city" v="Brandon"/>
    <tag k="addr:housenumber" v="605"/>
    <tag k="addr:street" v="Flora White Road"/>
    <tag k="addr:state" v="VT"/>
    <tag k="ref:vcgi:esiteid" v="112510"/>
  </node>
  <node id="-161" visible="true" lat="43.864727152963" lon="-73.008164637332">
    <!-- conflict: "650 Flora White Road, Brandon, VT" Fuzzy match to "650 Flora White Road, Goshen, VT" -->
    <tag k="addr:city" v="Brandon"/>
    <tag k="addr:housenumber" v="650"/>
    <tag k="addr:street" v="Flora White Road"/>
    <tag k="addr:state" v="VT"/>
    <tag k="ref:vcgi:esiteid" v="112511"/>
  </node>
  <node id="-162" visible="true" lat="43.863030599755" lon="-73.007026784354">
    <!-- conflict: "535 Flora White Road, Brandon, VT" Fuzzy match to "535 Flora White Road, Goshen, VT" -->
    <tag k="addr:city" v="Brandon"/>
    <tag k="addr:housenumber" v="535"/>
    <tag k="addr:street" v="Flora White Road"/>
    <tag k="addr:state" v="VT"/>
    <tag k="ref:vcgi:esiteid" v="112512"/>
  </node>
  <node id="-163" visible="true" lat="43.862523491642" lon="-73.006682881495">
    <!-- conflict: "513 Flora White Road, Brandon, VT" Fuzzy match to "513 Flora White Road, Goshen, VT" -->
    <tag k="addr:city" v="Brandon"/>
    <tag k="addr:housenumber" v="513"/>
    <tag k="addr:street" v="Flora White Road"/>
    <tag k="addr:state" v="VT"/>
    <tag k="ref:vcgi:esiteid" v="112513"/>
  </node>
  <node id="-164" visible="true" lat="43.861790959484" lon="-73.015283008295">
    <!-- conflict: "989 Carlisle Hill Road, Brandon, VT" Fuzzy match to "989 Carlisle Hill Road, Goshen, VT" -->
    <tag k="addr:city" v="Brandon"/>
    <tag k="addr:housenumber" v="989"/>
    <tag k="addr:street" v="Carlisle Hill Road"/>
    <tag k="addr:state" v="VT"/>
    <tag k="ref:vcgi:esiteid" v="112514"/>
  </node>
  <node id="-165" visible="true" lat="43.861599937591" lon="-73.006009207677">
    <!-- conflict: "441 Flora White Road, Brandon, VT" Fuzzy match to "441 Flora White Road, Goshen, VT" -->
    <tag k="addr:city" v="Brandon"/>
    <tag k="addr:housenumber" v="441"/>
    <tag k="addr:street" v="Flora White Road"/>
    <tag k="addr:state" v="VT"/>
    <tag k="ref:vcgi:esiteid" v="112515"/>
  </node>
  <node id="-166" visible="true" lat="43.861462901931" lon="-72.99287190874">
    <!-- conflict: "533 White Rocks Road, Brandon, VT" Fuzzy match to "533 White Rocks Road, Goshen, VT" -->
    <tag k="addr:city" v="Brandon"/>
    <tag k="addr:housenumber" v="533"/>
    <tag k="addr:street" v="White Rocks Road"/>
    <tag k="addr:state" v="VT"/>
    <tag k="ref:vcgi:esiteid" v="112516"/>
  </node>
  <node id="-167" visible="true" lat="43.8584187672" lon="-72.994851481279">
    <!-- conflict: "385 White Rocks Road, Brandon, VT" Fuzzy match to "385 White Rocks Road, Goshen, VT" -->
    <tag k="addr:city" v="Brandon"/>
    <tag k="addr:housenumber" v="385"/>
    <tag k="addr:street" v="White Rocks Road"/>
    <tag k="addr:state" v="VT"/>
    <tag k="ref:vcgi:esiteid" v="112517"/>
  </node>
  <node id="-168" visible="true" lat="43.857953076422" lon="-73.000138184268">
    <!-- conflict: "935 Hathaway Road, Brandon, VT" Fuzzy match to "935 Hathaway Road, Goshen, VT" -->
    <tag k="addr:city" v="Brandon"/>
    <tag k="addr:housenumber" v="935"/>
    <tag k="addr:street" v="Hathaway Road"/>
    <tag k="addr:state" v="VT"/>
    <tag k="ref:vcgi:esiteid" v="112518"/>
  </node>
  <node id="-169" visible="true" lat="43.856990324464" lon="-72.99722498405">
    <!-- conflict: "199 White Rocks Road, Brandon, VT" Fuzzy match to "199 White Rocks Road, Goshen, VT" -->
    <tag k="addr:city" v="Brandon"/>
    <tag k="addr:housenumber" v="199"/>
    <tag k="addr:street" v="White Rocks Road"/>
    <tag k="addr:state" v="VT"/>
    <tag k="ref:vcgi:esiteid" v="112519"/>
  </node>
  <node id="-170" visible="true" lat="43.857061067561" lon="-72.998430021304">
    <!-- conflict: "154 White Rocks Road, Brandon, VT" Fuzzy match to "154 White Rocks Road, Goshen, VT" -->
    <tag k="addr:city" v="Brandon"/>
    <tag k="addr:housenumber" v="154"/>
    <tag k="addr:street" v="White Rocks Road"/>
    <tag k="addr:state" v="VT"/>
    <tag k="ref:vcgi:esiteid" v="112520"/>
  </node>
  <node id="-171" visible="true" lat="43.856383033497" lon="-72.997799611045">
    <!-- conflict: "143 White Rocks Road, Brandon, VT" Fuzzy match to "143 White Rocks Road, Goshen, VT" -->
    <tag k="addr:city" v="Brandon"/>
    <tag k="addr:housenumber" v="143"/>
    <tag k="addr:street" v="White Rocks Road"/>
    <tag k="addr:state" v="VT"/>
    <tag k="ref:vcgi:esiteid" v="112521"/>
  </node>
  <node id="-172" visible="true" lat="43.855986358729" lon="-72.996060115893">
    <!-- conflict: "103 White Rocks Road, Brandon, VT" Fuzzy match to "103 White Rocks Road, Goshen, VT" -->
    <tag k="addr:city" v="Brandon"/>
    <tag k="addr:housenumber" v="103"/>
    <tag k="addr:street" v="White Rocks Road"/>
    <tag k="addr:state" v="VT"/>
    <tag k="ref:vcgi:esiteid" v="112522"/>
  </node>
  <node id="-173" visible="true" lat="43.855691258213" lon="-73.009026902674">
    <!-- conflict: "1383 Hathaway Road, Brandon, VT" Fuzzy match to "1383 Hathaway Road, Goshen, VT" -->
    <tag k="addr:city" v="Brandon"/>
    <tag k="addr:housenumber" v="1383"/>
    <tag k="addr:street" v="Hathaway Road"/>
    <tag k="addr:state" v="VT"/>
    <tag k="ref:vcgi:esiteid" v="112523"/>
  </node>
  <node id="-174" visible="true" lat="43.855485027914" lon="-72.998085418194">
    <!-- conflict: "97 White Rocks Road, Brandon, VT" Fuzzy match to "97 White Rocks Road, Goshen, VT" -->
    <tag k="addr:city" v="Brandon"/>
    <tag k="addr:housenumber" v="97"/>
    <tag k="addr:street" v="White Rocks Road"/>
    <tag k="addr:state" v="VT"/>
    <tag k="ref:vcgi:esiteid" v="112524"/>
  </node>
  <node id="-175" visible="true" lat="43.856180440482" lon="-73.011250204765">
    <!-- conflict: "680 Capen Hill Road, Brandon, VT" Fuzzy match to "680 Capen Hill Road, Goshen, VT" -->
    <tag k="addr:city" v="Brandon"/>
    <tag k="addr:housenumber" v="680"/>
    <tag k="addr:street" v="Capen Hill Road"/>
    <tag k="addr:state" v="VT"/>
    <tag k="ref:vcgi:esiteid" v="112525"/>
  </node>
  <node id="-176" visible="true" lat="43.855280270543" lon="-72.999247072951">
    <!-- conflict: "877 Hathaway Road, Brandon, VT" Fuzzy match to "877 Hathaway Road, Goshen, VT" -->
    <tag k="addr:city" v="Brandon"/>
    <tag k="addr:housenumber" v="877"/>
    <tag k="addr:street" v="Hathaway Road"/>
    <tag k="addr:state" v="VT"/>
    <tag k="ref:vcgi:esiteid" v="112526"/>
  </node>
  <node id="-177" visible="true" lat="43.854859075945" lon="-73.012167237576">
    <!-- conflict: "674 Capen Hill Road, Brandon, VT" Fuzzy match to "674 Capen Hill Road, Goshen, VT" -->
    <tag k="addr:city" v="Brandon"/>
    <tag k="addr:housenumber" v="674"/>
    <tag k="addr:street" v="Capen Hill Road"/>
    <tag k="addr:state" v="VT"/>
    <tag k="ref:vcgi:esiteid" v="112527"/>
  </node>
  <node id="-178" visible="true" lat="43.854424777812" lon="-73.018548388959">
    <!-- conflict: "429 Carlisle Hill Road, Brandon, VT" Fuzzy match to "429 Carlisle Hill Road, Goshen, VT" -->
    <tag k="addr:city" v="Brandon"/>
    <tag k="addr:housenumber" v="429"/>
    <tag k="addr:street" v="Carlisle Hill Road"/>
    <tag k="addr:state" v="VT"/>
    <tag k="ref:vcgi:esiteid" v="112528"/>
  </node>
  <node id="-179" visible="true" lat="43.853465343391" lon="-72.998934326649">
    <!-- conflict: "788 Hathaway Road, Brandon, VT" Fuzzy match to "788 Hathaway Road, Goshen, VT" -->
    <tag k="addr:city" v="Brandon"/>
    <tag k="addr:housenumber" v="788"/>
    <tag k="addr:street" v="Hathaway Road"/>
    <tag k="addr:state" v="VT"/>
    <tag k="ref:vcgi:esiteid" v="112529"/>
  </node>
  <node id="-180" visible="true" lat="43.853587096625" lon="-72.998395643001">
    <!-- conflict: "781 Hathaway Road, Brandon, VT" Fuzzy match to "781 Hathaway Road, Goshen, VT" -->
    <tag k="addr:city" v="Brandon"/>
    <tag k="addr:housenumber" v="781"/>
    <tag k="addr:street" v="Hathaway Road"/>
    <tag k="addr:state" v="VT"/>
    <tag k="ref:vcgi:esiteid" v="112530"/>
  </node>
  <node id="-181" visible="true" lat="43.857225598383" lon="-73.028955813866">
    <!-- conflict: "417 Fay Road, Brandon, VT" Fuzzy match to "417 Fay Road, Goshen, VT" -->
    <tag k="addr:city" v="Brandon"/>
    <tag k="addr:housenumber" v="417"/>
    <tag k="addr:street" v="Fay Road"/>
    <tag k="addr:state" v="VT"/>
    <tag k="ref:vcgi:esiteid" v="112531"/>
  </node>
  <node id="-182" visible="true" lat="43.852486911214" lon="-73.020974537208">
    <!-- conflict: "256 Carlisle Hill Road, Brandon, VT" Fuzzy match to "256 Carlisle Hill Road, Goshen, VT" -->
    <tag k="addr:city" v="Brandon"/>
    <tag k="addr:housenumber" v="256"/>
    <tag k="addr:street" v="Carlisle Hill Road"/>
    <tag k="addr:state" v="VT"/>
    <tag k="ref:vcgi:esiteid" v="112532"/>
  </node>
  <node id="-183" visible="true" lat="43.852017704218" lon="-72.996507060801">
    <!-- conflict: "681 Hathaway Road, Brandon, VT" Fuzzy match to "681 Hathaway Road, Goshen, VT" -->
    <tag k="addr:city" v="Brandon"/>
    <tag k="addr:housenumber" v="681"/>
    <tag k="addr:street" v="Hathaway Road"/>
    <tag k="addr:state" v="VT"/>
    <tag k="ref:vcgi:esiteid" v="112533"/>
  </node>
  <node id="-184" visible="true" lat="43.851918521475" lon="-73.017213244632">
    <!-- conflict: "346 Capen Hill Road, Brandon, VT" Fuzzy match to "346 Capen Hill Road, Goshen, VT" -->
    <tag k="addr:city" v="Brandon"/>
    <tag k="addr:housenumber" v="346"/>
    <tag k="addr:street" v="Capen Hill Road"/>
    <tag k="addr:state" v="VT"/>
    <tag k="ref:vcgi:esiteid" v="112534"/>
  </node>
  <node id="-185" visible="true" lat="43.851442166016" lon="-73.018297591877">
    <!-- conflict: "270 Capen Hill Road, Brandon, VT" Fuzzy match to "270 Capen Hill Road, Goshen, VT" -->
    <tag k="addr:city" v="Brandon"/>
    <tag k="addr:housenumber" v="270"/>
    <tag k="addr:street" v="Capen Hill Road"/>
    <tag k="addr:state" v="VT"/>
    <tag k="ref:vcgi:esiteid" v="112535"/>
  </node>
  <node id="-186" visible="true" lat="43.85131856044" lon="-73.018902444295">
    <!-- conflict: "258 Capen Hill Road, Brandon, VT" Fuzzy match to "258 Capen Hill Road, Goshen, VT" -->
    <tag k="addr:city" v="Brandon"/>
    <tag k="addr:housenumber" v="258"/>
    <tag k="addr:street" v="Capen Hill Road"/>
    <tag k="addr:state" v="VT"/>
    <tag k="ref:vcgi:esiteid" v="112536"/>
  </node>
  <node id="-187" visible="true" lat="43.850980107175" lon="-72.990388284564">
    <!-- conflict: "350 Cape Lookoff Road, Brandon, VT" Fuzzy match to "350 Cape Lookoff Road, Goshen, VT" -->
    <tag k="addr:city" v="Brandon"/>
    <tag k="addr:housenumber" v="350"/>
    <tag k="addr:street" v="Cape Lookoff Road"/>
    <tag k="addr:state" v="VT"/>
    <tag k="ref:vcgi:esiteid" v="112537"/>
  </node>
  <node id="-188" visible="true" lat="43.850495639838" lon="-73.022469898352">
    <!-- conflict: "106 Carlisle Hill Road, Brandon, VT" Fuzzy match to "106 Carlisle Hill Road, Goshen, VT" -->
    <tag k="addr:city" v="Brandon"/>
    <tag k="addr:housenumber" v="106"/>
    <tag k="addr:street" v="Carlisle Hill Road"/>
    <tag k="addr:state" v="VT"/>
    <tag k="ref:vcgi:esiteid" v="112538"/>
  </node>
  <node id="-189" visible="true" lat="43.85055989758" lon="-73.021666675815">
    <!-- conflict: "198 Capen Hill Road, Brandon, VT" Fuzzy match to "198 Capen Hill Road, Goshen, VT" -->
    <tag k="addr:city" v="Brandon"/>
    <tag k="addr:housenumber" v="198"/>
    <tag k="addr:street" v="Capen Hill Road"/>
    <tag k="addr:state" v="VT"/>
    <tag k="ref:vcgi:esiteid" v="112539"/>
  </node>
  <node id="-190" visible="true" lat="43.850404086201" lon="-73.023080251217">
    <!-- conflict: "98 Carlisle Hill Road, Brandon, VT" Fuzzy match to "98 Carlisle Hill Road, Goshen, VT" -->
    <tag k="addr:city" v="Brandon"/>
    <tag k="addr:housenumber" v="98"/>
    <tag k="addr:street" v="Carlisle Hill Road"/>
    <tag k="addr:state" v="VT"/>
    <tag k="ref:vcgi:esiteid" v="112540"/>
  </node>
  <node id="-191" visible="true" lat="43.850281323885" lon="-73.019746806402">
    <!-- conflict: "111 Cemetery Hill Road, Brandon, VT" Fuzzy match to "111 Cemetery Hill Road, Goshen, VT" -->
    <tag k="addr:city" v="Brandon"/>
    <tag k="addr:housenumber" v="111"/>
    <tag k="addr:street" v="Cemetery Hill Road"/>
    <tag k="addr:state" v="VT"/>
    <tag k="ref:vcgi:esiteid" v="112541"/>
  </node>
  <node id="-192" visible="true" lat="43.849728672669" lon="-73.022559833121">
    <!-- conflict: "50 Carlisle Hill Road, Brandon, VT" Fuzzy match to "50 Carlisle Hill Road, Goshen, VT" -->
    <tag k="addr:city" v="Brandon"/>
    <tag k="addr:housenumber" v="50"/>
    <tag k="addr:street" v="Carlisle Hill Road"/>
    <tag k="addr:state" v="VT"/>
    <tag k="ref:vcgi:esiteid" v="112542"/>
  </node>
  <node id="-193" visible="true" lat="43.849671663375" lon="-73.025033375703">
    <!-- conflict: "113 Fay Road, Brandon, VT" Fuzzy match to "113 Fay Road, Goshen, VT" -->
    <tag k="addr:city" v="Brandon"/>
    <tag k="addr:housenumber" v="113"/>
    <tag k="addr:street" v="Fay Road"/>
    <tag k="addr:state" v="VT"/>
    <tag k="ref:vcgi:esiteid" v="112543"/>
  </node>
  <node id="-194" visible="true" lat="43.849448961435" lon="-73.022899573228">
    <!-- conflict: "34 Carlisle Hill Road, Brandon, VT" Fuzzy match to "34 Carlisle Hill Road, Goshen, VT" -->
    <tag k="addr:city" v="Brandon"/>
    <tag k="addr:housenumber" v="34"/>
    <tag k="addr:street" v="Carlisle Hill Road"/>
    <tag k="addr:state" v="VT"/>
    <tag k="ref:vcgi:esiteid" v="112544"/>
  </node>
  <node id="-195" visible="true" lat="43.84918638214" lon="-73.02188813231">
    <!-- conflict: "5 Cemetery Hill Road, Brandon, VT" Fuzzy match to "5 Cemetery Hill Road, Goshen, VT" -->
    <tag k="addr:city" v="Brandon"/>
    <tag k="addr:housenumber" v="5"/>
    <tag k="addr:street" v="Cemetery Hill Road"/>
    <tag k="addr:state" v="VT"/>
    <tag k="ref:vcgi:esiteid" v="112545"/>
  </node>
  <node id="-196" visible="true" lat="43.849004869834" lon="-73.021189418807">
    <!-- conflict: "41 Cemetery Hill Road, Brandon, VT" Fuzzy match to "41 Cemetery Hill Road, Goshen, VT" -->
    <tag k="addr:city" v="Brandon"/>
    <tag k="addr:housenumber" v="41"/>
    <tag k="addr:street" v="Cemetery Hill Road"/>
    <tag k="addr:state" v="VT"/>
    <tag k="ref:vcgi:esiteid" v="112546"/>
  </node>
  <node id="-197" visible="true" lat="43.849242552931" lon="-72.997957983953">
    <!-- conflict: "486 Hathaway Road, Brandon, VT" Fuzzy match to "486 Hathaway Road, Goshen, VT" -->
    <tag k="addr:city" v="Brandon"/>
    <tag k="addr:housenumber" v="486"/>
    <tag k="addr:street" v="Hathaway Road"/>
    <tag k="addr:state" v="VT"/>
    <tag k="ref:vcgi:esiteid" v="112547"/>
  </node>
  <node id="-198" visible="true" lat="43.849064801149" lon="-73.023464052952">
    <!-- conflict: "53 Fay Road, Brandon, VT" Fuzzy match to "53 Fay Road, Goshen, VT" -->
    <tag k="addr:city" v="Brandon"/>
    <tag k="addr:housenumber" v="53"/>
    <tag k="addr:street" v="Fay Road"/>
    <tag k="addr:state" v="VT"/>
    <tag k="ref:vcgi:esiteid" v="112548"/>
  </node>
  <node id="-199" visible="true" lat="43.848905419448" lon="-73.022115127213">
    <!-- conflict: "637 Town Hill Road, Brandon, VT" Fuzzy match to "637 Town Hill Road, Goshen, VT" -->
    <tag k="addr:city" v="Brandon"/>
    <tag k="addr:housenumber" v="637"/>
    <tag k="addr:street" v="Town Hill Road"/>
    <tag k="addr:state" v="VT"/>
    <tag k="ref:vcgi:esiteid" v="112549"/>
  </node>
  <node id="-200" visible="true" lat="43.848471125254" lon="-72.996768940452">
    <!-- conflict: "421 Hathaway Road, Brandon, VT" Fuzzy match to "421 Hathaway Road, Goshen, VT" -->
    <tag k="addr:city" v="Brandon"/>
    <tag k="addr:housenumber" v="421"/>
    <tag k="addr:street" v="Hathaway Road"/>
    <tag k="addr:state" v="VT"/>
    <tag k="ref:vcgi:esiteid" v="112550"/>
  </node>
  <node id="-201" visible="true" lat="43.848275666435" lon="-72.992635209563">
    <!-- conflict: "205 Cape Lookoff Road, Brandon, VT" Fuzzy match to "205 Cape Lookoff Road, Goshen, VT" -->
    <tag k="addr:city" v="Brandon"/>
    <tag k="addr:housenumber" v="205"/>
    <tag k="addr:street" v="Cape Lookoff Road"/>
    <tag k="addr:state" v="VT"/>
    <tag k="ref:vcgi:esiteid" v="112551"/>
  </node>
  <node id="-202" visible="true" lat="43.847518410418" lon="-73.026946892246">
    <!-- conflict: "267 Fay Road, Brandon, VT" Fuzzy match to "267 Fay Road, Goshen, VT" -->
    <tag k="addr:city" v="Brandon"/>
    <tag k="addr:housenumber" v="267"/>
    <tag k="addr:street" v="Fay Road"/>
    <tag k="addr:state" v="VT"/>
    <tag k="ref:vcgi:esiteid" v="112552"/>
  </node>
  <node id="-203" visible="true" lat="43.84774358998" lon="-73.023208181211">
    <!-- conflict: "639 Town Hill Road, Brandon, VT" Fuzzy match to "639 Town Hill Road, Goshen, VT" -->
    <tag k="addr:city" v="Brandon"/>
    <tag k="addr:housenumber" v="639"/>
    <tag k="addr:street" v="Town Hill Road"/>
    <tag k="addr:state" v="VT"/>
    <tag k="ref:vcgi:esiteid" v="112553"/>
  </node>
  <node id="-204" visible="true" lat="43.846902193681" lon="-73.026948354626">
    <!-- conflict: "178 Fay Road, Brandon, VT" Fuzzy match to "178 Fay Road, Goshen, VT" -->
    <tag k="addr:city" v="Brandon"/>
    <tag k="addr:housenumber" v="178"/>
    <tag k="addr:street" v="Fay Road"/>
    <tag k="addr:state" v="VT"/>
    <tag k="ref:vcgi:esiteid" v="112554"/>
  </node>
  <node id="-205" visible="true" lat="43.846538354641" lon="-73.028377198021">
    <!-- conflict: "354 Fay Road, Brandon, VT" Fuzzy match to "354 Fay Road, Goshen, VT" -->
    <tag k="addr:city" v="Brandon"/>
    <tag k="addr:housenumber" v="354"/>
    <tag k="addr:street" v="Fay Road"/>
    <tag k="addr:state" v="VT"/>
    <tag k="ref:vcgi:esiteid" v="112555"/>
  </node>
  <node id="-206" visible="true" lat="43.845985276744" lon="-73.029411362544">
    <!-- conflict: "421 Fay Road, Brandon, VT" Fuzzy match to "421 Fay Road, Goshen, VT" -->
    <tag k="addr:city" v="Brandon"/>
    <tag k="addr:housenumber" v="421"/>
    <tag k="addr:street" v="Fay Road"/>
    <tag k="addr:state" v="VT"/>
    <tag k="ref:vcgi:esiteid" v="112556"/>
  </node>
  <node id="-207" visible="true" lat="43.846461734499" lon="-72.996065219848">
    <!-- conflict: "277 Hathaway Road, Brandon, VT" Fuzzy match to "277 Hathaway Road, Goshen, VT" -->
    <tag k="addr:city" v="Brandon"/>
    <tag k="addr:housenumber" v="277"/>
    <tag k="addr:street" v="Hathaway Road"/>
    <tag k="addr:state" v="VT"/>
    <tag k="ref:vcgi:esiteid" v="112557"/>
  </node>
  <node id="-208" visible="true" lat="43.845548911485" lon="-72.993768480374">
    <!-- conflict: "197 Hathaway Road, Brandon, VT" Fuzzy match to "197 Hathaway Road, Goshen, VT" -->
    <tag k="addr:city" v="Brandon"/>
    <tag k="addr:housenumber" v="197"/>
    <tag k="addr:street" v="Hathaway Road"/>
    <tag k="addr:state" v="VT"/>
    <tag k="ref:vcgi:esiteid" v="112558"/>
  </node>
  <node id="-209" visible="true" lat="43.844835346197" lon="-73.028858783342">
    <!-- conflict: "212 Town Hill Road, Brandon, VT" Fuzzy match to "212 Town Hill Road, Goshen, VT" -->
    <tag k="addr:city" v="Brandon"/>
    <tag k="addr:housenumber" v="212"/>
    <tag k="addr:street" v="Town Hill Road"/>
    <tag k="addr:state" v="VT"/>
    <tag k="ref:vcgi:esiteid" v="112559"/>
  </node>
  <node id="-210" visible="true" lat="43.844598117053" lon="-72.982873327594">
    <!-- conflict: "2498 Gap Road, Brandon, VT" Fuzzy match to "2498 Gap Road, Goshen, VT" -->
    <tag k="addr:city" v="Brandon"/>
    <tag k="addr:housenumber" v="2498"/>
    <tag k="addr:street" v="Gap Road"/>
    <tag k="addr:state" v="VT"/>
    <tag k="ref:vcgi:esiteid" v="112560"/>
  </node>
  <node id="-211" visible="true" lat="43.844308991134" lon="-72.985712417562">
    <!-- conflict: "2308 Gap Road, Brandon, VT" Fuzzy match to "2308 Gap Road, Goshen, VT" -->
    <tag k="addr:city" v="Brandon"/>
    <tag k="addr:housenumber" v="2308"/>
    <tag k="addr:street" v="Gap Road"/>
    <tag k="addr:state" v="VT"/>
    <tag k="ref:vcgi:esiteid" v="112561"/>
  </node>
  <node id="-212" visible="true" lat="43.844043649149" lon="-73.002875989061">
    <!-- conflict: "1242 Gap Road, Brandon, VT" Fuzzy match to "1242 Gap Road, Goshen, VT" -->
    <tag k="addr:city" v="Brandon"/>
    <tag k="addr:housenumber" v="1242"/>
    <tag k="addr:street" v="Gap Road"/>
    <tag k="addr:state" v="VT"/>
    <tag k="ref:vcgi:esiteid" v="112562"/>
  </node>
  <node id="-213" visible="true" lat="43.843629401375" lon="-72.995431399589">
    <!-- conflict: "85 Hathaway Road, Brandon, VT" Fuzzy match to "85 Hathaway Road, Goshen, VT" -->
    <tag k="addr:city" v="Brandon"/>
    <tag k="addr:housenumber" v="85"/>
    <tag k="addr:street" v="Hathaway Road"/>
    <tag k="addr:state" v="VT"/>
    <tag k="ref:vcgi:esiteid" v="112563"/>
  </node>
  <node id="-214" visible="true" lat="43.842849273435" lon="-72.985472578868">
    <!-- conflict: "2207 Gap Road, Brandon, VT" Fuzzy match to "2207 Gap Road, Goshen, VT" -->
    <tag k="addr:city" v="Brandon"/>
    <tag k="addr:housenumber" v="2207"/>
    <tag k="addr:street" v="Gap Road"/>
    <tag k="addr:state" v="VT"/>
    <tag k="ref:vcgi:esiteid" v="112564"/>
  </node>
  <node id="-215" visible="true" lat="43.843018831571" lon="-73.002290144432">
    <!-- conflict: "1408 Gap Road, Brandon, VT" Fuzzy match to "1408 Gap Road, Goshen, VT" -->
    <tag k="addr:city" v="Brandon"/>
    <tag k="addr:housenumber" v="1408"/>
    <tag k="addr:street" v="Gap Road"/>
    <tag k="addr:state" v="VT"/>
    <tag k="ref:vcgi:esiteid" v="112565"/>
  </node>
  <node id="-216" visible="true" lat="43.842323854572" lon="-73.006547407195">
    <!-- conflict: "1216 Gap Road, Brandon, VT" Fuzzy match to "1216 Gap Road, Goshen, VT" -->
    <tag k="addr:city" v="Brandon"/>
    <tag k="addr:housenumber" v="1216"/>
    <tag k="addr:street" v="Gap Road"/>
    <tag k="addr:state" v="VT"/>
    <tag k="ref:vcgi:esiteid" v="112566"/>
  </node>
  <node id="-217" visible="true" lat="43.842295286435" lon="-73.027301254896">
    <!-- conflict: "126 Gap Road, Brandon, VT" Fuzzy match to "126 Gap Road, Goshen, VT" -->
    <tag k="addr:city" v="Brandon"/>
    <tag k="addr:housenumber" v="126"/>
    <tag k="addr:street" v="Gap Road"/>
    <tag k="addr:state" v="VT"/>
    <tag k="ref:vcgi:esiteid" v="112567"/>
  </node>
  <node id="-218" visible="true" lat="43.842129020683" lon="-73.029294790993">
    <!-- conflict: "19 Town Hill Road, Brandon, VT" Fuzzy match to "19 Town Hill Road, Goshen, VT" -->
    <tag k="addr:city" v="Brandon"/>
    <tag k="addr:housenumber" v="19"/>
    <tag k="addr:street" v="Town Hill Road"/>
    <tag k="addr:state" v="VT"/>
    <tag k="ref:vcgi:esiteid" v="112568"/>
  </node>
  <node id="-219" visible="true" lat="43.842078833484" lon="-73.00523508398">
    <!-- conflict: "1217 Gap Road, Brandon, VT" Fuzzy match to "1217 Gap Road, Goshen, VT" -->
    <tag k="addr:city" v="Brandon"/>
    <tag k="addr:housenumber" v="1217"/>
    <tag k="addr:street" v="Gap Road"/>
    <tag k="addr:state" v="VT"/>
    <tag k="ref:vcgi:esiteid" v="112569"/>
  </node>
  <node id="-220" visible="true" lat="43.841941922128" lon="-73.03031608784">
    <!-- conflict: "24 Gap Road, Brandon, VT" Fuzzy match to "24 Gap Road, Goshen, VT" -->
    <tag k="addr:city" v="Brandon"/>
    <tag k="addr:housenumber" v="24"/>
    <tag k="addr:street" v="Gap Road"/>
    <tag k="addr:state" v="VT"/>
    <tag k="ref:vcgi:esiteid" v="112570"/>
  </node>
  <node id="-221" visible="true" lat="43.840699912362" lon="-72.99545796301">
    <!-- conflict: "132 South Hill Road, Brandon, VT" Fuzzy match to "132 South Hill Road, Goshen, VT" -->
    <tag k="addr:city" v="Brandon"/>
    <tag k="addr:housenumber" v="132"/>
    <tag k="addr:street" v="South Hill Road"/>
    <tag k="addr:state" v="VT"/>
    <tag k="ref:vcgi:esiteid" v="112571"/>
  </node>
  <node id="-222" visible="true" lat="43.839628327998" lon="-72.968807179284">
    <!-- conflict: "3255 Gap Road, Brandon, VT" Fuzzy match to "3255 Gap Road, Goshen, VT" -->
    <tag k="addr:city" v="Brandon"/>
    <tag k="addr:housenumber" v="3255"/>
    <tag k="addr:street" v="Gap Road"/>
    <tag k="addr:state" v="VT"/>
    <tag k="ref:vcgi:esiteid" v="112572"/>
  </node>
  <node id="-223" visible="true" lat="43.839708333665" lon="-72.996252981187">
    <!-- conflict: "185 South Hill Road, Brandon, VT" Fuzzy match to "185 South Hill Road, Goshen, VT" -->
    <tag k="addr:city" v="Brandon"/>
    <tag k="addr:housenumber" v="185"/>
    <tag k="addr:street" v="South Hill Road"/>
    <tag k="addr:state" v="VT"/>
    <tag k="ref:vcgi:esiteid" v="112573"/>
  </node>
  <node id="-224" visible="true" lat="43.839173282416" lon="-72.995995540249">
    <!-- conflict: "198 South Hill Road, Brandon, VT" Fuzzy match to "198 South Hill Road, Goshen, VT" -->
    <tag k="addr:city" v="Brandon"/>
    <tag k="addr:housenumber" v="198"/>
    <tag k="addr:street" v="South Hill Road"/>
    <tag k="addr:state" v="VT"/>
    <tag k="ref:vcgi:esiteid" v="112574"/>
  </node>
  <node id="-225" visible="true" lat="43.834853252395" lon="-72.996851916914">
    <!-- conflict: "502 South Hill Road, Brandon, VT" Fuzzy match to "502 South Hill Road, Goshen, VT" -->
    <tag k="addr:city" v="Brandon"/>
    <tag k="addr:housenumber" v="502"/>
    <tag k="addr:street" v="South Hill Road"/>
    <tag k="addr:state" v="VT"/>
    <tag k="ref:vcgi:esiteid" v="112575"/>
  </node>
  <node id="-226" visible="true" lat="43.88133257351" lon="-73.036524836052">
    <!-- conflict: "1272 Silver Lake Road, Brandon, VT" Fuzzy match to "1272 Silver Lake Road, Goshen, VT" -->
    <tag k="addr:city" v="Brandon"/>
    <tag k="addr:housenumber" v="1272"/>
    <tag k="addr:street" v="Silver Lake Road"/>
    <tag k="addr:state" v="VT"/>
    <tag k="ref:vcgi:esiteid" v="112578"/>
  </node>
  <node id="-227" visible="true" lat="43.875298894524" lon="-73.029874505464">
    <!-- conflict: "166 Hayes Road, Brandon, VT" Fuzzy match to "166 Hayes Road, Goshen, VT" -->
    <tag k="addr:city" v="Brandon"/>
    <tag k="addr:housenumber" v="166"/>
    <tag k="addr:street" v="Hayes Road"/>
    <tag k="addr:state" v="VT"/>
    <tag k="ref:vcgi:esiteid" v="112579"/>
  </node>
  <node id="-228" visible="true" lat="43.838755110807" lon="-72.989094661028">
    <!-- conflict: "2019 Gap Road, Brandon, VT" Fuzzy match to "2019 Gap Road, Goshen, VT" -->
    <tag k="addr:city" v="Brandon"/>
    <tag k="addr:housenumber" v="2019"/>
    <tag k="addr:street" v="Gap Road"/>
    <tag k="addr:state" v="VT"/>
    <tag k="ref:vcgi:esiteid" v="112580"/>
  </node>
  <node id="-229" visible="true" lat="43.849848443186" lon="-73.023860135395">
    <!-- conflict: "25 Fay Road, Brandon, VT" Fuzzy match to "25 Fay Road, Goshen, VT" -->
    <tag k="addr:city" v="Brandon"/>
    <tag k="addr:housenumber" v="25"/>
    <tag k="addr:street" v="Fay Road"/>
    <tag k="addr:state" v="VT"/>
    <tag k="ref:vcgi:esiteid" v="331760"/>
  </node>
  <node id="-230" visible="true" lat="43.850004685928" lon="-73.021160456157">
    <!-- conflict: "54 Cemetery Hill Road, Brandon, VT" Fuzzy match to "54 Cemetery Hill Road, Goshen, VT" -->
    <tag k="addr:city" v="Brandon"/>
    <tag k="addr:housenumber" v="54"/>
    <tag k="addr:street" v="Cemetery Hill Road"/>
    <tag k="addr:state" v="VT"/>
    <tag k="ref:vcgi:esiteid" v="332788"/>
  </node>
  <node id="-231" visible="true" lat="43.852917133295" lon="-73.01746966469">
    <!-- conflict: "354 Capen Hill Road, Brandon, VT" Fuzzy match to "354 Capen Hill Road, Goshen, VT" -->
    <tag k="addr:city" v="Brandon"/>
    <tag k="addr:housenumber" v="354"/>
    <tag k="addr:street" v="Capen Hill Road"/>
    <tag k="addr:state" v="VT"/>
    <tag k="ref:vcgi:esiteid" v="332789"/>
  </node>
  <node id="-232" visible="true" lat="43.862837353911" lon="-73.008825644478">
    <!-- conflict: "496 Flora White Road, Brandon, VT" Fuzzy match to "496 Flora White Road, Goshen, VT" -->
    <tag k="addr:city" v="Brandon"/>
    <tag k="addr:housenumber" v="496"/>
    <tag k="addr:street" v="Flora White Road"/>
    <tag k="addr:state" v="VT"/>
    <tag k="ref:vcgi:esiteid" v="332790"/>
  </node>
  <node id="-233" visible="true" lat="43.894371022929" lon="-73.011796183798">
    <!-- conflict: "1589 Goshen Ripton Road, Brandon, VT" Fuzzy match to "1589 Goshen Ripton Road, Goshen, VT" -->
    <tag k="addr:city" v="Brandon"/>
    <tag k="addr:housenumber" v="1589"/>
    <tag k="addr:street" v="Goshen Ripton Road"/>
    <tag k="addr:state" v="VT"/>
    <tag k="ref:vcgi:esiteid" v="332791"/>
  </node>
  <node id="-234" visible="true" lat="43.899997696024" lon="-73.008690334192">
    <!-- conflict: "340 Broken Wire Drive, Brandon, VT" Fuzzy match to "340 Broken Wire Drive, Goshen, VT" -->
    <tag k="addr:city" v="Brandon"/>
    <tag k="addr:housenumber" v="340"/>
    <tag k="addr:street" v="Broken Wire Drive"/>
    <tag k="addr:state" v="VT"/>
    <tag k="ref:vcgi:esiteid" v="332792"/>
  </node>
  <node id="-235" visible="true" lat="43.869464794075" lon="-73.018667492648">
    <!-- conflict: "1586 Carlisle Hill Road, Brandon, VT" Fuzzy match to "1586 Carlisle Hill Road, Goshen, VT" -->
    <tag k="addr:city" v="Brandon"/>
    <tag k="addr:housenumber" v="1586"/>
    <tag k="addr:street" v="Carlisle Hill Road"/>
    <tag k="addr:state" v="VT"/>
    <tag k="ref:vcgi:esiteid" v="333865"/>
  </node>
  <node id="-236" visible="true" lat="43.871793260699" lon="-73.01625623518">
    <!-- conflict: "52 Silver Lake Road, Brandon, VT" Fuzzy match to "52 Silver Lake Road, Goshen, VT" -->
    <tag k="addr:city" v="Brandon"/>
    <tag k="addr:housenumber" v="52"/>
    <tag k="addr:street" v="Silver Lake Road"/>
    <tag k="addr:state" v="VT"/>
    <tag k="ref:vcgi:esiteid" v="342189"/>
  </node>
  <node id="-237" visible="true" lat="43.893626444606" lon="-73.012113982438">
    <!-- conflict: "1520 Goshen Ripton Road, Brandon, VT" Fuzzy match to "1520 Goshen Ripton Road, Goshen, VT" -->
    <tag k="addr:city" v="Brandon"/>
    <tag k="addr:housenumber" v="1520"/>
    <tag k="addr:street" v="Goshen Ripton Road"/>
    <tag k="addr:state" v="VT"/>
    <tag k="ref:vcgi:esiteid" v="344039"/>
  </node>
  <node id="-238" visible="true" lat="43.851917832375" lon="-72.996397284326">
    <!-- conflict: "679 Hathaway Road, Brandon, VT" Fuzzy match to "679 Hathaway Road, Goshen, VT" -->
    <tag k="addr:city" v="Brandon"/>
    <tag k="addr:housenumber" v="679"/>
    <tag k="addr:street" v="Hathaway Road"/>
    <tag k="addr:state" v="VT"/>
    <tag k="ref:vcgi:esiteid" v="344040"/>
  </node>
  <node id="-239" visible="true" lat="43.874245118322" lon="-73.023841159459">
    <!-- conflict: "475 Silver Lake Road, Brandon, VT" Fuzzy match to "475 Silver Lake Road, Goshen, VT" -->
    <tag k="addr:city" v="Brandon"/>
    <tag k="addr:housenumber" v="475"/>
    <tag k="addr:street" v="Silver Lake Road"/>
    <tag k="addr:state" v="VT"/>
    <tag k="ref:vcgi:esiteid" v="344042"/>
  </node>
  <node id="-240" visible="true" lat="43.900266626044" lon="-73.015142249653">
    <!-- conflict: "2013 Goshen Ripton Road, Brandon, VT" Fuzzy match to "2013 Goshen Ripton Road, Goshen, VT" -->
    <tag k="addr:city" v="Brandon"/>
    <tag k="addr:housenumber" v="2013"/>
    <tag k="addr:street" v="Goshen Ripton Road"/>
    <tag k="addr:state" v="VT"/>
    <tag k="ref:vcgi:esiteid" v="447126"/>
  </node>
  <node id="-241" visible="true" lat="43.893196082369" lon="-73.011412342081">
    <!-- conflict: "1507 Goshen Ripton Road, Brandon, VT" Fuzzy match to "1507 Goshen Ripton Road, Goshen, VT" -->
    <tag k="addr:city" v="Brandon"/>
    <tag k="addr:housenumber" v="1507"/>
    <tag k="addr:street" v="Goshen Ripton Road"/>
    <tag k="addr:state" v="VT"/>
    <tag k="ref:vcgi:esiteid" v="449532"/>
  </node>
  <node id="-242" visible="true" lat="43.914400289972" lon="-73.003984262878">
    <!-- conflict: "977 Goshen Dam Road, Brandon, VT" Fuzzy match to "977 Goshen Dam Road, Goshen, VT" -->
    <tag k="addr:city" v="Brandon"/>
    <tag k="addr:housenumber" v="977"/>
    <tag k="addr:street" v="Goshen Dam Road"/>
    <tag k="addr:state" v="VT"/>
    <tag k="ref:vcgi:esiteid" v="450361"/>
  </node>
  <node id="-243" visible="true" lat="43.873083371373" lon="-72.998570986245">
    <!-- conflict: "890 National Forest Road 224, Brandon, VT" Fuzzy match to "890 National Forest Road 224, Goshen, VT" -->
    <tag k="addr:city" v="Brandon"/>
    <tag k="addr:housenumber" v="890"/>
    <tag k="addr:street" v="National Forest Road 224"/>
    <tag k="addr:state" v="VT"/>
    <tag k="ref:vcgi:esiteid" v="450365"/>
  </node>
  <node id="-244" visible="true" lat="43.839696815353" lon="-72.966930342042">
    <!-- conflict: "3357 Gap Road, Brandon, VT" Fuzzy match to "3357 Gap Road, Goshen, VT" -->
    <tag k="addr:city" v="Brandon"/>
    <tag k="addr:housenumber" v="3357"/>
    <tag k="addr:street" v="Gap Road"/>
    <tag k="addr:state" v="VT"/>
    <tag k="ref:vcgi:esiteid" v="450367"/>
  </node>
  <node id="-245" visible="true" lat="43.823179939937" lon="-73.000186216025">
    <!-- conflict: "1295 South Hill Road, Brandon, VT" Fuzzy match to "1295 South Hill Road, Goshen, VT" -->
    <tag k="addr:city" v="Brandon"/>
    <tag k="addr:housenumber" v="1295"/>
    <tag k="addr:street" v="South Hill Road"/>
    <tag k="addr:state" v="VT"/>
    <tag k="ref:vcgi:esiteid" v="450958"/>
  </node>
  <node id="-246" visible="true" lat="43.846297008538" lon="-73.004778238838">
    <!-- conflict: "1218 Gap Road, Brandon, VT" Fuzzy match to "1218 Gap Road, Goshen, VT" -->
    <tag k="addr:city" v="Brandon"/>
    <tag k="addr:housenumber" v="1218"/>
    <tag k="addr:street" v="Gap Road"/>
    <tag k="addr:state" v="VT"/>
    <tag k="ref:vcgi:esiteid" v="451427"/>
  </node>
  <node id="-247" visible="true" lat="43.900797279745" lon="-73.013847931102">
    <!-- conflict: "2031 Goshen Ripton Road, Brandon, VT" Fuzzy match to "2031 Goshen Ripton Road, Goshen, VT" -->
    <tag k="addr:city" v="Brandon"/>
    <tag k="addr:housenumber" v="2031"/>
    <tag k="addr:street" v="Goshen Ripton Road"/>
    <tag k="addr:state" v="VT"/>
    <tag k="ref:vcgi:esiteid" v="452785"/>
  </node>
  <node id="-248" visible="true" lat="43.899828806034" lon="-73.014260109853">
    <!-- conflict: "25 Broken Wire Drive, Brandon, VT" Fuzzy match to "25 Broken Wire Drive, Goshen, VT" -->
    <tag k="addr:city" v="Brandon"/>
    <tag k="addr:housenumber" v="25"/>
    <tag k="addr:street" v="Broken Wire Drive"/>
    <tag k="addr:state" v="VT"/>
    <tag k="ref:vcgi:esiteid" v="611147"/>
  </node>
  <node id="-249" visible="true" lat="43.827725626774" lon="-73.004035337793">
    <!-- conflict: "1011 South Hill Road, Brandon, VT" Fuzzy match to "1011 South Hill Road, Goshen, VT" -->
    <tag k="addr:city" v="Brandon"/>
    <tag k="addr:housenumber" v="1011"/>
    <tag k="addr:street" v="South Hill Road"/>
    <tag k="addr:state" v="VT"/>
    <tag k="ref:vcgi:esiteid" v="611486"/>
  </node>
  <node id="-250" visible="true" lat="43.831994810279" lon="-72.997886005052">
    <!-- conflict: "735 South Hill Road, Brandon, VT" Fuzzy match to "735 South Hill Road, Goshen, VT" -->
    <tag k="addr:city" v="Brandon"/>
    <tag k="addr:housenumber" v="735"/>
    <tag k="addr:street" v="South Hill Road"/>
    <tag k="addr:state" v="VT"/>
    <tag k="ref:vcgi:esiteid" v="612048"/>
  </node>
  <node id="-251" visible="true" lat="43.863923570546" lon="-72.99201635842">
    <!-- conflict: "600 White Rocks Road, Brandon, VT" Fuzzy match to "600 White Rocks Road, Goshen, VT" -->
    <tag k="addr:city" v="Brandon"/>
    <tag k="addr:housenumber" v="600"/>
    <tag k="addr:street" v="White Rocks Road"/>
    <tag k="addr:state" v="VT"/>
    <tag k="ref:vcgi:esiteid" v="618059"/>
  </node>
  <node id="-252" visible="true" lat="43.849920401181" lon="-72.992374898547">
    <!-- conflict: "300 Cape Lookoff Road, Brandon, VT" Fuzzy match to "300 Cape Lookoff Road, Goshen, VT" -->
    <tag k="addr:city" v="Brandon"/>
    <tag k="addr:housenumber" v="300"/>
    <tag k="addr:street" v="Cape Lookoff Road"/>
    <tag k="addr:state" v="VT"/>
    <tag k="ref:vcgi:esiteid" v="618409"/>
  </node>
  <node id="-253" visible="true" lat="43.842657534543" lon="-73.007183928763">
    <!-- conflict: "1214 Gap Road, Brandon, VT" Fuzzy match to "1214 Gap Road, Goshen, VT" -->
    <tag k="addr:city" v="Brandon"/>
    <tag k="addr:housenumber" v="1214"/>
    <tag k="addr:street" v="Gap Road"/>
    <tag k="addr:state" v="VT"/>
    <tag k="ref:vcgi:esiteid" v="618411"/>
  </node>
  <node id="-257" visible="true" lat="43.901083741413" lon="-73.030994265917">
    <!-- conflict: "711 Lady Slipper Lane, Brandon, VT" Fuzzy match to "711 Lady Slipper Lane, Goshen, VT" -->
    <tag k="addr:city" v="Brandon"/>
    <tag k="addr:housenumber" v="711"/>
    <tag k="addr:street" v="Lady Slipper Lane"/>
    <tag k="addr:state" v="VT"/>
    <tag k="ref:vcgi:esiteid" v="750481"/>
  </node>
  <node id="-258" visible="true" lat="43.834240769358" lon="-72.997609973883">
    <!-- conflict: "519 South Hill Road, Brandon, VT" Fuzzy match to "519 South Hill Road, Goshen, VT" -->
    <tag k="addr:city" v="Brandon"/>
    <tag k="addr:housenumber" v="519"/>
    <tag k="addr:street" v="South Hill Road"/>
    <tag k="addr:state" v="VT"/>
    <tag k="ref:vcgi:esiteid" v="751432"/>
  </node>
  <node id="-259" visible="true" lat="43.902128451468" lon="-73.022056486741">
    <!-- conflict: "285 Lady Slipper Lane, Brandon, VT" Fuzzy match to "285 Lady Slipper Lane, Goshen, VT" -->
    <tag k="addr:city" v="Brandon"/>
    <tag k="addr:housenumber" v="285"/>
    <tag k="addr:street" v="Lady Slipper Lane"/>
    <tag k="addr:state" v="VT"/>
    <tag k="ref:vcgi:esiteid" v="752730"/>
  </node>
  <node id="-261" visible="true" lat="43.89793003613" lon="-73.008509680119">
    <!-- conflict: "1861 Goshen Ripton Road, Brandon, VT" Fuzzy match to "1861 Goshen Ripton Road, Goshen, VT" -->
    <tag k="addr:city" v="Brandon"/>
    <tag k="addr:housenumber" v="1861"/>
    <tag k="addr:street" v="Goshen Ripton Road"/>
    <tag k="addr:state" v="VT"/>
    <tag k="ref:vcgi:esiteid" v="762936"/>
  </node>
  <node id="-262" visible="true" lat="43.875835518746" lon="-73.01181962652">
    <!-- conflict: "303 Goshen Ripton Road, Brandon, VT" Fuzzy match to "303 Goshen Ripton Road, Goshen, VT" -->
    <tag k="addr:city" v="Brandon"/>
    <tag k="addr:housenumber" v="303"/>
    <tag k="addr:street" v="Goshen Ripton Road"/>
    <tag k="addr:state" v="VT"/>
    <tag k="ref:vcgi:esiteid" v="762937"/>
  </node>
  <node id="-263" visible="true" lat="43.856157922058" lon="-73.002842999038">
    <!-- conflict: "1061 Hathaway Road, Brandon, VT" Fuzzy match to "1061 Hathaway Road, Goshen, VT" -->
    <tag k="addr:city" v="Brandon"/>
    <tag k="addr:housenumber" v="1061"/>
    <tag k="addr:street" v="Hathaway Road"/>
    <tag k="addr:state" v="VT"/>
    <tag k="ref:vcgi:esiteid" v="764566"/>
  </node>
  <node id="-264" visible="true" lat="43.856224543805" lon="-73.001782416789">
    <!-- conflict: "1041 Hathaway Road, Brandon, VT" Fuzzy match to "1041 Hathaway Road, Goshen, VT" -->
    <tag k="addr:city" v="Brandon"/>
    <tag k="addr:housenumber" v="1041"/>
    <tag k="addr:street" v="Hathaway Road"/>
    <tag k="addr:state" v="VT"/>
    <tag k="ref:vcgi:esiteid" v="764567"/>
  </node>
  <node id="-265" visible="true" lat="43.853549059769" lon="-73.01476340725">
    <!-- conflict: "518 Capen Hill Road, Brandon, VT" Fuzzy match to "518 Capen Hill Road, Goshen, VT" -->
    <tag k="addr:city" v="Brandon"/>
    <tag k="addr:housenumber" v="518"/>
    <tag k="addr:street" v="Capen Hill Road"/>
    <tag k="addr:state" v="VT"/>
    <tag k="ref:vcgi:esiteid" v="764576"/>
  </node>
  <node id="-266" visible="true" lat="43.873185591529" lon="-73.021941540098">
    <!-- conflict: "334 Silver Lake Road, Brandon, VT" Fuzzy match to "334 Silver Lake Road, Goshen, VT" -->
    <tag k="addr:city" v="Brandon"/>
    <tag k="addr:housenumber" v="334"/>
    <tag k="addr:street" v="Silver Lake Road"/>
    <tag k="addr:state" v="VT"/>
    <tag k="ref:vcgi:esiteid" v="764579"/>
  </node>
  <node id="-267" visible="true" lat="43.88854835168" lon="-73.0083648003">
    <!-- conflict: "1189 Goshen Ripton Road, Brandon, VT" Fuzzy match to "1189 Goshen Ripton Road, Goshen, VT" -->
    <tag k="addr:city" v="Brandon"/>
    <tag k="addr:housenumber" v="1189"/>
    <tag k="addr:street" v="Goshen Ripton Road"/>
    <tag k="addr:state" v="VT"/>
    <tag k="ref:vcgi:esiteid" v="766271"/>
  </node>
  <node id="-268" visible="true" lat="43.845221132604" lon="-73.028686508242">
    <!-- conflict: "214 Town Hill Road, Brandon, VT" Fuzzy match to "214 Town Hill Road, Goshen, VT" -->
    <tag k="addr:city" v="Brandon"/>
    <tag k="addr:housenumber" v="214"/>
    <tag k="addr:street" v="Town Hill Road"/>
    <tag k="addr:state" v="VT"/>
    <tag k="ref:vcgi:esiteid" v="768063"/>
  </node>
  <node id="-269" visible="true" lat="43.849183958272" lon="-72.989863673889">
    <!-- conflict: "351 Cape Lookoff Road, Brandon, VT" Fuzzy match to "351 Cape Lookoff Road, Goshen, VT" -->
    <tag k="addr:city" v="Brandon"/>
    <tag k="addr:housenumber" v="351"/>
    <tag k="addr:street" v="Cape Lookoff Road"/>
    <tag k="addr:state" v="VT"/>
    <tag k="ref:vcgi:esiteid" v="768959"/>
  </node>
  <node id="-270" visible="true" lat="43.85586631798" lon="-72.996713865011">
    <!-- conflict: "99 White Rocks Road, Brandon, VT" Fuzzy match to "99 White Rocks Road, Goshen, VT" -->
    <tag k="addr:city" v="Brandon"/>
    <tag k="addr:housenumber" v="99"/>
    <tag k="addr:street" v="White Rocks Road"/>
    <tag k="addr:state" v="VT"/>
    <tag k="ref:vcgi:esiteid" v="800123"/>
  </node>
  <node id="-271" visible="true" lat="43.873261182327" lon="-73.031457698045">
    <!-- conflict: "319 Hayes Road, Brandon, VT" Fuzzy match to "319 Hayes Road, Goshen, VT" -->
    <tag k="addr:city" v="Brandon"/>
    <tag k="addr:housenumber" v="319"/>
    <tag k="addr:street" v="Hayes Road"/>
    <tag k="addr:state" v="VT"/>
    <tag k="ref:vcgi:esiteid" v="900344"/>
  </node>
  <node id="-272" visible="true" lat="43.842650787735" lon="-73.005936186852">
    <!-- conflict: "1220 Gap Road, Brandon, VT" Fuzzy match to "1220 Gap Road, Goshen, VT" -->
    <tag k="addr:city" v="Brandon"/>
    <tag k="addr:housenumber" v="1220"/>
    <tag k="addr:street" v="Gap Road"/>
    <tag k="addr:state" v="VT"/>
    <tag k="ref:vcgi:esiteid" v="1050404"/>
  </node>
</osm>
