<?xml version="1.0" encoding="UTF-8"?>
<osm version="0.6" generator="JOSM" upload="false">
  <node id="-100" visible="true" lat="44.02849063064" lon="-72.758684824325">
    <!-- conflict: "1312 Vermont Route 12A, Roxbury, VT" Fuzzy match to "1312 Vermont Route 12A, Granville, VT" -->
    <tag k="addr:city" v="Roxbury"/>
    <tag k="addr:housenumber" v="1312"/>
    <tag k="addr:street" v="Vermont Route 12A"/>
    <tag k="addr:state" v="VT"/>
    <tag k="ref:vcgi:esiteid" v="114559"/>
  </node>
  <node id="-101" visible="true" lat="44.027910275574" lon="-72.758829406739">
    <!-- conflict: "1248 Vermont Route 12A, Roxbury, VT" Fuzzy match to "1248 Vermont Route 12A, Granville, VT" -->
    <tag k="addr:city" v="Roxbury"/>
    <tag k="addr:housenumber" v="1248"/>
    <tag k="addr:street" v="Vermont Route 12A"/>
    <tag k="addr:state" v="VT"/>
    <tag k="ref:vcgi:esiteid" v="114560"/>
  </node>
  <node id="-103" visible="true" lat="44.017966053791" lon="-72.75985154273">
    <!-- conflict: "565 Vermont Route 12A, Roxbury, VT" Fuzzy match to "565 Vermont Route 12A, Granville, VT" -->
    <tag k="addr:city" v="Roxbury"/>
    <tag k="addr:housenumber" v="565"/>
    <tag k="addr:street" v="Vermont Route 12A"/>
    <tag k="addr:state" v="VT"/>
    <tag k="ref:vcgi:esiteid" v="114562"/>
  </node>
  <node id="-104" visible="true" lat="44.017363991732" lon="-72.759588620154">
    <!-- conflict: "527 Vermont Route 12A, Roxbury, VT" Fuzzy match to "527 Vermont Route 12A, Granville, VT" -->
    <tag k="addr:city" v="Roxbury"/>
    <tag k="addr:housenumber" v="527"/>
    <tag k="addr:street" v="Vermont Route 12A"/>
    <tag k="addr:state" v="VT"/>
    <tag k="ref:vcgi:esiteid" v="114563"/>
  </node>
  <node id="-105" visible="true" lat="44.017116934445" lon="-72.759042142634">
    <!-- conflict: "500 Vermont Route 12A, Roxbury, VT" Fuzzy match to "500 Vermont Route 12A, Granville, VT" -->
    <tag k="addr:city" v="Roxbury"/>
    <tag k="addr:housenumber" v="500"/>
    <tag k="addr:street" v="Vermont Route 12A"/>
    <tag k="addr:state" v="VT"/>
    <tag k="ref:vcgi:esiteid" v="114564"/>
  </node>
  <node id="-106" visible="true" lat="44.016911339358" lon="-72.759296831974">
    <!-- conflict: "493 Vermont Route 12A, Roxbury, VT" Fuzzy match to "493 Vermont Route 12A, Granville, VT" -->
    <tag k="addr:city" v="Roxbury"/>
    <tag k="addr:housenumber" v="493"/>
    <tag k="addr:street" v="Vermont Route 12A"/>
    <tag k="addr:state" v="VT"/>
    <tag k="ref:vcgi:esiteid" v="114565"/>
  </node>
  <node id="-107" visible="true" lat="44.016788153211" lon="-72.759226400555">
    <!-- conflict: "481 Vermont Route 12A, Roxbury, VT" Fuzzy match to "481 Vermont Route 12A, Granville, VT" -->
    <tag k="addr:city" v="Roxbury"/>
    <tag k="addr:housenumber" v="481"/>
    <tag k="addr:street" v="Vermont Route 12A"/>
    <tag k="addr:state" v="VT"/>
    <tag k="ref:vcgi:esiteid" v="114566"/>
  </node>
  <node id="-108" visible="true" lat="44.016774516939" lon="-72.758729284145">
    <!-- conflict: "468 Vermont Route 12A, Roxbury, VT" Fuzzy match to "468 Vermont Route 12A, Granville, VT" -->
    <tag k="addr:city" v="Roxbury"/>
    <tag k="addr:housenumber" v="468"/>
    <tag k="addr:street" v="Vermont Route 12A"/>
    <tag k="addr:state" v="VT"/>
    <tag k="ref:vcgi:esiteid" v="114567"/>
  </node>
  <node id="-109" visible="true" lat="44.016078396332" lon="-72.758032374386">
    <!-- conflict: "410 Vermont Route 12A, Roxbury, VT" Fuzzy match to "410 Vermont Route 12A, Granville, VT" -->
    <tag k="addr:city" v="Roxbury"/>
    <tag k="addr:housenumber" v="410"/>
    <tag k="addr:street" v="Vermont Route 12A"/>
    <tag k="addr:state" v="VT"/>
    <tag k="ref:vcgi:esiteid" v="114568"/>
  </node>
  <node id="-110" visible="true" lat="44.015713652965" lon="-72.756597744754">
    <!-- conflict: "198 Handly Road, Roxbury, VT" Fuzzy match to "198 Handly Road, Granville, VT" -->
    <tag k="addr:city" v="Roxbury"/>
    <tag k="addr:housenumber" v="198"/>
    <tag k="addr:street" v="Handly Road"/>
    <tag k="addr:state" v="VT"/>
    <tag k="ref:vcgi:esiteid" v="114569"/>
  </node>
  <node id="-111" visible="true" lat="44.014439762763" lon="-72.754954723163">
    <!-- conflict: "84 Handly Road, Roxbury, VT" Fuzzy match to "84 Handly Road, Granville, VT" -->
    <tag k="addr:city" v="Roxbury"/>
    <tag k="addr:housenumber" v="84"/>
    <tag k="addr:street" v="Handly Road"/>
    <tag k="addr:state" v="VT"/>
    <tag k="ref:vcgi:esiteid" v="114570"/>
  </node>
  <node id="-112" visible="true" lat="44.014163078647" lon="-72.75499012347">
    <!-- conflict: "70 Handly Road, Roxbury, VT" Fuzzy match to "70 Handly Road, Granville, VT" -->
    <tag k="addr:city" v="Roxbury"/>
    <tag k="addr:housenumber" v="70"/>
    <tag k="addr:street" v="Handly Road"/>
    <tag k="addr:state" v="VT"/>
    <tag k="ref:vcgi:esiteid" v="114571"/>
  </node>
  <node id="-113" visible="true" lat="44.013790955699" lon="-72.755128202613">
    <!-- conflict: "46 Handly Road, Roxbury, VT" Fuzzy match to "46 Handly Road, Granville, VT" -->
    <tag k="addr:city" v="Roxbury"/>
    <tag k="addr:housenumber" v="46"/>
    <tag k="addr:street" v="Handly Road"/>
    <tag k="addr:state" v="VT"/>
    <tag k="ref:vcgi:esiteid" v="114573"/>
  </node>
  <node id="-114" visible="true" lat="44.013544105808" lon="-72.754670851285">
    <!-- conflict: "50 Handly Road, Roxbury, VT" Fuzzy match to "50 Handly Road, Granville, VT" -->
    <tag k="addr:city" v="Roxbury"/>
    <tag k="addr:housenumber" v="50"/>
    <tag k="addr:street" v="Handly Road"/>
    <tag k="addr:state" v="VT"/>
    <tag k="ref:vcgi:esiteid" v="114574"/>
  </node>
  <node id="-115" visible="true" lat="44.013417583251" lon="-72.755273166221">
    <!-- conflict: "18 Handly Road, Roxbury, VT" Fuzzy match to "18 Handly Road, Granville, VT" -->
    <tag k="addr:city" v="Roxbury"/>
    <tag k="addr:housenumber" v="18"/>
    <tag k="addr:street" v="Handly Road"/>
    <tag k="addr:state" v="VT"/>
    <tag k="ref:vcgi:esiteid" v="114575"/>
  </node>
  <node id="-116" visible="true" lat="44.013467048698" lon="-72.756322298915">
    <!-- conflict: "195 Vermont Route 12A, Roxbury, VT" Fuzzy match to "195 Vermont Route 12A, Granville, VT" -->
    <tag k="addr:city" v="Roxbury"/>
    <tag k="addr:housenumber" v="195"/>
    <tag k="addr:street" v="Vermont Route 12A"/>
    <tag k="addr:state" v="VT"/>
    <tag k="ref:vcgi:esiteid" v="114576"/>
  </node>
  <node id="-117" visible="true" lat="44.013168722807" lon="-72.754942311321">
    <!-- conflict: "12 Handly Road, Roxbury, VT" Fuzzy match to "12 Handly Road, Granville, VT" -->
    <tag k="addr:city" v="Roxbury"/>
    <tag k="addr:housenumber" v="12"/>
    <tag k="addr:street" v="Handly Road"/>
    <tag k="addr:state" v="VT"/>
    <tag k="ref:vcgi:esiteid" v="114577"/>
  </node>
  <node id="-119" visible="true" lat="44.012970946672" lon="-72.756063306366">
    <!-- conflict: "137 Vermont Route 12A, Roxbury, VT" Fuzzy match to "137 Vermont Route 12A, Granville, VT" -->
    <tag k="addr:city" v="Roxbury"/>
    <tag k="addr:housenumber" v="137"/>
    <tag k="addr:street" v="Vermont Route 12A"/>
    <tag k="addr:state" v="VT"/>
    <tag k="ref:vcgi:esiteid" v="114579"/>
  </node>
  <node id="-335" visible="true" lat="43.940097073315" lon="-72.819443395085">
    <!-- conflict: "1350 Buttles Road, Rochester, VT" Fuzzy match to "1350 Buttles Road, Granville, VT" -->
    <tag k="addr:city" v="Rochester"/>
    <tag k="addr:housenumber" v="1350"/>
    <tag k="addr:street" v="Buttles Road"/>
    <tag k="addr:state" v="VT"/>
    <tag k="ref:vcgi:esiteid" v="114805"/>
  </node>
  <node id="-359" visible="true" lat="43.938538687738" lon="-72.817790587749">
    <!-- conflict: "1287 Buttles Road, Rochester, VT" Fuzzy match to "1287 Buttles Road, Granville, VT" -->
    <tag k="addr:city" v="Rochester"/>
    <tag k="addr:housenumber" v="1287"/>
    <tag k="addr:street" v="Buttles Road"/>
    <tag k="addr:state" v="VT"/>
    <tag k="ref:vcgi:esiteid" v="445349"/>
  </node>
  <node id="-374" visible="true" lat="43.990745867057" lon="-72.898113034666">
    <!-- conflict: "8 Leahy Road, Granville, VT" No match in OSM, but a different address exists <5m away: "8 National Forest Road 101, Granville, VT" -->
    <tag k="addr:city" v="Granville"/>
    <tag k="addr:housenumber" v="8"/>
    <tag k="addr:street" v="Leahy Road"/>
    <tag k="addr:state" v="VT"/>
    <tag k="ref:vcgi:esiteid" v="450396"/>
  </node>
  <node id="-378" visible="true" lat="43.993823287786" lon="-72.866676127162">
    <!-- conflict: "8 O'Brien Drive, Granville, VT" No match in OSM, but a different address exists <5m away: "8 National Forest Road 50, Granville, VT" -->
    <tag k="addr:city" v="Granville"/>
    <tag k="addr:housenumber" v="8"/>
    <tag k="addr:street" v="O'Brien Drive"/>
    <tag k="addr:state" v="VT"/>
    <tag k="ref:vcgi:esiteid" v="450417"/>
  </node>
  <node id="-394" visible="true" lat="44.015656154533" lon="-72.759101413815">
    <!-- conflict: "379 Vermont Route 12A, Roxbury, VT" Fuzzy match to "379 Vermont Route 12A, Granville, VT" -->
    <tag k="addr:city" v="Roxbury"/>
    <tag k="addr:housenumber" v="379"/>
    <tag k="addr:street" v="Vermont Route 12A"/>
    <tag k="addr:state" v="VT"/>
    <tag k="ref:vcgi:esiteid" v="765943"/>
  </node>
  <node id="-407" visible="true" lat="43.937048671813" lon="-72.810373732026">
    <!-- conflict: "1721 Buttles Road, Rochester, VT" Fuzzy match to "1721 Buttles Road, Granville, VT" -->
    <tag k="addr:city" v="Rochester"/>
    <tag k="addr:housenumber" v="1721"/>
    <tag k="addr:street" v="Buttles Road"/>
    <tag k="addr:state" v="VT"/>
    <tag k="ref:vcgi:esiteid" v="769380"/>
  </node>
  <node id="-408" visible="true" lat="43.9373754172" lon="-72.811168545929">
    <!-- conflict: "1639 Buttles Road, Rochester, VT" Fuzzy match to "1639 Buttles Road, Granville, VT" -->
    <tag k="addr:city" v="Rochester"/>
    <tag k="addr:housenumber" v="1639"/>
    <tag k="addr:street" v="Buttles Road"/>
    <tag k="addr:state" v="VT"/>
    <tag k="ref:vcgi:esiteid" v="769381"/>
  </node>
</osm>
