<?xml version="1.0" encoding="UTF-8"?>
<osm version="0.6" generator="JOSM" upload="false">
  <node id="-100" visible="true" lat="44.74963028291" lon="-73.287284453025">
    <!-- conflict: "322 United States Route 2, Grand Isle, VT" No match in OSM, but a different address exists <5m away: "322 U.S. Route 2, Grand Isle, VT" -->
    <tag k="addr:city" v="Grand Isle"/>
    <tag k="addr:housenumber" v="322"/>
    <tag k="addr:street" v="United States Route 2"/>
    <tag k="addr:state" v="VT"/>
    <tag k="ref:vcgi:esiteid" v="3622"/>
  </node>
  <node id="-110" visible="true" lat="44.765777301806" lon="-73.289326162886">
    <!-- conflict: "438 United States Route 2, Grand Isle, VT" No match in OSM, but a different address exists <5m away: "438 U.S. Route 2, Grand Isle, VT" -->
    <tag k="addr:city" v="Grand Isle"/>
    <tag k="addr:housenumber" v="438"/>
    <tag k="addr:street" v="United States Route 2"/>
    <tag k="addr:state" v="VT"/>
    <tag k="ref:vcgi:esiteid" v="113402"/>
  </node>
  <node id="-112" visible="true" lat="44.7649817233" lon="-73.286675984208">
    <!-- conflict: "412 United States Route 2, Grand Isle, VT" No match in OSM, but a different address exists <5m away: "412 U.S. Route 2, Grand Isle, VT" -->
    <tag k="addr:city" v="Grand Isle"/>
    <tag k="addr:housenumber" v="412"/>
    <tag k="addr:street" v="United States Route 2"/>
    <tag k="addr:state" v="VT"/>
    <tag k="ref:vcgi:esiteid" v="113404"/>
  </node>
  <node id="-122" visible="true" lat="44.761689082581" lon="-73.28781117716">
    <!-- conflict: "407 United States Route 2, Grand Isle, VT" No match in OSM, but a different address exists <5m away: "407 U.S. Route 2, Grand Isle, VT" -->
    <tag k="addr:city" v="Grand Isle"/>
    <tag k="addr:housenumber" v="407"/>
    <tag k="addr:street" v="United States Route 2"/>
    <tag k="addr:state" v="VT"/>
    <tag k="ref:vcgi:esiteid" v="113414"/>
  </node>
  <node id="-125" visible="true" lat="44.761193727314" lon="-73.286477620452">
    <!-- conflict: "405 United States Route 2, Grand Isle, VT" No match in OSM, but a different address exists <5m away: "405 U.S. Route 2, Grand Isle, VT" -->
    <tag k="addr:city" v="Grand Isle"/>
    <tag k="addr:housenumber" v="405"/>
    <tag k="addr:street" v="United States Route 2"/>
    <tag k="addr:state" v="VT"/>
    <tag k="ref:vcgi:esiteid" v="113417"/>
  </node>
  <node id="-131" visible="true" lat="44.760074641603" lon="-73.286019232951">
    <!-- conflict: "397 United States Route 2, Grand Isle, VT" No match in OSM, but a different address exists <5m away: "397 U.S. Route 2, Grand Isle, VT" -->
    <tag k="addr:city" v="Grand Isle"/>
    <tag k="addr:housenumber" v="397"/>
    <tag k="addr:street" v="United States Route 2"/>
    <tag k="addr:state" v="VT"/>
    <tag k="ref:vcgi:esiteid" v="113423"/>
  </node>
  <node id="-134" visible="true" lat="44.759443014849" lon="-73.28882211427">
    <!-- conflict: "393 United States Route 2, Grand Isle, VT" No match in OSM, but a different address exists <5m away: "393 U.S. Route 2, Grand Isle, VT" -->
    <tag k="addr:city" v="Grand Isle"/>
    <tag k="addr:housenumber" v="393"/>
    <tag k="addr:street" v="United States Route 2"/>
    <tag k="addr:state" v="VT"/>
    <tag k="ref:vcgi:esiteid" v="113426"/>
  </node>
  <node id="-135" visible="true" lat="44.759493499558" lon="-73.288083174931">
    <!-- conflict: "391 United States Route 2, Grand Isle, VT" No match in OSM, but a different address exists <5m away: "391 U.S. Route 2, Grand Isle, VT" -->
    <tag k="addr:city" v="Grand Isle"/>
    <tag k="addr:housenumber" v="391"/>
    <tag k="addr:street" v="United States Route 2"/>
    <tag k="addr:state" v="VT"/>
    <tag k="ref:vcgi:esiteid" v="113427"/>
  </node>
  <node id="-136" visible="true" lat="44.759192990372" lon="-73.288721293395">
    <!-- conflict: "389 United States Route 2, Grand Isle, VT" No match in OSM, but a different address exists <5m away: "389 U.S. Route 2, Grand Isle, VT" -->
    <tag k="addr:city" v="Grand Isle"/>
    <tag k="addr:housenumber" v="389"/>
    <tag k="addr:street" v="United States Route 2"/>
    <tag k="addr:state" v="VT"/>
    <tag k="ref:vcgi:esiteid" v="113428"/>
  </node>
  <node id="-138" visible="true" lat="44.758844485159" lon="-73.288931187753">
    <!-- conflict: "385 United States Route 2, Grand Isle, VT" No match in OSM, but a different address exists <5m away: "385 U.S. Route 2, Grand Isle, VT" -->
    <tag k="addr:city" v="Grand Isle"/>
    <tag k="addr:housenumber" v="385"/>
    <tag k="addr:street" v="United States Route 2"/>
    <tag k="addr:state" v="VT"/>
    <tag k="ref:vcgi:esiteid" v="113430"/>
  </node>
  <node id="-140" visible="true" lat="44.758529381572" lon="-73.289122016647">
    <!-- conflict: "383 United States Route 2, Grand Isle, VT" No match in OSM, but a different address exists <5m away: "383 U.S. Route 2, Grand Isle, VT" -->
    <tag k="addr:city" v="Grand Isle"/>
    <tag k="addr:housenumber" v="383"/>
    <tag k="addr:street" v="United States Route 2"/>
    <tag k="addr:state" v="VT"/>
    <tag k="ref:vcgi:esiteid" v="113432"/>
  </node>
  <node id="-141" visible="true" lat="44.758150589934" lon="-73.288939057188">
    <!-- conflict: "381 United States Route 2, Grand Isle, VT" No match in OSM, but a different address exists <5m away: "381 U.S. Route 2, Grand Isle, VT" -->
    <tag k="addr:city" v="Grand Isle"/>
    <tag k="addr:housenumber" v="381"/>
    <tag k="addr:street" v="United States Route 2"/>
    <tag k="addr:state" v="VT"/>
    <tag k="ref:vcgi:esiteid" v="113433"/>
  </node>
  <node id="-158" visible="true" lat="44.756358972482" lon="-73.289468887528">
    <!-- conflict: "375 United States Route 2, Grand Isle, VT" No match in OSM, but a different address exists <5m away: "375 U.S. Route 2, Grand Isle, VT" -->
    <tag k="addr:city" v="Grand Isle"/>
    <tag k="addr:housenumber" v="375"/>
    <tag k="addr:street" v="United States Route 2"/>
    <tag k="addr:state" v="VT"/>
    <tag k="ref:vcgi:esiteid" v="113451"/>
  </node>
  <node id="-160" visible="true" lat="44.756026068273" lon="-73.289645330344">
    <!-- conflict: "373 United States Route 2, Grand Isle, VT" No match in OSM, but a different address exists <5m away: "373 U.S. Route 2, Grand Isle, VT" -->
    <tag k="addr:city" v="Grand Isle"/>
    <tag k="addr:housenumber" v="373"/>
    <tag k="addr:street" v="United States Route 2"/>
    <tag k="addr:state" v="VT"/>
    <tag k="ref:vcgi:esiteid" v="113453"/>
  </node>
  <node id="-161" visible="true" lat="44.755797899266" lon="-73.287142508034">
    <!-- conflict: "369 United States Route 2, Grand Isle, VT" No match in OSM, but a different address exists <5m away: "369 U.S. Route 2, Grand Isle, VT" -->
    <tag k="addr:city" v="Grand Isle"/>
    <tag k="addr:housenumber" v="369"/>
    <tag k="addr:street" v="United States Route 2"/>
    <tag k="addr:state" v="VT"/>
    <tag k="ref:vcgi:esiteid" v="113454"/>
  </node>
  <node id="-162" visible="true" lat="44.755429720458" lon="-73.287538105527">
    <!-- conflict: "365 United States Route 2, Grand Isle, VT" No match in OSM, but a different address exists <5m away: "365 U.S. Route 2, Grand Isle, VT" -->
    <tag k="addr:city" v="Grand Isle"/>
    <tag k="addr:housenumber" v="365"/>
    <tag k="addr:street" v="United States Route 2"/>
    <tag k="addr:state" v="VT"/>
    <tag k="ref:vcgi:esiteid" v="113455"/>
  </node>
  <node id="-164" visible="true" lat="44.755303853314" lon="-73.28954196303">
    <!-- conflict: "367 United States Route 2, Grand Isle, VT" No match in OSM, but a different address exists <5m away: "367 U.S. Route 2, Grand Isle, VT" -->
    <tag k="addr:city" v="Grand Isle"/>
    <tag k="addr:housenumber" v="367"/>
    <tag k="addr:street" v="United States Route 2"/>
    <tag k="addr:state" v="VT"/>
    <tag k="ref:vcgi:esiteid" v="113457"/>
  </node>
  <node id="-168" visible="true" lat="44.754242727782" lon="-73.289344564193">
    <!-- conflict: "357 United States Route 2, Grand Isle, VT" No match in OSM, but a different address exists <5m away: "357 U.S. Route 2, Grand Isle, VT" -->
    <tag k="addr:city" v="Grand Isle"/>
    <tag k="addr:housenumber" v="357"/>
    <tag k="addr:street" v="United States Route 2"/>
    <tag k="addr:state" v="VT"/>
    <tag k="ref:vcgi:esiteid" v="113461"/>
  </node>
  <node id="-169" visible="true" lat="44.753768317393" lon="-73.289246453842">
    <!-- conflict: "353 United States Route 2, Grand Isle, VT" No match in OSM, but a different address exists <5m away: "353 U.S. Route 2, Grand Isle, VT" -->
    <tag k="addr:city" v="Grand Isle"/>
    <tag k="addr:housenumber" v="353"/>
    <tag k="addr:street" v="United States Route 2"/>
    <tag k="addr:state" v="VT"/>
    <tag k="ref:vcgi:esiteid" v="113463"/>
  </node>
  <node id="-171" visible="true" lat="44.753798734681" lon="-73.286491758861">
    <!-- conflict: "348 United States Route 2, Grand Isle, VT" No match in OSM, but a different address exists <5m away: "348 U.S. Route 2, Grand Isle, VT" -->
    <tag k="addr:city" v="Grand Isle"/>
    <tag k="addr:housenumber" v="348"/>
    <tag k="addr:street" v="United States Route 2"/>
    <tag k="addr:state" v="VT"/>
    <tag k="ref:vcgi:esiteid" v="113465"/>
  </node>
  <node id="-176" visible="true" lat="44.752958808742" lon="-73.286593875346">
    <!-- conflict: "346 United States Route 2, Grand Isle, VT" No match in OSM, but a different address exists <5m away: "346 U.S. Route 2, Grand Isle, VT" -->
    <tag k="addr:city" v="Grand Isle"/>
    <tag k="addr:housenumber" v="346"/>
    <tag k="addr:street" v="United States Route 2"/>
    <tag k="addr:state" v="VT"/>
    <tag k="ref:vcgi:esiteid" v="113470"/>
  </node>
  <node id="-179" visible="true" lat="44.752544922782" lon="-73.286837209071">
    <!-- conflict: "338 United States Route 2, Grand Isle, VT" No match in OSM, but a different address exists <5m away: "338 U.S. Route 2, Grand Isle, VT" -->
    <tag k="addr:city" v="Grand Isle"/>
    <tag k="addr:housenumber" v="338"/>
    <tag k="addr:street" v="United States Route 2"/>
    <tag k="addr:state" v="VT"/>
    <tag k="ref:vcgi:esiteid" v="113473"/>
  </node>
  <node id="-184" visible="true" lat="44.751883355399" lon="-73.288782189167">
    <!-- conflict: "337 United States Route 2, Grand Isle, VT" No match in OSM, but a different address exists <5m away: "337 U.S. Route 2, Grand Isle, VT" -->
    <tag k="addr:city" v="Grand Isle"/>
    <tag k="addr:housenumber" v="337"/>
    <tag k="addr:street" v="United States Route 2"/>
    <tag k="addr:state" v="VT"/>
    <tag k="ref:vcgi:esiteid" v="113478"/>
  </node>
  <node id="-185" visible="true" lat="44.751740907486" lon="-73.288812215085">
    <!-- conflict: "335 United States Route 2, Grand Isle, VT" No match in OSM, but a different address exists <5m away: "335 U.S. Route 2, Grand Isle, VT" -->
    <tag k="addr:city" v="Grand Isle"/>
    <tag k="addr:housenumber" v="335"/>
    <tag k="addr:street" v="United States Route 2"/>
    <tag k="addr:state" v="VT"/>
    <tag k="ref:vcgi:esiteid" v="113479"/>
  </node>
  <node id="-186" visible="true" lat="44.750970317948" lon="-73.288763163534">
    <!-- conflict: "323 United States Route 2, Grand Isle, VT" No match in OSM, but a different address exists <5m away: "323 U.S. Route 2, Grand Isle, VT" -->
    <tag k="addr:city" v="Grand Isle"/>
    <tag k="addr:housenumber" v="323"/>
    <tag k="addr:street" v="United States Route 2"/>
    <tag k="addr:state" v="VT"/>
    <tag k="ref:vcgi:esiteid" v="113480"/>
  </node>
  <node id="-187" visible="true" lat="44.750914918516" lon="-73.286808001821">
    <!-- conflict: "336 United States Route 2, Grand Isle, VT" No match in OSM, but a different address exists <5m away: "336 U.S. Route 2, Grand Isle, VT" -->
    <tag k="addr:city" v="Grand Isle"/>
    <tag k="addr:housenumber" v="336"/>
    <tag k="addr:street" v="United States Route 2"/>
    <tag k="addr:state" v="VT"/>
    <tag k="ref:vcgi:esiteid" v="113481"/>
  </node>
  <node id="-189" visible="true" lat="44.750334050044" lon="-73.286948742009">
    <!-- conflict: "334 United States Route 2, Grand Isle, VT" No match in OSM, but a different address exists <5m away: "334 U.S. Route 2, Grand Isle, VT" -->
    <tag k="addr:city" v="Grand Isle"/>
    <tag k="addr:housenumber" v="334"/>
    <tag k="addr:street" v="United States Route 2"/>
    <tag k="addr:state" v="VT"/>
    <tag k="ref:vcgi:esiteid" v="113483"/>
  </node>
  <node id="-190" visible="true" lat="44.750345547617" lon="-73.286380011379">
    <!-- conflict: "332 United States Route 2, Grand Isle, VT" No match in OSM, but a different address exists <5m away: "332 U.S. Route 2, Grand Isle, VT" -->
    <tag k="addr:city" v="Grand Isle"/>
    <tag k="addr:housenumber" v="332"/>
    <tag k="addr:street" v="United States Route 2"/>
    <tag k="addr:state" v="VT"/>
    <tag k="ref:vcgi:esiteid" v="113484"/>
  </node>
  <node id="-192" visible="true" lat="44.749740298346" lon="-73.28802040341">
    <!-- conflict: "319 United States Route 2, Grand Isle, VT" No match in OSM, but a different address exists <5m away: "319 U.S. Route 2, Grand Isle, VT" -->
    <tag k="addr:city" v="Grand Isle"/>
    <tag k="addr:housenumber" v="319"/>
    <tag k="addr:street" v="United States Route 2"/>
    <tag k="addr:state" v="VT"/>
    <tag k="ref:vcgi:esiteid" v="113486"/>
  </node>
  <node id="-194" visible="true" lat="44.748757100306" lon="-73.288506065432">
    <!-- conflict: "315 United States Route 2, Grand Isle, VT" No match in OSM, but a different address exists <5m away: "315 U.S. Route 2, Grand Isle, VT" -->
    <tag k="addr:city" v="Grand Isle"/>
    <tag k="addr:housenumber" v="315"/>
    <tag k="addr:street" v="United States Route 2"/>
    <tag k="addr:state" v="VT"/>
    <tag k="ref:vcgi:esiteid" v="113488"/>
  </node>
  <node id="-195" visible="true" lat="44.747571496637" lon="-73.327622902548">
    <!-- conflict: "50 Long Point Island, Grand Isle, VT" No match in OSM, but a different address exists <5m away: "50 , Grand Isle, VT" -->
    <tag k="addr:city" v="Grand Isle"/>
    <tag k="addr:housenumber" v="50"/>
    <tag k="addr:street" v="Long Point Island"/>
    <tag k="addr:state" v="VT"/>
    <tag k="ref:vcgi:esiteid" v="113490"/>
  </node>
  <node id="-202" visible="true" lat="44.745233760591" lon="-73.288311480597">
    <!-- conflict: "300 United States Route 2, Grand Isle, VT" No match in OSM, but a different address exists <5m away: "300 U.S. Route 2, Grand Isle, VT" -->
    <tag k="addr:city" v="Grand Isle"/>
    <tag k="addr:housenumber" v="300"/>
    <tag k="addr:street" v="United States Route 2"/>
    <tag k="addr:state" v="VT"/>
    <tag k="ref:vcgi:esiteid" v="113498"/>
  </node>
  <node id="-204" visible="true" lat="44.745184779919" lon="-73.289014591256">
    <!-- conflict: "301 United States Route 2, Grand Isle, VT" No match in OSM, but a different address exists <5m away: "301 U.S. Route 2, Grand Isle, VT" -->
    <tag k="addr:city" v="Grand Isle"/>
    <tag k="addr:housenumber" v="301"/>
    <tag k="addr:street" v="United States Route 2"/>
    <tag k="addr:state" v="VT"/>
    <tag k="ref:vcgi:esiteid" v="113500"/>
  </node>
  <node id="-219" visible="true" lat="44.74297626895" lon="-73.289421833883">
    <!-- conflict: "295 United States Route 2, Grand Isle, VT" No match in OSM, but a different address exists <5m away: "295 U.S. Route 2, Grand Isle, VT" -->
    <tag k="addr:city" v="Grand Isle"/>
    <tag k="addr:housenumber" v="295"/>
    <tag k="addr:street" v="United States Route 2"/>
    <tag k="addr:state" v="VT"/>
    <tag k="ref:vcgi:esiteid" v="113516"/>
  </node>
  <node id="-221" visible="true" lat="44.742688073164" lon="-73.288831421263">
    <!-- conflict: "294 United States Route 2, Grand Isle, VT" No match in OSM, but a different address exists <5m away: "294 U.S. Route 2, Grand Isle, VT" -->
    <tag k="addr:city" v="Grand Isle"/>
    <tag k="addr:housenumber" v="294"/>
    <tag k="addr:street" v="United States Route 2"/>
    <tag k="addr:state" v="VT"/>
    <tag k="ref:vcgi:esiteid" v="113519"/>
  </node>
  <node id="-230" visible="true" lat="44.742562743593" lon="-73.289468342275">
    <!-- conflict: "293 United States Route 2, Grand Isle, VT" No match in OSM, but a different address exists <5m away: "293 U.S. Route 2, Grand Isle, VT" -->
    <tag k="addr:city" v="Grand Isle"/>
    <tag k="addr:housenumber" v="293"/>
    <tag k="addr:street" v="United States Route 2"/>
    <tag k="addr:state" v="VT"/>
    <tag k="ref:vcgi:esiteid" v="113528"/>
  </node>
  <node id="-238" visible="true" lat="44.742084594656" lon="-73.28891565868">
    <!-- conflict: "292 United States Route 2, Grand Isle, VT" No match in OSM, but a different address exists <5m away: "292 U.S. Route 2, Grand Isle, VT" -->
    <tag k="addr:city" v="Grand Isle"/>
    <tag k="addr:housenumber" v="292"/>
    <tag k="addr:street" v="United States Route 2"/>
    <tag k="addr:state" v="VT"/>
    <tag k="ref:vcgi:esiteid" v="113536"/>
  </node>
  <node id="-248" visible="true" lat="44.741153269117" lon="-73.290327593045">
    <!-- conflict: "291 United States Route 2, Grand Isle, VT" No match in OSM, but a different address exists <5m away: "291 U.S. Route 2, Grand Isle, VT" -->
    <tag k="addr:city" v="Grand Isle"/>
    <tag k="addr:housenumber" v="291"/>
    <tag k="addr:street" v="United States Route 2"/>
    <tag k="addr:state" v="VT"/>
    <tag k="ref:vcgi:esiteid" v="113546"/>
  </node>
  <node id="-254" visible="true" lat="44.74072769184" lon="-73.289934344856">
    <!-- conflict: "289 United States Route 2, Grand Isle, VT" No match in OSM, but a different address exists <5m away: "289 U.S. Route 2, Grand Isle, VT" -->
    <tag k="addr:city" v="Grand Isle"/>
    <tag k="addr:housenumber" v="289"/>
    <tag k="addr:street" v="United States Route 2"/>
    <tag k="addr:state" v="VT"/>
    <tag k="ref:vcgi:esiteid" v="113553"/>
  </node>
  <node id="-259" visible="true" lat="44.7405793025" lon="-73.2887299412">
    <!-- conflict: "290 United States Route 2, Grand Isle, VT" No match in OSM, but a different address exists <5m away: "290 U.S. Route 2, Grand Isle, VT" -->
    <tag k="addr:city" v="Grand Isle"/>
    <tag k="addr:housenumber" v="290"/>
    <tag k="addr:street" v="United States Route 2"/>
    <tag k="addr:state" v="VT"/>
    <tag k="ref:vcgi:esiteid" v="113558"/>
  </node>
  <node id="-262" visible="true" lat="44.746962812962" lon="-73.343449822612">
    <!-- conflict: "160 Bixby Island, Grand Isle, VT" No match in OSM, but a different address exists <5m away: "160 , Grand Isle, VT" -->
    <tag k="addr:city" v="Grand Isle"/>
    <tag k="addr:housenumber" v="160"/>
    <tag k="addr:street" v="Bixby Island"/>
    <tag k="addr:state" v="VT"/>
    <tag k="ref:vcgi:esiteid" v="113561"/>
  </node>
  <node id="-266" visible="true" lat="44.740163346262" lon="-73.290080273176">
    <!-- conflict: "287 United States Route 2, Grand Isle, VT" No match in OSM, but a different address exists <5m away: "287 U.S. Route 2, Grand Isle, VT" -->
    <tag k="addr:city" v="Grand Isle"/>
    <tag k="addr:housenumber" v="287"/>
    <tag k="addr:street" v="United States Route 2"/>
    <tag k="addr:state" v="VT"/>
    <tag k="ref:vcgi:esiteid" v="113565"/>
  </node>
  <node id="-270" visible="true" lat="44.739837036241" lon="-73.288722414813">
    <!-- conflict: "288 United States Route 2, Grand Isle, VT" No match in OSM, but a different address exists <5m away: "288 U.S. Route 2, Grand Isle, VT" -->
    <tag k="addr:city" v="Grand Isle"/>
    <tag k="addr:housenumber" v="288"/>
    <tag k="addr:street" v="United States Route 2"/>
    <tag k="addr:state" v="VT"/>
    <tag k="ref:vcgi:esiteid" v="113569"/>
  </node>
  <node id="-271" visible="true" lat="44.739767575861" lon="-73.29013740433">
    <!-- conflict: "283 United States Route 2, Grand Isle, VT" No match in OSM, but a different address exists <5m away: "283 U.S. Route 2, Grand Isle, VT" -->
    <tag k="addr:city" v="Grand Isle"/>
    <tag k="addr:housenumber" v="283"/>
    <tag k="addr:street" v="United States Route 2"/>
    <tag k="addr:state" v="VT"/>
    <tag k="ref:vcgi:esiteid" v="113570"/>
  </node>
  <node id="-284" visible="true" lat="44.73833814425" lon="-73.289245625624">
    <!-- conflict: "282 United States Route 2, Grand Isle, VT" No match in OSM, but a different address exists <5m away: "282 U.S. Route 2, Grand Isle, VT" -->
    <tag k="addr:city" v="Grand Isle"/>
    <tag k="addr:housenumber" v="282"/>
    <tag k="addr:street" v="United States Route 2"/>
    <tag k="addr:state" v="VT"/>
    <tag k="ref:vcgi:esiteid" v="113583"/>
  </node>
  <node id="-289" visible="true" lat="44.737885398024" lon="-73.290507704136">
    <!-- conflict: "277 United States Route 2, Grand Isle, VT" No match in OSM, but a different address exists <5m away: "277 U.S. Route 2, Grand Isle, VT" -->
    <tag k="addr:city" v="Grand Isle"/>
    <tag k="addr:housenumber" v="277"/>
    <tag k="addr:street" v="United States Route 2"/>
    <tag k="addr:state" v="VT"/>
    <tag k="ref:vcgi:esiteid" v="113588"/>
  </node>
  <node id="-292" visible="true" lat="44.737627431321" lon="-73.289451592554">
    <!-- conflict: "278 United States Route 2, Grand Isle, VT" No match in OSM, but a different address exists <5m away: "278 U.S. Route 2, Grand Isle, VT" -->
    <tag k="addr:city" v="Grand Isle"/>
    <tag k="addr:housenumber" v="278"/>
    <tag k="addr:street" v="United States Route 2"/>
    <tag k="addr:state" v="VT"/>
    <tag k="ref:vcgi:esiteid" v="113591"/>
  </node>
  <node id="-295" visible="true" lat="44.737548324965" lon="-73.290651728998">
    <!-- conflict: "275 United States Route 2, Grand Isle, VT" No match in OSM, but a different address exists <5m away: "275 U.S. Route 2, Grand Isle, VT" -->
    <tag k="addr:city" v="Grand Isle"/>
    <tag k="addr:housenumber" v="275"/>
    <tag k="addr:street" v="United States Route 2"/>
    <tag k="addr:state" v="VT"/>
    <tag k="ref:vcgi:esiteid" v="113594"/>
  </node>
  <node id="-304" visible="true" lat="44.73665993543" lon="-73.290747132553">
    <!-- conflict: "273 United States Route 2, Grand Isle, VT" No match in OSM, but a different address exists <5m away: "273 U.S. Route 2, Grand Isle, VT" -->
    <tag k="addr:city" v="Grand Isle"/>
    <tag k="addr:housenumber" v="273"/>
    <tag k="addr:street" v="United States Route 2"/>
    <tag k="addr:state" v="VT"/>
    <tag k="ref:vcgi:esiteid" v="113603"/>
  </node>
  <node id="-307" visible="true" lat="44.736271366032" lon="-73.290811464863">
    <!-- conflict: "271 United States Route 2, Grand Isle, VT" No match in OSM, but a different address exists <5m away: "271 U.S. Route 2, Grand Isle, VT" -->
    <tag k="addr:city" v="Grand Isle"/>
    <tag k="addr:housenumber" v="271"/>
    <tag k="addr:street" v="United States Route 2"/>
    <tag k="addr:state" v="VT"/>
    <tag k="ref:vcgi:esiteid" v="113606"/>
  </node>
  <node id="-319" visible="true" lat="44.735544162415" lon="-73.290138742814">
    <!-- conflict: "268 United States Route 2, Grand Isle, VT" No match in OSM, but a different address exists <5m away: "268 U.S. Route 2, Grand Isle, VT" -->
    <tag k="addr:city" v="Grand Isle"/>
    <tag k="addr:housenumber" v="268"/>
    <tag k="addr:street" v="United States Route 2"/>
    <tag k="addr:state" v="VT"/>
    <tag k="ref:vcgi:esiteid" v="113618"/>
  </node>
  <node id="-327" visible="true" lat="44.735172018225" lon="-73.290185538059">
    <!-- conflict: "266 United States Route 2, Grand Isle, VT" No match in OSM, but a different address exists <5m away: "266 U.S. Route 2, Grand Isle, VT" -->
    <tag k="addr:city" v="Grand Isle"/>
    <tag k="addr:housenumber" v="266"/>
    <tag k="addr:street" v="United States Route 2"/>
    <tag k="addr:state" v="VT"/>
    <tag k="ref:vcgi:esiteid" v="113627"/>
  </node>
  <node id="-349" visible="true" lat="44.73393479444" lon="-73.290278092984">
    <!-- conflict: "262 United States Route 2, Grand Isle, VT" No match in OSM, but a different address exists <5m away: "262 U.S. Route 2, Grand Isle, VT" -->
    <tag k="addr:city" v="Grand Isle"/>
    <tag k="addr:housenumber" v="262"/>
    <tag k="addr:street" v="United States Route 2"/>
    <tag k="addr:state" v="VT"/>
    <tag k="ref:vcgi:esiteid" v="113650"/>
  </node>
  <node id="-362" visible="true" lat="44.732861967712" lon="-73.291986041708">
    <!-- conflict: "259 United States Route 2, Grand Isle, VT" No match in OSM, but a different address exists <5m away: "259 U.S. Route 2, Grand Isle, VT" -->
    <tag k="addr:city" v="Grand Isle"/>
    <tag k="addr:housenumber" v="259"/>
    <tag k="addr:street" v="United States Route 2"/>
    <tag k="addr:state" v="VT"/>
    <tag k="ref:vcgi:esiteid" v="113664"/>
  </node>
  <node id="-370" visible="true" lat="44.731927365856" lon="-73.292077595847">
    <!-- conflict: "255 United States Route 2, Grand Isle, VT" No match in OSM, but a different address exists <5m away: "255 U.S. Route 2, Grand Isle, VT" -->
    <tag k="addr:city" v="Grand Isle"/>
    <tag k="addr:housenumber" v="255"/>
    <tag k="addr:street" v="United States Route 2"/>
    <tag k="addr:state" v="VT"/>
    <tag k="ref:vcgi:esiteid" v="113672"/>
  </node>
  <node id="-371" visible="true" lat="44.731857574177" lon="-73.291015601968">
    <!-- conflict: "254 United States Route 2, Grand Isle, VT" No match in OSM, but a different address exists <5m away: "254 U.S. Route 2, Grand Isle, VT" -->
    <tag k="addr:city" v="Grand Isle"/>
    <tag k="addr:housenumber" v="254"/>
    <tag k="addr:street" v="United States Route 2"/>
    <tag k="addr:state" v="VT"/>
    <tag k="ref:vcgi:esiteid" v="113673"/>
  </node>
  <node id="-374" visible="true" lat="44.731371119108" lon="-73.29177135886">
    <!-- conflict: "253 United States Route 2, Grand Isle, VT" No match in OSM, but a different address exists <5m away: "253 U.S. Route 2, Grand Isle, VT" -->
    <tag k="addr:city" v="Grand Isle"/>
    <tag k="addr:housenumber" v="253"/>
    <tag k="addr:street" v="United States Route 2"/>
    <tag k="addr:state" v="VT"/>
    <tag k="ref:vcgi:esiteid" v="113677"/>
  </node>
  <node id="-381" visible="true" lat="44.730787292723" lon="-73.29100562042">
    <!-- conflict: "250 United States Route 2, Grand Isle, VT" No match in OSM, but a different address exists <5m away: "250 U.S. Route 2, Grand Isle, VT" -->
    <tag k="addr:city" v="Grand Isle"/>
    <tag k="addr:housenumber" v="250"/>
    <tag k="addr:street" v="United States Route 2"/>
    <tag k="addr:state" v="VT"/>
    <tag k="ref:vcgi:esiteid" v="113685"/>
  </node>
  <node id="-387" visible="true" lat="44.729464751681" lon="-73.292232495927">
    <!-- conflict: "247 United States Route 2, Grand Isle, VT" No match in OSM, but a different address exists <5m away: "247 U.S. Route 2, Grand Isle, VT" -->
    <tag k="addr:city" v="Grand Isle"/>
    <tag k="addr:housenumber" v="247"/>
    <tag k="addr:street" v="United States Route 2"/>
    <tag k="addr:state" v="VT"/>
    <tag k="ref:vcgi:esiteid" v="113692"/>
  </node>
  <node id="-439" visible="true" lat="44.723903294667" lon="-73.291407266729">
    <!-- conflict: "218 United States Route 2, Grand Isle, VT" No match in OSM, but a different address exists <5m away: "218 U.S. Route 2, Grand Isle, VT" -->
    <tag k="addr:city" v="Grand Isle"/>
    <tag k="addr:housenumber" v="218"/>
    <tag k="addr:street" v="United States Route 2"/>
    <tag k="addr:state" v="VT"/>
    <tag k="ref:vcgi:esiteid" v="113745"/>
  </node>
  <node id="-440" visible="true" lat="44.723701693908" lon="-73.291943113897">
    <!-- conflict: "216 United States Route 2, Grand Isle, VT" No match in OSM, but a different address exists <5m away: "216 U.S. Route 2, Grand Isle, VT" -->
    <tag k="addr:city" v="Grand Isle"/>
    <tag k="addr:housenumber" v="216"/>
    <tag k="addr:street" v="United States Route 2"/>
    <tag k="addr:state" v="VT"/>
    <tag k="ref:vcgi:esiteid" v="113746"/>
  </node>
  <node id="-444" visible="true" lat="44.723134488" lon="-73.293336443969">
    <!-- conflict: "215 United States Route 2, Grand Isle, VT" No match in OSM, but a different address exists <5m away: "215 U.S. Route 2, Grand Isle, VT" -->
    <tag k="addr:city" v="Grand Isle"/>
    <tag k="addr:housenumber" v="215"/>
    <tag k="addr:street" v="United States Route 2"/>
    <tag k="addr:state" v="VT"/>
    <tag k="ref:vcgi:esiteid" v="113750"/>
  </node>
  <node id="-450" visible="true" lat="44.722955197125" lon="-73.293374592767">
    <!-- conflict: "213 United States Route 2, Grand Isle, VT" No match in OSM, but a different address exists <5m away: "213 U.S. Route 2, Grand Isle, VT" -->
    <tag k="addr:city" v="Grand Isle"/>
    <tag k="addr:housenumber" v="213"/>
    <tag k="addr:street" v="United States Route 2"/>
    <tag k="addr:state" v="VT"/>
    <tag k="ref:vcgi:esiteid" v="113756"/>
  </node>
  <node id="-465" visible="true" lat="44.722135036729" lon="-73.293061785836">
    <!-- conflict: "210 United States Route 2, Grand Isle, VT" No match in OSM, but a different address exists <5m away: "210 U.S. Route 2, Grand Isle, VT" -->
    <tag k="addr:city" v="Grand Isle"/>
    <tag k="addr:housenumber" v="210"/>
    <tag k="addr:street" v="United States Route 2"/>
    <tag k="addr:state" v="VT"/>
    <tag k="ref:vcgi:esiteid" v="113771"/>
  </node>
  <node id="-471" visible="true" lat="44.721839227705" lon="-73.293880519976">
    <!-- conflict: "207 United States Route 2, Grand Isle, VT" No match in OSM, but a different address exists <5m away: "207 U.S. Route 2, Grand Isle, VT" -->
    <tag k="addr:city" v="Grand Isle"/>
    <tag k="addr:housenumber" v="207"/>
    <tag k="addr:street" v="United States Route 2"/>
    <tag k="addr:state" v="VT"/>
    <tag k="ref:vcgi:esiteid" v="113779"/>
  </node>
  <node id="-474" visible="true" lat="44.721398800029" lon="-73.293527179281">
    <!-- conflict: "206 United States Route 2, Grand Isle, VT" No match in OSM, but a different address exists <5m away: "206 U.S. Route 2, Grand Isle, VT" -->
    <tag k="addr:city" v="Grand Isle"/>
    <tag k="addr:housenumber" v="206"/>
    <tag k="addr:street" v="United States Route 2"/>
    <tag k="addr:state" v="VT"/>
    <tag k="ref:vcgi:esiteid" v="113783"/>
  </node>
  <node id="-476" visible="true" lat="44.721467728835" lon="-73.294060144517">
    <!-- conflict: "205 United States Route 2, Grand Isle, VT" No match in OSM, but a different address exists <5m away: "205 U.S. Route 2, Grand Isle, VT" -->
    <tag k="addr:city" v="Grand Isle"/>
    <tag k="addr:housenumber" v="205"/>
    <tag k="addr:street" v="United States Route 2"/>
    <tag k="addr:state" v="VT"/>
    <tag k="ref:vcgi:esiteid" v="113785"/>
  </node>
  <node id="-479" visible="true" lat="44.721072624042" lon="-73.293633991207">
    <!-- conflict: "200 United States Route 2, Grand Isle, VT" No match in OSM, but a different address exists <5m away: "200 U.S. Route 2, Grand Isle, VT" -->
    <tag k="addr:city" v="Grand Isle"/>
    <tag k="addr:housenumber" v="200"/>
    <tag k="addr:street" v="United States Route 2"/>
    <tag k="addr:state" v="VT"/>
    <tag k="ref:vcgi:esiteid" v="113788"/>
  </node>
  <node id="-480" visible="true" lat="44.721070735317" lon="-73.294335895512">
    <!-- conflict: "203 United States Route 2, Grand Isle, VT" No match in OSM, but a different address exists <5m away: "203 U.S. Route 2, Grand Isle, VT" -->
    <tag k="addr:city" v="Grand Isle"/>
    <tag k="addr:housenumber" v="203"/>
    <tag k="addr:street" v="United States Route 2"/>
    <tag k="addr:state" v="VT"/>
    <tag k="ref:vcgi:esiteid" v="113789"/>
  </node>
  <node id="-481" visible="true" lat="44.720471587104" lon="-73.293331437038">
    <!-- conflict: "198 United States Route 2, Grand Isle, VT" No match in OSM, but a different address exists <5m away: "198 U.S. Route 2, Grand Isle, VT" -->
    <tag k="addr:city" v="Grand Isle"/>
    <tag k="addr:housenumber" v="198"/>
    <tag k="addr:street" v="United States Route 2"/>
    <tag k="addr:state" v="VT"/>
    <tag k="ref:vcgi:esiteid" v="113790"/>
  </node>
  <node id="-494" visible="true" lat="44.720404644398" lon="-73.294800173773">
    <!-- conflict: "193 United States Route 2, Grand Isle, VT" No match in OSM, but a different address exists <5m away: "193 U.S. Route 2, Grand Isle, VT" -->
    <tag k="addr:city" v="Grand Isle"/>
    <tag k="addr:housenumber" v="193"/>
    <tag k="addr:street" v="United States Route 2"/>
    <tag k="addr:state" v="VT"/>
    <tag k="ref:vcgi:esiteid" v="113803"/>
  </node>
  <node id="-496" visible="true" lat="44.720051585008" lon="-73.294333669496">
    <!-- conflict: "194 United States Route 2, Grand Isle, VT" No match in OSM, but a different address exists <5m away: "194 U.S. Route 2, Grand Isle, VT" -->
    <tag k="addr:city" v="Grand Isle"/>
    <tag k="addr:housenumber" v="194"/>
    <tag k="addr:street" v="United States Route 2"/>
    <tag k="addr:state" v="VT"/>
    <tag k="ref:vcgi:esiteid" v="113805"/>
  </node>
  <node id="-500" visible="true" lat="44.719971591083" lon="-73.294835139743">
    <!-- conflict: "191A United States Route 2, Grand Isle, VT" No match in OSM, but a different address exists <5m away: "191A U.S. Route 2, Grand Isle, VT" -->
    <tag k="addr:city" v="Grand Isle"/>
    <tag k="addr:housenumber" v="191A"/>
    <tag k="addr:street" v="United States Route 2"/>
    <tag k="addr:state" v="VT"/>
    <tag k="ref:vcgi:esiteid" v="113809"/>
  </node>
  <node id="-502" visible="true" lat="44.719837961521" lon="-73.294440481239">
    <!-- conflict: "192 United States Route 2, Grand Isle, VT" No match in OSM, but a different address exists <5m away: "192 U.S. Route 2, Grand Isle, VT" -->
    <tag k="addr:city" v="Grand Isle"/>
    <tag k="addr:housenumber" v="192"/>
    <tag k="addr:street" v="United States Route 2"/>
    <tag k="addr:state" v="VT"/>
    <tag k="ref:vcgi:esiteid" v="113811"/>
  </node>
  <node id="-504" visible="true" lat="44.719861876485" lon="-73.295111469662">
    <!-- conflict: "191 United States Route 2, Grand Isle, VT" No match in OSM, but a different address exists <5m away: "191 U.S. Route 2, Grand Isle, VT" -->
    <tag k="addr:city" v="Grand Isle"/>
    <tag k="addr:housenumber" v="191"/>
    <tag k="addr:street" v="United States Route 2"/>
    <tag k="addr:state" v="VT"/>
    <tag k="ref:vcgi:esiteid" v="113813"/>
  </node>
  <node id="-508" visible="true" lat="44.719668326911" lon="-73.295022021938">
    <!-- conflict: "189 United States Route 2, Grand Isle, VT" No match in OSM, but a different address exists <5m away: "189 U.S. Route 2, Grand Isle, VT" -->
    <tag k="addr:city" v="Grand Isle"/>
    <tag k="addr:housenumber" v="189"/>
    <tag k="addr:street" v="United States Route 2"/>
    <tag k="addr:state" v="VT"/>
    <tag k="ref:vcgi:esiteid" v="113817"/>
  </node>
  <node id="-515" visible="true" lat="44.718763774753" lon="-73.295778816442">
    <!-- conflict: "185 United States Route 2, Grand Isle, VT" No match in OSM, but a different address exists <5m away: "185 U.S. Route 2, Grand Isle, VT" -->
    <tag k="addr:city" v="Grand Isle"/>
    <tag k="addr:housenumber" v="185"/>
    <tag k="addr:street" v="United States Route 2"/>
    <tag k="addr:state" v="VT"/>
    <tag k="ref:vcgi:esiteid" v="113824"/>
  </node>
  <node id="-524" visible="true" lat="44.717759938435" lon="-73.296593825105">
    <!-- conflict: "181 United States Route 2, Grand Isle, VT" No match in OSM, but a different address exists <5m away: "181 U.S. Route 2, Grand Isle, VT" -->
    <tag k="addr:city" v="Grand Isle"/>
    <tag k="addr:housenumber" v="181"/>
    <tag k="addr:street" v="United States Route 2"/>
    <tag k="addr:state" v="VT"/>
    <tag k="ref:vcgi:esiteid" v="113833"/>
  </node>
  <node id="-527" visible="true" lat="44.717506172787" lon="-73.297053164607">
    <!-- conflict: "175 United States Route 2, Grand Isle, VT" No match in OSM, but a different address exists <5m away: "175 U.S. Route 2, Grand Isle, VT" -->
    <tag k="addr:city" v="Grand Isle"/>
    <tag k="addr:housenumber" v="175"/>
    <tag k="addr:street" v="United States Route 2"/>
    <tag k="addr:state" v="VT"/>
    <tag k="ref:vcgi:esiteid" v="113836"/>
  </node>
  <node id="-528" visible="true" lat="44.717583336357" lon="-73.296611300851">
    <!-- conflict: "179 United States Route 2, Grand Isle, VT" No match in OSM, but a different address exists <5m away: "179 U.S. Route 2, Grand Isle, VT" -->
    <tag k="addr:city" v="Grand Isle"/>
    <tag k="addr:housenumber" v="179"/>
    <tag k="addr:street" v="United States Route 2"/>
    <tag k="addr:state" v="VT"/>
    <tag k="ref:vcgi:esiteid" v="113837"/>
  </node>
  <node id="-530" visible="true" lat="44.717223359414" lon="-73.296694376386">
    <!-- conflict: "173 United States Route 2, Grand Isle, VT" No match in OSM, but a different address exists <5m away: "173 U.S. Route 2, Grand Isle, VT" -->
    <tag k="addr:city" v="Grand Isle"/>
    <tag k="addr:housenumber" v="173"/>
    <tag k="addr:street" v="United States Route 2"/>
    <tag k="addr:state" v="VT"/>
    <tag k="ref:vcgi:esiteid" v="113839"/>
  </node>
  <node id="-545" visible="true" lat="44.71576854565" lon="-73.296432675442">
    <!-- conflict: "174 United States Route 2, Grand Isle, VT" No match in OSM, but a different address exists <5m away: "174 U.S. Route 2, Grand Isle, VT" -->
    <tag k="addr:city" v="Grand Isle"/>
    <tag k="addr:housenumber" v="174"/>
    <tag k="addr:street" v="United States Route 2"/>
    <tag k="addr:state" v="VT"/>
    <tag k="ref:vcgi:esiteid" v="113854"/>
  </node>
  <node id="-548" visible="true" lat="44.715732209714" lon="-73.296708169407">
    <!-- conflict: "172 United States Route 2, Grand Isle, VT" No match in OSM, but a different address exists <5m away: "172 U.S. Route 2, Grand Isle, VT" -->
    <tag k="addr:city" v="Grand Isle"/>
    <tag k="addr:housenumber" v="172"/>
    <tag k="addr:street" v="United States Route 2"/>
    <tag k="addr:state" v="VT"/>
    <tag k="ref:vcgi:esiteid" v="113857"/>
  </node>
  <node id="-559" visible="true" lat="44.715070214819" lon="-73.298211629162">
    <!-- conflict: "171 United States Route 2, Grand Isle, VT" No match in OSM, but a different address exists <5m away: "171 U.S. Route 2, Grand Isle, VT" -->
    <tag k="addr:city" v="Grand Isle"/>
    <tag k="addr:housenumber" v="171"/>
    <tag k="addr:street" v="United States Route 2"/>
    <tag k="addr:state" v="VT"/>
    <tag k="ref:vcgi:esiteid" v="113868"/>
  </node>
  <node id="-571" visible="true" lat="44.714368014425" lon="-73.297994462188">
    <!-- conflict: "167 United States Route 2, Grand Isle, VT" No match in OSM, but a different address exists <5m away: "167 U.S. Route 2, Grand Isle, VT" -->
    <tag k="addr:city" v="Grand Isle"/>
    <tag k="addr:housenumber" v="167"/>
    <tag k="addr:street" v="United States Route 2"/>
    <tag k="addr:state" v="VT"/>
    <tag k="ref:vcgi:esiteid" v="113880"/>
  </node>
  <node id="-580" visible="true" lat="44.713451145216" lon="-73.297735608709">
    <!-- conflict: "162 United States Route 2, Grand Isle, VT" No match in OSM, but a different address exists <5m away: "162 U.S. Route 2, Grand Isle, VT" -->
    <tag k="addr:city" v="Grand Isle"/>
    <tag k="addr:housenumber" v="162"/>
    <tag k="addr:street" v="United States Route 2"/>
    <tag k="addr:state" v="VT"/>
    <tag k="ref:vcgi:esiteid" v="113890"/>
  </node>
  <node id="-638" visible="true" lat="44.706559623213" lon="-73.302476461384">
    <!-- conflict: "135 United States Route 2, Grand Isle, VT" No match in OSM, but a different address exists <5m away: "135 U.S. Route 2, Grand Isle, VT" -->
    <tag k="addr:city" v="Grand Isle"/>
    <tag k="addr:housenumber" v="135"/>
    <tag k="addr:street" v="United States Route 2"/>
    <tag k="addr:state" v="VT"/>
    <tag k="ref:vcgi:esiteid" v="113948"/>
  </node>
  <node id="-675" visible="true" lat="44.703216102892" lon="-73.302095083251">
    <!-- conflict: "114 United States Route 2, Grand Isle, VT" No match in OSM, but a different address exists <5m away: "114 U.S. Route 2, Grand Isle, VT" -->
    <tag k="addr:city" v="Grand Isle"/>
    <tag k="addr:housenumber" v="114"/>
    <tag k="addr:street" v="United States Route 2"/>
    <tag k="addr:state" v="VT"/>
    <tag k="ref:vcgi:esiteid" v="113988"/>
  </node>
  <node id="-681" visible="true" lat="44.703179539631" lon="-73.302177961203">
    <!-- conflict: "112 United States Route 2, Grand Isle, VT" No match in OSM, but a different address exists <5m away: "112 U.S. Route 2, Grand Isle, VT" -->
    <tag k="addr:city" v="Grand Isle"/>
    <tag k="addr:housenumber" v="112"/>
    <tag k="addr:street" v="United States Route 2"/>
    <tag k="addr:state" v="VT"/>
    <tag k="ref:vcgi:esiteid" v="113995"/>
  </node>
  <node id="-703" visible="true" lat="44.70217162995" lon="-73.302571113296">
    <!-- conflict: "108 United States Route 2, Grand Isle, VT" No match in OSM, but a different address exists <5m away: "108 U.S. Route 2, Grand Isle, VT" -->
    <tag k="addr:city" v="Grand Isle"/>
    <tag k="addr:housenumber" v="108"/>
    <tag k="addr:street" v="United States Route 2"/>
    <tag k="addr:state" v="VT"/>
    <tag k="ref:vcgi:esiteid" v="114017"/>
  </node>
  <node id="-720" visible="true" lat="44.701725067025" lon="-73.302982705232">
    <!-- conflict: "106 United States Route 2, Grand Isle, VT" No match in OSM, but a different address exists <5m away: "106 U.S. Route 2, Grand Isle, VT" -->
    <tag k="addr:city" v="Grand Isle"/>
    <tag k="addr:housenumber" v="106"/>
    <tag k="addr:street" v="United States Route 2"/>
    <tag k="addr:state" v="VT"/>
    <tag k="ref:vcgi:esiteid" v="114035"/>
  </node>
  <node id="-789" visible="true" lat="44.697507345834" lon="-73.305421408902">
    <!-- conflict: "85 United States Route 2, Grand Isle, VT" No match in OSM, but a different address exists <5m away: "85 U.S. Route 2, Grand Isle, VT" -->
    <tag k="addr:city" v="Grand Isle"/>
    <tag k="addr:housenumber" v="85"/>
    <tag k="addr:street" v="United States Route 2"/>
    <tag k="addr:state" v="VT"/>
    <tag k="ref:vcgi:esiteid" v="114108"/>
  </node>
  <node id="-793" visible="true" lat="44.697231687712" lon="-73.306804012533">
    <!-- conflict: "83 United States Route 2, Grand Isle, VT" No match in OSM, but a different address exists <5m away: "83 U.S. Route 2, Grand Isle, VT" -->
    <tag k="addr:city" v="Grand Isle"/>
    <tag k="addr:housenumber" v="83"/>
    <tag k="addr:street" v="United States Route 2"/>
    <tag k="addr:state" v="VT"/>
    <tag k="ref:vcgi:esiteid" v="114112"/>
  </node>
  <node id="-806" visible="true" lat="44.696683372064" lon="-73.306176716931">
    <!-- conflict: "81 United States Route 2, Grand Isle, VT" No match in OSM, but a different address exists <5m away: "81 U.S. Route 2, Grand Isle, VT" -->
    <tag k="addr:city" v="Grand Isle"/>
    <tag k="addr:housenumber" v="81"/>
    <tag k="addr:street" v="United States Route 2"/>
    <tag k="addr:state" v="VT"/>
    <tag k="ref:vcgi:esiteid" v="114125"/>
  </node>
  <node id="-818" visible="true" lat="44.695612328525" lon="-73.30655904618">
    <!-- conflict: "77 United States Route 2, Grand Isle, VT" No match in OSM, but a different address exists <5m away: "77 U.S. Route 2, Grand Isle, VT" -->
    <tag k="addr:city" v="Grand Isle"/>
    <tag k="addr:housenumber" v="77"/>
    <tag k="addr:street" v="United States Route 2"/>
    <tag k="addr:state" v="VT"/>
    <tag k="ref:vcgi:esiteid" v="114137"/>
  </node>
  <node id="-820" visible="true" lat="44.695365789541" lon="-73.306472649533">
    <!-- conflict: "75 United States Route 2, Grand Isle, VT" No match in OSM, but a different address exists <5m away: "75 U.S. Route 2, Grand Isle, VT" -->
    <tag k="addr:city" v="Grand Isle"/>
    <tag k="addr:housenumber" v="75"/>
    <tag k="addr:street" v="United States Route 2"/>
    <tag k="addr:state" v="VT"/>
    <tag k="ref:vcgi:esiteid" v="114139"/>
  </node>
  <node id="-827" visible="true" lat="44.694594980487" lon="-73.307011148146">
    <!-- conflict: "67 United States Route 2, Grand Isle, VT" No match in OSM, but a different address exists <5m away: "67 U.S. Route 2, Grand Isle, VT" -->
    <tag k="addr:city" v="Grand Isle"/>
    <tag k="addr:housenumber" v="67"/>
    <tag k="addr:street" v="United States Route 2"/>
    <tag k="addr:state" v="VT"/>
    <tag k="ref:vcgi:esiteid" v="114146"/>
  </node>
  <node id="-828" visible="true" lat="44.694408658245" lon="-73.30602537385">
    <!-- conflict: "64 United States Route 2, Grand Isle, VT" No match in OSM, but a different address exists <5m away: "64 U.S. Route 2, Grand Isle, VT" -->
    <tag k="addr:city" v="Grand Isle"/>
    <tag k="addr:housenumber" v="64"/>
    <tag k="addr:street" v="United States Route 2"/>
    <tag k="addr:state" v="VT"/>
    <tag k="ref:vcgi:esiteid" v="114147"/>
  </node>
  <node id="-831" visible="true" lat="44.694137760398" lon="-73.308509135571">
    <!-- conflict: "69 United States Route 2, Grand Isle, VT" No match in OSM, but a different address exists <5m away: "69 U.S. Route 2, Grand Isle, VT" -->
    <tag k="addr:city" v="Grand Isle"/>
    <tag k="addr:housenumber" v="69"/>
    <tag k="addr:street" v="United States Route 2"/>
    <tag k="addr:state" v="VT"/>
    <tag k="ref:vcgi:esiteid" v="114150"/>
  </node>
  <node id="-835" visible="true" lat="44.693870267659" lon="-73.306480446251">
    <!-- conflict: "62 United States Route 2, Grand Isle, VT" No match in OSM, but a different address exists <5m away: "62 U.S. Route 2, Grand Isle, VT" -->
    <tag k="addr:city" v="Grand Isle"/>
    <tag k="addr:housenumber" v="62"/>
    <tag k="addr:street" v="United States Route 2"/>
    <tag k="addr:state" v="VT"/>
    <tag k="ref:vcgi:esiteid" v="114154"/>
  </node>
  <node id="-840" visible="true" lat="44.693573122901" lon="-73.291858790184">
    <!-- conflict: "26A Cooper Bay South, Grand Isle, VT" No match in OSM, but a different address exists <5m away: "26A Cooper Bay Lane, Grand Isle, VT" -->
    <tag k="addr:city" v="Grand Isle"/>
    <tag k="addr:housenumber" v="26A"/>
    <tag k="addr:street" v="Cooper Bay South"/>
    <tag k="addr:state" v="VT"/>
    <tag k="ref:vcgi:esiteid" v="114161"/>
  </node>
  <node id="-862" visible="true" lat="44.690862142123" lon="-73.309022482611">
    <!-- conflict: "51 United States Route 2, Grand Isle, VT" No match in OSM, but a different address exists <5m away: "51 U.S. Route 2, Grand Isle, VT" -->
    <tag k="addr:city" v="Grand Isle"/>
    <tag k="addr:housenumber" v="51"/>
    <tag k="addr:street" v="United States Route 2"/>
    <tag k="addr:state" v="VT"/>
    <tag k="ref:vcgi:esiteid" v="114183"/>
  </node>
  <node id="-866" visible="true" lat="44.689838687008" lon="-73.309543337172">
    <!-- conflict: "47 United States Route 2, Grand Isle, VT" No match in OSM, but a different address exists <5m away: "47 U.S. Route 2, Grand Isle, VT" -->
    <tag k="addr:city" v="Grand Isle"/>
    <tag k="addr:housenumber" v="47"/>
    <tag k="addr:street" v="United States Route 2"/>
    <tag k="addr:state" v="VT"/>
    <tag k="ref:vcgi:esiteid" v="114187"/>
  </node>
  <node id="-870" visible="true" lat="44.689271690236" lon="-73.309937592938">
    <!-- conflict: "45 United States Route 2, Grand Isle, VT" No match in OSM, but a different address exists <5m away: "45 U.S. Route 2, Grand Isle, VT" -->
    <tag k="addr:city" v="Grand Isle"/>
    <tag k="addr:housenumber" v="45"/>
    <tag k="addr:street" v="United States Route 2"/>
    <tag k="addr:state" v="VT"/>
    <tag k="ref:vcgi:esiteid" v="114191"/>
  </node>
  <node id="-872" visible="true" lat="44.689016139021" lon="-73.310475576735">
    <!-- conflict: "43 United States Route 2, Grand Isle, VT" No match in OSM, but a different address exists <5m away: "43 U.S. Route 2, Grand Isle, VT" -->
    <tag k="addr:city" v="Grand Isle"/>
    <tag k="addr:housenumber" v="43"/>
    <tag k="addr:street" v="United States Route 2"/>
    <tag k="addr:state" v="VT"/>
    <tag k="ref:vcgi:esiteid" v="114193"/>
  </node>
  <node id="-874" visible="true" lat="44.688676318707" lon="-73.310617027988">
    <!-- conflict: "41 United States Route 2, Grand Isle, VT" No match in OSM, but a different address exists <5m away: "41 U.S. Route 2, Grand Isle, VT" -->
    <tag k="addr:city" v="Grand Isle"/>
    <tag k="addr:housenumber" v="41"/>
    <tag k="addr:street" v="United States Route 2"/>
    <tag k="addr:state" v="VT"/>
    <tag k="ref:vcgi:esiteid" v="114195"/>
  </node>
  <node id="-875" visible="true" lat="44.688304882437" lon="-73.309764712524">
    <!-- conflict: "38 United States Route 2, Grand Isle, VT" No match in OSM, but a different address exists <5m away: "38 U.S. Route 2, Grand Isle, VT" -->
    <tag k="addr:city" v="Grand Isle"/>
    <tag k="addr:housenumber" v="38"/>
    <tag k="addr:street" v="United States Route 2"/>
    <tag k="addr:state" v="VT"/>
    <tag k="ref:vcgi:esiteid" v="114196"/>
  </node>
  <node id="-877" visible="true" lat="44.688241444524" lon="-73.308297690389">
    <!-- conflict: "36 United States Route 2, Grand Isle, VT" No match in OSM, but a different address exists <5m away: "36 U.S. Route 2, Grand Isle, VT" -->
    <tag k="addr:city" v="Grand Isle"/>
    <tag k="addr:housenumber" v="36"/>
    <tag k="addr:street" v="United States Route 2"/>
    <tag k="addr:state" v="VT"/>
    <tag k="ref:vcgi:esiteid" v="114198"/>
  </node>
  <node id="-884" visible="true" lat="44.68762462834" lon="-73.310429829955">
    <!-- conflict: "34 United States Route 2, Grand Isle, VT" No match in OSM, but a different address exists <5m away: "34 U.S. Route 2, Grand Isle, VT" -->
    <tag k="addr:city" v="Grand Isle"/>
    <tag k="addr:housenumber" v="34"/>
    <tag k="addr:street" v="United States Route 2"/>
    <tag k="addr:state" v="VT"/>
    <tag k="ref:vcgi:esiteid" v="114205"/>
  </node>
  <node id="-892" visible="true" lat="44.687257809135" lon="-73.30972193935">
    <!-- conflict: "32 United States Route 2, Grand Isle, VT" No match in OSM, but a different address exists <5m away: "32 U.S. Route 2, Grand Isle, VT" -->
    <tag k="addr:city" v="Grand Isle"/>
    <tag k="addr:housenumber" v="32"/>
    <tag k="addr:street" v="United States Route 2"/>
    <tag k="addr:state" v="VT"/>
    <tag k="ref:vcgi:esiteid" v="114213"/>
  </node>
  <node id="-899" visible="true" lat="44.686341723949" lon="-73.308129844651">
    <!-- conflict: "28 United States Route 2, Grand Isle, VT" No match in OSM, but a different address exists <5m away: "28 U.S. Route 2, Grand Isle, VT" -->
    <tag k="addr:city" v="Grand Isle"/>
    <tag k="addr:housenumber" v="28"/>
    <tag k="addr:street" v="United States Route 2"/>
    <tag k="addr:state" v="VT"/>
    <tag k="ref:vcgi:esiteid" v="114220"/>
  </node>
  <node id="-912" visible="true" lat="44.683879801497" lon="-73.312891622197">
    <!-- conflict: "14 United States Route 2, Grand Isle, VT" No match in OSM, but a different address exists <5m away: "14 U.S. Route 2, Grand Isle, VT" -->
    <tag k="addr:city" v="Grand Isle"/>
    <tag k="addr:housenumber" v="14"/>
    <tag k="addr:street" v="United States Route 2"/>
    <tag k="addr:state" v="VT"/>
    <tag k="ref:vcgi:esiteid" v="114233"/>
  </node>
  <node id="-922" visible="true" lat="44.682439289272" lon="-73.315484580616">
    <!-- conflict: "9 United States Route 2, Grand Isle, VT" No match in OSM, but a different address exists <5m away: "9 U.S. Route 2, Grand Isle, VT" -->
    <tag k="addr:city" v="Grand Isle"/>
    <tag k="addr:housenumber" v="9"/>
    <tag k="addr:street" v="United States Route 2"/>
    <tag k="addr:state" v="VT"/>
    <tag k="ref:vcgi:esiteid" v="114243"/>
  </node>
  <node id="-925" visible="true" lat="44.681989153872" lon="-73.315751610342">
    <!-- conflict: "7 United States Route 2, Grand Isle, VT" No match in OSM, but a different address exists <5m away: "7 U.S. Route 2, Grand Isle, VT" -->
    <tag k="addr:city" v="Grand Isle"/>
    <tag k="addr:housenumber" v="7"/>
    <tag k="addr:street" v="United States Route 2"/>
    <tag k="addr:state" v="VT"/>
    <tag k="ref:vcgi:esiteid" v="114246"/>
  </node>
  <node id="-927" visible="true" lat="44.681268175461" lon="-73.31449276041">
    <!-- conflict: "8 United States Route 2, Grand Isle, VT" No match in OSM, but a different address exists <5m away: "8 U.S. Route 2, Grand Isle, VT" -->
    <tag k="addr:city" v="Grand Isle"/>
    <tag k="addr:housenumber" v="8"/>
    <tag k="addr:street" v="United States Route 2"/>
    <tag k="addr:state" v="VT"/>
    <tag k="ref:vcgi:esiteid" v="114249"/>
  </node>
  <node id="-979" visible="true" lat="44.743387370642" lon="-73.288151521106">
    <!-- conflict: "296 United States Route 2, Grand Isle, VT" No match in OSM, but a different address exists <5m away: "296 U.S. Route 2, Grand Isle, VT" -->
    <tag k="addr:city" v="Grand Isle"/>
    <tag k="addr:housenumber" v="296"/>
    <tag k="addr:street" v="United States Route 2"/>
    <tag k="addr:state" v="VT"/>
    <tag k="ref:vcgi:esiteid" v="114304"/>
  </node>
  <node id="-989" visible="true" lat="44.749238452374" lon="-73.288639538532">
    <!-- conflict: "317 United States Route 2, Grand Isle, VT" No match in OSM, but a different address exists <5m away: "317 U.S. Route 2, Grand Isle, VT" -->
    <tag k="addr:city" v="Grand Isle"/>
    <tag k="addr:housenumber" v="317"/>
    <tag k="addr:street" v="United States Route 2"/>
    <tag k="addr:state" v="VT"/>
    <tag k="ref:vcgi:esiteid" v="114317"/>
  </node>
  <node id="-992" visible="true" lat="44.736161092417" lon="-73.29013724241">
    <!-- conflict: "270 United States Route 2, Grand Isle, VT" No match in OSM, but a different address exists <5m away: "270 U.S. Route 2, Grand Isle, VT" -->
    <tag k="addr:city" v="Grand Isle"/>
    <tag k="addr:housenumber" v="270"/>
    <tag k="addr:street" v="United States Route 2"/>
    <tag k="addr:state" v="VT"/>
    <tag k="ref:vcgi:esiteid" v="114320"/>
  </node>
  <node id="-1011" visible="true" lat="44.728700131369" lon="-73.301583823918">
    <!-- conflict: "20 Hodgekin Place, Grand Isle, VT" No match in OSM, but a different address exists <5m away: "20 Hodgekin Place North, Grand Isle, VT" -->
    <tag k="addr:city" v="Grand Isle"/>
    <tag k="addr:housenumber" v="20"/>
    <tag k="addr:street" v="Hodgekin Place"/>
    <tag k="addr:state" v="VT"/>
    <tag k="ref:vcgi:esiteid" v="114343"/>
  </node>
  <node id="-1022" visible="true" lat="44.72035958416" lon="-73.291060728371">
    <!-- conflict: "196 United States Route 2, Grand Isle, VT" No match in OSM, but a different address exists <5m away: "196 U.S. Route 2, Grand Isle, VT" -->
    <tag k="addr:city" v="Grand Isle"/>
    <tag k="addr:housenumber" v="196"/>
    <tag k="addr:street" v="United States Route 2"/>
    <tag k="addr:state" v="VT"/>
    <tag k="ref:vcgi:esiteid" v="114355"/>
  </node>
  <node id="-1115" visible="true" lat="44.706928554646" lon="-73.299427330745">
    <!-- conflict: "136 United States Route 2, Grand Isle, VT" No match in OSM, but a different address exists <5m away: "136 U.S. Route 2, Grand Isle, VT" -->
    <tag k="addr:city" v="Grand Isle"/>
    <tag k="addr:housenumber" v="136"/>
    <tag k="addr:street" v="United States Route 2"/>
    <tag k="addr:state" v="VT"/>
    <tag k="ref:vcgi:esiteid" v="114490"/>
  </node>
  <node id="-1127" visible="true" lat="44.747993151589" lon="-73.288495976592">
    <!-- conflict: "313 United States Route 2, Grand Isle, VT" No match in OSM, but a different address exists <5m away: "313 U.S. Route 2, Grand Isle, VT" -->
    <tag k="addr:city" v="Grand Isle"/>
    <tag k="addr:housenumber" v="313"/>
    <tag k="addr:street" v="United States Route 2"/>
    <tag k="addr:state" v="VT"/>
    <tag k="ref:vcgi:esiteid" v="114502"/>
  </node>
  <node id="-1147" visible="true" lat="44.763043539445" lon="-73.286925394032">
    <!-- conflict: "417 United States Route 2, Grand Isle, VT" No match in OSM, but a different address exists <5m away: "417 U.S. Route 2, Grand Isle, VT" -->
    <tag k="addr:city" v="Grand Isle"/>
    <tag k="addr:housenumber" v="417"/>
    <tag k="addr:street" v="United States Route 2"/>
    <tag k="addr:state" v="VT"/>
    <tag k="ref:vcgi:esiteid" v="114526"/>
  </node>
  <node id="-1153" visible="true" lat="44.745562167716" lon="-73.28906247554">
    <!-- conflict: "303 United States Route 2, Grand Isle, VT" No match in OSM, but a different address exists <5m away: "303 U.S. Route 2, Grand Isle, VT" -->
    <tag k="addr:city" v="Grand Isle"/>
    <tag k="addr:housenumber" v="303"/>
    <tag k="addr:street" v="United States Route 2"/>
    <tag k="addr:state" v="VT"/>
    <tag k="ref:vcgi:esiteid" v="114532"/>
  </node>
  <node id="-1157" visible="true" lat="44.736362697108" lon="-73.289830920945">
    <!-- conflict: "272 United States Route 2, Grand Isle, VT" No match in OSM, but a different address exists <5m away: "272 U.S. Route 2, Grand Isle, VT" -->
    <tag k="addr:city" v="Grand Isle"/>
    <tag k="addr:housenumber" v="272"/>
    <tag k="addr:street" v="United States Route 2"/>
    <tag k="addr:state" v="VT"/>
    <tag k="ref:vcgi:esiteid" v="114536"/>
  </node>
  <node id="-1237" visible="true" lat="44.756436730752" lon="-73.287275205225">
    <!-- conflict: "371 United States Route 2, Grand Isle, VT" No match in OSM, but a different address exists <5m away: "371 U.S. Route 2, Grand Isle, VT" -->
    <tag k="addr:city" v="Grand Isle"/>
    <tag k="addr:housenumber" v="371"/>
    <tag k="addr:street" v="United States Route 2"/>
    <tag k="addr:state" v="VT"/>
    <tag k="ref:vcgi:esiteid" v="338243"/>
  </node>
  <node id="-1257" visible="true" lat="44.762553617365" lon="-73.28637583753">
    <!-- conflict: "415 United States Route 2, Grand Isle, VT" No match in OSM, but a different address exists <5m away: "415 U.S. Route 2, Grand Isle, VT" -->
    <tag k="addr:city" v="Grand Isle"/>
    <tag k="addr:housenumber" v="415"/>
    <tag k="addr:street" v="United States Route 2"/>
    <tag k="addr:state" v="VT"/>
    <tag k="ref:vcgi:esiteid" v="338302"/>
  </node>
  <node id="-1259" visible="true" lat="44.73947214536" lon="-73.289055910954">
    <!-- conflict: "286 United States Route 2, Grand Isle, VT" No match in OSM, but a different address exists <5m away: "286 U.S. Route 2, Grand Isle, VT" -->
    <tag k="addr:city" v="Grand Isle"/>
    <tag k="addr:housenumber" v="286"/>
    <tag k="addr:street" v="United States Route 2"/>
    <tag k="addr:state" v="VT"/>
    <tag k="ref:vcgi:esiteid" v="338304"/>
  </node>
  <node id="-1260" visible="true" lat="44.739829920303" lon="-73.290130393647">
    <!-- conflict: "285 United States Route 2, Grand Isle, VT" No match in OSM, but a different address exists <5m away: "285 U.S. Route 2, Grand Isle, VT" -->
    <tag k="addr:city" v="Grand Isle"/>
    <tag k="addr:housenumber" v="285"/>
    <tag k="addr:street" v="United States Route 2"/>
    <tag k="addr:state" v="VT"/>
    <tag k="ref:vcgi:esiteid" v="338305"/>
  </node>
  <node id="-1261" visible="true" lat="44.736725796613" lon="-73.289879039719">
    <!-- conflict: "274 United States Route 2, Grand Isle, VT" No match in OSM, but a different address exists <5m away: "274 U.S. Route 2, Grand Isle, VT" -->
    <tag k="addr:city" v="Grand Isle"/>
    <tag k="addr:housenumber" v="274"/>
    <tag k="addr:street" v="United States Route 2"/>
    <tag k="addr:state" v="VT"/>
    <tag k="ref:vcgi:esiteid" v="338306"/>
  </node>
  <node id="-1286" visible="true" lat="44.759567119618" lon="-73.288807238017">
    <!-- conflict: "395 United States Route 2, Grand Isle, VT" No match in OSM, but a different address exists <5m away: "395 U.S. Route 2, Grand Isle, VT" -->
    <tag k="addr:city" v="Grand Isle"/>
    <tag k="addr:housenumber" v="395"/>
    <tag k="addr:street" v="United States Route 2"/>
    <tag k="addr:state" v="VT"/>
    <tag k="ref:vcgi:esiteid" v="339451"/>
  </node>
  <node id="-1301" visible="true" lat="44.691598414321" lon="-73.30876525386">
    <!-- conflict: "55 United States Route 2, Grand Isle, VT" No match in OSM, but a different address exists <5m away: "55 U.S. Route 2, Grand Isle, VT" -->
    <tag k="addr:city" v="Grand Isle"/>
    <tag k="addr:housenumber" v="55"/>
    <tag k="addr:street" v="United States Route 2"/>
    <tag k="addr:state" v="VT"/>
    <tag k="ref:vcgi:esiteid" v="339484"/>
  </node>
  <node id="-1322" visible="true" lat="44.744681063503" lon="-73.28788990925">
    <!-- conflict: "298 United States Route 2, Grand Isle, VT" No match in OSM, but a different address exists <5m away: "298 U.S. Route 2, Grand Isle, VT" -->
    <tag k="addr:city" v="Grand Isle"/>
    <tag k="addr:housenumber" v="298"/>
    <tag k="addr:street" v="United States Route 2"/>
    <tag k="addr:state" v="VT"/>
    <tag k="ref:vcgi:esiteid" v="339839"/>
  </node>
  <node id="-1350" visible="true" lat="44.765009561236" lon="-73.286204842132">
    <!-- conflict: "418 United States Route 2, Grand Isle, VT" No match in OSM, but a different address exists <5m away: "418 U.S. Route 2, Grand Isle, VT" -->
    <tag k="addr:city" v="Grand Isle"/>
    <tag k="addr:housenumber" v="418"/>
    <tag k="addr:street" v="United States Route 2"/>
    <tag k="addr:state" v="VT"/>
    <tag k="ref:vcgi:esiteid" v="451329"/>
  </node>
  <node id="-1351" visible="true" lat="44.693711962337" lon="-73.24310751382">
    <!-- conflict: "1130 Savage Island, Grand Isle, VT" No match in OSM, but a different address exists <5m away: "1130 , Grand Isle, VT" -->
    <tag k="addr:city" v="Grand Isle"/>
    <tag k="addr:housenumber" v="1130"/>
    <tag k="addr:street" v="Savage Island"/>
    <tag k="addr:state" v="VT"/>
    <tag k="ref:vcgi:esiteid" v="451802"/>
  </node>
  <node id="-1356" visible="true" lat="44.700369913109" lon="-73.24520575177">
    <!-- conflict: "600 Savage Island, Grand Isle, VT" No match in OSM, but a different address exists <5m away: "600 , Grand Isle, VT" -->
    <tag k="addr:city" v="Grand Isle"/>
    <tag k="addr:housenumber" v="600"/>
    <tag k="addr:street" v="Savage Island"/>
    <tag k="addr:state" v="VT"/>
    <tag k="ref:vcgi:esiteid" v="451807"/>
  </node>
  <node id="-1357" visible="true" lat="44.704660875908" lon="-73.244419454818">
    <!-- conflict: "240 Savage Island, Grand Isle, VT" No match in OSM, but a different address exists <5m away: "240 , Grand Isle, VT" -->
    <tag k="addr:city" v="Grand Isle"/>
    <tag k="addr:housenumber" v="240"/>
    <tag k="addr:street" v="Savage Island"/>
    <tag k="addr:state" v="VT"/>
    <tag k="ref:vcgi:esiteid" v="451808"/>
  </node>
  <node id="-1358" visible="true" lat="44.707524516186" lon="-73.244822764164">
    <!-- conflict: "30 Savage Island, Grand Isle, VT" No match in OSM, but a different address exists <5m away: "30 , Grand Isle, VT" -->
    <tag k="addr:city" v="Grand Isle"/>
    <tag k="addr:housenumber" v="30"/>
    <tag k="addr:street" v="Savage Island"/>
    <tag k="addr:state" v="VT"/>
    <tag k="ref:vcgi:esiteid" v="451809"/>
  </node>
  <node id="-1359" visible="true" lat="44.705245566926" lon="-73.243051008605">
    <!-- conflict: "239 Savage Island, Grand Isle, VT" No match in OSM, but a different address exists <5m away: "239 , Grand Isle, VT" -->
    <tag k="addr:city" v="Grand Isle"/>
    <tag k="addr:housenumber" v="239"/>
    <tag k="addr:street" v="Savage Island"/>
    <tag k="addr:state" v="VT"/>
    <tag k="ref:vcgi:esiteid" v="452192"/>
  </node>
  <node id="-1361" visible="true" lat="44.747384716811" lon="-73.327465845959">
    <!-- conflict: "51 Long Point Island, Grand Isle, VT" No match in OSM, but a different address exists <5m away: "51 , Grand Isle, VT" -->
    <tag k="addr:city" v="Grand Isle"/>
    <tag k="addr:housenumber" v="51"/>
    <tag k="addr:street" v="Long Point Island"/>
    <tag k="addr:state" v="VT"/>
    <tag k="ref:vcgi:esiteid" v="452194"/>
  </node>
  <node id="-1398" visible="true" lat="44.705391752641" lon="-73.302351863333">
    <!-- conflict: "129 United States Route 2, Grand Isle, VT" No match in OSM, but a different address exists <5m away: "129 U.S. Route 2, Grand Isle, VT" -->
    <tag k="addr:city" v="Grand Isle"/>
    <tag k="addr:housenumber" v="129"/>
    <tag k="addr:street" v="United States Route 2"/>
    <tag k="addr:state" v="VT"/>
    <tag k="ref:vcgi:esiteid" v="618189"/>
  </node>
  <node id="-1404" visible="true" lat="44.717529296447" lon="-73.296787306885">
    <!-- conflict: "177 United States Route 2, Grand Isle, VT" No match in OSM, but a different address exists <5m away: "177 U.S. Route 2, Grand Isle, VT" -->
    <tag k="addr:city" v="Grand Isle"/>
    <tag k="addr:housenumber" v="177"/>
    <tag k="addr:street" v="United States Route 2"/>
    <tag k="addr:state" v="VT"/>
    <tag k="ref:vcgi:esiteid" v="620383"/>
  </node>
  <node id="-1497" visible="true" lat="44.716472453553" lon="-73.297978843767">
    <!-- conflict: "171A United States Route 2, Grand Isle, VT" No match in OSM, but a different address exists <5m away: "171A U.S. Route 2, Grand Isle, VT" -->
    <tag k="addr:city" v="Grand Isle"/>
    <tag k="addr:housenumber" v="171A"/>
    <tag k="addr:street" v="United States Route 2"/>
    <tag k="addr:state" v="VT"/>
    <tag k="ref:vcgi:esiteid" v="765976"/>
  </node>
</osm>
