<?xml version="1.0" encoding="UTF-8"?>
<osm version="0.6" generator="JOSM" upload="false">
  <node id="-1047" visible="true" lat="42.811825487853" lon="-72.577620114666">
    <tag k="addr:city" v="Brattleboro"/>
    <tag k="addr:housenumber" v="344"/>
    <tag k="addr:street" v="Melendy Hill Road"/>
    <tag k="addr:state" v="VT"/>
    <tag k="ref:vcgi:esiteid" v="117757"/>
  </node>
  <node id="-1774" visible="true" lat="42.759835780562" lon="-72.607115678512">
    <tag k="addr:city" v="Brattleboro"/>
    <tag k="addr:housenumber" v="2942"/>
    <tag k="addr:street" v="Gill Drive"/>
    <tag k="addr:state" v="VT"/>
    <tag k="ref:vcgi:esiteid" v="500032"/>
  </node>
  <node id="-1796" visible="true" lat="42.772874860351" lon="-72.676707543766">
    <tag k="addr:city" v="Brattleboro"/>
    <tag k="addr:housenumber" v="3011"/>
    <tag k="addr:street" v="Stage Road"/>
    <tag k="addr:state" v="VT"/>
    <tag k="ref:vcgi:esiteid" v="656456"/>
  </node>
  <node id="-1864" visible="true" lat="42.775824144959" lon="-72.569206088699">
    <tag k="addr:city" v="Brattleboro"/>
    <tag k="addr:housenumber" v="83"/>
    <tag k="addr:street" v="Gravity Drive"/>
    <tag k="addr:state" v="VT"/>
    <tag k="ref:vcgi:esiteid" v="770091"/>
  </node>
  <node id="-1885" visible="true" lat="42.775314387174" lon="-72.571528592165">
    <tag k="addr:city" v="Brattleboro"/>
    <tag k="addr:housenumber" v="200"/>
    <tag k="addr:street" v="Gravity Drive"/>
    <tag k="addr:state" v="VT"/>
    <tag k="ref:vcgi:esiteid" v="773089"/>
  </node>
  <node id="-1886" visible="true" lat="42.774464397332" lon="-72.570255977194">
    <tag k="addr:city" v="Brattleboro"/>
    <tag k="addr:housenumber" v="131"/>
    <tag k="addr:street" v="Gravity Drive"/>
    <tag k="addr:state" v="VT"/>
    <tag k="ref:vcgi:esiteid" v="773090"/>
  </node>
  <node id="-1887" visible="true" lat="42.739405934375" lon="-72.60999841195">
    <tag k="addr:city" v="Brattleboro"/>
    <tag k="addr:housenumber" v="389"/>
    <tag k="addr:street" v="Marynuk Road"/>
    <tag k="addr:state" v="VT"/>
    <tag k="ref:vcgi:esiteid" v="773190"/>
  </node>
  <node id="-1888" visible="true" lat="42.819194975551" lon="-72.574089211962">
    <tag k="addr:city" v="Brattleboro"/>
    <tag k="addr:housenumber" v="64"/>
    <tag k="addr:street" v="Partridge Road"/>
    <tag k="addr:state" v="VT"/>
    <tag k="ref:vcgi:esiteid" v="773191"/>
  </node>
  <node id="-1889" visible="true" lat="42.825967864331" lon="-72.627848997645">
    <tag k="addr:city" v="Brattleboro"/>
    <tag k="addr:housenumber" v="2655"/>
    <tag k="addr:street" v="Bonnyvale Road"/>
    <tag k="addr:state" v="VT"/>
    <tag k="ref:vcgi:esiteid" v="773770"/>
  </node>
  <node id="-1890" visible="true" lat="42.807404728117" lon="-72.62650654934">
    <tag k="addr:city" v="Brattleboro"/>
    <tag k="addr:housenumber" v="4091"/>
    <tag k="addr:street" v="Bonnyvale Road"/>
    <tag k="addr:state" v="VT"/>
    <tag k="ref:vcgi:esiteid" v="773771"/>
  </node>
  <node id="-1891" visible="true" lat="42.770422992001" lon="-72.635704404333">
    <tag k="addr:city" v="Brattleboro"/>
    <tag k="addr:housenumber" v="1069"/>
    <tag k="addr:street" v="Sweet Pond Road"/>
    <tag k="addr:state" v="VT"/>
    <tag k="ref:vcgi:esiteid" v="773772"/>
  </node>
  <node id="-1892" visible="true" lat="42.769670342653" lon="-72.63665163882">
    <tag k="addr:city" v="Brattleboro"/>
    <tag k="addr:housenumber" v="1123"/>
    <tag k="addr:street" v="Sweet Pond Road"/>
    <tag k="addr:state" v="VT"/>
    <tag k="ref:vcgi:esiteid" v="773773"/>
  </node>
  <node id="-1893" visible="true" lat="42.775457198335" lon="-72.571348364017">
    <tag k="addr:city" v="Brattleboro"/>
    <tag k="addr:housenumber" v="196"/>
    <tag k="addr:street" v="Gravity Drive"/>
    <tag k="addr:state" v="VT"/>
    <tag k="ref:vcgi:esiteid" v="773774"/>
  </node>
  <node id="-1894" visible="true" lat="42.774890513925" lon="-72.571222314911">
    <tag k="addr:city" v="Brattleboro"/>
    <tag k="addr:housenumber" v="169"/>
    <tag k="addr:street" v="Gravity Drive"/>
    <tag k="addr:state" v="VT"/>
    <tag k="ref:vcgi:esiteid" v="773775"/>
  </node>
</osm>
