<?xml version="1.0" encoding="UTF-8"?>
<osm version="0.6" generator="JOSM" upload="false">
  <node id="-237" visible="true" lat="44.495769640381" lon="-71.595691922602">
    <!-- conflict: "1064 United States Route 2, Guildhall, VT" No match in OSM, but a different address exists <5m away: "1064 U.S. Route 2, Guildhall, VT" -->
    <tag k="addr:city" v="Guildhall"/>
    <tag k="addr:housenumber" v="1064"/>
    <tag k="addr:street" v="United States Route 2"/>
    <tag k="addr:state" v="VT"/>
    <tag k="ref:vcgi:esiteid" v="116755"/>
  </node>
  <node id="-238" visible="true" lat="44.495751233015" lon="-71.596727826765">
    <!-- conflict: "1025 United States Route 2, Guildhall, VT" No match in OSM, but a different address exists <5m away: "1025 U.S. Route 2, Guildhall, VT" -->
    <tag k="addr:city" v="Guildhall"/>
    <tag k="addr:housenumber" v="1025"/>
    <tag k="addr:street" v="United States Route 2"/>
    <tag k="addr:state" v="VT"/>
    <tag k="ref:vcgi:esiteid" v="116756"/>
  </node>
  <node id="-239" visible="true" lat="44.495752649949" lon="-71.59518760012">
    <!-- conflict: "1086 United States Route 2, Guildhall, VT" No match in OSM, but a different address exists <5m away: "1086 U.S. Route 2, Guildhall, VT" -->
    <tag k="addr:city" v="Guildhall"/>
    <tag k="addr:housenumber" v="1086"/>
    <tag k="addr:street" v="United States Route 2"/>
    <tag k="addr:state" v="VT"/>
    <tag k="ref:vcgi:esiteid" v="116757"/>
  </node>
  <node id="-240" visible="true" lat="44.495421465232" lon="-71.596841050082">
    <!-- conflict: "1009 United States Route 2, Guildhall, VT" No match in OSM, but a different address exists <5m away: "1009 U.S. Route 2, Guildhall, VT" -->
    <tag k="addr:city" v="Guildhall"/>
    <tag k="addr:housenumber" v="1009"/>
    <tag k="addr:street" v="United States Route 2"/>
    <tag k="addr:state" v="VT"/>
    <tag k="ref:vcgi:esiteid" v="116758"/>
  </node>
  <node id="-241" visible="true" lat="44.495034808952" lon="-71.597297116072">
    <!-- conflict: "983 United States Route 2, Guildhall, VT" No match in OSM, but a different address exists <5m away: "983 U.S. Route 2, Guildhall, VT" -->
    <tag k="addr:city" v="Guildhall"/>
    <tag k="addr:housenumber" v="983"/>
    <tag k="addr:street" v="United States Route 2"/>
    <tag k="addr:state" v="VT"/>
    <tag k="ref:vcgi:esiteid" v="116759"/>
  </node>
  <node id="-242" visible="true" lat="44.491050600292" lon="-71.600414859428">
    <!-- conflict: "651 United States Route 2, Guildhall, VT" No match in OSM, but a different address exists <5m away: "651 U.S. Route 2, Guildhall, VT" -->
    <tag k="addr:city" v="Guildhall"/>
    <tag k="addr:housenumber" v="651"/>
    <tag k="addr:street" v="United States Route 2"/>
    <tag k="addr:state" v="VT"/>
    <tag k="ref:vcgi:esiteid" v="116760"/>
  </node>
  <node id="-243" visible="true" lat="44.489549095811" lon="-71.601334713584">
    <!-- conflict: "529 United States Route 2, Guildhall, VT" No match in OSM, but a different address exists <5m away: "529 U.S. Route 2, Guildhall, VT" -->
    <tag k="addr:city" v="Guildhall"/>
    <tag k="addr:housenumber" v="529"/>
    <tag k="addr:street" v="United States Route 2"/>
    <tag k="addr:state" v="VT"/>
    <tag k="ref:vcgi:esiteid" v="116761"/>
  </node>
  <node id="-244" visible="true" lat="44.487531172764" lon="-71.607476186226">
    <!-- conflict: "181 United States Route 2, Guildhall, VT" No match in OSM, but a different address exists <5m away: "181 U.S. Route 2, Guildhall, VT" -->
    <tag k="addr:city" v="Guildhall"/>
    <tag k="addr:housenumber" v="181"/>
    <tag k="addr:street" v="United States Route 2"/>
    <tag k="addr:state" v="VT"/>
    <tag k="ref:vcgi:esiteid" v="116762"/>
  </node>
  <node id="-319" visible="true" lat="44.490168567578" lon="-71.600563058362">
    <!-- conflict: "593 United States Route 2, Guildhall, VT" No match in OSM, but a different address exists <5m away: "593 U.S. Route 2, Guildhall, VT" -->
    <tag k="addr:city" v="Guildhall"/>
    <tag k="addr:housenumber" v="593"/>
    <tag k="addr:street" v="United States Route 2"/>
    <tag k="addr:state" v="VT"/>
    <tag k="ref:vcgi:esiteid" v="767041"/>
  </node>
  <node id="-326" visible="true" lat="44.495179049563" lon="-71.596170901997">
    <!-- conflict: "1004 United States Route 2, Guildhall, VT" No match in OSM, but a different address exists <5m away: "1004 U.S. Route 2, Guildhall, VT" -->
    <tag k="addr:city" v="Guildhall"/>
    <tag k="addr:housenumber" v="1004"/>
    <tag k="addr:street" v="United States Route 2"/>
    <tag k="addr:state" v="VT"/>
    <tag k="ref:vcgi:esiteid" v="1050768"/>
  </node>
</osm>
