<?xml version="1.0" encoding="UTF-8"?>
<osm version="0.6" generator="JOSM" upload="false">
  <node id="-801" visible="true" lat="44.50531715" lon="-72.36578824">
    <!-- conflict: "51 North Main Street, , VT" Fuzzy match to "51 Main Street, Hardwick, VT" -->
    <tag k="addr:housenumber" v="51"/>
    <tag k="addr:street" v="North Main Street"/>
    <tag k="addr:state" v="VT"/>
    <tag k="ref:vcgi:esiteid" v="119370"/>
  </node>
  <node id="-818" visible="true" lat="44.50517861" lon="-72.365905">
    <!-- conflict: "39 North Main Street, , VT" Fuzzy match to "39 South Main Street, , VT" -->
    <tag k="addr:housenumber" v="39"/>
    <tag k="addr:street" v="North Main Street"/>
    <tag k="addr:state" v="VT"/>
    <tag k="ref:vcgi:esiteid" v="119391"/>
  </node>
</osm>
