<?xml version="1.0" encoding="UTF-8"?>
<osm version="0.6" generator="JOSM" upload="false">
  <node id="-2262" visible="true" lat="43.65750728" lon="-72.42254255">
    <!-- conflict: "574 Willard Road, , VT" No match in OSM, but a different address exists <5m away: "122 Quechee Hollow Lane, , VT" -->
    <tag k="addr:housenumber" v="574"/>
    <tag k="addr:street" v="Willard Road"/>
    <tag k="addr:state" v="VT"/>
    <tag k="ref:vcgi:esiteid" v="122380"/>
  </node>
  <node id="-2279" visible="true" lat="43.65706707" lon="-72.42257069">
    <!-- conflict: "574 Willard Road, , VT" No match in OSM, but a different address exists <5m away: "96 Quechee Hollow Lane, , VT" -->
    <tag k="addr:housenumber" v="574"/>
    <tag k="addr:street" v="Willard Road"/>
    <tag k="addr:state" v="VT"/>
    <tag k="ref:vcgi:esiteid" v="122399"/>
  </node>
  <node id="-2311" visible="true" lat="43.65668907" lon="-72.42240414">
    <!-- conflict: "574 Willard Road, , VT" No match in OSM, but a different address exists <5m away: "72 Quechee Hollow Lane, , VT" -->
    <tag k="addr:housenumber" v="574"/>
    <tag k="addr:street" v="Willard Road"/>
    <tag k="addr:state" v="VT"/>
    <tag k="ref:vcgi:esiteid" v="122432"/>
  </node>
  <node id="-2335" visible="true" lat="43.65621135" lon="-72.4223477">
    <!-- conflict: "574 Willard Road, , VT" No match in OSM, but a different address exists <5m away: "40 Quechee Hollow Lane, , VT" -->
    <tag k="addr:housenumber" v="574"/>
    <tag k="addr:street" v="Willard Road"/>
    <tag k="addr:state" v="VT"/>
    <tag k="ref:vcgi:esiteid" v="122458"/>
  </node>
</osm>
