<?xml version="1.0" encoding="UTF-8"?>
<osm version="0.6" generator="JOSM" upload="false">
  <node id="-1452" visible="true" lat="44.97419121015" lon="-73.104775915375">
    <tag k="addr:city" v="Swanton"/>
    <tag k="addr:housenumber" v="2934"/>
    <tag k="addr:street" v="United States Route 7"/>
    <tag k="addr:state" v="VT"/>
    <tag k="ref:vcgi:esiteid" v="127874"/>
  </node>
  <node id="-1776" visible="true" lat="44.947439480523" lon="-73.111920493269">
    <tag k="addr:city" v="Swanton"/>
    <tag k="addr:housenumber" v="24"/>
    <tag k="addr:street" v="Terricel Boulevard"/>
    <tag k="addr:state" v="VT"/>
    <tag k="ref:vcgi:esiteid" v="315290"/>
  </node>
  <node id="-2024" visible="true" lat="44.939948550285" lon="-73.029586640618">
    <tag k="addr:city" v="Highgate Center"/>
    <tag k="addr:housenumber" v="33"/>
    <tag k="addr:street" v="Woods Lane"/>
    <tag k="addr:state" v="VT"/>
    <tag k="ref:vcgi:esiteid" v="760428"/>
  </node>
  <node id="-2103" visible="true" lat="44.942236786594" lon="-73.056766816377">
    <tag k="addr:city" v="Highgate Center"/>
    <tag k="addr:housenumber" v="2461"/>
    <tag k="addr:street" v="78"/>
    <tag k="addr:state" v="VT"/>
    <tag k="ref:vcgi:esiteid" v="773827"/>
  </node>
  <node id="-2104" visible="true" lat="44.928162057731" lon="-73.048225347013">
    <tag k="addr:city" v="Highgate Center"/>
    <tag k="addr:housenumber" v="205"/>
    <tag k="addr:street" v="Luke Street"/>
    <tag k="addr:state" v="VT"/>
    <tag k="ref:vcgi:esiteid" v="773849"/>
  </node>
  <node id="-2106" visible="true" lat="44.935771356176" lon="-73.032359281995">
    <tag k="addr:city" v="Highgate Center"/>
    <tag k="addr:housenumber" v="253"/>
    <tag k="addr:street" v="Ladimi Circle"/>
    <tag k="addr:state" v="VT"/>
    <tag k="ref:vcgi:esiteid" v="773859"/>
  </node>
  <node id="-2107" visible="true" lat="44.936425114502" lon="-73.032872501304">
    <tag k="addr:city" v="Highgate Center"/>
    <tag k="addr:housenumber" v="219"/>
    <tag k="addr:street" v="Ladimi Circle"/>
    <tag k="addr:state" v="VT"/>
    <tag k="ref:vcgi:esiteid" v="773860"/>
  </node>
  <node id="-2108" visible="true" lat="44.936636883256" lon="-73.033442019871">
    <tag k="addr:city" v="Highgate Center"/>
    <tag k="addr:housenumber" v="203"/>
    <tag k="addr:street" v="Ladimi Circle"/>
    <tag k="addr:state" v="VT"/>
    <tag k="ref:vcgi:esiteid" v="773861"/>
  </node>
  <node id="-2109" visible="true" lat="44.936735599056" lon="-73.034342577075">
    <tag k="addr:city" v="Highgate Center"/>
    <tag k="addr:housenumber" v="165"/>
    <tag k="addr:street" v="Ladimi Circle"/>
    <tag k="addr:state" v="VT"/>
    <tag k="ref:vcgi:esiteid" v="773862"/>
  </node>
  <node id="-2110" visible="true" lat="44.939695015958" lon="-73.028748475942">
    <tag k="addr:city" v="Highgate Center"/>
    <tag k="addr:housenumber" v="32"/>
    <tag k="addr:street" v="Woods Lane"/>
    <tag k="addr:state" v="VT"/>
    <tag k="ref:vcgi:esiteid" v="773906"/>
  </node>
  <node id="-2113" visible="true" lat="44.963009077863" lon="-73.109336439746">
    <tag k="addr:city" v="Swanton"/>
    <tag k="addr:housenumber" v="2155"/>
    <tag k="addr:street" v="United States Route 7"/>
    <tag k="addr:state" v="VT"/>
    <tag k="ref:vcgi:esiteid" v="900478"/>
  </node>
</osm>
