<?xml version="1.0" encoding="UTF-8"?>
<osm version="0.6" generator="JOSM" upload="false">
  <node id="-751" visible="true" lat="44.34469516" lon="-73.1099409">
    <!-- conflict: "369 CVU Road, Hinesburg, VT" Fuzzy match to "369 Cvu Road, Hinesburg, VT" -->
    <tag k="addr:city" v="Hinesburg"/>
    <tag k="addr:housenumber" v="369"/>
    <tag k="addr:street" v="CVU Road"/>
    <tag k="addr:state" v="VT"/>
    <tag k="ref:vcgi:esiteid" v="128842"/>
  </node>
  <node id="-781" visible="true" lat="44.34347454" lon="-73.11052267">
    <!-- conflict: "363 CVU Road, Hinesburg, VT" Fuzzy match to "363 Cvu Road, Hinesburg, VT" -->
    <tag k="addr:city" v="Hinesburg"/>
    <tag k="addr:housenumber" v="363"/>
    <tag k="addr:street" v="CVU Road"/>
    <tag k="addr:state" v="VT"/>
    <tag k="ref:vcgi:esiteid" v="128873"/>
  </node>
  <node id="-786" visible="true" lat="44.34349079" lon="-73.11168418">
    <!-- conflict: "359 CVU Road, Hinesburg, VT" Fuzzy match to "359 Cvu Road, Hinesburg, VT" -->
    <tag k="addr:city" v="Hinesburg"/>
    <tag k="addr:housenumber" v="359"/>
    <tag k="addr:street" v="CVU Road"/>
    <tag k="addr:state" v="VT"/>
    <tag k="ref:vcgi:esiteid" v="128878"/>
  </node>
  <node id="-796" visible="true" lat="44.34319305" lon="-73.106781">
    <!-- conflict: "506 CVU Road, Hinesburg, VT" Fuzzy match to "506 Cvu Road, Hinesburg, VT" -->
    <tag k="addr:city" v="Hinesburg"/>
    <tag k="addr:housenumber" v="506"/>
    <tag k="addr:street" v="CVU Road"/>
    <tag k="addr:state" v="VT"/>
    <tag k="ref:vcgi:esiteid" v="128888"/>
  </node>
  <node id="-797" visible="true" lat="44.34313583" lon="-73.10860443">
    <!-- conflict: "416 CVU Road, Hinesburg, VT" Fuzzy match to "416 Cvu Road, Hinesburg, VT" -->
    <tag k="addr:city" v="Hinesburg"/>
    <tag k="addr:housenumber" v="416"/>
    <tag k="addr:street" v="CVU Road"/>
    <tag k="addr:state" v="VT"/>
    <tag k="ref:vcgi:esiteid" v="128889"/>
  </node>
  <node id="-799" visible="true" lat="44.34310535" lon="-73.10922341">
    <!-- conflict: "384 CVU Road, Hinesburg, VT" Fuzzy match to "384 Cvu Road, Hinesburg, VT" -->
    <tag k="addr:city" v="Hinesburg"/>
    <tag k="addr:housenumber" v="384"/>
    <tag k="addr:street" v="CVU Road"/>
    <tag k="addr:state" v="VT"/>
    <tag k="ref:vcgi:esiteid" v="128891"/>
  </node>
  <node id="-806" visible="true" lat="44.34302139" lon="-73.10945129">
    <!-- conflict: "372 CVU Road, Hinesburg, VT" Fuzzy match to "372 Cvu Road, Hinesburg, VT" -->
    <tag k="addr:city" v="Hinesburg"/>
    <tag k="addr:housenumber" v="372"/>
    <tag k="addr:street" v="CVU Road"/>
    <tag k="addr:state" v="VT"/>
    <tag k="ref:vcgi:esiteid" v="128898"/>
  </node>
  <node id="-813" visible="true" lat="44.34277725" lon="-73.11041259">
    <!-- conflict: "318 CVU Road, Hinesburg, VT" Fuzzy match to "318 Cvu Road, Hinesburg, VT" -->
    <tag k="addr:city" v="Hinesburg"/>
    <tag k="addr:housenumber" v="318"/>
    <tag k="addr:street" v="CVU Road"/>
    <tag k="addr:state" v="VT"/>
    <tag k="ref:vcgi:esiteid" v="128905"/>
  </node>
  <node id="-818" visible="true" lat="44.34252548" lon="-73.11112213">
    <!-- conflict: "300 CVU Road, Hinesburg, VT" Fuzzy match to "300 Cvu Road, Hinesburg, VT" -->
    <tag k="addr:city" v="Hinesburg"/>
    <tag k="addr:housenumber" v="300"/>
    <tag k="addr:street" v="CVU Road"/>
    <tag k="addr:state" v="VT"/>
    <tag k="ref:vcgi:esiteid" v="128910"/>
  </node>
  <node id="-824" visible="true" lat="44.34241429" lon="-73.1161943">
    <!-- conflict: "57 CVU Road, Hinesburg, VT" Fuzzy match to "57 Cvu Road, Hinesburg, VT" -->
    <tag k="addr:city" v="Hinesburg"/>
    <tag k="addr:housenumber" v="57"/>
    <tag k="addr:street" v="CVU Road"/>
    <tag k="addr:state" v="VT"/>
    <tag k="ref:vcgi:esiteid" v="128916"/>
  </node>
  <node id="-835" visible="true" lat="44.34221479" lon="-73.11456873">
    <!-- conflict: "119 CVU Road, Hinesburg, VT" Fuzzy match to "119 Cvu Road, Hinesburg, VT" -->
    <tag k="addr:city" v="Hinesburg"/>
    <tag k="addr:housenumber" v="119"/>
    <tag k="addr:street" v="CVU Road"/>
    <tag k="addr:state" v="VT"/>
    <tag k="ref:vcgi:esiteid" v="128927"/>
  </node>
  <node id="-859" visible="true" lat="44.34164428" lon="-73.11310577">
    <!-- conflict: "182 CVU Road, Hinesburg, VT" Fuzzy match to "182 Cvu Road, Hinesburg, VT" -->
    <tag k="addr:city" v="Hinesburg"/>
    <tag k="addr:housenumber" v="182"/>
    <tag k="addr:street" v="CVU Road"/>
    <tag k="addr:state" v="VT"/>
    <tag k="ref:vcgi:esiteid" v="128951"/>
  </node>
  <node id="-873" visible="true" lat="44.34118033" lon="-73.11521145">
    <!-- conflict: "56 CVU Road, Hinesburg, VT" Fuzzy match to "56 Cvu Road, Hinesburg, VT" -->
    <tag k="addr:city" v="Hinesburg"/>
    <tag k="addr:housenumber" v="56"/>
    <tag k="addr:street" v="CVU Road"/>
    <tag k="addr:state" v="VT"/>
    <tag k="ref:vcgi:esiteid" v="128965"/>
  </node>
  <node id="-881" visible="true" lat="44.34107593" lon="-73.11592201">
    <!-- conflict: "10 CVU Road, Hinesburg, VT" Fuzzy match to "10 Cvu Road, Hinesburg, VT" -->
    <tag k="addr:city" v="Hinesburg"/>
    <tag k="addr:housenumber" v="10"/>
    <tag k="addr:street" v="CVU Road"/>
    <tag k="addr:state" v="VT"/>
    <tag k="ref:vcgi:esiteid" v="128973"/>
  </node>
  <node id="-1597" visible="true" lat="44.34253692" lon="-73.10992431">
    <!-- conflict: "346 CVU Road, Hinesburg, VT" Fuzzy match to "346 Cvu Road, Hinesburg, VT" -->
    <tag k="addr:city" v="Hinesburg"/>
    <tag k="addr:housenumber" v="346"/>
    <tag k="addr:street" v="CVU Road"/>
    <tag k="addr:state" v="VT"/>
    <tag k="ref:vcgi:esiteid" v="129696"/>
  </node>
  <node id="-1954" visible="true" lat="44.34186888" lon="-73.11618634">
    <!-- conflict: "55 CVU Road, Hinesburg, VT" Fuzzy match to "55 Cvu Road, Hinesburg, VT" -->
    <tag k="addr:city" v="Hinesburg"/>
    <tag k="addr:housenumber" v="55"/>
    <tag k="addr:street" v="CVU Road"/>
    <tag k="addr:state" v="VT"/>
    <tag k="ref:vcgi:esiteid" v="448369"/>
  </node>
</osm>
