<?xml version="1.0" encoding="UTF-8"?>
<osm version="0.6" generator="JOSM" upload="false">
  <node id="-567" visible="true" lat="45.001106522842" lon="-72.038931376516">
    <tag k="addr:city" v="Derby Line"/>
    <tag k="addr:housenumber" v="348"/>
    <tag k="addr:street" v="Tree Farm Road"/>
    <tag k="addr:state" v="VT"/>
    <tag k="ref:vcgi:esiteid" v="656755"/>
  </node>
  <node id="-594" visible="true" lat="44.999515840253" lon="-72.027080535057">
    <tag k="addr:city" v="Derby Line"/>
    <tag k="addr:housenumber" v="1483"/>
    <tag k="addr:street" v="Stearns Brook Road"/>
    <tag k="addr:state" v="VT"/>
    <tag k="ref:vcgi:esiteid" v="773415"/>
  </node>
  <node id="-595" visible="true" lat="44.941274570283" lon="-71.976172940075">
    <tag k="addr:city" v="Derby Line"/>
    <tag k="addr:housenumber" v="5713"/>
    <tag k="addr:street" v="Valley Road"/>
    <tag k="addr:state" v="VT"/>
    <tag k="ref:vcgi:esiteid" v="773416"/>
  </node>
</osm>
