<?xml version="1.0" encoding="UTF-8"?>
<osm version="0.6" generator="JOSM" upload="false">
  <node id="-1261" visible="true" lat="44.260894217612" lon="-72.938255061998">
    <tag k="addr:city" v="Huntington"/>
    <tag k="addr:housenumber" v="1563"/>
    <tag k="addr:street" v="Charlie Smith Road"/>
    <tag k="addr:state" v="VT"/>
    <tag k="ref:vcgi:esiteid" v="773808"/>
  </node>
  <node id="-1262" visible="true" lat="44.25674457429" lon="-72.933880001801">
    <tag k="addr:city" v="Huntington"/>
    <tag k="addr:housenumber" v="1941"/>
    <tag k="addr:street" v="Charlie Smith Road"/>
    <tag k="addr:state" v="VT"/>
    <tag k="ref:vcgi:esiteid" v="773809"/>
  </node>
</osm>
