<?xml version="1.0" encoding="UTF-8"?>
<osm version="0.6" generator="JOSM" upload="false">
  <node id="-358" visible="true" lat="43.547766362683" lon="-73.077223683005">
    <tag k="addr:city" v="West Rutland"/>
    <tag k="addr:housenumber" v="1475"/>
    <tag k="addr:street" v="West Road"/>
    <tag k="addr:state" v="VT"/>
    <tag k="ref:vcgi:esiteid" v="773619"/>
  </node>
  <node id="-359" visible="true" lat="43.56170523438" lon="-73.054167760748">
    <tag k="addr:city" v="West Rutland"/>
    <tag k="addr:housenumber" v="3075"/>
    <tag k="addr:street" v="West Road"/>
    <tag k="addr:state" v="VT"/>
    <tag k="ref:vcgi:esiteid" v="773620"/>
  </node>
  <node id="-360" visible="true" lat="43.561164364872" lon="-73.053916058038">
    <tag k="addr:city" v="West Rutland"/>
    <tag k="addr:housenumber" v="3052"/>
    <tag k="addr:street" v="West Road"/>
    <tag k="addr:state" v="VT"/>
    <tag k="ref:vcgi:esiteid" v="773785"/>
  </node>
</osm>
