<?xml version="1.0" encoding="UTF-8"?>
<osm version="0.6" generator="JOSM" upload="false">
  <node id="-100" visible="true" lat="43.612580552512" lon="-73.109780701488">
    <!-- conflict: "1308 Blue Star Drive, Castleton, VT" Fuzzy match to "1308 Blue Star Drive, Ira, VT" -->
    <tag k="addr:city" v="Castleton"/>
    <tag k="addr:housenumber" v="1308"/>
    <tag k="addr:street" v="Blue Star Drive"/>
    <tag k="addr:state" v="VT"/>
    <tag k="ref:vcgi:esiteid" v="133258"/>
  </node>
  <node id="-101" visible="true" lat="43.610109537073" lon="-73.103872351282">
    <!-- conflict: "848 Blue Star Drive, Castleton, VT" Fuzzy match to "848 Blue Star Drive, Ira, VT" -->
    <tag k="addr:city" v="Castleton"/>
    <tag k="addr:housenumber" v="848"/>
    <tag k="addr:street" v="Blue Star Drive"/>
    <tag k="addr:state" v="VT"/>
    <tag k="ref:vcgi:esiteid" v="133259"/>
  </node>
  <node id="-102" visible="true" lat="43.610009630722" lon="-73.105641998069">
    <!-- conflict: "924 Blue Star Drive, Castleton, VT" Fuzzy match to "924 Blue Star Drive, Ira, VT" -->
    <tag k="addr:city" v="Castleton"/>
    <tag k="addr:housenumber" v="924"/>
    <tag k="addr:street" v="Blue Star Drive"/>
    <tag k="addr:state" v="VT"/>
    <tag k="ref:vcgi:esiteid" v="133260"/>
  </node>
  <node id="-103" visible="true" lat="43.610189803913" lon="-73.104247231007">
    <!-- conflict: "862 Blue Star Drive, Castleton, VT" Fuzzy match to "862 Blue Star Drive, Ira, VT" -->
    <tag k="addr:city" v="Castleton"/>
    <tag k="addr:housenumber" v="862"/>
    <tag k="addr:street" v="Blue Star Drive"/>
    <tag k="addr:state" v="VT"/>
    <tag k="ref:vcgi:esiteid" v="133261"/>
  </node>
  <node id="-104" visible="true" lat="43.610076364983" lon="-73.103491148948">
    <!-- conflict: "826 Blue Star Drive, Castleton, VT" Fuzzy match to "826 Blue Star Drive, Ira, VT" -->
    <tag k="addr:city" v="Castleton"/>
    <tag k="addr:housenumber" v="826"/>
    <tag k="addr:street" v="Blue Star Drive"/>
    <tag k="addr:state" v="VT"/>
    <tag k="ref:vcgi:esiteid" v="133262"/>
  </node>
  <node id="-105" visible="true" lat="43.610044923526" lon="-73.104547116015">
    <!-- conflict: "882 Blue Star Drive, Castleton, VT" Fuzzy match to "882 Blue Star Drive, Ira, VT" -->
    <tag k="addr:city" v="Castleton"/>
    <tag k="addr:housenumber" v="882"/>
    <tag k="addr:street" v="Blue Star Drive"/>
    <tag k="addr:state" v="VT"/>
    <tag k="ref:vcgi:esiteid" v="133263"/>
  </node>
  <node id="-106" visible="true" lat="43.609899752018" lon="-73.101910531524">
    <!-- conflict: "750 Blue Star Drive, Castleton, VT" Fuzzy match to "750 Blue Star Drive, Ira, VT" -->
    <tag k="addr:city" v="Castleton"/>
    <tag k="addr:housenumber" v="750"/>
    <tag k="addr:street" v="Blue Star Drive"/>
    <tag k="addr:state" v="VT"/>
    <tag k="ref:vcgi:esiteid" v="133264"/>
  </node>
  <node id="-107" visible="true" lat="43.60957636027" lon="-73.103724515303">
    <!-- conflict: "829 Blue Star Drive, Castleton, VT" Fuzzy match to "829 Blue Star Drive, Ira, VT" -->
    <tag k="addr:city" v="Castleton"/>
    <tag k="addr:housenumber" v="829"/>
    <tag k="addr:street" v="Blue Star Drive"/>
    <tag k="addr:state" v="VT"/>
    <tag k="ref:vcgi:esiteid" v="133265"/>
  </node>
  <node id="-108" visible="true" lat="43.609513312308" lon="-73.099524691685">
    <!-- conflict: "642 Blue Star Drive, Castleton, VT" Fuzzy match to "642 Blue Star Drive, Ira, VT" -->
    <tag k="addr:city" v="Castleton"/>
    <tag k="addr:housenumber" v="642"/>
    <tag k="addr:street" v="Blue Star Drive"/>
    <tag k="addr:state" v="VT"/>
    <tag k="ref:vcgi:esiteid" v="133266"/>
  </node>
  <node id="-109" visible="true" lat="43.609186983632" lon="-73.098298386875">
    <!-- conflict: "560 Blue Star Drive, Castleton, VT" Fuzzy match to "560 Blue Star Drive, Ira, VT" -->
    <tag k="addr:city" v="Castleton"/>
    <tag k="addr:housenumber" v="560"/>
    <tag k="addr:street" v="Blue Star Drive"/>
    <tag k="addr:state" v="VT"/>
    <tag k="ref:vcgi:esiteid" v="133267"/>
  </node>
  <node id="-110" visible="true" lat="43.609165795785" lon="-73.098795014747">
    <!-- conflict: "582 Blue Star Drive, Castleton, VT" Fuzzy match to "582 Blue Star Drive, Ira, VT" -->
    <tag k="addr:city" v="Castleton"/>
    <tag k="addr:housenumber" v="582"/>
    <tag k="addr:street" v="Blue Star Drive"/>
    <tag k="addr:state" v="VT"/>
    <tag k="ref:vcgi:esiteid" v="133268"/>
  </node>
  <node id="-111" visible="true" lat="43.609025366009" lon="-73.109407805814">
    <!-- conflict: "1122 Blue Star Drive, Castleton, VT" Fuzzy match to "1122 Blue Star Drive, Ira, VT" -->
    <tag k="addr:city" v="Castleton"/>
    <tag k="addr:housenumber" v="1122"/>
    <tag k="addr:street" v="Blue Star Drive"/>
    <tag k="addr:state" v="VT"/>
    <tag k="ref:vcgi:esiteid" v="133269"/>
  </node>
  <node id="-112" visible="true" lat="43.608875280617" lon="-73.10757718386">
    <!-- conflict: "1077 Blue Star Drive, Castleton, VT" Fuzzy match to "1077 Blue Star Drive, Ira, VT" -->
    <tag k="addr:city" v="Castleton"/>
    <tag k="addr:housenumber" v="1077"/>
    <tag k="addr:street" v="Blue Star Drive"/>
    <tag k="addr:state" v="VT"/>
    <tag k="ref:vcgi:esiteid" v="133270"/>
  </node>
  <node id="-113" visible="true" lat="43.608804795768" lon="-73.104487646976">
    <!-- conflict: "875 Blue Star Drive, Castleton, VT" Fuzzy match to "875 Blue Star Drive, Ira, VT" -->
    <tag k="addr:city" v="Castleton"/>
    <tag k="addr:housenumber" v="875"/>
    <tag k="addr:street" v="Blue Star Drive"/>
    <tag k="addr:state" v="VT"/>
    <tag k="ref:vcgi:esiteid" v="133271"/>
  </node>
  <node id="-114" visible="true" lat="43.608082524974" lon="-73.097862554001">
    <!-- conflict: "515 Blue Star Drive, Castleton, VT" Fuzzy match to "515 Blue Star Drive, Ira, VT" -->
    <tag k="addr:city" v="Castleton"/>
    <tag k="addr:housenumber" v="515"/>
    <tag k="addr:street" v="Blue Star Drive"/>
    <tag k="addr:state" v="VT"/>
    <tag k="ref:vcgi:esiteid" v="133272"/>
  </node>
  <node id="-115" visible="true" lat="43.608225485852" lon="-73.096966958516">
    <!-- conflict: "466 Blue Star Drive, Castleton, VT" Fuzzy match to "466 Blue Star Drive, Ira, VT" -->
    <tag k="addr:city" v="Castleton"/>
    <tag k="addr:housenumber" v="466"/>
    <tag k="addr:street" v="Blue Star Drive"/>
    <tag k="addr:state" v="VT"/>
    <tag k="ref:vcgi:esiteid" v="133273"/>
  </node>
  <node id="-116" visible="true" lat="43.608157737111" lon="-73.095827138417">
    <!-- conflict: "436 Blue Star Drive, Castleton, VT" Fuzzy match to "436 Blue Star Drive, Ira, VT" -->
    <tag k="addr:city" v="Castleton"/>
    <tag k="addr:housenumber" v="436"/>
    <tag k="addr:street" v="Blue Star Drive"/>
    <tag k="addr:state" v="VT"/>
    <tag k="ref:vcgi:esiteid" v="133274"/>
  </node>
  <node id="-117" visible="true" lat="43.607759072117" lon="-73.101241959177">
    <!-- conflict: "112 Ira Birdseye Road, Castleton, VT" Fuzzy match to "112 Ira Birdseye Road, Ira, VT" -->
    <tag k="addr:city" v="Castleton"/>
    <tag k="addr:housenumber" v="112"/>
    <tag k="addr:street" v="Ira Birdseye Road"/>
    <tag k="addr:state" v="VT"/>
    <tag k="ref:vcgi:esiteid" v="133275"/>
  </node>
  <node id="-118" visible="true" lat="43.607682479365" lon="-73.096923887212">
    <!-- conflict: "445 Blue Star Drive, Castleton, VT" Fuzzy match to "445 Blue Star Drive, Ira, VT" -->
    <tag k="addr:city" v="Castleton"/>
    <tag k="addr:housenumber" v="445"/>
    <tag k="addr:street" v="Blue Star Drive"/>
    <tag k="addr:state" v="VT"/>
    <tag k="ref:vcgi:esiteid" v="133276"/>
  </node>
  <node id="-119" visible="true" lat="43.60750118106" lon="-73.107752146186">
    <!-- conflict: "1109 Blue Star Drive, Castleton, VT" Fuzzy match to "1109 Blue Star Drive, Ira, VT" -->
    <tag k="addr:city" v="Castleton"/>
    <tag k="addr:housenumber" v="1109"/>
    <tag k="addr:street" v="Blue Star Drive"/>
    <tag k="addr:state" v="VT"/>
    <tag k="ref:vcgi:esiteid" v="133277"/>
  </node>
  <node id="-120" visible="true" lat="43.607286000274" lon="-73.092129406764">
    <!-- conflict: "209 Blue Star Drive, Castleton, VT" Fuzzy match to "209 Blue Star Drive, Ira, VT" -->
    <tag k="addr:city" v="Castleton"/>
    <tag k="addr:housenumber" v="209"/>
    <tag k="addr:street" v="Blue Star Drive"/>
    <tag k="addr:state" v="VT"/>
    <tag k="ref:vcgi:esiteid" v="133278"/>
  </node>
  <node id="-121" visible="true" lat="43.607130690615" lon="-73.092719490951">
    <!-- conflict: "241 Blue Star Drive, Castleton, VT" Fuzzy match to "241 Blue Star Drive, Ira, VT" -->
    <tag k="addr:city" v="Castleton"/>
    <tag k="addr:housenumber" v="241"/>
    <tag k="addr:street" v="Blue Star Drive"/>
    <tag k="addr:state" v="VT"/>
    <tag k="ref:vcgi:esiteid" v="133279"/>
  </node>
  <node id="-122" visible="true" lat="43.607044454874" lon="-73.09311927354">
    <!-- conflict: "257 Blue Star Drive, Castleton, VT" Fuzzy match to "257 Blue Star Drive, Ira, VT" -->
    <tag k="addr:city" v="Castleton"/>
    <tag k="addr:housenumber" v="257"/>
    <tag k="addr:street" v="Blue Star Drive"/>
    <tag k="addr:state" v="VT"/>
    <tag k="ref:vcgi:esiteid" v="133280"/>
  </node>
  <node id="-123" visible="true" lat="43.60695949563" lon="-73.093560012112">
    <!-- conflict: "281 Blue Star Drive, Castleton, VT" Fuzzy match to "281 Blue Star Drive, Ira, VT" -->
    <tag k="addr:city" v="Castleton"/>
    <tag k="addr:housenumber" v="281"/>
    <tag k="addr:street" v="Blue Star Drive"/>
    <tag k="addr:state" v="VT"/>
    <tag k="ref:vcgi:esiteid" v="133282"/>
  </node>
  <node id="-124" visible="true" lat="43.606635817532" lon="-73.099826665135">
    <!-- conflict: "199 Ira Birdseye Road, Castleton, VT" Fuzzy match to "199 Ira Birdseye Road, Ira, VT" -->
    <tag k="addr:city" v="Castleton"/>
    <tag k="addr:housenumber" v="199"/>
    <tag k="addr:street" v="Ira Birdseye Road"/>
    <tag k="addr:state" v="VT"/>
    <tag k="ref:vcgi:esiteid" v="133284"/>
  </node>
  <node id="-125" visible="true" lat="43.60553889775" lon="-73.094080643945">
    <!-- conflict: "289 Blue Star Drive, Castleton, VT" Fuzzy match to "289 Blue Star Drive, Ira, VT" -->
    <tag k="addr:city" v="Castleton"/>
    <tag k="addr:housenumber" v="289"/>
    <tag k="addr:street" v="Blue Star Drive"/>
    <tag k="addr:state" v="VT"/>
    <tag k="ref:vcgi:esiteid" v="133285"/>
  </node>
  <node id="-126" visible="true" lat="43.604983324968" lon="-73.099982160663">
    <!-- conflict: "315 Ira Birdseye Road, Castleton, VT" Fuzzy match to "315 Ira Birdseye Road, Ira, VT" -->
    <tag k="addr:city" v="Castleton"/>
    <tag k="addr:housenumber" v="315"/>
    <tag k="addr:street" v="Ira Birdseye Road"/>
    <tag k="addr:state" v="VT"/>
    <tag k="ref:vcgi:esiteid" v="133286"/>
  </node>
  <node id="-127" visible="true" lat="43.602172440492" lon="-73.100748759327">
    <!-- conflict: "506 Ira Birdseye Road, Castleton, VT" Fuzzy match to "506 Ira Birdseye Road, Ira, VT" -->
    <tag k="addr:city" v="Castleton"/>
    <tag k="addr:housenumber" v="506"/>
    <tag k="addr:street" v="Ira Birdseye Road"/>
    <tag k="addr:state" v="VT"/>
    <tag k="ref:vcgi:esiteid" v="133287"/>
  </node>
  <node id="-128" visible="true" lat="43.601621062988" lon="-73.099912456972">
    <!-- conflict: "541 Ira Birdseye Road, Castleton, VT" Fuzzy match to "541 Ira Birdseye Road, Ira, VT" -->
    <tag k="addr:city" v="Castleton"/>
    <tag k="addr:housenumber" v="541"/>
    <tag k="addr:street" v="Ira Birdseye Road"/>
    <tag k="addr:state" v="VT"/>
    <tag k="ref:vcgi:esiteid" v="133288"/>
  </node>
  <node id="-129" visible="true" lat="43.601146450221" lon="-73.101441925175">
    <!-- conflict: "606 Ira Birdseye Road, Castleton, VT" Fuzzy match to "606 Ira Birdseye Road, Ira, VT" -->
    <tag k="addr:city" v="Castleton"/>
    <tag k="addr:housenumber" v="606"/>
    <tag k="addr:street" v="Ira Birdseye Road"/>
    <tag k="addr:state" v="VT"/>
    <tag k="ref:vcgi:esiteid" v="133289"/>
  </node>
  <node id="-130" visible="true" lat="43.600255822685" lon="-73.100672760066">
    <!-- conflict: "635 Ira Birdseye Road, Castleton, VT" Fuzzy match to "635 Ira Birdseye Road, Ira, VT" -->
    <tag k="addr:city" v="Castleton"/>
    <tag k="addr:housenumber" v="635"/>
    <tag k="addr:street" v="Ira Birdseye Road"/>
    <tag k="addr:state" v="VT"/>
    <tag k="ref:vcgi:esiteid" v="133290"/>
  </node>
  <node id="-131" visible="true" lat="43.599858011397" lon="-73.101935712794">
    <!-- conflict: "690 Ira Birdseye Road, Castleton, VT" Fuzzy match to "690 Ira Birdseye Road, Ira, VT" -->
    <tag k="addr:city" v="Castleton"/>
    <tag k="addr:housenumber" v="690"/>
    <tag k="addr:street" v="Ira Birdseye Road"/>
    <tag k="addr:state" v="VT"/>
    <tag k="ref:vcgi:esiteid" v="133291"/>
  </node>
  <node id="-132" visible="true" lat="43.598227618395" lon="-73.099431235105">
    <!-- conflict: "815 Ira Birdseye Road, Castleton, VT" Fuzzy match to "815 Ira Birdseye Road, Ira, VT" -->
    <tag k="addr:city" v="Castleton"/>
    <tag k="addr:housenumber" v="815"/>
    <tag k="addr:street" v="Ira Birdseye Road"/>
    <tag k="addr:state" v="VT"/>
    <tag k="ref:vcgi:esiteid" v="133292"/>
  </node>
  <node id="-133" visible="true" lat="43.597173362941" lon="-73.100156450682">
    <!-- conflict: "885 Ira Birdseye Road, Castleton, VT" Fuzzy match to "885 Ira Birdseye Road, Ira, VT" -->
    <tag k="addr:city" v="Castleton"/>
    <tag k="addr:housenumber" v="885"/>
    <tag k="addr:street" v="Ira Birdseye Road"/>
    <tag k="addr:state" v="VT"/>
    <tag k="ref:vcgi:esiteid" v="133293"/>
  </node>
  <node id="-134" visible="true" lat="43.583103219836" lon="-73.100979471133">
    <!-- conflict: "1876 Ira Birdseye Road, Castleton, VT" Fuzzy match to "1876 Ira Birdseye Road, Ira, VT" -->
    <tag k="addr:city" v="Castleton"/>
    <tag k="addr:housenumber" v="1876"/>
    <tag k="addr:street" v="Ira Birdseye Road"/>
    <tag k="addr:state" v="VT"/>
    <tag k="ref:vcgi:esiteid" v="133294"/>
  </node>
  <node id="-135" visible="true" lat="43.569662395356" lon="-73.049708193097">
    <!-- conflict: "3691 West Road, West Rutland, VT" Fuzzy match to "3691 West Road, Ira, VT" -->
    <tag k="addr:city" v="West Rutland"/>
    <tag k="addr:housenumber" v="3691"/>
    <tag k="addr:street" v="West Road"/>
    <tag k="addr:state" v="VT"/>
    <tag k="ref:vcgi:esiteid" v="133295"/>
  </node>
  <node id="-136" visible="true" lat="43.569500385084" lon="-73.048836963423">
    <!-- conflict: "3672 West Road, West Rutland, VT" Fuzzy match to "3672 West Road, Ira, VT" -->
    <tag k="addr:city" v="West Rutland"/>
    <tag k="addr:housenumber" v="3672"/>
    <tag k="addr:street" v="West Road"/>
    <tag k="addr:state" v="VT"/>
    <tag k="ref:vcgi:esiteid" v="133296"/>
  </node>
  <node id="-137" visible="true" lat="43.568876042932" lon="-73.049564860065">
    <!-- conflict: "3637 West Road, West Rutland, VT" Fuzzy match to "3637 West Road, Ira, VT" -->
    <tag k="addr:city" v="West Rutland"/>
    <tag k="addr:housenumber" v="3637"/>
    <tag k="addr:street" v="West Road"/>
    <tag k="addr:state" v="VT"/>
    <tag k="ref:vcgi:esiteid" v="133297"/>
  </node>
  <node id="-138" visible="true" lat="43.56885477425" lon="-73.045435467305">
    <!-- conflict: "3636 West Road, West Rutland, VT" Fuzzy match to "3636 West Road, Ira, VT" -->
    <tag k="addr:city" v="West Rutland"/>
    <tag k="addr:housenumber" v="3636"/>
    <tag k="addr:street" v="West Road"/>
    <tag k="addr:state" v="VT"/>
    <tag k="ref:vcgi:esiteid" v="133298"/>
  </node>
  <node id="-139" visible="true" lat="43.567291872739" lon="-73.049137863313">
    <!-- conflict: "3530 West Road, West Rutland, VT" Fuzzy match to "3530 West Road, Ira, VT" -->
    <tag k="addr:city" v="West Rutland"/>
    <tag k="addr:housenumber" v="3530"/>
    <tag k="addr:street" v="West Road"/>
    <tag k="addr:state" v="VT"/>
    <tag k="ref:vcgi:esiteid" v="133299"/>
  </node>
  <node id="-140" visible="true" lat="43.56503786364" lon="-73.051528522179">
    <!-- conflict: "3333 West Road, West Rutland, VT" Fuzzy match to "3333 West Road, Ira, VT" -->
    <tag k="addr:city" v="West Rutland"/>
    <tag k="addr:housenumber" v="3333"/>
    <tag k="addr:street" v="West Road"/>
    <tag k="addr:state" v="VT"/>
    <tag k="ref:vcgi:esiteid" v="133300"/>
  </node>
  <node id="-141" visible="true" lat="43.559131151092" lon="-73.057321910131">
    <!-- conflict: "2832 West Road, West Rutland, VT" Fuzzy match to "2832 West Road, Ira, VT" -->
    <tag k="addr:city" v="West Rutland"/>
    <tag k="addr:housenumber" v="2832"/>
    <tag k="addr:street" v="West Road"/>
    <tag k="addr:state" v="VT"/>
    <tag k="ref:vcgi:esiteid" v="133301"/>
  </node>
  <node id="-142" visible="true" lat="43.558651954073" lon="-73.058354859726">
    <!-- conflict: "2768 West Road, West Rutland, VT" Fuzzy match to "2768 West Road, Ira, VT" -->
    <tag k="addr:city" v="West Rutland"/>
    <tag k="addr:housenumber" v="2768"/>
    <tag k="addr:street" v="West Road"/>
    <tag k="addr:state" v="VT"/>
    <tag k="ref:vcgi:esiteid" v="133302"/>
  </node>
  <node id="-143" visible="true" lat="43.558050246755" lon="-73.058269942236">
    <!-- conflict: "2740 West Road, West Rutland, VT" Fuzzy match to "2740 West Road, Ira, VT" -->
    <tag k="addr:city" v="West Rutland"/>
    <tag k="addr:housenumber" v="2740"/>
    <tag k="addr:street" v="West Road"/>
    <tag k="addr:state" v="VT"/>
    <tag k="ref:vcgi:esiteid" v="133303"/>
  </node>
  <node id="-144" visible="true" lat="43.557385587245" lon="-73.060886825171">
    <!-- conflict: "2616 West Road, West Rutland, VT" Fuzzy match to "2616 West Road, Ira, VT" -->
    <tag k="addr:city" v="West Rutland"/>
    <tag k="addr:housenumber" v="2616"/>
    <tag k="addr:street" v="West Road"/>
    <tag k="addr:state" v="VT"/>
    <tag k="ref:vcgi:esiteid" v="133304"/>
  </node>
  <node id="-145" visible="true" lat="43.557301767174" lon="-73.061166181497">
    <!-- conflict: "2598 West Road, West Rutland, VT" Fuzzy match to "2598 West Road, Ira, VT" -->
    <tag k="addr:city" v="West Rutland"/>
    <tag k="addr:housenumber" v="2598"/>
    <tag k="addr:street" v="West Road"/>
    <tag k="addr:state" v="VT"/>
    <tag k="ref:vcgi:esiteid" v="133305"/>
  </node>
  <node id="-146" visible="true" lat="43.556834296955" lon="-73.065318075648">
    <!-- conflict: "2361 West Road, West Rutland, VT" Fuzzy match to "2361 West Road, Ira, VT" -->
    <tag k="addr:city" v="West Rutland"/>
    <tag k="addr:housenumber" v="2361"/>
    <tag k="addr:street" v="West Road"/>
    <tag k="addr:state" v="VT"/>
    <tag k="ref:vcgi:esiteid" v="133306"/>
  </node>
  <node id="-147" visible="true" lat="43.555577522704" lon="-73.064156904727">
    <!-- conflict: "2402 West Road, West Rutland, VT" Fuzzy match to "2402 West Road, Ira, VT" -->
    <tag k="addr:city" v="West Rutland"/>
    <tag k="addr:housenumber" v="2402"/>
    <tag k="addr:street" v="West Road"/>
    <tag k="addr:state" v="VT"/>
    <tag k="ref:vcgi:esiteid" v="133307"/>
  </node>
  <node id="-148" visible="true" lat="43.555428614156" lon="-73.067621331585">
    <!-- conflict: "1102 Cross Road, West Rutland, VT" Fuzzy match to "1102 Cross Road, Ira, VT" -->
    <tag k="addr:city" v="West Rutland"/>
    <tag k="addr:housenumber" v="1102"/>
    <tag k="addr:street" v="Cross Road"/>
    <tag k="addr:state" v="VT"/>
    <tag k="ref:vcgi:esiteid" v="133308"/>
  </node>
  <node id="-149" visible="true" lat="43.554408335878" lon="-73.067703570197">
    <!-- conflict: "1069 Cross Road, West Rutland, VT" Fuzzy match to "1069 Cross Road, Ira, VT" -->
    <tag k="addr:city" v="West Rutland"/>
    <tag k="addr:housenumber" v="1069"/>
    <tag k="addr:street" v="Cross Road"/>
    <tag k="addr:state" v="VT"/>
    <tag k="ref:vcgi:esiteid" v="133309"/>
  </node>
  <node id="-150" visible="true" lat="43.554532517577" lon="-73.064759827669">
    <!-- conflict: "2330 West Road, West Rutland, VT" Fuzzy match to "2330 West Road, Ira, VT" -->
    <tag k="addr:city" v="West Rutland"/>
    <tag k="addr:housenumber" v="2330"/>
    <tag k="addr:street" v="West Road"/>
    <tag k="addr:state" v="VT"/>
    <tag k="ref:vcgi:esiteid" v="133310"/>
  </node>
  <node id="-151" visible="true" lat="43.553794955812" lon="-73.046859625511">
    <!-- conflict: "444 Pyka Road, West Rutland, VT" Fuzzy match to "444 Pyka Road, Ira, VT" -->
    <tag k="addr:city" v="West Rutland"/>
    <tag k="addr:housenumber" v="444"/>
    <tag k="addr:street" v="Pyka Road"/>
    <tag k="addr:state" v="VT"/>
    <tag k="ref:vcgi:esiteid" v="133311"/>
  </node>
  <node id="-152" visible="true" lat="43.553741943082" lon="-73.071184169299">
    <!-- conflict: "156 Days Road, West Rutland, VT" Fuzzy match to "156 Days Road, Ira, VT" -->
    <tag k="addr:city" v="West Rutland"/>
    <tag k="addr:housenumber" v="156"/>
    <tag k="addr:street" v="Days Road"/>
    <tag k="addr:state" v="VT"/>
    <tag k="ref:vcgi:esiteid" v="133312"/>
  </node>
  <node id="-153" visible="true" lat="43.552577154729" lon="-73.043566487659">
    <!-- conflict: "172 Pyka Road, West Rutland, VT" Fuzzy match to "172 Pyka Road, Ira, VT" -->
    <tag k="addr:city" v="West Rutland"/>
    <tag k="addr:housenumber" v="172"/>
    <tag k="addr:street" v="Pyka Road"/>
    <tag k="addr:state" v="VT"/>
    <tag k="ref:vcgi:esiteid" v="133313"/>
  </node>
  <node id="-154" visible="true" lat="43.55215599543" lon="-73.07236768821">
    <!-- conflict: "157 Days Road, West Rutland, VT" Fuzzy match to "157 Days Road, Ira, VT" -->
    <tag k="addr:city" v="West Rutland"/>
    <tag k="addr:housenumber" v="157"/>
    <tag k="addr:street" v="Days Road"/>
    <tag k="addr:state" v="VT"/>
    <tag k="ref:vcgi:esiteid" v="133314"/>
  </node>
  <node id="-155" visible="true" lat="43.552266470695" lon="-73.066580298618">
    <!-- conflict: "867 Cross Road, West Rutland, VT" Fuzzy match to "867 Cross Road, Ira, VT" -->
    <tag k="addr:city" v="West Rutland"/>
    <tag k="addr:housenumber" v="867"/>
    <tag k="addr:street" v="Cross Road"/>
    <tag k="addr:state" v="VT"/>
    <tag k="ref:vcgi:esiteid" v="133315"/>
  </node>
  <node id="-156" visible="true" lat="43.551438521169" lon="-73.056095845502">
    <!-- conflict: "338 Scotts Road, West Rutland, VT" Fuzzy match to "338 Scotts Road, Ira, VT" -->
    <tag k="addr:city" v="West Rutland"/>
    <tag k="addr:housenumber" v="338"/>
    <tag k="addr:street" v="Scotts Road"/>
    <tag k="addr:state" v="VT"/>
    <tag k="ref:vcgi:esiteid" v="133317"/>
  </node>
  <node id="-157" visible="true" lat="43.551430305543" lon="-73.040138070851">
    <!-- conflict: "58 Vermont Route 133, West Rutland, VT" Fuzzy match to "58 Vermont Route 133, Ira, VT" -->
    <tag k="addr:city" v="West Rutland"/>
    <tag k="addr:housenumber" v="58"/>
    <tag k="addr:street" v="Vermont Route 133"/>
    <tag k="addr:state" v="VT"/>
    <tag k="ref:vcgi:esiteid" v="133318"/>
  </node>
  <node id="-158" visible="true" lat="43.550855393429" lon="-73.069124790866">
    <!-- conflict: "1970 West Road, West Rutland, VT" Fuzzy match to "1970 West Road, Ira, VT" -->
    <tag k="addr:city" v="West Rutland"/>
    <tag k="addr:housenumber" v="1970"/>
    <tag k="addr:street" v="West Road"/>
    <tag k="addr:state" v="VT"/>
    <tag k="ref:vcgi:esiteid" v="133319"/>
  </node>
  <node id="-159" visible="true" lat="43.550357424251" lon="-73.041384236441">
    <!-- conflict: "150 Vermont Route 133, West Rutland, VT" Fuzzy match to "150 Vermont Route 133, Ira, VT" -->
    <tag k="addr:city" v="West Rutland"/>
    <tag k="addr:housenumber" v="150"/>
    <tag k="addr:street" v="Vermont Route 133"/>
    <tag k="addr:state" v="VT"/>
    <tag k="ref:vcgi:esiteid" v="133320"/>
  </node>
  <node id="-160" visible="true" lat="43.550474566859" lon="-73.039721293891">
    <!-- conflict: "171 Vermont Route 133, West Rutland, VT" Fuzzy match to "171 Vermont Route 133, Ira, VT" -->
    <tag k="addr:city" v="West Rutland"/>
    <tag k="addr:housenumber" v="171"/>
    <tag k="addr:street" v="Vermont Route 133"/>
    <tag k="addr:state" v="VT"/>
    <tag k="ref:vcgi:esiteid" v="133321"/>
  </node>
  <node id="-161" visible="true" lat="43.550016484113" lon="-73.061930805053">
    <!-- conflict: "864 Cross Road, West Rutland, VT" Fuzzy match to "864 Cross Road, Ira, VT" -->
    <tag k="addr:city" v="West Rutland"/>
    <tag k="addr:housenumber" v="864"/>
    <tag k="addr:street" v="Cross Road"/>
    <tag k="addr:state" v="VT"/>
    <tag k="ref:vcgi:esiteid" v="133322"/>
  </node>
  <node id="-162" visible="true" lat="43.549903183025" lon="-73.043928545887">
    <!-- conflict: "171 Pyka Road, West Rutland, VT" Fuzzy match to "171 Pyka Road, Ira, VT" -->
    <tag k="addr:city" v="West Rutland"/>
    <tag k="addr:housenumber" v="171"/>
    <tag k="addr:street" v="Pyka Road"/>
    <tag k="addr:state" v="VT"/>
    <tag k="ref:vcgi:esiteid" v="133323"/>
  </node>
  <node id="-163" visible="true" lat="43.549670638203" lon="-73.056931224549">
    <!-- conflict: "202 Scotts Road, West Rutland, VT" Fuzzy match to "202 Scotts Road, Ira, VT" -->
    <tag k="addr:city" v="West Rutland"/>
    <tag k="addr:housenumber" v="202"/>
    <tag k="addr:street" v="Scotts Road"/>
    <tag k="addr:state" v="VT"/>
    <tag k="ref:vcgi:esiteid" v="133324"/>
  </node>
  <node id="-164" visible="true" lat="43.549713230144" lon="-73.041799961676">
    <!-- conflict: "198 Vermont Route 133, West Rutland, VT" Fuzzy match to "198 Vermont Route 133, Ira, VT" -->
    <tag k="addr:city" v="West Rutland"/>
    <tag k="addr:housenumber" v="198"/>
    <tag k="addr:street" v="Vermont Route 133"/>
    <tag k="addr:state" v="VT"/>
    <tag k="ref:vcgi:esiteid" v="133325"/>
  </node>
  <node id="-165" visible="true" lat="43.549754370238" lon="-73.040445442754">
    <!-- conflict: "173 Vermont Route 133, West Rutland, VT" Fuzzy match to "173 Vermont Route 133, Ira, VT" -->
    <tag k="addr:city" v="West Rutland"/>
    <tag k="addr:housenumber" v="173"/>
    <tag k="addr:street" v="Vermont Route 133"/>
    <tag k="addr:state" v="VT"/>
    <tag k="ref:vcgi:esiteid" v="133326"/>
  </node>
  <node id="-166" visible="true" lat="43.549166154761" lon="-73.042157345673">
    <!-- conflict: "234 Vermont Route 133, West Rutland, VT" Fuzzy match to "234 Vermont Route 133, Ira, VT" -->
    <tag k="addr:city" v="West Rutland"/>
    <tag k="addr:housenumber" v="234"/>
    <tag k="addr:street" v="Vermont Route 133"/>
    <tag k="addr:state" v="VT"/>
    <tag k="ref:vcgi:esiteid" v="133327"/>
  </node>
  <node id="-167" visible="true" lat="43.54825679609" lon="-73.071325800857">
    <!-- conflict: "1766 West Road, West Rutland, VT" Fuzzy match to "1766 West Road, Ira, VT" -->
    <tag k="addr:city" v="West Rutland"/>
    <tag k="addr:housenumber" v="1766"/>
    <tag k="addr:street" v="West Road"/>
    <tag k="addr:state" v="VT"/>
    <tag k="ref:vcgi:esiteid" v="133328"/>
  </node>
  <node id="-168" visible="true" lat="43.548202845738" lon="-73.080343969754">
    <!-- conflict: "1375 West Road, West Rutland, VT" Fuzzy match to "1375 West Road, Ira, VT" -->
    <tag k="addr:city" v="West Rutland"/>
    <tag k="addr:housenumber" v="1375"/>
    <tag k="addr:street" v="West Road"/>
    <tag k="addr:state" v="VT"/>
    <tag k="ref:vcgi:esiteid" v="133329"/>
  </node>
  <node id="-169" visible="true" lat="43.548144135306" lon="-73.056939081084">
    <!-- conflict: "90 Scotts Road, West Rutland, VT" Fuzzy match to "90 Scotts Road, Ira, VT" -->
    <tag k="addr:city" v="West Rutland"/>
    <tag k="addr:housenumber" v="90"/>
    <tag k="addr:street" v="Scotts Road"/>
    <tag k="addr:state" v="VT"/>
    <tag k="ref:vcgi:esiteid" v="133330"/>
  </node>
  <node id="-170" visible="true" lat="43.547635677779" lon="-73.073670785711">
    <!-- conflict: "1633 West Road, West Rutland, VT" Fuzzy match to "1633 West Road, Ira, VT" -->
    <tag k="addr:city" v="West Rutland"/>
    <tag k="addr:housenumber" v="1633"/>
    <tag k="addr:street" v="West Road"/>
    <tag k="addr:state" v="VT"/>
    <tag k="ref:vcgi:esiteid" v="133331"/>
  </node>
  <node id="-171" visible="true" lat="43.547591876473" lon="-73.071475971789">
    <!-- conflict: "1728 West Road, West Rutland, VT" Fuzzy match to "1728 West Road, Ira, VT" -->
    <tag k="addr:city" v="West Rutland"/>
    <tag k="addr:housenumber" v="1728"/>
    <tag k="addr:street" v="West Road"/>
    <tag k="addr:state" v="VT"/>
    <tag k="ref:vcgi:esiteid" v="133332"/>
  </node>
  <node id="-172" visible="true" lat="43.547077448695" lon="-73.075999292697">
    <!-- conflict: "1516 West Road, West Rutland, VT" Fuzzy match to "1516 West Road, Ira, VT" -->
    <tag k="addr:city" v="West Rutland"/>
    <tag k="addr:housenumber" v="1516"/>
    <tag k="addr:street" v="West Road"/>
    <tag k="addr:state" v="VT"/>
    <tag k="ref:vcgi:esiteid" v="133333"/>
  </node>
  <node id="-173" visible="true" lat="43.546750872744" lon="-73.073627698815">
    <!-- conflict: "1636 West Road, West Rutland, VT" Fuzzy match to "1636 West Road, Ira, VT" -->
    <tag k="addr:city" v="West Rutland"/>
    <tag k="addr:housenumber" v="1636"/>
    <tag k="addr:street" v="West Road"/>
    <tag k="addr:state" v="VT"/>
    <tag k="ref:vcgi:esiteid" v="133334"/>
  </node>
  <node id="-174" visible="true" lat="43.546792369695" lon="-73.078355796539">
    <!-- conflict: "1385 West Road, West Rutland, VT" Fuzzy match to "1385 West Road, Ira, VT" -->
    <tag k="addr:city" v="West Rutland"/>
    <tag k="addr:housenumber" v="1385"/>
    <tag k="addr:street" v="West Road"/>
    <tag k="addr:state" v="VT"/>
    <tag k="ref:vcgi:esiteid" v="133335"/>
  </node>
  <node id="-175" visible="true" lat="43.546699600918" lon="-73.081991924258">
    <!-- conflict: "94 Middletown Hill Road, West Rutland, VT" Fuzzy match to "94 Middletown Hill Road, Ira, VT" -->
    <tag k="addr:city" v="West Rutland"/>
    <tag k="addr:housenumber" v="94"/>
    <tag k="addr:street" v="Middletown Hill Road"/>
    <tag k="addr:state" v="VT"/>
    <tag k="ref:vcgi:esiteid" v="133336"/>
  </node>
  <node id="-176" visible="true" lat="43.546286547807" lon="-73.078613313078">
    <!-- conflict: "1348 West Road, West Rutland, VT" Fuzzy match to "1348 West Road, Ira, VT" -->
    <tag k="addr:city" v="West Rutland"/>
    <tag k="addr:housenumber" v="1348"/>
    <tag k="addr:street" v="West Road"/>
    <tag k="addr:state" v="VT"/>
    <tag k="ref:vcgi:esiteid" v="133337"/>
  </node>
  <node id="-177" visible="true" lat="43.54624866665" lon="-73.08036372645">
    <!-- conflict: "1287 West Road, West Rutland, VT" Fuzzy match to "1287 West Road, Ira, VT" -->
    <tag k="addr:city" v="West Rutland"/>
    <tag k="addr:housenumber" v="1287"/>
    <tag k="addr:street" v="West Road"/>
    <tag k="addr:state" v="VT"/>
    <tag k="ref:vcgi:esiteid" v="133338"/>
  </node>
  <node id="-178" visible="true" lat="43.546207268068" lon="-73.045169240631">
    <!-- conflict: "500 Vermont Route 133, West Rutland, VT" Fuzzy match to "500 Vermont Route 133, Ira, VT" -->
    <tag k="addr:city" v="West Rutland"/>
    <tag k="addr:housenumber" v="500"/>
    <tag k="addr:street" v="Vermont Route 133"/>
    <tag k="addr:state" v="VT"/>
    <tag k="ref:vcgi:esiteid" v="133339"/>
  </node>
  <node id="-179" visible="true" lat="43.546196728669" lon="-73.055729486958">
    <!-- conflict: "228 Cross Road, West Rutland, VT" Fuzzy match to "228 Cross Road, Ira, VT" -->
    <tag k="addr:city" v="West Rutland"/>
    <tag k="addr:housenumber" v="228"/>
    <tag k="addr:street" v="Cross Road"/>
    <tag k="addr:state" v="VT"/>
    <tag k="ref:vcgi:esiteid" v="133340"/>
  </node>
  <node id="-180" visible="true" lat="43.545755109074" lon="-73.040482880417">
    <!-- conflict: "277 Weaver Hill Road, West Rutland, VT" Fuzzy match to "277 Weaver Hill Road, Ira, VT" -->
    <tag k="addr:city" v="West Rutland"/>
    <tag k="addr:housenumber" v="277"/>
    <tag k="addr:street" v="Weaver Hill Road"/>
    <tag k="addr:state" v="VT"/>
    <tag k="ref:vcgi:esiteid" v="133341"/>
  </node>
  <node id="-181" visible="true" lat="43.545342464612" lon="-73.057432812533">
    <!-- conflict: "195 Cross Road, West Rutland, VT" Fuzzy match to "195 Cross Road, Ira, VT" -->
    <tag k="addr:city" v="West Rutland"/>
    <tag k="addr:housenumber" v="195"/>
    <tag k="addr:street" v="Cross Road"/>
    <tag k="addr:state" v="VT"/>
    <tag k="ref:vcgi:esiteid" v="133342"/>
  </node>
  <node id="-182" visible="true" lat="43.545234289484" lon="-73.04517411449">
    <!-- conflict: "47 Weaver Hill Road, West Rutland, VT" Fuzzy match to "47 Weaver Hill Road, Ira, VT" -->
    <tag k="addr:city" v="West Rutland"/>
    <tag k="addr:housenumber" v="47"/>
    <tag k="addr:street" v="Weaver Hill Road"/>
    <tag k="addr:state" v="VT"/>
    <tag k="ref:vcgi:esiteid" v="133343"/>
  </node>
  <node id="-183" visible="true" lat="43.544986576824" lon="-73.041091546656">
    <!-- conflict: "242 Weaver Hill Road, West Rutland, VT" Fuzzy match to "242 Weaver Hill Road, Ira, VT" -->
    <tag k="addr:city" v="West Rutland"/>
    <tag k="addr:housenumber" v="242"/>
    <tag k="addr:street" v="Weaver Hill Road"/>
    <tag k="addr:state" v="VT"/>
    <tag k="ref:vcgi:esiteid" v="133344"/>
  </node>
  <node id="-184" visible="true" lat="43.544880016972" lon="-73.046133405505">
    <!-- conflict: "598 Vermont Route 133, West Rutland, VT" Fuzzy match to "598 Vermont Route 133, Ira, VT" -->
    <tag k="addr:city" v="West Rutland"/>
    <tag k="addr:housenumber" v="598"/>
    <tag k="addr:street" v="Vermont Route 133"/>
    <tag k="addr:state" v="VT"/>
    <tag k="ref:vcgi:esiteid" v="133345"/>
  </node>
  <node id="-185" visible="true" lat="43.544760781895" lon="-73.049886246046">
    <!-- conflict: "87 Kahle Road, West Rutland, VT" Fuzzy match to "87 Kahle Road, Ira, VT" -->
    <tag k="addr:city" v="West Rutland"/>
    <tag k="addr:housenumber" v="87"/>
    <tag k="addr:street" v="Kahle Road"/>
    <tag k="addr:state" v="VT"/>
    <tag k="ref:vcgi:esiteid" v="133346"/>
  </node>
  <node id="-186" visible="true" lat="43.544588920437" lon="-73.046645919447">
    <!-- conflict: "636 Vermont Route 133, West Rutland, VT" Fuzzy match to "636 Vermont Route 133, Ira, VT" -->
    <tag k="addr:city" v="West Rutland"/>
    <tag k="addr:housenumber" v="636"/>
    <tag k="addr:street" v="Vermont Route 133"/>
    <tag k="addr:state" v="VT"/>
    <tag k="ref:vcgi:esiteid" v="133347"/>
  </node>
  <node id="-187" visible="true" lat="43.54410153845" lon="-73.052086416097">
    <!-- conflict: "934 Vermont Route 133, West Rutland, VT" Fuzzy match to "934 Vermont Route 133, Ira, VT" -->
    <tag k="addr:city" v="West Rutland"/>
    <tag k="addr:housenumber" v="934"/>
    <tag k="addr:street" v="Vermont Route 133"/>
    <tag k="addr:state" v="VT"/>
    <tag k="ref:vcgi:esiteid" v="133348"/>
  </node>
  <node id="-188" visible="true" lat="43.544132525984" lon="-73.053312856746">
    <!-- conflict: "994 Vermont Route 133, West Rutland, VT" Fuzzy match to "994 Vermont Route 133, Ira, VT" -->
    <tag k="addr:city" v="West Rutland"/>
    <tag k="addr:housenumber" v="994"/>
    <tag k="addr:street" v="Vermont Route 133"/>
    <tag k="addr:state" v="VT"/>
    <tag k="ref:vcgi:esiteid" v="133349"/>
  </node>
  <node id="-189" visible="true" lat="43.544113618369" lon="-73.05000325393">
    <!-- conflict: "808 Vermont Route 133, West Rutland, VT" Fuzzy match to "808 Vermont Route 133, Ira, VT" -->
    <tag k="addr:city" v="West Rutland"/>
    <tag k="addr:housenumber" v="808"/>
    <tag k="addr:street" v="Vermont Route 133"/>
    <tag k="addr:state" v="VT"/>
    <tag k="ref:vcgi:esiteid" v="133350"/>
  </node>
  <node id="-190" visible="true" lat="43.544085716764" lon="-73.054008725411">
    <!-- conflict: "1016 Vermont Route 133, West Rutland, VT" Fuzzy match to "1016 Vermont Route 133, Ira, VT" -->
    <tag k="addr:city" v="West Rutland"/>
    <tag k="addr:housenumber" v="1016"/>
    <tag k="addr:street" v="Vermont Route 133"/>
    <tag k="addr:state" v="VT"/>
    <tag k="ref:vcgi:esiteid" v="133351"/>
  </node>
  <node id="-191" visible="true" lat="43.543973068161" lon="-73.047065296572">
    <!-- conflict: "685 Vermont Route 133, West Rutland, VT" Fuzzy match to "685 Vermont Route 133, Ira, VT" -->
    <tag k="addr:city" v="West Rutland"/>
    <tag k="addr:housenumber" v="685"/>
    <tag k="addr:street" v="Vermont Route 133"/>
    <tag k="addr:state" v="VT"/>
    <tag k="ref:vcgi:esiteid" v="133352"/>
  </node>
  <node id="-192" visible="true" lat="43.543795917187" lon="-73.052712934547">
    <!-- conflict: "941 Vermont Route 133, West Rutland, VT" Fuzzy match to "941 Vermont Route 133, Ira, VT" -->
    <tag k="addr:city" v="West Rutland"/>
    <tag k="addr:housenumber" v="941"/>
    <tag k="addr:street" v="Vermont Route 133"/>
    <tag k="addr:state" v="VT"/>
    <tag k="ref:vcgi:esiteid" v="133353"/>
  </node>
  <node id="-193" visible="true" lat="43.54363751871" lon="-73.051720986813">
    <!-- conflict: "907 Vermont Route 133, West Rutland, VT" Fuzzy match to "907 Vermont Route 133, Ira, VT" -->
    <tag k="addr:city" v="West Rutland"/>
    <tag k="addr:housenumber" v="907"/>
    <tag k="addr:street" v="Vermont Route 133"/>
    <tag k="addr:state" v="VT"/>
    <tag k="ref:vcgi:esiteid" v="133354"/>
  </node>
  <node id="-194" visible="true" lat="43.543711033086" lon="-73.050873674994">
    <!-- conflict: "859 Vermont Route 133, West Rutland, VT" Fuzzy match to "859 Vermont Route 133, Ira, VT" -->
    <tag k="addr:city" v="West Rutland"/>
    <tag k="addr:housenumber" v="859"/>
    <tag k="addr:street" v="Vermont Route 133"/>
    <tag k="addr:state" v="VT"/>
    <tag k="ref:vcgi:esiteid" v="133355"/>
  </node>
  <node id="-195" visible="true" lat="43.543795465171" lon="-73.053288362155">
    <!-- conflict: "981 Vermont Route 133, West Rutland, VT" Fuzzy match to "981 Vermont Route 133, Ira, VT" -->
    <tag k="addr:city" v="West Rutland"/>
    <tag k="addr:housenumber" v="981"/>
    <tag k="addr:street" v="Vermont Route 133"/>
    <tag k="addr:state" v="VT"/>
    <tag k="ref:vcgi:esiteid" v="133356"/>
  </node>
  <node id="-196" visible="true" lat="43.543730352691" lon="-73.050544230065">
    <!-- conflict: "851 Vermont Route 133, West Rutland, VT" Fuzzy match to "851 Vermont Route 133, Ira, VT" -->
    <tag k="addr:city" v="West Rutland"/>
    <tag k="addr:housenumber" v="851"/>
    <tag k="addr:street" v="Vermont Route 133"/>
    <tag k="addr:state" v="VT"/>
    <tag k="ref:vcgi:esiteid" v="133357"/>
  </node>
  <node id="-197" visible="true" lat="43.543702622542" lon="-73.054880748377">
    <!-- conflict: "1068 Vermont Route 133, West Rutland, VT" Fuzzy match to "1068 Vermont Route 133, Ira, VT" -->
    <tag k="addr:city" v="West Rutland"/>
    <tag k="addr:housenumber" v="1068"/>
    <tag k="addr:street" v="Vermont Route 133"/>
    <tag k="addr:state" v="VT"/>
    <tag k="ref:vcgi:esiteid" v="133358"/>
  </node>
  <node id="-198" visible="true" lat="43.543246980036" lon="-73.058753018315">
    <!-- conflict: "197 Cross Road, West Rutland, VT" Fuzzy match to "197 Cross Road, Ira, VT" -->
    <tag k="addr:city" v="West Rutland"/>
    <tag k="addr:housenumber" v="197"/>
    <tag k="addr:street" v="Cross Road"/>
    <tag k="addr:state" v="VT"/>
    <tag k="ref:vcgi:esiteid" v="133359"/>
  </node>
  <node id="-199" visible="true" lat="43.54292105172" lon="-73.076655899914">
    <!-- conflict: "1014 West Road, West Rutland, VT" Fuzzy match to "1014 West Road, Ira, VT" -->
    <tag k="addr:city" v="West Rutland"/>
    <tag k="addr:housenumber" v="1014"/>
    <tag k="addr:street" v="West Road"/>
    <tag k="addr:state" v="VT"/>
    <tag k="ref:vcgi:esiteid" v="133360"/>
  </node>
  <node id="-200" visible="true" lat="43.543033446331" lon="-73.055741396422">
    <!-- conflict: "5 Cross Road, West Rutland, VT" Fuzzy match to "5 Cross Road, Ira, VT" -->
    <tag k="addr:city" v="West Rutland"/>
    <tag k="addr:housenumber" v="5"/>
    <tag k="addr:street" v="Cross Road"/>
    <tag k="addr:state" v="VT"/>
    <tag k="ref:vcgi:esiteid" v="133361"/>
  </node>
  <node id="-201" visible="true" lat="43.542822782539" lon="-73.049403368437">
    <!-- conflict: "795 Vermont Route 133, West Rutland, VT" Fuzzy match to "795 Vermont Route 133, Ira, VT" -->
    <tag k="addr:city" v="West Rutland"/>
    <tag k="addr:housenumber" v="795"/>
    <tag k="addr:street" v="Vermont Route 133"/>
    <tag k="addr:state" v="VT"/>
    <tag k="ref:vcgi:esiteid" v="133362"/>
  </node>
  <node id="-202" visible="true" lat="43.542601684988" lon="-73.078754882283">
    <!-- conflict: "1101 West Road, West Rutland, VT" Fuzzy match to "1101 West Road, Ira, VT" -->
    <tag k="addr:city" v="West Rutland"/>
    <tag k="addr:housenumber" v="1101"/>
    <tag k="addr:street" v="West Road"/>
    <tag k="addr:state" v="VT"/>
    <tag k="ref:vcgi:esiteid" v="133363"/>
  </node>
  <node id="-203" visible="true" lat="43.542237140132" lon="-73.076438354013">
    <!-- conflict: "962 West Road, West Rutland, VT" Fuzzy match to "962 West Road, Ira, VT" -->
    <tag k="addr:city" v="West Rutland"/>
    <tag k="addr:housenumber" v="962"/>
    <tag k="addr:street" v="West Road"/>
    <tag k="addr:state" v="VT"/>
    <tag k="ref:vcgi:esiteid" v="133364"/>
  </node>
  <node id="-204" visible="true" lat="43.542307948099" lon="-73.055432192267">
    <!-- conflict: "1159 Vermont Route 133, West Rutland, VT" Fuzzy match to "1159 Vermont Route 133, Ira, VT" -->
    <tag k="addr:city" v="West Rutland"/>
    <tag k="addr:housenumber" v="1159"/>
    <tag k="addr:street" v="Vermont Route 133"/>
    <tag k="addr:state" v="VT"/>
    <tag k="ref:vcgi:esiteid" v="133365"/>
  </node>
  <node id="-205" visible="true" lat="43.542164762923" lon="-73.056087157427">
    <!-- conflict: "1186 Vermont Route 133, West Rutland, VT" Fuzzy match to "1186 Vermont Route 133, Ira, VT" -->
    <tag k="addr:city" v="West Rutland"/>
    <tag k="addr:housenumber" v="1186"/>
    <tag k="addr:street" v="Vermont Route 133"/>
    <tag k="addr:state" v="VT"/>
    <tag k="ref:vcgi:esiteid" v="133366"/>
  </node>
  <node id="-206" visible="true" lat="43.541905129073" lon="-73.052578695249">
    <!-- conflict: "797 Vermont Route 133, West Rutland, VT" Fuzzy match to "797 Vermont Route 133, Ira, VT" -->
    <tag k="addr:city" v="West Rutland"/>
    <tag k="addr:housenumber" v="797"/>
    <tag k="addr:street" v="Vermont Route 133"/>
    <tag k="addr:state" v="VT"/>
    <tag k="ref:vcgi:esiteid" v="133367"/>
  </node>
  <node id="-207" visible="true" lat="43.5409822296" lon="-73.05666638292">
    <!-- conflict: "1254 Vermont Route 133, West Rutland, VT" Fuzzy match to "1254 Vermont Route 133, Ira, VT" -->
    <tag k="addr:city" v="West Rutland"/>
    <tag k="addr:housenumber" v="1254"/>
    <tag k="addr:street" v="Vermont Route 133"/>
    <tag k="addr:state" v="VT"/>
    <tag k="ref:vcgi:esiteid" v="133368"/>
  </node>
  <node id="-208" visible="true" lat="43.540725148361" lon="-73.075940201834">
    <!-- conflict: "847 West Road, West Rutland, VT" Fuzzy match to "847 West Road, Ira, VT" -->
    <tag k="addr:city" v="West Rutland"/>
    <tag k="addr:housenumber" v="847"/>
    <tag k="addr:street" v="West Road"/>
    <tag k="addr:state" v="VT"/>
    <tag k="ref:vcgi:esiteid" v="133370"/>
  </node>
  <node id="-209" visible="true" lat="43.540297190854" lon="-73.059946246158">
    <!-- conflict: "162 Perry Lane, West Rutland, VT" Fuzzy match to "162 Perry Lane, Ira, VT" -->
    <tag k="addr:city" v="West Rutland"/>
    <tag k="addr:housenumber" v="162"/>
    <tag k="addr:street" v="Perry Lane"/>
    <tag k="addr:state" v="VT"/>
    <tag k="ref:vcgi:esiteid" v="133371"/>
  </node>
  <node id="-210" visible="true" lat="43.538273161739" lon="-73.058414528931">
    <!-- conflict: "1486 Vermont Route 133, West Rutland, VT" Fuzzy match to "1486 Vermont Route 133, Ira, VT" -->
    <tag k="addr:city" v="West Rutland"/>
    <tag k="addr:housenumber" v="1486"/>
    <tag k="addr:street" v="Vermont Route 133"/>
    <tag k="addr:state" v="VT"/>
    <tag k="ref:vcgi:esiteid" v="133372"/>
  </node>
  <node id="-211" visible="true" lat="43.537832669822" lon="-73.073998402702">
    <!-- conflict: "473 West Road, West Rutland, VT" Fuzzy match to "473 West Road, Ira, VT" -->
    <tag k="addr:city" v="West Rutland"/>
    <tag k="addr:housenumber" v="473"/>
    <tag k="addr:street" v="West Road"/>
    <tag k="addr:state" v="VT"/>
    <tag k="ref:vcgi:esiteid" v="133373"/>
  </node>
  <node id="-212" visible="true" lat="43.537795077057" lon="-73.077651785455">
    <!-- conflict: "271 Fish Hill Road, West Rutland, VT" Fuzzy match to "271 Fish Hill Road, Ira, VT" -->
    <tag k="addr:city" v="West Rutland"/>
    <tag k="addr:housenumber" v="271"/>
    <tag k="addr:street" v="Fish Hill Road"/>
    <tag k="addr:state" v="VT"/>
    <tag k="ref:vcgi:esiteid" v="133374"/>
  </node>
  <node id="-213" visible="true" lat="43.537717068261" lon="-73.059324386897">
    <!-- conflict: "1556 Vermont Route 133, West Rutland, VT" Fuzzy match to "1556 Vermont Route 133, Ira, VT" -->
    <tag k="addr:city" v="West Rutland"/>
    <tag k="addr:housenumber" v="1556"/>
    <tag k="addr:street" v="Vermont Route 133"/>
    <tag k="addr:state" v="VT"/>
    <tag k="ref:vcgi:esiteid" v="133375"/>
  </node>
  <node id="-214" visible="true" lat="43.5374719925" lon="-73.059489210608">
    <!-- conflict: "1564 Vermont Route 133, West Rutland, VT" Fuzzy match to "1564 Vermont Route 133, Ira, VT" -->
    <tag k="addr:city" v="West Rutland"/>
    <tag k="addr:housenumber" v="1564"/>
    <tag k="addr:street" v="Vermont Route 133"/>
    <tag k="addr:state" v="VT"/>
    <tag k="ref:vcgi:esiteid" v="133376"/>
  </node>
  <node id="-215" visible="true" lat="43.536664350012" lon="-73.07118815889">
    <!-- conflict: "471 West Road, West Rutland, VT" Fuzzy match to "471 West Road, Ira, VT" -->
    <tag k="addr:city" v="West Rutland"/>
    <tag k="addr:housenumber" v="471"/>
    <tag k="addr:street" v="West Road"/>
    <tag k="addr:state" v="VT"/>
    <tag k="ref:vcgi:esiteid" v="133377"/>
  </node>
  <node id="-216" visible="true" lat="43.536237728236" lon="-73.068729101616">
    <!-- conflict: "372 West Road, West Rutland, VT" Fuzzy match to "372 West Road, Ira, VT" -->
    <tag k="addr:city" v="West Rutland"/>
    <tag k="addr:housenumber" v="372"/>
    <tag k="addr:street" v="West Road"/>
    <tag k="addr:state" v="VT"/>
    <tag k="ref:vcgi:esiteid" v="133379"/>
  </node>
  <node id="-217" visible="true" lat="43.535852725382" lon="-73.061265324824">
    <!-- conflict: "1720 Vermont Route 133, West Rutland, VT" Fuzzy match to "1720 Vermont Route 133, Ira, VT" -->
    <tag k="addr:city" v="West Rutland"/>
    <tag k="addr:housenumber" v="1720"/>
    <tag k="addr:street" v="Vermont Route 133"/>
    <tag k="addr:state" v="VT"/>
    <tag k="ref:vcgi:esiteid" v="133380"/>
  </node>
  <node id="-218" visible="true" lat="43.534951874316" lon="-73.065863646082">
    <!-- conflict: "184 West Road, West Rutland, VT" Fuzzy match to "184 West Road, Ira, VT" -->
    <tag k="addr:city" v="West Rutland"/>
    <tag k="addr:housenumber" v="184"/>
    <tag k="addr:street" v="West Road"/>
    <tag k="addr:state" v="VT"/>
    <tag k="ref:vcgi:esiteid" v="133381"/>
  </node>
  <node id="-219" visible="true" lat="43.534606804937" lon="-73.068561563797">
    <!-- conflict: "46 Green Acres Lane, West Rutland, VT" Fuzzy match to "46 Green Acres Lane, Ira, VT" -->
    <tag k="addr:city" v="West Rutland"/>
    <tag k="addr:housenumber" v="46"/>
    <tag k="addr:street" v="Green Acres Lane"/>
    <tag k="addr:state" v="VT"/>
    <tag k="ref:vcgi:esiteid" v="133382"/>
  </node>
  <node id="-220" visible="true" lat="43.534436236295" lon="-73.063139877013">
    <!-- conflict: "1846 Vermont Route 133, West Rutland, VT" Fuzzy match to "1846 Vermont Route 133, Ira, VT" -->
    <tag k="addr:city" v="West Rutland"/>
    <tag k="addr:housenumber" v="1846"/>
    <tag k="addr:street" v="Vermont Route 133"/>
    <tag k="addr:state" v="VT"/>
    <tag k="ref:vcgi:esiteid" v="133383"/>
  </node>
  <node id="-221" visible="true" lat="43.5340807084" lon="-73.068588059201">
    <!-- conflict: "78 Green Acres Lane, West Rutland, VT" Fuzzy match to "78 Green Acres Lane, Ira, VT" -->
    <tag k="addr:city" v="West Rutland"/>
    <tag k="addr:housenumber" v="78"/>
    <tag k="addr:street" v="Green Acres Lane"/>
    <tag k="addr:state" v="VT"/>
    <tag k="ref:vcgi:esiteid" v="133384"/>
  </node>
  <node id="-222" visible="true" lat="43.533917246753" lon="-73.067475676632">
    <!-- conflict: "85 Green Acres Lane, West Rutland, VT" Fuzzy match to "85 Green Acres Lane, Ira, VT" -->
    <tag k="addr:city" v="West Rutland"/>
    <tag k="addr:housenumber" v="85"/>
    <tag k="addr:street" v="Green Acres Lane"/>
    <tag k="addr:state" v="VT"/>
    <tag k="ref:vcgi:esiteid" v="133385"/>
  </node>
  <node id="-223" visible="true" lat="43.533941411644" lon="-73.066486462199">
    <!-- conflict: "181 West Road, West Rutland, VT" Fuzzy match to "181 West Road, Ira, VT" -->
    <tag k="addr:city" v="West Rutland"/>
    <tag k="addr:housenumber" v="181"/>
    <tag k="addr:street" v="West Road"/>
    <tag k="addr:state" v="VT"/>
    <tag k="ref:vcgi:esiteid" v="133386"/>
  </node>
  <node id="-224" visible="true" lat="43.533215764017" lon="-73.06592692193">
    <!-- conflict: "173 West Road, West Rutland, VT" Fuzzy match to "173 West Road, Ira, VT" -->
    <tag k="addr:city" v="West Rutland"/>
    <tag k="addr:housenumber" v="173"/>
    <tag k="addr:street" v="West Road"/>
    <tag k="addr:state" v="VT"/>
    <tag k="ref:vcgi:esiteid" v="133387"/>
  </node>
  <node id="-225" visible="true" lat="43.53319990327" lon="-73.064414908966">
    <!-- conflict: "1948 Vermont Route 133, West Rutland, VT" Fuzzy match to "1948 Vermont Route 133, Ira, VT" -->
    <tag k="addr:city" v="West Rutland"/>
    <tag k="addr:housenumber" v="1948"/>
    <tag k="addr:street" v="Vermont Route 133"/>
    <tag k="addr:state" v="VT"/>
    <tag k="ref:vcgi:esiteid" v="133388"/>
  </node>
  <node id="-226" visible="true" lat="43.532961528086" lon="-73.06677125885">
    <!-- conflict: "134 Webster Road, West Rutland, VT" Fuzzy match to "134 Webster Road, Ira, VT" -->
    <tag k="addr:city" v="West Rutland"/>
    <tag k="addr:housenumber" v="134"/>
    <tag k="addr:street" v="Webster Road"/>
    <tag k="addr:state" v="VT"/>
    <tag k="ref:vcgi:esiteid" v="133389"/>
  </node>
  <node id="-227" visible="true" lat="43.532267558965" lon="-73.06684073695">
    <!-- conflict: "186 Webster Road, West Rutland, VT" Fuzzy match to "186 Webster Road, Ira, VT" -->
    <tag k="addr:city" v="West Rutland"/>
    <tag k="addr:housenumber" v="186"/>
    <tag k="addr:street" v="Webster Road"/>
    <tag k="addr:state" v="VT"/>
    <tag k="ref:vcgi:esiteid" v="133390"/>
  </node>
  <node id="-228" visible="true" lat="43.532128518299" lon="-73.064261816277">
    <!-- conflict: "2009 Vermont Route 133, West Rutland, VT" Fuzzy match to "2009 Vermont Route 133, Ira, VT" -->
    <tag k="addr:city" v="West Rutland"/>
    <tag k="addr:housenumber" v="2009"/>
    <tag k="addr:street" v="Vermont Route 133"/>
    <tag k="addr:state" v="VT"/>
    <tag k="ref:vcgi:esiteid" v="133391"/>
  </node>
  <node id="-229" visible="true" lat="43.531810572441" lon="-73.068726152954">
    <!-- conflict: "97 Green Acres Lane, West Rutland, VT" Fuzzy match to "97 Green Acres Lane, Ira, VT" -->
    <tag k="addr:city" v="West Rutland"/>
    <tag k="addr:housenumber" v="97"/>
    <tag k="addr:street" v="Green Acres Lane"/>
    <tag k="addr:state" v="VT"/>
    <tag k="ref:vcgi:esiteid" v="133392"/>
  </node>
  <node id="-230" visible="true" lat="43.530103914167" lon="-73.067582475013">
    <!-- conflict: "2228 Vermont Route 133, West Rutland, VT" Fuzzy match to "2228 Vermont Route 133, Ira, VT" -->
    <tag k="addr:city" v="West Rutland"/>
    <tag k="addr:housenumber" v="2228"/>
    <tag k="addr:street" v="Vermont Route 133"/>
    <tag k="addr:state" v="VT"/>
    <tag k="ref:vcgi:esiteid" v="133393"/>
  </node>
  <node id="-231" visible="true" lat="43.528285985667" lon="-73.069180841117">
    <!-- conflict: "2372 Vermont Route 133, West Rutland, VT" Fuzzy match to "2372 Vermont Route 133, Ira, VT" -->
    <tag k="addr:city" v="West Rutland"/>
    <tag k="addr:housenumber" v="2372"/>
    <tag k="addr:street" v="Vermont Route 133"/>
    <tag k="addr:state" v="VT"/>
    <tag k="ref:vcgi:esiteid" v="133394"/>
  </node>
  <node id="-232" visible="true" lat="43.526441224904" lon="-73.069144802031">
    <!-- conflict: "2489 Vermont Route 133, West Rutland, VT" Fuzzy match to "2489 Vermont Route 133, Ira, VT" -->
    <tag k="addr:city" v="West Rutland"/>
    <tag k="addr:housenumber" v="2489"/>
    <tag k="addr:street" v="Vermont Route 133"/>
    <tag k="addr:state" v="VT"/>
    <tag k="ref:vcgi:esiteid" v="133395"/>
  </node>
  <node id="-233" visible="true" lat="43.525218528378" lon="-73.070638420323">
    <!-- conflict: "2588 Vermont Route 133, West Rutland, VT" Fuzzy match to "2588 Vermont Route 133, Ira, VT" -->
    <tag k="addr:city" v="West Rutland"/>
    <tag k="addr:housenumber" v="2588"/>
    <tag k="addr:street" v="Vermont Route 133"/>
    <tag k="addr:state" v="VT"/>
    <tag k="ref:vcgi:esiteid" v="133397"/>
  </node>
  <node id="-234" visible="true" lat="43.524435014138" lon="-73.07129857532">
    <!-- conflict: "2650 Vermont Route 133, West Rutland, VT" Fuzzy match to "2650 Vermont Route 133, Ira, VT" -->
    <tag k="addr:city" v="West Rutland"/>
    <tag k="addr:housenumber" v="2650"/>
    <tag k="addr:street" v="Vermont Route 133"/>
    <tag k="addr:state" v="VT"/>
    <tag k="ref:vcgi:esiteid" v="133398"/>
  </node>
  <node id="-235" visible="true" lat="43.524264274984" lon="-73.082954467116">
    <!-- conflict: "771 Goodrich Road, West Rutland, VT" Fuzzy match to "771 Goodrich Road, Ira, VT" -->
    <tag k="addr:city" v="West Rutland"/>
    <tag k="addr:housenumber" v="771"/>
    <tag k="addr:street" v="Goodrich Road"/>
    <tag k="addr:state" v="VT"/>
    <tag k="ref:vcgi:esiteid" v="133399"/>
  </node>
  <node id="-236" visible="true" lat="43.524187456871" lon="-73.070542275463">
    <!-- conflict: "2659 Vermont Route 133, West Rutland, VT" Fuzzy match to "2659 Vermont Route 133, Ira, VT" -->
    <tag k="addr:city" v="West Rutland"/>
    <tag k="addr:housenumber" v="2659"/>
    <tag k="addr:street" v="Vermont Route 133"/>
    <tag k="addr:state" v="VT"/>
    <tag k="ref:vcgi:esiteid" v="133400"/>
  </node>
  <node id="-237" visible="true" lat="43.524104663118" lon="-73.075997847509">
    <!-- conflict: "396 Goodrich Road, West Rutland, VT" Fuzzy match to "396 Goodrich Road, Ira, VT" -->
    <tag k="addr:city" v="West Rutland"/>
    <tag k="addr:housenumber" v="396"/>
    <tag k="addr:street" v="Goodrich Road"/>
    <tag k="addr:state" v="VT"/>
    <tag k="ref:vcgi:esiteid" v="133401"/>
  </node>
  <node id="-238" visible="true" lat="43.523744373599" lon="-73.071265344001">
    <!-- conflict: "2706 Vermont Route 133, West Rutland, VT" Fuzzy match to "2706 Vermont Route 133, Ira, VT" -->
    <tag k="addr:city" v="West Rutland"/>
    <tag k="addr:housenumber" v="2706"/>
    <tag k="addr:street" v="Vermont Route 133"/>
    <tag k="addr:state" v="VT"/>
    <tag k="ref:vcgi:esiteid" v="133402"/>
  </node>
  <node id="-239" visible="true" lat="43.523391742502" lon="-73.077930556462">
    <!-- conflict: "333 Goodrich Road, West Rutland, VT" Fuzzy match to "333 Goodrich Road, Ira, VT" -->
    <tag k="addr:city" v="West Rutland"/>
    <tag k="addr:housenumber" v="333"/>
    <tag k="addr:street" v="Goodrich Road"/>
    <tag k="addr:state" v="VT"/>
    <tag k="ref:vcgi:esiteid" v="133403"/>
  </node>
  <node id="-240" visible="true" lat="43.522953006592" lon="-73.075799101075">
    <!-- conflict: "283 Goodrich Road, West Rutland, VT" Fuzzy match to "283 Goodrich Road, Ira, VT" -->
    <tag k="addr:city" v="West Rutland"/>
    <tag k="addr:housenumber" v="283"/>
    <tag k="addr:street" v="Goodrich Road"/>
    <tag k="addr:state" v="VT"/>
    <tag k="ref:vcgi:esiteid" v="133404"/>
  </node>
  <node id="-241" visible="true" lat="43.522382509477" lon="-73.078984350258">
    <!-- conflict: "297 Goodrich Road, West Rutland, VT" Fuzzy match to "297 Goodrich Road, Ira, VT" -->
    <tag k="addr:city" v="West Rutland"/>
    <tag k="addr:housenumber" v="297"/>
    <tag k="addr:street" v="Goodrich Road"/>
    <tag k="addr:state" v="VT"/>
    <tag k="ref:vcgi:esiteid" v="133405"/>
  </node>
  <node id="-242" visible="true" lat="43.522298035854" lon="-73.071486744636">
    <!-- conflict: "2792 Vermont Route 133, West Rutland, VT" Fuzzy match to "2792 Vermont Route 133, Ira, VT" -->
    <tag k="addr:city" v="West Rutland"/>
    <tag k="addr:housenumber" v="2792"/>
    <tag k="addr:street" v="Vermont Route 133"/>
    <tag k="addr:state" v="VT"/>
    <tag k="ref:vcgi:esiteid" v="133406"/>
  </node>
  <node id="-243" visible="true" lat="43.521821691593" lon="-73.076340088305">
    <!-- conflict: "291 Goodrich Road, West Rutland, VT" Fuzzy match to "291 Goodrich Road, Ira, VT" -->
    <tag k="addr:city" v="West Rutland"/>
    <tag k="addr:housenumber" v="291"/>
    <tag k="addr:street" v="Goodrich Road"/>
    <tag k="addr:state" v="VT"/>
    <tag k="ref:vcgi:esiteid" v="133407"/>
  </node>
  <node id="-244" visible="true" lat="43.518605237351" lon="-73.065811315728">
    <!-- conflict: "462 Toppin Road, West Rutland, VT" Fuzzy match to "462 Toppin Road, Ira, VT" -->
    <tag k="addr:city" v="West Rutland"/>
    <tag k="addr:housenumber" v="462"/>
    <tag k="addr:street" v="Toppin Road"/>
    <tag k="addr:state" v="VT"/>
    <tag k="ref:vcgi:esiteid" v="133408"/>
  </node>
  <node id="-245" visible="true" lat="43.518372773927" lon="-73.071771039715">
    <!-- conflict: "3066 Vermont Route 133, West Rutland, VT" Fuzzy match to "3066 Vermont Route 133, Ira, VT" -->
    <tag k="addr:city" v="West Rutland"/>
    <tag k="addr:housenumber" v="3066"/>
    <tag k="addr:street" v="Vermont Route 133"/>
    <tag k="addr:state" v="VT"/>
    <tag k="ref:vcgi:esiteid" v="133409"/>
  </node>
  <node id="-246" visible="true" lat="43.517637968878" lon="-73.065354587618">
    <!-- conflict: "504 Toppin Road, West Rutland, VT" Fuzzy match to "504 Toppin Road, Ira, VT" -->
    <tag k="addr:city" v="West Rutland"/>
    <tag k="addr:housenumber" v="504"/>
    <tag k="addr:street" v="Toppin Road"/>
    <tag k="addr:state" v="VT"/>
    <tag k="ref:vcgi:esiteid" v="133410"/>
  </node>
  <node id="-247" visible="true" lat="43.517360234539" lon="-73.063191432346">
    <!-- conflict: "509 Toppin Road, West Rutland, VT" Fuzzy match to "509 Toppin Road, Ira, VT" -->
    <tag k="addr:city" v="West Rutland"/>
    <tag k="addr:housenumber" v="509"/>
    <tag k="addr:street" v="Toppin Road"/>
    <tag k="addr:state" v="VT"/>
    <tag k="ref:vcgi:esiteid" v="133411"/>
  </node>
  <node id="-248" visible="true" lat="43.515658321609" lon="-73.073160453294">
    <!-- conflict: "3292 Vermont Route 133, West Rutland, VT" Fuzzy match to "3292 Vermont Route 133, Ira, VT" -->
    <tag k="addr:city" v="West Rutland"/>
    <tag k="addr:housenumber" v="3292"/>
    <tag k="addr:street" v="Vermont Route 133"/>
    <tag k="addr:state" v="VT"/>
    <tag k="ref:vcgi:esiteid" v="133412"/>
  </node>
  <node id="-249" visible="true" lat="43.515204419232" lon="-73.072100538107">
    <!-- conflict: "3279 Vermont Route 133, West Rutland, VT" Fuzzy match to "3279 Vermont Route 133, Ira, VT" -->
    <tag k="addr:city" v="West Rutland"/>
    <tag k="addr:housenumber" v="3279"/>
    <tag k="addr:street" v="Vermont Route 133"/>
    <tag k="addr:state" v="VT"/>
    <tag k="ref:vcgi:esiteid" v="133413"/>
  </node>
  <node id="-250" visible="true" lat="43.515017259553" lon="-73.073570252884">
    <!-- conflict: "3316 Vermont Route 133, West Rutland, VT" Fuzzy match to "3316 Vermont Route 133, Ira, VT" -->
    <tag k="addr:city" v="West Rutland"/>
    <tag k="addr:housenumber" v="3316"/>
    <tag k="addr:street" v="Vermont Route 133"/>
    <tag k="addr:state" v="VT"/>
    <tag k="ref:vcgi:esiteid" v="133414"/>
  </node>
  <node id="-251" visible="true" lat="43.513861356221" lon="-73.073684701548">
    <!-- conflict: "3410 Vermont Route 133, West Rutland, VT" Fuzzy match to "3410 Vermont Route 133, Ira, VT" -->
    <tag k="addr:city" v="West Rutland"/>
    <tag k="addr:housenumber" v="3410"/>
    <tag k="addr:street" v="Vermont Route 133"/>
    <tag k="addr:state" v="VT"/>
    <tag k="ref:vcgi:esiteid" v="133415"/>
  </node>
  <node id="-252" visible="true" lat="43.511561592124" lon="-73.073902422872">
    <!-- conflict: "3566 Vermont Route 133, West Rutland, VT" Fuzzy match to "3566 Vermont Route 133, Ira, VT" -->
    <tag k="addr:city" v="West Rutland"/>
    <tag k="addr:housenumber" v="3566"/>
    <tag k="addr:street" v="Vermont Route 133"/>
    <tag k="addr:state" v="VT"/>
    <tag k="ref:vcgi:esiteid" v="133416"/>
  </node>
  <node id="-253" visible="true" lat="43.510060238913" lon="-73.073387980094">
    <!-- conflict: "3661 Vermont Route 133, West Rutland, VT" Fuzzy match to "3661 Vermont Route 133, Ira, VT" -->
    <tag k="addr:city" v="West Rutland"/>
    <tag k="addr:housenumber" v="3661"/>
    <tag k="addr:street" v="Vermont Route 133"/>
    <tag k="addr:state" v="VT"/>
    <tag k="ref:vcgi:esiteid" v="133417"/>
  </node>
  <node id="-254" visible="true" lat="43.507307471769" lon="-73.076847506936">
    <!-- conflict: "3900 Vermont Route 133, West Rutland, VT" Fuzzy match to "3900 Vermont Route 133, Ira, VT" -->
    <tag k="addr:city" v="West Rutland"/>
    <tag k="addr:housenumber" v="3900"/>
    <tag k="addr:street" v="Vermont Route 133"/>
    <tag k="addr:state" v="VT"/>
    <tag k="ref:vcgi:esiteid" v="133418"/>
  </node>
  <node id="-255" visible="true" lat="43.500132060815" lon="-73.079545324658">
    <!-- conflict: "4441 Vermont Route 133, West Rutland, VT" Fuzzy match to "4441 Vermont Route 133, Ira, VT" -->
    <tag k="addr:city" v="West Rutland"/>
    <tag k="addr:housenumber" v="4441"/>
    <tag k="addr:street" v="Vermont Route 133"/>
    <tag k="addr:state" v="VT"/>
    <tag k="ref:vcgi:esiteid" v="133419"/>
  </node>
  <node id="-256" visible="true" lat="43.500306688341" lon="-73.080267967096">
    <!-- conflict: "4444 Vermont Route 133, West Rutland, VT" Fuzzy match to "4444 Vermont Route 133, Ira, VT" -->
    <tag k="addr:city" v="West Rutland"/>
    <tag k="addr:housenumber" v="4444"/>
    <tag k="addr:street" v="Vermont Route 133"/>
    <tag k="addr:state" v="VT"/>
    <tag k="ref:vcgi:esiteid" v="133420"/>
  </node>
  <node id="-257" visible="true" lat="43.498760380834" lon="-73.079336610568">
    <!-- conflict: "4545 Vermont Route 133, West Rutland, VT" Fuzzy match to "4545 Vermont Route 133, Ira, VT" -->
    <tag k="addr:city" v="West Rutland"/>
    <tag k="addr:housenumber" v="4545"/>
    <tag k="addr:street" v="Vermont Route 133"/>
    <tag k="addr:state" v="VT"/>
    <tag k="ref:vcgi:esiteid" v="133421"/>
  </node>
  <node id="-258" visible="true" lat="43.496174593413" lon="-73.080074371075">
    <!-- conflict: "4726 Vermont Route 133, West Rutland, VT" Fuzzy match to "4726 Vermont Route 133, Ira, VT" -->
    <tag k="addr:city" v="West Rutland"/>
    <tag k="addr:housenumber" v="4726"/>
    <tag k="addr:street" v="Vermont Route 133"/>
    <tag k="addr:state" v="VT"/>
    <tag k="ref:vcgi:esiteid" v="133422"/>
  </node>
  <node id="-259" visible="true" lat="43.541474538638" lon="-73.075916874828">
    <!-- conflict: "892 West Road, West Rutland, VT" Fuzzy match to "892 West Road, Ira, VT" -->
    <tag k="addr:city" v="West Rutland"/>
    <tag k="addr:housenumber" v="892"/>
    <tag k="addr:street" v="West Road"/>
    <tag k="addr:state" v="VT"/>
    <tag k="ref:vcgi:esiteid" v="133423"/>
  </node>
  <node id="-260" visible="true" lat="43.549988992173" lon="-73.042153722345">
    <!-- conflict: "33 Pyka Road, West Rutland, VT" Fuzzy match to "33 Pyka Road, Ira, VT" -->
    <tag k="addr:city" v="West Rutland"/>
    <tag k="addr:housenumber" v="33"/>
    <tag k="addr:street" v="Pyka Road"/>
    <tag k="addr:state" v="VT"/>
    <tag k="ref:vcgi:esiteid" v="133424"/>
  </node>
  <node id="-261" visible="true" lat="43.540596581142" lon="-73.061861613287">
    <!-- conflict: "268 Perry Lane, West Rutland, VT" Fuzzy match to "268 Perry Lane, Ira, VT" -->
    <tag k="addr:city" v="West Rutland"/>
    <tag k="addr:housenumber" v="268"/>
    <tag k="addr:street" v="Perry Lane"/>
    <tag k="addr:state" v="VT"/>
    <tag k="ref:vcgi:esiteid" v="133425"/>
  </node>
  <node id="-262" visible="true" lat="43.534417501449" lon="-73.063560451521">
    <!-- conflict: "51 West Road, West Rutland, VT" Fuzzy match to "51 West Road, Ira, VT" -->
    <tag k="addr:city" v="West Rutland"/>
    <tag k="addr:housenumber" v="51"/>
    <tag k="addr:street" v="West Road"/>
    <tag k="addr:state" v="VT"/>
    <tag k="ref:vcgi:esiteid" v="133426"/>
  </node>
  <node id="-263" visible="true" lat="43.522919779614" lon="-73.07446708688">
    <!-- conflict: "241 Goodrich Road, West Rutland, VT" Fuzzy match to "241 Goodrich Road, Ira, VT" -->
    <tag k="addr:city" v="West Rutland"/>
    <tag k="addr:housenumber" v="241"/>
    <tag k="addr:street" v="Goodrich Road"/>
    <tag k="addr:state" v="VT"/>
    <tag k="ref:vcgi:esiteid" v="133427"/>
  </node>
  <node id="-264" visible="true" lat="43.502039463449" lon="-73.077709803373">
    <!-- conflict: "4249 Vermont Route 133, West Rutland, VT" Fuzzy match to "4249 Vermont Route 133, Ira, VT" -->
    <tag k="addr:city" v="West Rutland"/>
    <tag k="addr:housenumber" v="4249"/>
    <tag k="addr:street" v="Vermont Route 133"/>
    <tag k="addr:state" v="VT"/>
    <tag k="ref:vcgi:esiteid" v="133428"/>
  </node>
  <node id="-265" visible="true" lat="43.569189293632" lon="-73.052376116541">
    <!-- conflict: "251 Sunrise Place, West Rutland, VT" Fuzzy match to "251 Sunrise Place, Ira, VT" -->
    <tag k="addr:city" v="West Rutland"/>
    <tag k="addr:housenumber" v="251"/>
    <tag k="addr:street" v="Sunrise Place"/>
    <tag k="addr:state" v="VT"/>
    <tag k="ref:vcgi:esiteid" v="133429"/>
  </node>
  <node id="-266" visible="true" lat="43.568748801741" lon="-73.05104344099">
    <!-- conflict: "121 Sunrise Place, West Rutland, VT" Fuzzy match to "121 Sunrise Place, Ira, VT" -->
    <tag k="addr:city" v="West Rutland"/>
    <tag k="addr:housenumber" v="121"/>
    <tag k="addr:street" v="Sunrise Place"/>
    <tag k="addr:state" v="VT"/>
    <tag k="ref:vcgi:esiteid" v="133430"/>
  </node>
  <node id="-267" visible="true" lat="43.510344721256" lon="-73.079097500356">
    <!-- conflict: "3400 Vermont Route 133, West Rutland, VT" Fuzzy match to "3400 Vermont Route 133, Ira, VT" -->
    <tag k="addr:city" v="West Rutland"/>
    <tag k="addr:housenumber" v="3400"/>
    <tag k="addr:street" v="Vermont Route 133"/>
    <tag k="addr:state" v="VT"/>
    <tag k="ref:vcgi:esiteid" v="133431"/>
  </node>
  <node id="-268" visible="true" lat="43.512943793927" lon="-73.073076251133">
    <!-- conflict: "3491 Vermont Route 133, West Rutland, VT" Fuzzy match to "3491 Vermont Route 133, Ira, VT" -->
    <tag k="addr:city" v="West Rutland"/>
    <tag k="addr:housenumber" v="3491"/>
    <tag k="addr:street" v="Vermont Route 133"/>
    <tag k="addr:state" v="VT"/>
    <tag k="ref:vcgi:esiteid" v="133432"/>
  </node>
  <node id="-269" visible="true" lat="43.540280218143" lon="-73.062600883439">
    <!-- conflict: "271 Perry Lane, West Rutland, VT" Fuzzy match to "271 Perry Lane, Ira, VT" -->
    <tag k="addr:city" v="West Rutland"/>
    <tag k="addr:housenumber" v="271"/>
    <tag k="addr:street" v="Perry Lane"/>
    <tag k="addr:state" v="VT"/>
    <tag k="ref:vcgi:esiteid" v="133433"/>
  </node>
  <node id="-270" visible="true" lat="43.536328848192" lon="-73.067946909153">
    <!-- conflict: "336 West Road, West Rutland, VT" Fuzzy match to "336 West Road, Ira, VT" -->
    <tag k="addr:city" v="West Rutland"/>
    <tag k="addr:housenumber" v="336"/>
    <tag k="addr:street" v="West Road"/>
    <tag k="addr:state" v="VT"/>
    <tag k="ref:vcgi:esiteid" v="133434"/>
  </node>
  <node id="-271" visible="true" lat="43.570218344597" lon="-73.052298076482">
    <!-- conflict: "240 Sunrise Place, West Rutland, VT" Fuzzy match to "240 Sunrise Place, Ira, VT" -->
    <tag k="addr:city" v="West Rutland"/>
    <tag k="addr:housenumber" v="240"/>
    <tag k="addr:street" v="Sunrise Place"/>
    <tag k="addr:state" v="VT"/>
    <tag k="ref:vcgi:esiteid" v="133436"/>
  </node>
  <node id="-272" visible="true" lat="43.534768533795" lon="-73.062461361424">
    <!-- conflict: "1800 Vermont Route 133, West Rutland, VT" Fuzzy match to "1800 Vermont Route 133, Ira, VT" -->
    <tag k="addr:city" v="West Rutland"/>
    <tag k="addr:housenumber" v="1800"/>
    <tag k="addr:street" v="Vermont Route 133"/>
    <tag k="addr:state" v="VT"/>
    <tag k="ref:vcgi:esiteid" v="133437"/>
  </node>
  <node id="-273" visible="true" lat="43.54975236198" lon="-73.055420131707">
    <!-- conflict: "100 Scotts Road, West Rutland, VT" Fuzzy match to "100 Scotts Road, Ira, VT" -->
    <tag k="addr:city" v="West Rutland"/>
    <tag k="addr:housenumber" v="100"/>
    <tag k="addr:street" v="Scotts Road"/>
    <tag k="addr:state" v="VT"/>
    <tag k="ref:vcgi:esiteid" v="133438"/>
  </node>
  <node id="-274" visible="true" lat="43.535040628251" lon="-73.07064497316">
    <!-- conflict: "373 West Road, West Rutland, VT" Fuzzy match to "373 West Road, Ira, VT" -->
    <tag k="addr:city" v="West Rutland"/>
    <tag k="addr:housenumber" v="373"/>
    <tag k="addr:street" v="West Road"/>
    <tag k="addr:state" v="VT"/>
    <tag k="ref:vcgi:esiteid" v="133439"/>
  </node>
  <node id="-275" visible="true" lat="43.607894502629" lon="-73.096254040382">
    <!-- conflict: "446 Blue Star Drive, Castleton, VT" Fuzzy match to "446 Blue Star Drive, Ira, VT" -->
    <tag k="addr:city" v="Castleton"/>
    <tag k="addr:housenumber" v="446"/>
    <tag k="addr:street" v="Blue Star Drive"/>
    <tag k="addr:state" v="VT"/>
    <tag k="ref:vcgi:esiteid" v="133440"/>
  </node>
  <node id="-276" visible="true" lat="43.535180819056" lon="-73.06679939808">
    <!-- conflict: "238 West Road, West Rutland, VT" Fuzzy match to "238 West Road, Ira, VT" -->
    <tag k="addr:city" v="West Rutland"/>
    <tag k="addr:housenumber" v="238"/>
    <tag k="addr:street" v="West Road"/>
    <tag k="addr:state" v="VT"/>
    <tag k="ref:vcgi:esiteid" v="305911"/>
  </node>
  <node id="-277" visible="true" lat="43.608677254526" lon="-73.108314753061">
    <!-- conflict: "1087 Blue Star Drive, Castleton, VT" Fuzzy match to "1087 Blue Star Drive, Ira, VT" -->
    <tag k="addr:city" v="Castleton"/>
    <tag k="addr:housenumber" v="1087"/>
    <tag k="addr:street" v="Blue Star Drive"/>
    <tag k="addr:state" v="VT"/>
    <tag k="ref:vcgi:esiteid" v="307740"/>
  </node>
  <node id="-278" visible="true" lat="43.556750830735" lon="-73.044212682661">
    <!-- conflict: "2 Vermont Route 133, West Rutland, VT" Fuzzy match to "2 Vermont Route 133, Ira, VT" -->
    <tag k="addr:city" v="West Rutland"/>
    <tag k="addr:housenumber" v="2"/>
    <tag k="addr:street" v="Vermont Route 133"/>
    <tag k="addr:state" v="VT"/>
    <tag k="ref:vcgi:esiteid" v="307742"/>
  </node>
  <node id="-279" visible="true" lat="43.52218258909" lon="-73.070872431011">
    <!-- conflict: "2793 Vermont Route 133, West Rutland, VT" Fuzzy match to "2793 Vermont Route 133, Ira, VT" -->
    <tag k="addr:city" v="West Rutland"/>
    <tag k="addr:housenumber" v="2793"/>
    <tag k="addr:street" v="Vermont Route 133"/>
    <tag k="addr:state" v="VT"/>
    <tag k="ref:vcgi:esiteid" v="307744"/>
  </node>
  <node id="-280" visible="true" lat="43.514495783377" lon="-73.072648380614">
    <!-- conflict: "3399 Vermont Route 133, West Rutland, VT" Fuzzy match to "3399 Vermont Route 133, Ira, VT" -->
    <tag k="addr:city" v="West Rutland"/>
    <tag k="addr:housenumber" v="3399"/>
    <tag k="addr:street" v="Vermont Route 133"/>
    <tag k="addr:state" v="VT"/>
    <tag k="ref:vcgi:esiteid" v="307745"/>
  </node>
  <node id="-281" visible="true" lat="43.523153829086" lon="-73.065109593578">
    <!-- conflict: "299 Toppin Road, West Rutland, VT" Fuzzy match to "299 Toppin Road, Ira, VT" -->
    <tag k="addr:city" v="West Rutland"/>
    <tag k="addr:housenumber" v="299"/>
    <tag k="addr:street" v="Toppin Road"/>
    <tag k="addr:state" v="VT"/>
    <tag k="ref:vcgi:esiteid" v="307747"/>
  </node>
  <node id="-282" visible="true" lat="43.519398980468" lon="-73.063799924689">
    <!-- conflict: "417 Toppin Road, West Rutland, VT" Fuzzy match to "417 Toppin Road, Ira, VT" -->
    <tag k="addr:city" v="West Rutland"/>
    <tag k="addr:housenumber" v="417"/>
    <tag k="addr:street" v="Toppin Road"/>
    <tag k="addr:state" v="VT"/>
    <tag k="ref:vcgi:esiteid" v="307748"/>
  </node>
  <node id="-283" visible="true" lat="43.548850972749" lon="-73.068699798534">
    <!-- conflict: "1964 West Road, West Rutland, VT" Fuzzy match to "1964 West Road, Ira, VT" -->
    <tag k="addr:city" v="West Rutland"/>
    <tag k="addr:housenumber" v="1964"/>
    <tag k="addr:street" v="West Road"/>
    <tag k="addr:state" v="VT"/>
    <tag k="ref:vcgi:esiteid" v="307749"/>
  </node>
  <node id="-284" visible="true" lat="43.525141471554" lon="-73.070009315247">
    <!-- conflict: "2583 Vermont Route 133, West Rutland, VT" Fuzzy match to "2583 Vermont Route 133, Ira, VT" -->
    <tag k="addr:city" v="West Rutland"/>
    <tag k="addr:housenumber" v="2583"/>
    <tag k="addr:street" v="Vermont Route 133"/>
    <tag k="addr:state" v="VT"/>
    <tag k="ref:vcgi:esiteid" v="314350"/>
  </node>
  <node id="-285" visible="true" lat="43.523887971247" lon="-73.080115886393">
    <!-- conflict: "591 Goodrich Road, West Rutland, VT" Fuzzy match to "591 Goodrich Road, Ira, VT" -->
    <tag k="addr:city" v="West Rutland"/>
    <tag k="addr:housenumber" v="591"/>
    <tag k="addr:street" v="Goodrich Road"/>
    <tag k="addr:state" v="VT"/>
    <tag k="ref:vcgi:esiteid" v="327465"/>
  </node>
  <node id="-286" visible="true" lat="43.500972994119" lon="-73.077068115802">
    <!-- conflict: "4251 Vermont Route 133, West Rutland, VT" Fuzzy match to "4251 Vermont Route 133, Ira, VT" -->
    <tag k="addr:city" v="West Rutland"/>
    <tag k="addr:housenumber" v="4251"/>
    <tag k="addr:street" v="Vermont Route 133"/>
    <tag k="addr:state" v="VT"/>
    <tag k="ref:vcgi:esiteid" v="328298"/>
  </node>
  <node id="-287" visible="true" lat="43.608432991307" lon="-73.096350531373">
    <!-- conflict: "448 Blue Star Drive, Castleton, VT" Fuzzy match to "448 Blue Star Drive, Ira, VT" -->
    <tag k="addr:city" v="Castleton"/>
    <tag k="addr:housenumber" v="448"/>
    <tag k="addr:street" v="Blue Star Drive"/>
    <tag k="addr:state" v="VT"/>
    <tag k="ref:vcgi:esiteid" v="331615"/>
  </node>
  <node id="-288" visible="true" lat="43.547439919463" lon="-73.079741298905">
    <!-- conflict: "1371 West Road, West Rutland, VT" Fuzzy match to "1371 West Road, Ira, VT" -->
    <tag k="addr:city" v="West Rutland"/>
    <tag k="addr:housenumber" v="1371"/>
    <tag k="addr:street" v="West Road"/>
    <tag k="addr:state" v="VT"/>
    <tag k="ref:vcgi:esiteid" v="332127"/>
  </node>
  <node id="-289" visible="true" lat="43.558016096196" lon="-73.062028163587">
    <!-- conflict: "2599 West Road, West Rutland, VT" Fuzzy match to "2599 West Road, Ira, VT" -->
    <tag k="addr:city" v="West Rutland"/>
    <tag k="addr:housenumber" v="2599"/>
    <tag k="addr:street" v="West Road"/>
    <tag k="addr:state" v="VT"/>
    <tag k="ref:vcgi:esiteid" v="336178"/>
  </node>
  <node id="-290" visible="true" lat="43.512742302058" lon="-73.07427111681">
    <!-- conflict: "3494 Vermont Route 133, West Rutland, VT" Fuzzy match to "3494 Vermont Route 133, Ira, VT" -->
    <tag k="addr:city" v="West Rutland"/>
    <tag k="addr:housenumber" v="3494"/>
    <tag k="addr:street" v="Vermont Route 133"/>
    <tag k="addr:state" v="VT"/>
    <tag k="ref:vcgi:esiteid" v="336179"/>
  </node>
  <node id="-291" visible="true" lat="43.537120730698" lon="-73.06348912559">
    <!-- conflict: "1640 Vermont Route 133, West Rutland, VT" Fuzzy match to "1640 Vermont Route 133, Ira, VT" -->
    <tag k="addr:city" v="West Rutland"/>
    <tag k="addr:housenumber" v="1640"/>
    <tag k="addr:street" v="Vermont Route 133"/>
    <tag k="addr:state" v="VT"/>
    <tag k="ref:vcgi:esiteid" v="337258"/>
  </node>
  <node id="-292" visible="true" lat="43.534308661436" lon="-73.064050292772">
    <!-- conflict: "53 West Road, West Rutland, VT" Fuzzy match to "53 West Road, Ira, VT" -->
    <tag k="addr:city" v="West Rutland"/>
    <tag k="addr:housenumber" v="53"/>
    <tag k="addr:street" v="West Road"/>
    <tag k="addr:state" v="VT"/>
    <tag k="ref:vcgi:esiteid" v="337731"/>
  </node>
  <node id="-293" visible="true" lat="43.551715072435" lon="-73.068817409731">
    <!-- conflict: "2054 West Road, West Rutland, VT" Fuzzy match to "2054 West Road, Ira, VT" -->
    <tag k="addr:city" v="West Rutland"/>
    <tag k="addr:housenumber" v="2054"/>
    <tag k="addr:street" v="West Road"/>
    <tag k="addr:state" v="VT"/>
    <tag k="ref:vcgi:esiteid" v="338046"/>
  </node>
  <node id="-294" visible="true" lat="43.547129068781" lon="-73.08493654981">
    <!-- conflict: "251 Middletown Hill Road, West Rutland, VT" Fuzzy match to "251 Middletown Hill Road, Ira, VT" -->
    <tag k="addr:city" v="West Rutland"/>
    <tag k="addr:housenumber" v="251"/>
    <tag k="addr:street" v="Middletown Hill Road"/>
    <tag k="addr:state" v="VT"/>
    <tag k="ref:vcgi:esiteid" v="341661"/>
  </node>
  <node id="-295" visible="true" lat="43.546811493271" lon="-73.083702422413">
    <!-- conflict: "149 Middletown Hill Road, West Rutland, VT" Fuzzy match to "149 Middletown Hill Road, Ira, VT" -->
    <tag k="addr:city" v="West Rutland"/>
    <tag k="addr:housenumber" v="149"/>
    <tag k="addr:street" v="Middletown Hill Road"/>
    <tag k="addr:state" v="VT"/>
    <tag k="ref:vcgi:esiteid" v="341662"/>
  </node>
  <node id="-296" visible="true" lat="43.547624370515" lon="-73.089748840567">
    <!-- conflict: "530 Middletown Hill Road, West Rutland, VT" Fuzzy match to "530 Middletown Hill Road, Ira, VT" -->
    <tag k="addr:city" v="West Rutland"/>
    <tag k="addr:housenumber" v="530"/>
    <tag k="addr:street" v="Middletown Hill Road"/>
    <tag k="addr:state" v="VT"/>
    <tag k="ref:vcgi:esiteid" v="341663"/>
  </node>
  <node id="-297" visible="true" lat="43.548878786348" lon="-73.091104870502">
    <!-- conflict: "434 Middletown Hill Road, West Rutland, VT" Fuzzy match to "434 Middletown Hill Road, Ira, VT" -->
    <tag k="addr:city" v="West Rutland"/>
    <tag k="addr:housenumber" v="434"/>
    <tag k="addr:street" v="Middletown Hill Road"/>
    <tag k="addr:state" v="VT"/>
    <tag k="ref:vcgi:esiteid" v="341664"/>
  </node>
  <node id="-298" visible="true" lat="43.539524666172" lon="-73.071306007975">
    <!-- conflict: "664 West Road, West Rutland, VT" Fuzzy match to "664 West Road, Ira, VT" -->
    <tag k="addr:city" v="West Rutland"/>
    <tag k="addr:housenumber" v="664"/>
    <tag k="addr:street" v="West Road"/>
    <tag k="addr:state" v="VT"/>
    <tag k="ref:vcgi:esiteid" v="365005"/>
  </node>
  <node id="-299" visible="true" lat="43.544281146245" lon="-73.07681949406">
    <!-- conflict: "1086 West Road, West Rutland, VT" Fuzzy match to "1086 West Road, Ira, VT" -->
    <tag k="addr:city" v="West Rutland"/>
    <tag k="addr:housenumber" v="1086"/>
    <tag k="addr:street" v="West Road"/>
    <tag k="addr:state" v="VT"/>
    <tag k="ref:vcgi:esiteid" v="365006"/>
  </node>
  <node id="-300" visible="true" lat="43.545657897866" lon="-73.079039847777">
    <!-- conflict: "1234 West Road, West Rutland, VT" Fuzzy match to "1234 West Road, Ira, VT" -->
    <tag k="addr:city" v="West Rutland"/>
    <tag k="addr:housenumber" v="1234"/>
    <tag k="addr:street" v="West Road"/>
    <tag k="addr:state" v="VT"/>
    <tag k="ref:vcgi:esiteid" v="365007"/>
  </node>
  <node id="-301" visible="true" lat="43.545453337697" lon="-73.08092005393">
    <!-- conflict: "63 Middletown Hill Road, West Rutland, VT" Fuzzy match to "63 Middletown Hill Road, Ira, VT" -->
    <tag k="addr:city" v="West Rutland"/>
    <tag k="addr:housenumber" v="63"/>
    <tag k="addr:street" v="Middletown Hill Road"/>
    <tag k="addr:state" v="VT"/>
    <tag k="ref:vcgi:esiteid" v="365008"/>
  </node>
  <node id="-302" visible="true" lat="43.569191469196" lon="-73.054473690671">
    <!-- conflict: "271 Sunrise Place, West Rutland, VT" Fuzzy match to "271 Sunrise Place, Ira, VT" -->
    <tag k="addr:city" v="West Rutland"/>
    <tag k="addr:housenumber" v="271"/>
    <tag k="addr:street" v="Sunrise Place"/>
    <tag k="addr:state" v="VT"/>
    <tag k="ref:vcgi:esiteid" v="365009"/>
  </node>
  <node id="-303" visible="true" lat="43.525702610443" lon="-73.078683023127">
    <!-- conflict: "540 Goodrich Road, West Rutland, VT" Fuzzy match to "540 Goodrich Road, Ira, VT" -->
    <tag k="addr:city" v="West Rutland"/>
    <tag k="addr:housenumber" v="540"/>
    <tag k="addr:street" v="Goodrich Road"/>
    <tag k="addr:state" v="VT"/>
    <tag k="ref:vcgi:esiteid" v="365011"/>
  </node>
  <node id="-304" visible="true" lat="43.532393060836" lon="-73.071858223209">
    <!-- conflict: "6 Green Acres Lane, West Rutland, VT" Fuzzy match to "6 Green Acres Lane, Ira, VT" -->
    <tag k="addr:city" v="West Rutland"/>
    <tag k="addr:housenumber" v="6"/>
    <tag k="addr:street" v="Green Acres Lane"/>
    <tag k="addr:state" v="VT"/>
    <tag k="ref:vcgi:esiteid" v="446601"/>
  </node>
  <node id="-305" visible="true" lat="43.524890243008" lon="-73.085453257105">
    <!-- conflict: "885 Goodrich Road, West Rutland, VT" Fuzzy match to "885 Goodrich Road, Ira, VT" -->
    <tag k="addr:city" v="West Rutland"/>
    <tag k="addr:housenumber" v="885"/>
    <tag k="addr:street" v="Goodrich Road"/>
    <tag k="addr:state" v="VT"/>
    <tag k="ref:vcgi:esiteid" v="446702"/>
  </node>
  <node id="-306" visible="true" lat="43.547082919182" lon="-73.087303122897">
    <!-- conflict: "393 Middletown Hill Road, West Rutland, VT" Fuzzy match to "393 Middletown Hill Road, Ira, VT" -->
    <tag k="addr:city" v="West Rutland"/>
    <tag k="addr:housenumber" v="393"/>
    <tag k="addr:street" v="Middletown Hill Road"/>
    <tag k="addr:state" v="VT"/>
    <tag k="ref:vcgi:esiteid" v="446703"/>
  </node>
  <node id="-307" visible="true" lat="43.54932821352" lon="-73.069983962936">
    <!-- conflict: "1962 West Road, West Rutland, VT" Fuzzy match to "1962 West Road, Ira, VT" -->
    <tag k="addr:city" v="West Rutland"/>
    <tag k="addr:housenumber" v="1962"/>
    <tag k="addr:street" v="West Road"/>
    <tag k="addr:state" v="VT"/>
    <tag k="ref:vcgi:esiteid" v="446704"/>
  </node>
  <node id="-308" visible="true" lat="43.561102514146" lon="-73.068272493635">
    <!-- conflict: "1526 Cross Road, West Rutland, VT" Fuzzy match to "1526 Cross Road, Ira, VT" -->
    <tag k="addr:city" v="West Rutland"/>
    <tag k="addr:housenumber" v="1526"/>
    <tag k="addr:street" v="Cross Road"/>
    <tag k="addr:state" v="VT"/>
    <tag k="ref:vcgi:esiteid" v="446705"/>
  </node>
  <node id="-309" visible="true" lat="43.586259997126" lon="-73.102992883399">
    <!-- conflict: "1620 Ira Birdseye Road, Castleton, VT" Fuzzy match to "1620 Ira Birdseye Road, Ira, VT" -->
    <tag k="addr:city" v="Castleton"/>
    <tag k="addr:housenumber" v="1620"/>
    <tag k="addr:street" v="Ira Birdseye Road"/>
    <tag k="addr:state" v="VT"/>
    <tag k="ref:vcgi:esiteid" v="449654"/>
  </node>
  <node id="-310" visible="true" lat="43.584236051815" lon="-73.099945550714">
    <!-- conflict: "1841 Ira Birdseye Road, Castleton, VT" Fuzzy match to "1841 Ira Birdseye Road, Ira, VT" -->
    <tag k="addr:city" v="Castleton"/>
    <tag k="addr:housenumber" v="1841"/>
    <tag k="addr:street" v="Ira Birdseye Road"/>
    <tag k="addr:state" v="VT"/>
    <tag k="ref:vcgi:esiteid" v="449655"/>
  </node>
  <node id="-311" visible="true" lat="43.580618584426" lon="-73.096302842391">
    <!-- conflict: "2136 Ira Birdseye Road, Castleton, VT" Fuzzy match to "2136 Ira Birdseye Road, Ira, VT" -->
    <tag k="addr:city" v="Castleton"/>
    <tag k="addr:housenumber" v="2136"/>
    <tag k="addr:street" v="Ira Birdseye Road"/>
    <tag k="addr:state" v="VT"/>
    <tag k="ref:vcgi:esiteid" v="449656"/>
  </node>
  <node id="-312" visible="true" lat="43.578652163247" lon="-73.099359422181">
    <!-- conflict: "2058 Ira Birdseye Road, Castleton, VT" Fuzzy match to "2058 Ira Birdseye Road, Ira, VT" -->
    <tag k="addr:city" v="Castleton"/>
    <tag k="addr:housenumber" v="2058"/>
    <tag k="addr:street" v="Ira Birdseye Road"/>
    <tag k="addr:state" v="VT"/>
    <tag k="ref:vcgi:esiteid" v="449657"/>
  </node>
  <node id="-313" visible="true" lat="43.577741755302" lon="-73.093096960806">
    <!-- conflict: "2732 Ira Birdseye Road, Castleton, VT" Fuzzy match to "2732 Ira Birdseye Road, Ira, VT" -->
    <tag k="addr:city" v="Castleton"/>
    <tag k="addr:housenumber" v="2732"/>
    <tag k="addr:street" v="Ira Birdseye Road"/>
    <tag k="addr:state" v="VT"/>
    <tag k="ref:vcgi:esiteid" v="449658"/>
  </node>
  <node id="-314" visible="true" lat="43.565295965183" lon="-73.098775835748">
    <!-- conflict: "2197 Cross Road, West Rutland, VT" Fuzzy match to "2197 Cross Road, Ira, VT" -->
    <tag k="addr:city" v="West Rutland"/>
    <tag k="addr:housenumber" v="2197"/>
    <tag k="addr:street" v="Cross Road"/>
    <tag k="addr:state" v="VT"/>
    <tag k="ref:vcgi:esiteid" v="449659"/>
  </node>
  <node id="-315" visible="true" lat="43.590899422799" lon="-73.104248073133">
    <!-- conflict: "1294 Ira Birdseye Road, Castleton, VT" Fuzzy match to "1294 Ira Birdseye Road, Ira, VT" -->
    <tag k="addr:city" v="Castleton"/>
    <tag k="addr:housenumber" v="1294"/>
    <tag k="addr:street" v="Ira Birdseye Road"/>
    <tag k="addr:state" v="VT"/>
    <tag k="ref:vcgi:esiteid" v="450102"/>
  </node>
  <node id="-316" visible="true" lat="43.591850222161" lon="-73.101652910881">
    <!-- conflict: "1235 Ira Birdseye Road, Castleton, VT" Fuzzy match to "1235 Ira Birdseye Road, Ira, VT" -->
    <tag k="addr:city" v="Castleton"/>
    <tag k="addr:housenumber" v="1235"/>
    <tag k="addr:street" v="Ira Birdseye Road"/>
    <tag k="addr:state" v="VT"/>
    <tag k="ref:vcgi:esiteid" v="450103"/>
  </node>
  <node id="-317" visible="true" lat="43.630152980519" lon="-73.097402749614">
    <!-- conflict: "1710 Belgo Road, Castleton, VT" Fuzzy match to "1710 Belgo Road, Ira, VT" -->
    <tag k="addr:city" v="Castleton"/>
    <tag k="addr:housenumber" v="1710"/>
    <tag k="addr:street" v="Belgo Road"/>
    <tag k="addr:state" v="VT"/>
    <tag k="ref:vcgi:esiteid" v="450135"/>
  </node>
  <node id="-318" visible="true" lat="43.56069618636" lon="-73.0705771898">
    <!-- conflict: "1529 Cross Road, West Rutland, VT" Fuzzy match to "1529 Cross Road, Ira, VT" -->
    <tag k="addr:city" v="West Rutland"/>
    <tag k="addr:housenumber" v="1529"/>
    <tag k="addr:street" v="Cross Road"/>
    <tag k="addr:state" v="VT"/>
    <tag k="ref:vcgi:esiteid" v="452400"/>
  </node>
  <node id="-319" visible="true" lat="43.55451764933" lon="-73.044869575644">
    <!-- conflict: "340 Pyka Road, West Rutland, VT" Fuzzy match to "340 Pyka Road, Ira, VT" -->
    <tag k="addr:city" v="West Rutland"/>
    <tag k="addr:housenumber" v="340"/>
    <tag k="addr:street" v="Pyka Road"/>
    <tag k="addr:state" v="VT"/>
    <tag k="ref:vcgi:esiteid" v="454115"/>
  </node>
  <node id="-320" visible="true" lat="43.610157642062" lon="-73.101067287816">
    <!-- conflict: "714 Blue Star Drive, Castleton, VT" Fuzzy match to "714 Blue Star Drive, Ira, VT" -->
    <tag k="addr:city" v="Castleton"/>
    <tag k="addr:housenumber" v="714"/>
    <tag k="addr:street" v="Blue Star Drive"/>
    <tag k="addr:state" v="VT"/>
    <tag k="ref:vcgi:esiteid" v="610939"/>
  </node>
  <node id="-321" visible="true" lat="43.607169409016" lon="-73.091501565468">
    <!-- conflict: "147 Blue Star Drive, Castleton, VT" Fuzzy match to "147 Blue Star Drive, Ira, VT" -->
    <tag k="addr:city" v="Castleton"/>
    <tag k="addr:housenumber" v="147"/>
    <tag k="addr:street" v="Blue Star Drive"/>
    <tag k="addr:state" v="VT"/>
    <tag k="ref:vcgi:esiteid" v="611945"/>
  </node>
  <node id="-322" visible="true" lat="43.538003506958" lon="-73.057607344774">
    <!-- conflict: "1485 Vermont Route 133, West Rutland, VT" Fuzzy match to "1485 Vermont Route 133, Ira, VT" -->
    <tag k="addr:city" v="West Rutland"/>
    <tag k="addr:housenumber" v="1485"/>
    <tag k="addr:street" v="Vermont Route 133"/>
    <tag k="addr:state" v="VT"/>
    <tag k="ref:vcgi:esiteid" v="611966"/>
  </node>
  <node id="-323" visible="true" lat="43.535483939484" lon="-73.067880084042">
    <!-- conflict: "310 West Road, West Rutland, VT" Fuzzy match to "310 West Road, Ira, VT" -->
    <tag k="addr:city" v="West Rutland"/>
    <tag k="addr:housenumber" v="310"/>
    <tag k="addr:street" v="West Road"/>
    <tag k="addr:state" v="VT"/>
    <tag k="ref:vcgi:esiteid" v="617071"/>
  </node>
  <node id="-324" visible="true" lat="43.544490505267" lon="-73.094224557182">
    <!-- conflict: "807 Middletown Hill Road, West Rutland, VT" Fuzzy match to "807 Middletown Hill Road, Ira, VT" -->
    <tag k="addr:city" v="West Rutland"/>
    <tag k="addr:housenumber" v="807"/>
    <tag k="addr:street" v="Middletown Hill Road"/>
    <tag k="addr:state" v="VT"/>
    <tag k="ref:vcgi:esiteid" v="617144"/>
  </node>
  <node id="-325" visible="true" lat="43.497993213921" lon="-73.071302827861">
    <!-- conflict: "4575 Vermont Route 133, West Rutland, VT" Fuzzy match to "4575 Vermont Route 133, Ira, VT" -->
    <tag k="addr:city" v="West Rutland"/>
    <tag k="addr:housenumber" v="4575"/>
    <tag k="addr:street" v="Vermont Route 133"/>
    <tag k="addr:state" v="VT"/>
    <tag k="ref:vcgi:esiteid" v="618093"/>
  </node>
  <node id="-326" visible="true" lat="43.499897979032" lon="-73.061780943074">
    <!-- conflict: "1205 Arthur Lane, West Rutland, VT" Fuzzy match to "1205 Arthur Lane, Ira, VT" -->
    <tag k="addr:city" v="West Rutland"/>
    <tag k="addr:housenumber" v="1205"/>
    <tag k="addr:street" v="Arthur Lane"/>
    <tag k="addr:state" v="VT"/>
    <tag k="ref:vcgi:esiteid" v="618094"/>
  </node>
  <node id="-333" visible="true" lat="43.551223811983" lon="-73.039222387348">
    <!-- conflict: "68 Vermont Route 133, West Rutland, VT" Fuzzy match to "68 Vermont Route 133, Ira, VT" -->
    <tag k="addr:city" v="West Rutland"/>
    <tag k="addr:housenumber" v="68"/>
    <tag k="addr:street" v="Vermont Route 133"/>
    <tag k="addr:state" v="VT"/>
    <tag k="ref:vcgi:esiteid" v="654839"/>
  </node>
  <node id="-337" visible="true" lat="43.552175910748" lon="-73.04504592017">
    <!-- conflict: "261 Pyka Road, West Rutland, VT" Fuzzy match to "261 Pyka Road, Ira, VT" -->
    <tag k="addr:city" v="West Rutland"/>
    <tag k="addr:housenumber" v="261"/>
    <tag k="addr:street" v="Pyka Road"/>
    <tag k="addr:state" v="VT"/>
    <tag k="ref:vcgi:esiteid" v="700176"/>
  </node>
  <node id="-339" visible="true" lat="43.554416525678" lon="-73.064141208653">
    <!-- conflict: "2332 West Road, West Rutland, VT" Fuzzy match to "2332 West Road, Ira, VT" -->
    <tag k="addr:city" v="West Rutland"/>
    <tag k="addr:housenumber" v="2332"/>
    <tag k="addr:street" v="West Road"/>
    <tag k="addr:state" v="VT"/>
    <tag k="ref:vcgi:esiteid" v="758064"/>
  </node>
  <node id="-340" visible="true" lat="43.545092390416" lon="-73.0797565034">
    <!-- conflict: "1205 West Road, West Rutland, VT" Fuzzy match to "1205 West Road, Ira, VT" -->
    <tag k="addr:city" v="West Rutland"/>
    <tag k="addr:housenumber" v="1205"/>
    <tag k="addr:street" v="West Road"/>
    <tag k="addr:state" v="VT"/>
    <tag k="ref:vcgi:esiteid" v="758135"/>
  </node>
  <node id="-341" visible="true" lat="43.553664926112" lon="-73.04182201392">
    <!-- conflict: "174 Pyka Road, West Rutland, VT" Fuzzy match to "174 Pyka Road, Ira, VT" -->
    <tag k="addr:city" v="West Rutland"/>
    <tag k="addr:housenumber" v="174"/>
    <tag k="addr:street" v="Pyka Road"/>
    <tag k="addr:state" v="VT"/>
    <tag k="ref:vcgi:esiteid" v="761602"/>
  </node>
  <node id="-342" visible="true" lat="43.608706600492" lon="-73.101286334385">
    <!-- conflict: "34 Ira Birdseye Road, Castleton, VT" Fuzzy match to "34 Ira Birdseye Road, Ira, VT" -->
    <tag k="addr:city" v="Castleton"/>
    <tag k="addr:housenumber" v="34"/>
    <tag k="addr:street" v="Ira Birdseye Road"/>
    <tag k="addr:state" v="VT"/>
    <tag k="ref:vcgi:esiteid" v="763106"/>
  </node>
  <node id="-343" visible="true" lat="43.535869239974" lon="-73.066228815955">
    <!-- conflict: "262 West Road, West Rutland, VT" Fuzzy match to "262 West Road, Ira, VT" -->
    <tag k="addr:city" v="West Rutland"/>
    <tag k="addr:housenumber" v="262"/>
    <tag k="addr:street" v="West Road"/>
    <tag k="addr:state" v="VT"/>
    <tag k="ref:vcgi:esiteid" v="763811"/>
  </node>
  <node id="-344" visible="true" lat="43.60372539837" lon="-73.10098339817">
    <!-- conflict: "394 Ira Birdseye Road, Castleton, VT" Fuzzy match to "394 Ira Birdseye Road, Ira, VT" -->
    <tag k="addr:city" v="Castleton"/>
    <tag k="addr:housenumber" v="394"/>
    <tag k="addr:street" v="Ira Birdseye Road"/>
    <tag k="addr:state" v="VT"/>
    <tag k="ref:vcgi:esiteid" v="766453"/>
  </node>
  <node id="-345" visible="true" lat="43.6057718376" lon="-73.101898976952">
    <!-- conflict: "222 Ira Birdseye Road, Castleton, VT" Fuzzy match to "222 Ira Birdseye Road, Ira, VT" -->
    <tag k="addr:city" v="Castleton"/>
    <tag k="addr:housenumber" v="222"/>
    <tag k="addr:street" v="Ira Birdseye Road"/>
    <tag k="addr:state" v="VT"/>
    <tag k="ref:vcgi:esiteid" v="766454"/>
  </node>
  <node id="-346" visible="true" lat="43.544350282176" lon="-73.045842467475">
    <!-- conflict: "10 Weaver Hill Road, West Rutland, VT" Fuzzy match to "10 Weaver Hill Road, Ira, VT" -->
    <tag k="addr:city" v="West Rutland"/>
    <tag k="addr:housenumber" v="10"/>
    <tag k="addr:street" v="Weaver Hill Road"/>
    <tag k="addr:state" v="VT"/>
    <tag k="ref:vcgi:esiteid" v="766455"/>
  </node>
  <node id="-347" visible="true" lat="43.547915540403" lon="-73.087215521057">
    <!-- conflict: "330 Middletown Hill Road, West Rutland, VT" Fuzzy match to "330 Middletown Hill Road, Ira, VT" -->
    <tag k="addr:city" v="West Rutland"/>
    <tag k="addr:housenumber" v="330"/>
    <tag k="addr:street" v="Middletown Hill Road"/>
    <tag k="addr:state" v="VT"/>
    <tag k="ref:vcgi:esiteid" v="766456"/>
  </node>
  <node id="-348" visible="true" lat="43.537394473074" lon="-73.070145455035">
    <!-- conflict: "528 West Road, West Rutland, VT" Fuzzy match to "528 West Road, Ira, VT" -->
    <tag k="addr:city" v="West Rutland"/>
    <tag k="addr:housenumber" v="528"/>
    <tag k="addr:street" v="West Road"/>
    <tag k="addr:state" v="VT"/>
    <tag k="ref:vcgi:esiteid" v="766457"/>
  </node>
  <node id="-350" visible="true" lat="43.520446298415" lon="-73.063373078005">
    <!-- conflict: "419 Toppin Road, West Rutland, VT" Fuzzy match to "419 Toppin Road, Ira, VT" -->
    <tag k="addr:city" v="West Rutland"/>
    <tag k="addr:housenumber" v="419"/>
    <tag k="addr:street" v="Toppin Road"/>
    <tag k="addr:state" v="VT"/>
    <tag k="ref:vcgi:esiteid" v="766476"/>
  </node>
  <node id="-351" visible="true" lat="43.546257531409" lon="-73.076725736857">
    <!-- conflict: "1414 West Road, West Rutland, VT" Fuzzy match to "1414 West Road, Ira, VT" -->
    <tag k="addr:city" v="West Rutland"/>
    <tag k="addr:housenumber" v="1414"/>
    <tag k="addr:street" v="West Road"/>
    <tag k="addr:state" v="VT"/>
    <tag k="ref:vcgi:esiteid" v="767168"/>
  </node>
  <node id="-352" visible="true" lat="43.610133184652" lon="-73.102671987348">
    <!-- conflict: "774 Blue Star Drive, Castleton, VT" Fuzzy match to "774 Blue Star Drive, Ira, VT" -->
    <tag k="addr:city" v="Castleton"/>
    <tag k="addr:housenumber" v="774"/>
    <tag k="addr:street" v="Blue Star Drive"/>
    <tag k="addr:state" v="VT"/>
    <tag k="ref:vcgi:esiteid" v="769546"/>
  </node>
  <node id="-353" visible="true" lat="43.510223351578" lon="-73.078779036066">
    <!-- conflict: "3402 Vermont Route 133, West Rutland, VT" Fuzzy match to "3402 Vermont Route 133, Ira, VT" -->
    <tag k="addr:city" v="West Rutland"/>
    <tag k="addr:housenumber" v="3402"/>
    <tag k="addr:street" v="Vermont Route 133"/>
    <tag k="addr:state" v="VT"/>
    <tag k="ref:vcgi:esiteid" v="769656"/>
  </node>
  <node id="-354" visible="true" lat="43.514650729409" lon="-73.074070388802">
    <!-- conflict: "3998 Vermont Route 133, West Rutland, VT" Fuzzy match to "3998 Vermont Route 133, Ira, VT" -->
    <tag k="addr:city" v="West Rutland"/>
    <tag k="addr:housenumber" v="3998"/>
    <tag k="addr:street" v="Vermont Route 133"/>
    <tag k="addr:state" v="VT"/>
    <tag k="ref:vcgi:esiteid" v="769657"/>
  </node>
  <node id="-355" visible="true" lat="43.536454275566" lon="-73.056867584152">
    <!-- conflict: "1639 Vermont Route 133, West Rutland, VT" Fuzzy match to "1639 Vermont Route 133, Ira, VT" -->
    <tag k="addr:city" v="West Rutland"/>
    <tag k="addr:housenumber" v="1639"/>
    <tag k="addr:street" v="Vermont Route 133"/>
    <tag k="addr:state" v="VT"/>
    <tag k="ref:vcgi:esiteid" v="770067"/>
  </node>
  <node id="-356" visible="true" lat="43.519396010819" lon="-73.074700317116">
    <!-- conflict: "293 Goodrich Road, West Rutland, VT" Fuzzy match to "293 Goodrich Road, Ira, VT" -->
    <tag k="addr:city" v="West Rutland"/>
    <tag k="addr:housenumber" v="293"/>
    <tag k="addr:street" v="Goodrich Road"/>
    <tag k="addr:state" v="VT"/>
    <tag k="ref:vcgi:esiteid" v="770569"/>
  </node>
  <node id="-357" visible="true" lat="43.600418860922" lon="-73.094976337592">
    <!-- conflict: "291 Blue Star Drive, Castleton, VT" Fuzzy match to "291 Blue Star Drive, Ira, VT" -->
    <tag k="addr:city" v="Castleton"/>
    <tag k="addr:housenumber" v="291"/>
    <tag k="addr:street" v="Blue Star Drive"/>
    <tag k="addr:state" v="VT"/>
    <tag k="ref:vcgi:esiteid" v="770570"/>
  </node>
</osm>
