<?xml version="1.0" encoding="UTF-8"?>
<osm version="0.6" generator="JOSM" upload="false">
  <node id="-115" visible="true" lat="44.855784192282" lon="-72.26621672756">
    <tag k="addr:city" v="Irasburg"/>
    <tag k="addr:housenumber" v="4497"/>
    <tag k="addr:street" v="United States Route 5"/>
    <tag k="addr:state" v="VT"/>
    <tag k="ref:vcgi:esiteid" v="133456"/>
  </node>
  <node id="-703" visible="true" lat="44.824102498368" lon="-72.34832213474">
    <tag k="addr:city" v="Irasburg"/>
    <tag k="addr:housenumber" v="409"/>
    <tag k="addr:street" v="Kidder Hill Ridge"/>
    <tag k="addr:state" v="VT"/>
    <tag k="ref:vcgi:esiteid" v="446934"/>
  </node>
  <node id="-722" visible="true" lat="44.82433070799" lon="-72.352544334155">
    <tag k="addr:city" v="Irasburg"/>
    <tag k="addr:housenumber" v="295"/>
    <tag k="addr:street" v="Kidder Hill Ridge"/>
    <tag k="addr:state" v="VT"/>
    <tag k="ref:vcgi:esiteid" v="500059"/>
  </node>
  <node id="-798" visible="true" lat="44.838041987046" lon="-72.209265852235">
    <tag k="addr:city" v="Orleans"/>
    <tag k="addr:housenumber" v="1381"/>
    <tag k="addr:street" v="River Road"/>
    <tag k="addr:state" v="VT"/>
    <tag k="ref:vcgi:esiteid" v="772998"/>
  </node>
</osm>
