<?xml version="1.0" encoding="UTF-8"?>
<osm version="0.6" generator="JOSM" upload="false">
  <node id="-687" visible="true" lat="44.842501508624" lon="-73.341985982289">
    <!-- conflict: "27 Big Meadow, Isle La Motte, VT" Fuzzy match to "27 Big Meadows, Isle La Motte, VT" -->
    <tag k="addr:city" v="Isle La Motte"/>
    <tag k="addr:housenumber" v="27"/>
    <tag k="addr:street" v="Big Meadow"/>
    <tag k="addr:state" v="VT"/>
    <tag k="ref:vcgi:esiteid" v="654916"/>
  </node>
  <node id="-688" visible="true" lat="44.842477893719" lon="-73.341830354582">
    <!-- conflict: "26 Big Meadow, Isle La Motte, VT" Fuzzy match to "26 Big Meadows, Isle La Motte, VT" -->
    <tag k="addr:city" v="Isle La Motte"/>
    <tag k="addr:housenumber" v="26"/>
    <tag k="addr:street" v="Big Meadow"/>
    <tag k="addr:state" v="VT"/>
    <tag k="ref:vcgi:esiteid" v="654917"/>
  </node>
  <node id="-689" visible="true" lat="44.842435508909" lon="-73.341636971965">
    <!-- conflict: "25 Big Meadow, Isle La Motte, VT" Fuzzy match to "25 Big Meadows, Isle La Motte, VT" -->
    <tag k="addr:city" v="Isle La Motte"/>
    <tag k="addr:housenumber" v="25"/>
    <tag k="addr:street" v="Big Meadow"/>
    <tag k="addr:state" v="VT"/>
    <tag k="ref:vcgi:esiteid" v="654918"/>
  </node>
  <node id="-690" visible="true" lat="44.842404709839" lon="-73.341422339086">
    <!-- conflict: "24 Big Meadow, Isle La Motte, VT" Fuzzy match to "24 Big Meadows, Isle La Motte, VT" -->
    <tag k="addr:city" v="Isle La Motte"/>
    <tag k="addr:housenumber" v="24"/>
    <tag k="addr:street" v="Big Meadow"/>
    <tag k="addr:state" v="VT"/>
    <tag k="ref:vcgi:esiteid" v="654919"/>
  </node>
  <node id="-691" visible="true" lat="44.84239262013" lon="-73.34125349356">
    <!-- conflict: "23 Big Meadow, Isle La Motte, VT" Fuzzy match to "23 Big Meadows, Isle La Motte, VT" -->
    <tag k="addr:city" v="Isle La Motte"/>
    <tag k="addr:housenumber" v="23"/>
    <tag k="addr:street" v="Big Meadow"/>
    <tag k="addr:state" v="VT"/>
    <tag k="ref:vcgi:esiteid" v="654920"/>
  </node>
  <node id="-692" visible="true" lat="44.842353708881" lon="-73.341105675744">
    <!-- conflict: "22 Big Meadow, Isle La Motte, VT" Fuzzy match to "22 Big Meadows, Isle La Motte, VT" -->
    <tag k="addr:city" v="Isle La Motte"/>
    <tag k="addr:housenumber" v="22"/>
    <tag k="addr:street" v="Big Meadow"/>
    <tag k="addr:state" v="VT"/>
    <tag k="ref:vcgi:esiteid" v="654921"/>
  </node>
  <node id="-693" visible="true" lat="44.842306832112" lon="-73.340746235885">
    <!-- conflict: "20 Big Meadow, Isle La Motte, VT" Fuzzy match to "20 Big Meadows, Isle La Motte, VT" -->
    <tag k="addr:city" v="Isle La Motte"/>
    <tag k="addr:housenumber" v="20"/>
    <tag k="addr:street" v="Big Meadow"/>
    <tag k="addr:state" v="VT"/>
    <tag k="ref:vcgi:esiteid" v="654922"/>
  </node>
  <node id="-694" visible="true" lat="44.842298452602" lon="-73.340590830769">
    <!-- conflict: "19 Big Meadow, Isle La Motte, VT" Fuzzy match to "19 Big Meadows, Isle La Motte, VT" -->
    <tag k="addr:city" v="Isle La Motte"/>
    <tag k="addr:housenumber" v="19"/>
    <tag k="addr:street" v="Big Meadow"/>
    <tag k="addr:state" v="VT"/>
    <tag k="ref:vcgi:esiteid" v="654923"/>
  </node>
  <node id="-695" visible="true" lat="44.842247567511" lon="-73.340258106703">
    <!-- conflict: "18 Big Meadow, Isle La Motte, VT" Fuzzy match to "18 Big Meadows, Isle La Motte, VT" -->
    <tag k="addr:city" v="Isle La Motte"/>
    <tag k="addr:housenumber" v="18"/>
    <tag k="addr:street" v="Big Meadow"/>
    <tag k="addr:state" v="VT"/>
    <tag k="ref:vcgi:esiteid" v="654925"/>
  </node>
  <node id="-696" visible="true" lat="44.842214250487" lon="-73.340126434952">
    <!-- conflict: "17 Big Meadow, Isle La Motte, VT" Fuzzy match to "17 Big Meadows, Isle La Motte, VT" -->
    <tag k="addr:city" v="Isle La Motte"/>
    <tag k="addr:housenumber" v="17"/>
    <tag k="addr:street" v="Big Meadow"/>
    <tag k="addr:state" v="VT"/>
    <tag k="ref:vcgi:esiteid" v="654926"/>
  </node>
  <node id="-697" visible="true" lat="44.842186824212" lon="-73.339970753395">
    <!-- conflict: "16 Big Meadow, Isle La Motte, VT" Fuzzy match to "16 Big Meadows, Isle La Motte, VT" -->
    <tag k="addr:city" v="Isle La Motte"/>
    <tag k="addr:housenumber" v="16"/>
    <tag k="addr:street" v="Big Meadow"/>
    <tag k="addr:state" v="VT"/>
    <tag k="ref:vcgi:esiteid" v="654927"/>
  </node>
  <node id="-698" visible="true" lat="44.842170805405" lon="-73.339817915429">
    <!-- conflict: "15 Big Meadow, Isle La Motte, VT" Fuzzy match to "15 Big Meadows, Isle La Motte, VT" -->
    <tag k="addr:city" v="Isle La Motte"/>
    <tag k="addr:housenumber" v="15"/>
    <tag k="addr:street" v="Big Meadow"/>
    <tag k="addr:state" v="VT"/>
    <tag k="ref:vcgi:esiteid" v="654929"/>
  </node>
  <node id="-699" visible="true" lat="44.842154786394" lon="-73.339665077544">
    <!-- conflict: "14 Big Meadow, Isle La Motte, VT" Fuzzy match to "14 Big Meadows, Isle La Motte, VT" -->
    <tag k="addr:city" v="Isle La Motte"/>
    <tag k="addr:housenumber" v="14"/>
    <tag k="addr:street" v="Big Meadow"/>
    <tag k="addr:state" v="VT"/>
    <tag k="ref:vcgi:esiteid" v="654930"/>
  </node>
  <node id="-700" visible="true" lat="44.842135232967" lon="-73.339474705616">
    <!-- conflict: "13 Big Meadow, Isle La Motte, VT" Fuzzy match to "13 Big Meadows, Isle La Motte, VT" -->
    <tag k="addr:city" v="Isle La Motte"/>
    <tag k="addr:housenumber" v="13"/>
    <tag k="addr:street" v="Big Meadow"/>
    <tag k="addr:state" v="VT"/>
    <tag k="ref:vcgi:esiteid" v="654931"/>
  </node>
  <node id="-701" visible="true" lat="44.842118418629" lon="-73.339170923465">
    <!-- conflict: "12 Big Meadow, Isle La Motte, VT" Fuzzy match to "12 Big Meadows, Isle La Motte, VT" -->
    <tag k="addr:city" v="Isle La Motte"/>
    <tag k="addr:housenumber" v="12"/>
    <tag k="addr:street" v="Big Meadow"/>
    <tag k="addr:state" v="VT"/>
    <tag k="ref:vcgi:esiteid" v="654933"/>
  </node>
  <node id="-702" visible="true" lat="44.84208731162" lon="-73.338997452108">
    <!-- conflict: "11 Big Meadow, Isle La Motte, VT" Fuzzy match to "11 Big Meadows, Isle La Motte, VT" -->
    <tag k="addr:city" v="Isle La Motte"/>
    <tag k="addr:housenumber" v="11"/>
    <tag k="addr:street" v="Big Meadow"/>
    <tag k="addr:state" v="VT"/>
    <tag k="ref:vcgi:esiteid" v="654934"/>
  </node>
  <node id="-703" visible="true" lat="44.842067781681" lon="-73.338836196697">
    <!-- conflict: "10 Big Meadow, Isle La Motte, VT" Fuzzy match to "10 Big Meadows, Isle La Motte, VT" -->
    <tag k="addr:city" v="Isle La Motte"/>
    <tag k="addr:housenumber" v="10"/>
    <tag k="addr:street" v="Big Meadow"/>
    <tag k="addr:state" v="VT"/>
    <tag k="ref:vcgi:esiteid" v="654935"/>
  </node>
  <node id="-704" visible="true" lat="44.842038169442" lon="-73.338686175016">
    <!-- conflict: "9 Big Meadow, Isle La Motte, VT" Fuzzy match to "9 Big Meadows, Isle La Motte, VT" -->
    <tag k="addr:city" v="Isle La Motte"/>
    <tag k="addr:housenumber" v="9"/>
    <tag k="addr:street" v="Big Meadow"/>
    <tag k="addr:state" v="VT"/>
    <tag k="ref:vcgi:esiteid" v="654936"/>
  </node>
  <node id="-705" visible="true" lat="44.842024093092" lon="-73.33852801058">
    <!-- conflict: "8 Big Meadow, Isle La Motte, VT" Fuzzy match to "8 Big Meadows, Isle La Motte, VT" -->
    <tag k="addr:city" v="Isle La Motte"/>
    <tag k="addr:housenumber" v="8"/>
    <tag k="addr:street" v="Big Meadow"/>
    <tag k="addr:state" v="VT"/>
    <tag k="ref:vcgi:esiteid" v="654937"/>
  </node>
  <node id="-706" visible="true" lat="44.842006501583" lon="-73.338329636093">
    <!-- conflict: "7 Big Meadow, Isle La Motte, VT" Fuzzy match to "7 Big Meadows, Isle La Motte, VT" -->
    <tag k="addr:city" v="Isle La Motte"/>
    <tag k="addr:housenumber" v="7"/>
    <tag k="addr:street" v="Big Meadow"/>
    <tag k="addr:state" v="VT"/>
    <tag k="ref:vcgi:esiteid" v="654938"/>
  </node>
  <node id="-707" visible="true" lat="44.841971552532" lon="-73.338160460913">
    <!-- conflict: "6 Big Meadow, Isle La Motte, VT" Fuzzy match to "6 Big Meadows, Isle La Motte, VT" -->
    <tag k="addr:city" v="Isle La Motte"/>
    <tag k="addr:housenumber" v="6"/>
    <tag k="addr:street" v="Big Meadow"/>
    <tag k="addr:state" v="VT"/>
    <tag k="ref:vcgi:esiteid" v="654939"/>
  </node>
  <node id="-715" visible="true" lat="44.841379187078" lon="-73.338119362712">
    <!-- conflict: "50 Big Meadow, Isle La Motte, VT" Fuzzy match to "50 Big Meadows, Isle La Motte, VT" -->
    <tag k="addr:city" v="Isle La Motte"/>
    <tag k="addr:housenumber" v="50"/>
    <tag k="addr:street" v="Big Meadow"/>
    <tag k="addr:state" v="VT"/>
    <tag k="ref:vcgi:esiteid" v="654947"/>
  </node>
  <node id="-716" visible="true" lat="44.841297424618" lon="-73.338506164208">
    <!-- conflict: "48 Big Meadow, Isle La Motte, VT" Fuzzy match to "48 Big Meadows, Isle La Motte, VT" -->
    <tag k="addr:city" v="Isle La Motte"/>
    <tag k="addr:housenumber" v="48"/>
    <tag k="addr:street" v="Big Meadow"/>
    <tag k="addr:state" v="VT"/>
    <tag k="ref:vcgi:esiteid" v="654948"/>
  </node>
  <node id="-717" visible="true" lat="44.841382981185" lon="-73.338689791602">
    <!-- conflict: "47 Big Meadow, Isle La Motte, VT" Fuzzy match to "47 Big Meadows, Isle La Motte, VT" -->
    <tag k="addr:city" v="Isle La Motte"/>
    <tag k="addr:housenumber" v="47"/>
    <tag k="addr:street" v="Big Meadow"/>
    <tag k="addr:state" v="VT"/>
    <tag k="ref:vcgi:esiteid" v="654949"/>
  </node>
  <node id="-718" visible="true" lat="44.841409093444" lon="-73.338862519089">
    <!-- conflict: "46 Big Meadow, Isle La Motte, VT" Fuzzy match to "46 Big Meadows, Isle La Motte, VT" -->
    <tag k="addr:city" v="Isle La Motte"/>
    <tag k="addr:housenumber" v="46"/>
    <tag k="addr:street" v="Big Meadow"/>
    <tag k="addr:state" v="VT"/>
    <tag k="ref:vcgi:esiteid" v="654950"/>
  </node>
  <node id="-719" visible="true" lat="44.841407987231" lon="-73.339013098905">
    <!-- conflict: "45 Big Meadow, Isle La Motte, VT" Fuzzy match to "45 Big Meadows, Isle La Motte, VT" -->
    <tag k="addr:city" v="Isle La Motte"/>
    <tag k="addr:housenumber" v="45"/>
    <tag k="addr:street" v="Big Meadow"/>
    <tag k="addr:state" v="VT"/>
    <tag k="ref:vcgi:esiteid" v="654951"/>
  </node>
  <node id="-720" visible="true" lat="44.841563147451" lon="-73.339283077011">
    <!-- conflict: "44 Big Meadow, Isle La Motte, VT" Fuzzy match to "44 Big Meadows, Isle La Motte, VT" -->
    <tag k="addr:city" v="Isle La Motte"/>
    <tag k="addr:housenumber" v="44"/>
    <tag k="addr:street" v="Big Meadow"/>
    <tag k="addr:state" v="VT"/>
    <tag k="ref:vcgi:esiteid" v="654952"/>
  </node>
  <node id="-721" visible="true" lat="44.841649462678" lon="-73.339525284907">
    <!-- conflict: "43 Big Meadow, Isle La Motte, VT" Fuzzy match to "43 Big Meadows, Isle La Motte, VT" -->
    <tag k="addr:city" v="Isle La Motte"/>
    <tag k="addr:housenumber" v="43"/>
    <tag k="addr:street" v="Big Meadow"/>
    <tag k="addr:state" v="VT"/>
    <tag k="ref:vcgi:esiteid" v="654953"/>
  </node>
  <node id="-722" visible="true" lat="44.841689199769" lon="-73.339701320488">
    <!-- conflict: "42 Big Meadow, Isle La Motte, VT" Fuzzy match to "42 Big Meadows, Isle La Motte, VT" -->
    <tag k="addr:city" v="Isle La Motte"/>
    <tag k="addr:housenumber" v="42"/>
    <tag k="addr:street" v="Big Meadow"/>
    <tag k="addr:state" v="VT"/>
    <tag k="ref:vcgi:esiteid" v="654954"/>
  </node>
  <node id="-723" visible="true" lat="44.841827228562" lon="-73.339917275149">
    <!-- conflict: "41 Big Meadow, Isle La Motte, VT" Fuzzy match to "41 Big Meadows, Isle La Motte, VT" -->
    <tag k="addr:city" v="Isle La Motte"/>
    <tag k="addr:housenumber" v="41"/>
    <tag k="addr:street" v="Big Meadow"/>
    <tag k="addr:state" v="VT"/>
    <tag k="ref:vcgi:esiteid" v="654955"/>
  </node>
  <node id="-724" visible="true" lat="44.841838215121" lon="-73.340083560359">
    <!-- conflict: "40 Big Meadow, Isle La Motte, VT" Fuzzy match to "40 Big Meadows, Isle La Motte, VT" -->
    <tag k="addr:city" v="Isle La Motte"/>
    <tag k="addr:housenumber" v="40"/>
    <tag k="addr:street" v="Big Meadow"/>
    <tag k="addr:state" v="VT"/>
    <tag k="ref:vcgi:esiteid" v="654956"/>
  </node>
  <node id="-725" visible="true" lat="44.84193115318" lon="-73.340396144669">
    <!-- conflict: "38 Big Meadow, Isle La Motte, VT" Fuzzy match to "38 Big Meadows, Isle La Motte, VT" -->
    <tag k="addr:city" v="Isle La Motte"/>
    <tag k="addr:housenumber" v="38"/>
    <tag k="addr:street" v="Big Meadow"/>
    <tag k="addr:state" v="VT"/>
    <tag k="ref:vcgi:esiteid" v="654957"/>
  </node>
  <node id="-726" visible="true" lat="44.841948967703" lon="-73.3405637337">
    <!-- conflict: "37 Big Meadow, Isle La Motte, VT" Fuzzy match to "37 Big Meadows, Isle La Motte, VT" -->
    <tag k="addr:city" v="Isle La Motte"/>
    <tag k="addr:housenumber" v="37"/>
    <tag k="addr:street" v="Big Meadow"/>
    <tag k="addr:state" v="VT"/>
    <tag k="ref:vcgi:esiteid" v="654958"/>
  </node>
  <node id="-727" visible="true" lat="44.842007072018" lon="-73.341079955189">
    <!-- conflict: "34 Big Meadow, Isle La Motte, VT" Fuzzy match to "34 Big Meadows, Isle La Motte, VT" -->
    <tag k="addr:city" v="Isle La Motte"/>
    <tag k="addr:housenumber" v="34"/>
    <tag k="addr:street" v="Big Meadow"/>
    <tag k="addr:state" v="VT"/>
    <tag k="ref:vcgi:esiteid" v="654959"/>
  </node>
  <node id="-728" visible="true" lat="44.842048593651" lon="-73.341261275644">
    <!-- conflict: "33 Big Meadow, Isle La Motte, VT" Fuzzy match to "33 Big Meadows, Isle La Motte, VT" -->
    <tag k="addr:city" v="Isle La Motte"/>
    <tag k="addr:housenumber" v="33"/>
    <tag k="addr:street" v="Big Meadow"/>
    <tag k="addr:state" v="VT"/>
    <tag k="ref:vcgi:esiteid" v="654960"/>
  </node>
  <node id="-729" visible="true" lat="44.842073523898" lon="-73.341432315674">
    <!-- conflict: "32 Big Meadow, Isle La Motte, VT" Fuzzy match to "32 Big Meadows, Isle La Motte, VT" -->
    <tag k="addr:city" v="Isle La Motte"/>
    <tag k="addr:housenumber" v="32"/>
    <tag k="addr:street" v="Big Meadow"/>
    <tag k="addr:state" v="VT"/>
    <tag k="ref:vcgi:esiteid" v="654961"/>
  </node>
  <node id="-730" visible="true" lat="44.842089005367" lon="-73.341593177847">
    <!-- conflict: "31 Big Meadow, Isle La Motte, VT" Fuzzy match to "31 Big Meadows, Isle La Motte, VT" -->
    <tag k="addr:city" v="Isle La Motte"/>
    <tag k="addr:housenumber" v="31"/>
    <tag k="addr:street" v="Big Meadow"/>
    <tag k="addr:state" v="VT"/>
    <tag k="ref:vcgi:esiteid" v="654962"/>
  </node>
  <node id="-731" visible="true" lat="44.84211616797" lon="-73.34178433026">
    <!-- conflict: "30 Big Meadow, Isle La Motte, VT" Fuzzy match to "30 Big Meadows, Isle La Motte, VT" -->
    <tag k="addr:city" v="Isle La Motte"/>
    <tag k="addr:housenumber" v="30"/>
    <tag k="addr:street" v="Big Meadow"/>
    <tag k="addr:state" v="VT"/>
    <tag k="ref:vcgi:esiteid" v="654963"/>
  </node>
  <node id="-732" visible="true" lat="44.84222463122" lon="-73.342251089807">
    <!-- conflict: "29 Big Meadow, Isle La Motte, VT" Fuzzy match to "29 Big Meadows, Isle La Motte, VT" -->
    <tag k="addr:city" v="Isle La Motte"/>
    <tag k="addr:housenumber" v="29"/>
    <tag k="addr:street" v="Big Meadow"/>
    <tag k="addr:state" v="VT"/>
    <tag k="ref:vcgi:esiteid" v="654964"/>
  </node>
  <node id="-733" visible="true" lat="44.84223969188" lon="-73.342468838628">
    <!-- conflict: "28 Big Meadow, Isle La Motte, VT" Fuzzy match to "28 Big Meadows, Isle La Motte, VT" -->
    <tag k="addr:city" v="Isle La Motte"/>
    <tag k="addr:housenumber" v="28"/>
    <tag k="addr:street" v="Big Meadow"/>
    <tag k="addr:state" v="VT"/>
    <tag k="ref:vcgi:esiteid" v="654965"/>
  </node>
  <node id="-734" visible="true" lat="44.841964204049" lon="-73.340758057237">
    <!-- conflict: "36 Big Meadow, Isle La Motte, VT" Fuzzy match to "36 Big Meadows, Isle La Motte, VT" -->
    <tag k="addr:city" v="Isle La Motte"/>
    <tag k="addr:housenumber" v="36"/>
    <tag k="addr:street" v="Big Meadow"/>
    <tag k="addr:state" v="VT"/>
    <tag k="ref:vcgi:esiteid" v="654966"/>
  </node>
  <node id="-735" visible="true" lat="44.841981894826" lon="-73.340942378699">
    <!-- conflict: "35 Big Meadow, Isle La Motte, VT" Fuzzy match to "35 Big Meadows, Isle La Motte, VT" -->
    <tag k="addr:city" v="Isle La Motte"/>
    <tag k="addr:housenumber" v="35"/>
    <tag k="addr:street" v="Big Meadow"/>
    <tag k="addr:state" v="VT"/>
    <tag k="ref:vcgi:esiteid" v="654967"/>
  </node>
  <node id="-736" visible="true" lat="44.841877357495" lon="-73.340264844981">
    <!-- conflict: "39 Big Meadow, Isle La Motte, VT" Fuzzy match to "39 Big Meadows, Isle La Motte, VT" -->
    <tag k="addr:city" v="Isle La Motte"/>
    <tag k="addr:housenumber" v="39"/>
    <tag k="addr:street" v="Big Meadow"/>
    <tag k="addr:state" v="VT"/>
    <tag k="ref:vcgi:esiteid" v="654969"/>
  </node>
  <node id="-740" visible="true" lat="44.841163983343" lon="-73.338143721036">
    <!-- conflict: "57 Small Meadow, Isle La Motte, VT" Fuzzy match to "57 Small Meadows, Isle La Motte, VT" -->
    <tag k="addr:city" v="Isle La Motte"/>
    <tag k="addr:housenumber" v="57"/>
    <tag k="addr:street" v="Small Meadow"/>
    <tag k="addr:state" v="VT"/>
    <tag k="ref:vcgi:esiteid" v="654973"/>
  </node>
  <node id="-741" visible="true" lat="44.841105402209" lon="-73.338339648391">
    <!-- conflict: "58 Small Meadow, Isle La Motte, VT" Fuzzy match to "58 Small Meadows, Isle La Motte, VT" -->
    <tag k="addr:city" v="Isle La Motte"/>
    <tag k="addr:housenumber" v="58"/>
    <tag k="addr:street" v="Small Meadow"/>
    <tag k="addr:state" v="VT"/>
    <tag k="ref:vcgi:esiteid" v="654974"/>
  </node>
  <node id="-742" visible="true" lat="44.841142702378" lon="-73.338512872359">
    <!-- conflict: "59 Small Meadow, Isle La Motte, VT" Fuzzy match to "59 Small Meadows, Isle La Motte, VT" -->
    <tag k="addr:city" v="Isle La Motte"/>
    <tag k="addr:housenumber" v="59"/>
    <tag k="addr:street" v="Small Meadow"/>
    <tag k="addr:state" v="VT"/>
    <tag k="ref:vcgi:esiteid" v="654975"/>
  </node>
  <node id="-743" visible="true" lat="44.841115531162" lon="-73.338711262294">
    <!-- conflict: "60 Small Meadow, Isle La Motte, VT" Fuzzy match to "60 Small Meadows, Isle La Motte, VT" -->
    <tag k="addr:city" v="Isle La Motte"/>
    <tag k="addr:housenumber" v="60"/>
    <tag k="addr:street" v="Small Meadow"/>
    <tag k="addr:state" v="VT"/>
    <tag k="ref:vcgi:esiteid" v="654976"/>
  </node>
  <node id="-744" visible="true" lat="44.841021378718" lon="-73.338981598879">
    <!-- conflict: "61 Small Meadow, Isle La Motte, VT" Fuzzy match to "61 Small Meadows, Isle La Motte, VT" -->
    <tag k="addr:city" v="Isle La Motte"/>
    <tag k="addr:housenumber" v="61"/>
    <tag k="addr:street" v="Small Meadow"/>
    <tag k="addr:state" v="VT"/>
    <tag k="ref:vcgi:esiteid" v="654977"/>
  </node>
  <node id="-745" visible="true" lat="44.840889719972" lon="-73.338918818038">
    <!-- conflict: "63 Small Meadow, Isle La Motte, VT" Fuzzy match to "63 Small Meadows, Isle La Motte, VT" -->
    <tag k="addr:city" v="Isle La Motte"/>
    <tag k="addr:housenumber" v="63"/>
    <tag k="addr:street" v="Small Meadow"/>
    <tag k="addr:state" v="VT"/>
    <tag k="ref:vcgi:esiteid" v="654978"/>
  </node>
  <node id="-746" visible="true" lat="44.841056046268" lon="-73.339224429092">
    <!-- conflict: "65 Small Meadow, Isle La Motte, VT" Fuzzy match to "65 Small Meadows, Isle La Motte, VT" -->
    <tag k="addr:city" v="Isle La Motte"/>
    <tag k="addr:housenumber" v="65"/>
    <tag k="addr:street" v="Small Meadow"/>
    <tag k="addr:state" v="VT"/>
    <tag k="ref:vcgi:esiteid" v="654980"/>
  </node>
  <node id="-747" visible="true" lat="44.840712409899" lon="-73.339524642868">
    <!-- conflict: "67 Small Meadow, Isle La Motte, VT" Fuzzy match to "67 Small Meadows, Isle La Motte, VT" -->
    <tag k="addr:city" v="Isle La Motte"/>
    <tag k="addr:housenumber" v="67"/>
    <tag k="addr:street" v="Small Meadow"/>
    <tag k="addr:state" v="VT"/>
    <tag k="ref:vcgi:esiteid" v="654981"/>
  </node>
  <node id="-748" visible="true" lat="44.84102744361" lon="-73.339582972336">
    <!-- conflict: "66 Small Meadow, Isle La Motte, VT" Fuzzy match to "66 Small Meadows, Isle La Motte, VT" -->
    <tag k="addr:city" v="Isle La Motte"/>
    <tag k="addr:housenumber" v="66"/>
    <tag k="addr:street" v="Small Meadow"/>
    <tag k="addr:state" v="VT"/>
    <tag k="ref:vcgi:esiteid" v="654982"/>
  </node>
  <node id="-749" visible="true" lat="44.840896451439" lon="-73.339752203898">
    <!-- conflict: "68 Small Meadow, Isle La Motte, VT" Fuzzy match to "68 Small Meadows, Isle La Motte, VT" -->
    <tag k="addr:city" v="Isle La Motte"/>
    <tag k="addr:housenumber" v="68"/>
    <tag k="addr:street" v="Small Meadow"/>
    <tag k="addr:state" v="VT"/>
    <tag k="ref:vcgi:esiteid" v="654983"/>
  </node>
  <node id="-750" visible="true" lat="44.840876212634" lon="-73.339201739084">
    <!-- conflict: "64 Small Meadow, Isle La Motte, VT" Fuzzy match to "64 Small Meadows, Isle La Motte, VT" -->
    <tag k="addr:city" v="Isle La Motte"/>
    <tag k="addr:housenumber" v="64"/>
    <tag k="addr:street" v="Small Meadow"/>
    <tag k="addr:state" v="VT"/>
    <tag k="ref:vcgi:esiteid" v="654984"/>
  </node>
  <node id="-751" visible="true" lat="44.84125061634" lon="-73.339574626592">
    <!-- conflict: "69 Small Meadow, Isle La Motte, VT" Fuzzy match to "69 Small Meadows, Isle La Motte, VT" -->
    <tag k="addr:city" v="Isle La Motte"/>
    <tag k="addr:housenumber" v="69"/>
    <tag k="addr:street" v="Small Meadow"/>
    <tag k="addr:state" v="VT"/>
    <tag k="ref:vcgi:esiteid" v="654985"/>
  </node>
  <node id="-752" visible="true" lat="44.841263962754" lon="-73.340090859464">
    <!-- conflict: "70 Small Meadow, Isle La Motte, VT" Fuzzy match to "70 Small Meadows, Isle La Motte, VT" -->
    <tag k="addr:city" v="Isle La Motte"/>
    <tag k="addr:housenumber" v="70"/>
    <tag k="addr:street" v="Small Meadow"/>
    <tag k="addr:state" v="VT"/>
    <tag k="ref:vcgi:esiteid" v="654986"/>
  </node>
  <node id="-753" visible="true" lat="44.84064826159" lon="-73.33801332521">
    <!-- conflict: "77 Small Meadow, Isle La Motte, VT" Fuzzy match to "77 Small Meadows, Isle La Motte, VT" -->
    <tag k="addr:city" v="Isle La Motte"/>
    <tag k="addr:housenumber" v="77"/>
    <tag k="addr:street" v="Small Meadow"/>
    <tag k="addr:state" v="VT"/>
    <tag k="ref:vcgi:esiteid" v="654991"/>
  </node>
  <node id="-754" visible="true" lat="44.840646738988" lon="-73.338220787597">
    <!-- conflict: "76 Small Meadow, Isle La Motte, VT" Fuzzy match to "76 Small Meadows, Isle La Motte, VT" -->
    <tag k="addr:city" v="Isle La Motte"/>
    <tag k="addr:housenumber" v="76"/>
    <tag k="addr:street" v="Small Meadow"/>
    <tag k="addr:state" v="VT"/>
    <tag k="ref:vcgi:esiteid" v="654992"/>
  </node>
  <node id="-755" visible="true" lat="44.840645658203" lon="-73.338368019081">
    <!-- conflict: "75 Small Meadow, Isle La Motte, VT" Fuzzy match to "75 Small Meadows, Isle La Motte, VT" -->
    <tag k="addr:city" v="Isle La Motte"/>
    <tag k="addr:housenumber" v="75"/>
    <tag k="addr:street" v="Small Meadow"/>
    <tag k="addr:state" v="VT"/>
    <tag k="ref:vcgi:esiteid" v="654993"/>
  </node>
  <node id="-756" visible="true" lat="44.840662935171" lon="-73.338609218924">
    <!-- conflict: "74 Small Meadow, Isle La Motte, VT" Fuzzy match to "74 Small Meadows, Isle La Motte, VT" -->
    <tag k="addr:city" v="Isle La Motte"/>
    <tag k="addr:housenumber" v="74"/>
    <tag k="addr:street" v="Small Meadow"/>
    <tag k="addr:state" v="VT"/>
    <tag k="ref:vcgi:esiteid" v="654994"/>
  </node>
  <node id="-757" visible="true" lat="44.840546498629" lon="-73.338902023562">
    <!-- conflict: "73 Small Meadow, Isle La Motte, VT" Fuzzy match to "73 Small Meadows, Isle La Motte, VT" -->
    <tag k="addr:city" v="Isle La Motte"/>
    <tag k="addr:housenumber" v="73"/>
    <tag k="addr:street" v="Small Meadow"/>
    <tag k="addr:state" v="VT"/>
    <tag k="ref:vcgi:esiteid" v="654995"/>
  </node>
  <node id="-758" visible="true" lat="44.840358639334" lon="-73.339193790164">
    <!-- conflict: "72 Small Meadow, Isle La Motte, VT" Fuzzy match to "72 Small Meadows, Isle La Motte, VT" -->
    <tag k="addr:city" v="Isle La Motte"/>
    <tag k="addr:housenumber" v="72"/>
    <tag k="addr:street" v="Small Meadow"/>
    <tag k="addr:state" v="VT"/>
    <tag k="ref:vcgi:esiteid" v="654996"/>
  </node>
  <node id="-759" visible="true" lat="44.840533287854" lon="-73.339403809636">
    <!-- conflict: "71 Small Meadow, Isle La Motte, VT" Fuzzy match to "71 Small Meadows, Isle La Motte, VT" -->
    <tag k="addr:city" v="Isle La Motte"/>
    <tag k="addr:housenumber" v="71"/>
    <tag k="addr:street" v="Small Meadow"/>
    <tag k="addr:state" v="VT"/>
    <tag k="ref:vcgi:esiteid" v="654997"/>
  </node>
  <node id="-897" visible="true" lat="44.841966166049" lon="-73.337991455219">
    <!-- conflict: "5 Big Meadow, Isle La Motte, VT" Fuzzy match to "5 Big Meadows, Isle La Motte, VT" -->
    <tag k="addr:city" v="Isle La Motte"/>
    <tag k="addr:housenumber" v="5"/>
    <tag k="addr:street" v="Big Meadow"/>
    <tag k="addr:state" v="VT"/>
    <tag k="ref:vcgi:esiteid" v="655198"/>
  </node>
  <node id="-898" visible="true" lat="44.842312179232" lon="-73.34093078741">
    <!-- conflict: "21 Big Meadow, Isle La Motte, VT" Fuzzy match to "21 Big Meadows, Isle La Motte, VT" -->
    <tag k="addr:city" v="Isle La Motte"/>
    <tag k="addr:housenumber" v="21"/>
    <tag k="addr:street" v="Big Meadow"/>
    <tag k="addr:state" v="VT"/>
    <tag k="ref:vcgi:esiteid" v="655199"/>
  </node>
  <node id="-916" visible="true" lat="44.841290516245" lon="-73.338355761875">
    <!-- conflict: "49 Big Meadow, Isle La Motte, VT" Fuzzy match to "49 Big Meadows, Isle La Motte, VT" -->
    <tag k="addr:city" v="Isle La Motte"/>
    <tag k="addr:housenumber" v="49"/>
    <tag k="addr:street" v="Big Meadow"/>
    <tag k="addr:state" v="VT"/>
    <tag k="ref:vcgi:esiteid" v="655217"/>
  </node>
</osm>
