<?xml version="1.0" encoding="UTF-8"?>
<osm version="0.6" generator="JOSM" upload="false">
  <node id="-559" visible="true" lat="44.933404904426" lon="-72.455250857952">
    <tag k="addr:city" v="North Troy"/>
    <tag k="addr:housenumber" v="866"/>
    <tag k="addr:street" v="Lucier Road"/>
    <tag k="addr:state" v="VT"/>
    <tag k="ref:vcgi:esiteid" v="365673"/>
  </node>
  <node id="-564" visible="true" lat="44.945799063421" lon="-72.442914818805">
    <tag k="addr:city" v="North Troy"/>
    <tag k="addr:housenumber" v="17"/>
    <tag k="addr:street" v="Green Mountain Drive"/>
    <tag k="addr:state" v="VT"/>
    <tag k="ref:vcgi:esiteid" v="446830"/>
  </node>
  <node id="-667" visible="true" lat="44.96948881777" lon="-72.448795599241">
    <tag k="addr:city" v="North Troy"/>
    <tag k="addr:housenumber" v="3099"/>
    <tag k="addr:street" v="Cross Road"/>
    <tag k="addr:state" v="VT"/>
    <tag k="ref:vcgi:esiteid" v="655904"/>
  </node>
  <node id="-702" visible="true" lat="44.96911091506" lon="-72.42588549991">
    <tag k="addr:city" v="North Troy"/>
    <tag k="addr:housenumber" v="230"/>
    <tag k="addr:street" v="Chemin Panoramique"/>
    <tag k="addr:state" v="VT"/>
    <tag k="ref:vcgi:esiteid" v="756755"/>
  </node>
  <node id="-765" visible="true" lat="44.93138497041" lon="-72.451413688391">
    <tag k="addr:city" v="North Troy"/>
    <tag k="addr:housenumber" v="1075"/>
    <tag k="addr:street" v="Lucier Road"/>
    <tag k="addr:state" v="VT"/>
    <tag k="ref:vcgi:esiteid" v="771675"/>
  </node>
  <node id="-766" visible="true" lat="44.984051773882" lon="-72.530914500786">
    <tag k="addr:city" v="Richford"/>
    <tag k="addr:housenumber" v="321"/>
    <tag k="addr:street" v="Hillside Road"/>
    <tag k="addr:state" v="VT"/>
    <tag k="ref:vcgi:esiteid" v="773269"/>
  </node>
  <node id="-767" visible="true" lat="44.959693017468" lon="-72.427824732782">
    <tag k="addr:city" v="North Troy"/>
    <tag k="addr:housenumber" v="185"/>
    <tag k="addr:street" v="River Bend Drive"/>
    <tag k="addr:state" v="VT"/>
    <tag k="ref:vcgi:esiteid" v="773270"/>
  </node>
  <node id="-768" visible="true" lat="44.971916855988" lon="-72.47129399173">
    <tag k="addr:city" v="North Troy"/>
    <tag k="addr:housenumber" v="1717"/>
    <tag k="addr:street" v="Morse Road"/>
    <tag k="addr:state" v="VT"/>
    <tag k="ref:vcgi:esiteid" v="773274"/>
  </node>
  <node id="-769" visible="true" lat="44.972478712259" lon="-72.473733561291">
    <tag k="addr:city" v="North Troy"/>
    <tag k="addr:housenumber" v="1713"/>
    <tag k="addr:street" v="Morse Road"/>
    <tag k="addr:state" v="VT"/>
    <tag k="ref:vcgi:esiteid" v="773275"/>
  </node>
  <node id="-770" visible="true" lat="44.939154618218" lon="-72.503202229382">
    <tag k="addr:city" v="North Troy"/>
    <tag k="addr:housenumber" v="730"/>
    <tag k="addr:street" v="Jay Peak Road"/>
    <tag k="addr:state" v="VT"/>
    <tag k="ref:vcgi:esiteid" v="773276"/>
  </node>
  <node id="-771" visible="true" lat="44.965715583357" lon="-72.490743089457">
    <tag k="addr:city" v="North Troy"/>
    <tag k="addr:housenumber" v="89"/>
    <tag k="addr:street" v="Maple Street"/>
    <tag k="addr:state" v="VT"/>
    <tag k="ref:vcgi:esiteid" v="773277"/>
  </node>
  <node id="-772" visible="true" lat="44.96911710091" lon="-72.426697229349">
    <tag k="addr:city" v="North Troy"/>
    <tag k="addr:housenumber" v="239"/>
    <tag k="addr:street" v="Chemin Panoramique"/>
    <tag k="addr:state" v="VT"/>
    <tag k="ref:vcgi:esiteid" v="773639"/>
  </node>
  <node id="-773" visible="true" lat="44.967145249013" lon="-72.492247472689">
    <tag k="addr:city" v="North Troy"/>
    <tag k="addr:housenumber" v="297"/>
    <tag k="addr:street" v="Maple Street"/>
    <tag k="addr:state" v="VT"/>
    <tag k="ref:vcgi:esiteid" v="773837"/>
  </node>
  <node id="-774" visible="true" lat="44.97700944691" lon="-72.457125720699">
    <tag k="addr:city" v="North Troy"/>
    <tag k="addr:housenumber" v="286"/>
    <tag k="addr:street" v="Tranquility Lane"/>
    <tag k="addr:state" v="VT"/>
    <tag k="ref:vcgi:esiteid" v="773852"/>
  </node>
</osm>
