<?xml version="1.0" encoding="UTF-8"?>
<osm version="0.6" generator="JOSM" upload="false">
  <node id="-100" visible="true" lat="43.299837205083" lon="-72.840998671739">
    <!-- conflict: "72 Jaquith Road, Londonderry, VT" Fuzzy match to "72 Jaquith Road, Landgrove, VT" -->
    <tag k="addr:city" v="Londonderry"/>
    <tag k="addr:housenumber" v="72"/>
    <tag k="addr:street" v="Jaquith Road"/>
    <tag k="addr:state" v="VT"/>
    <tag k="ref:vcgi:esiteid" v="139167"/>
  </node>
  <node id="-101" visible="true" lat="43.299866800158" lon="-72.844850590883">
    <!-- conflict: "97 Jaquith Road, Londonderry, VT" Fuzzy match to "97 Jaquith Road, Landgrove, VT" -->
    <tag k="addr:city" v="Londonderry"/>
    <tag k="addr:housenumber" v="97"/>
    <tag k="addr:street" v="Jaquith Road"/>
    <tag k="addr:state" v="VT"/>
    <tag k="ref:vcgi:esiteid" v="139168"/>
  </node>
  <node id="-102" visible="true" lat="43.299285990278" lon="-72.842973499789">
    <!-- conflict: "88 Jaquith Road, Londonderry, VT" Fuzzy match to "88 Jaquith Road, Landgrove, VT" -->
    <tag k="addr:city" v="Londonderry"/>
    <tag k="addr:housenumber" v="88"/>
    <tag k="addr:street" v="Jaquith Road"/>
    <tag k="addr:state" v="VT"/>
    <tag k="ref:vcgi:esiteid" v="139169"/>
  </node>
  <node id="-103" visible="true" lat="43.298749175203" lon="-72.841477675659">
    <!-- conflict: "78 Jaquith Road, Londonderry, VT" Fuzzy match to "78 Jaquith Road, Landgrove, VT" -->
    <tag k="addr:city" v="Londonderry"/>
    <tag k="addr:housenumber" v="78"/>
    <tag k="addr:street" v="Jaquith Road"/>
    <tag k="addr:state" v="VT"/>
    <tag k="ref:vcgi:esiteid" v="139170"/>
  </node>
  <node id="-104" visible="true" lat="43.297569826835" lon="-72.84388351546">
    <!-- conflict: "89 Jaquith Road, Londonderry, VT" Fuzzy match to "89 Jaquith Road, Landgrove, VT" -->
    <tag k="addr:city" v="Londonderry"/>
    <tag k="addr:housenumber" v="89"/>
    <tag k="addr:street" v="Jaquith Road"/>
    <tag k="addr:state" v="VT"/>
    <tag k="ref:vcgi:esiteid" v="139171"/>
  </node>
  <node id="-105" visible="true" lat="43.296675488871" lon="-72.838402247325">
    <!-- conflict: "61 Jaquith Road, Londonderry, VT" Fuzzy match to "61 Jaquith Road, Landgrove, VT" -->
    <tag k="addr:city" v="Londonderry"/>
    <tag k="addr:housenumber" v="61"/>
    <tag k="addr:street" v="Jaquith Road"/>
    <tag k="addr:state" v="VT"/>
    <tag k="ref:vcgi:esiteid" v="139172"/>
  </node>
  <node id="-106" visible="true" lat="43.293011928829" lon="-72.83700826917">
    <!-- conflict: "28 Jaquith Road, Londonderry, VT" Fuzzy match to "28 Jaquith Road, Landgrove, VT" -->
    <tag k="addr:city" v="Londonderry"/>
    <tag k="addr:housenumber" v="28"/>
    <tag k="addr:street" v="Jaquith Road"/>
    <tag k="addr:state" v="VT"/>
    <tag k="ref:vcgi:esiteid" v="139173"/>
  </node>
  <node id="-107" visible="true" lat="43.292984760217" lon="-72.839723104616">
    <!-- conflict: "23 Jaquith Road, Londonderry, VT" Fuzzy match to "23 Jaquith Road, Landgrove, VT" -->
    <tag k="addr:city" v="Londonderry"/>
    <tag k="addr:housenumber" v="23"/>
    <tag k="addr:street" v="Jaquith Road"/>
    <tag k="addr:state" v="VT"/>
    <tag k="ref:vcgi:esiteid" v="139174"/>
  </node>
  <node id="-108" visible="true" lat="43.292773344719" lon="-72.838470049867">
    <!-- conflict: "24 Jaquith Road, Londonderry, VT" Fuzzy match to "24 Jaquith Road, Landgrove, VT" -->
    <tag k="addr:city" v="Londonderry"/>
    <tag k="addr:housenumber" v="24"/>
    <tag k="addr:street" v="Jaquith Road"/>
    <tag k="addr:state" v="VT"/>
    <tag k="ref:vcgi:esiteid" v="139175"/>
  </node>
  <node id="-109" visible="true" lat="43.292286301154" lon="-72.842246261225">
    <!-- conflict: "311 Landgrove Road, Londonderry, VT" Fuzzy match to "311 Landgrove Road, Landgrove, VT" -->
    <tag k="addr:city" v="Londonderry"/>
    <tag k="addr:housenumber" v="311"/>
    <tag k="addr:street" v="Landgrove Road"/>
    <tag k="addr:state" v="VT"/>
    <tag k="ref:vcgi:esiteid" v="139176"/>
  </node>
  <node id="-110" visible="true" lat="43.292106512835" lon="-72.838604476147">
    <!-- conflict: "20 Jaquith Road, Londonderry, VT" Fuzzy match to "20 Jaquith Road, Landgrove, VT" -->
    <tag k="addr:city" v="Londonderry"/>
    <tag k="addr:housenumber" v="20"/>
    <tag k="addr:street" v="Jaquith Road"/>
    <tag k="addr:state" v="VT"/>
    <tag k="ref:vcgi:esiteid" v="139177"/>
  </node>
  <node id="-111" visible="true" lat="43.292172048323" lon="-72.820121699628">
    <!-- conflict: "425 Landgrove Road, Londonderry, VT" Fuzzy match to "425 Landgrove Road, Landgrove, VT" -->
    <tag k="addr:city" v="Londonderry"/>
    <tag k="addr:housenumber" v="425"/>
    <tag k="addr:street" v="Landgrove Road"/>
    <tag k="addr:state" v="VT"/>
    <tag k="ref:vcgi:esiteid" v="139178"/>
  </node>
  <node id="-112" visible="true" lat="43.291949683033" lon="-72.824027811838">
    <!-- conflict: "403 Landgrove Road, Londonderry, VT" Fuzzy match to "403 Landgrove Road, Landgrove, VT" -->
    <tag k="addr:city" v="Londonderry"/>
    <tag k="addr:housenumber" v="403"/>
    <tag k="addr:street" v="Landgrove Road"/>
    <tag k="addr:state" v="VT"/>
    <tag k="ref:vcgi:esiteid" v="139179"/>
  </node>
  <node id="-113" visible="true" lat="43.291810078564" lon="-72.839402145662">
    <!-- conflict: "15 Jaquith Road, Londonderry, VT" Fuzzy match to "15 Jaquith Road, Landgrove, VT" -->
    <tag k="addr:city" v="Londonderry"/>
    <tag k="addr:housenumber" v="15"/>
    <tag k="addr:street" v="Jaquith Road"/>
    <tag k="addr:state" v="VT"/>
    <tag k="ref:vcgi:esiteid" v="139180"/>
  </node>
  <node id="-114" visible="true" lat="43.29142705162" lon="-72.822739282381">
    <!-- conflict: "415 Landgrove Road, Londonderry, VT" Fuzzy match to "415 Landgrove Road, Landgrove, VT" -->
    <tag k="addr:city" v="Londonderry"/>
    <tag k="addr:housenumber" v="415"/>
    <tag k="addr:street" v="Landgrove Road"/>
    <tag k="addr:state" v="VT"/>
    <tag k="ref:vcgi:esiteid" v="139181"/>
  </node>
  <node id="-115" visible="true" lat="43.291155866198" lon="-72.855637564291">
    <!-- conflict: "36 Hesseltine Road, Londonderry, VT" Fuzzy match to "36 Hesseltine Road, Landgrove, VT" -->
    <tag k="addr:city" v="Londonderry"/>
    <tag k="addr:housenumber" v="36"/>
    <tag k="addr:street" v="Hesseltine Road"/>
    <tag k="addr:state" v="VT"/>
    <tag k="ref:vcgi:esiteid" v="139182"/>
  </node>
  <node id="-116" visible="true" lat="43.290940401178" lon="-72.832623200976">
    <!-- conflict: "363 Landgrove Road, Londonderry, VT" Fuzzy match to "363 Landgrove Road, Landgrove, VT" -->
    <tag k="addr:city" v="Londonderry"/>
    <tag k="addr:housenumber" v="363"/>
    <tag k="addr:street" v="Landgrove Road"/>
    <tag k="addr:state" v="VT"/>
    <tag k="ref:vcgi:esiteid" v="139183"/>
  </node>
  <node id="-117" visible="true" lat="43.290967651082" lon="-72.828335555881">
    <!-- conflict: "385 Landgrove Road, Londonderry, VT" Fuzzy match to "385 Landgrove Road, Landgrove, VT" -->
    <tag k="addr:city" v="Londonderry"/>
    <tag k="addr:housenumber" v="385"/>
    <tag k="addr:street" v="Landgrove Road"/>
    <tag k="addr:state" v="VT"/>
    <tag k="ref:vcgi:esiteid" v="139184"/>
  </node>
  <node id="-118" visible="true" lat="43.290828000761" lon="-72.843197791852">
    <!-- conflict: "309 Landgrove Road, Londonderry, VT" Fuzzy match to "309 Landgrove Road, Landgrove, VT" -->
    <tag k="addr:city" v="Londonderry"/>
    <tag k="addr:housenumber" v="309"/>
    <tag k="addr:street" v="Landgrove Road"/>
    <tag k="addr:state" v="VT"/>
    <tag k="ref:vcgi:esiteid" v="139185"/>
  </node>
  <node id="-119" visible="true" lat="43.290635515678" lon="-72.820525668698">
    <!-- conflict: "426 Landgrove Road, Londonderry, VT" Fuzzy match to "426 Landgrove Road, Landgrove, VT" -->
    <tag k="addr:city" v="Londonderry"/>
    <tag k="addr:housenumber" v="426"/>
    <tag k="addr:street" v="Landgrove Road"/>
    <tag k="addr:state" v="VT"/>
    <tag k="ref:vcgi:esiteid" v="139186"/>
  </node>
  <node id="-120" visible="true" lat="43.289880231953" lon="-72.852861003766">
    <!-- conflict: "19 Hesseltine Road, Londonderry, VT" Fuzzy match to "19 Hesseltine Road, Landgrove, VT" -->
    <tag k="addr:city" v="Londonderry"/>
    <tag k="addr:housenumber" v="19"/>
    <tag k="addr:street" v="Hesseltine Road"/>
    <tag k="addr:state" v="VT"/>
    <tag k="ref:vcgi:esiteid" v="139188"/>
  </node>
  <node id="-121" visible="true" lat="43.289540228723" lon="-72.832670516847">
    <!-- conflict: "368 Landgrove Road, Londonderry, VT" Fuzzy match to "368 Landgrove Road, Landgrove, VT" -->
    <tag k="addr:city" v="Londonderry"/>
    <tag k="addr:housenumber" v="368"/>
    <tag k="addr:street" v="Landgrove Road"/>
    <tag k="addr:state" v="VT"/>
    <tag k="ref:vcgi:esiteid" v="139189"/>
  </node>
  <node id="-122" visible="true" lat="43.289338362471" lon="-72.842526187321">
    <!-- conflict: "209 Cody Road, Londonderry, VT" Fuzzy match to "209 Cody Road, Landgrove, VT" -->
    <tag k="addr:city" v="Londonderry"/>
    <tag k="addr:housenumber" v="209"/>
    <tag k="addr:street" v="Cody Road"/>
    <tag k="addr:state" v="VT"/>
    <tag k="ref:vcgi:esiteid" v="139190"/>
  </node>
  <node id="-123" visible="true" lat="43.288880552508" lon="-72.847367568813">
    <!-- conflict: "284 Landgrove Road, Londonderry, VT" Fuzzy match to "284 Landgrove Road, Landgrove, VT" -->
    <tag k="addr:city" v="Londonderry"/>
    <tag k="addr:housenumber" v="284"/>
    <tag k="addr:street" v="Landgrove Road"/>
    <tag k="addr:state" v="VT"/>
    <tag k="ref:vcgi:esiteid" v="139191"/>
  </node>
  <node id="-124" visible="true" lat="43.287770467528" lon="-72.853343995105">
    <!-- conflict: "251 Landgrove Road, Londonderry, VT" Fuzzy match to "251 Landgrove Road, Landgrove, VT" -->
    <tag k="addr:city" v="Londonderry"/>
    <tag k="addr:housenumber" v="251"/>
    <tag k="addr:street" v="Landgrove Road"/>
    <tag k="addr:state" v="VT"/>
    <tag k="ref:vcgi:esiteid" v="139192"/>
  </node>
  <node id="-125" visible="true" lat="43.287758257486" lon="-72.825881881754">
    <!-- conflict: "394 Landgrove Road, Londonderry, VT" Fuzzy match to "394 Landgrove Road, Landgrove, VT" -->
    <tag k="addr:city" v="Londonderry"/>
    <tag k="addr:housenumber" v="394"/>
    <tag k="addr:street" v="Landgrove Road"/>
    <tag k="addr:state" v="VT"/>
    <tag k="ref:vcgi:esiteid" v="139193"/>
  </node>
  <node id="-126" visible="true" lat="43.286603465232" lon="-72.827589917597">
    <!-- conflict: "392 Landgrove Road, Londonderry, VT" Fuzzy match to "392 Landgrove Road, Landgrove, VT" -->
    <tag k="addr:city" v="Londonderry"/>
    <tag k="addr:housenumber" v="392"/>
    <tag k="addr:street" v="Landgrove Road"/>
    <tag k="addr:state" v="VT"/>
    <tag k="ref:vcgi:esiteid" v="139194"/>
  </node>
  <node id="-127" visible="true" lat="43.285563500135" lon="-72.841689622126">
    <!-- conflict: "186 Cody Road, Londonderry, VT" Fuzzy match to "186 Cody Road, Landgrove, VT" -->
    <tag k="addr:city" v="Londonderry"/>
    <tag k="addr:housenumber" v="186"/>
    <tag k="addr:street" v="Cody Road"/>
    <tag k="addr:state" v="VT"/>
    <tag k="ref:vcgi:esiteid" v="139195"/>
  </node>
  <node id="-128" visible="true" lat="43.285485695997" lon="-72.852324882418">
    <!-- conflict: "244 Landgrove Road, Londonderry, VT" Fuzzy match to "244 Landgrove Road, Landgrove, VT" -->
    <tag k="addr:city" v="Londonderry"/>
    <tag k="addr:housenumber" v="244"/>
    <tag k="addr:street" v="Landgrove Road"/>
    <tag k="addr:state" v="VT"/>
    <tag k="ref:vcgi:esiteid" v="139196"/>
  </node>
  <node id="-129" visible="true" lat="43.28364102243" lon="-72.856435938967">
    <!-- conflict: "221 Landgrove Road, Londonderry, VT" Fuzzy match to "221 Landgrove Road, Landgrove, VT" -->
    <tag k="addr:city" v="Londonderry"/>
    <tag k="addr:housenumber" v="221"/>
    <tag k="addr:street" v="Landgrove Road"/>
    <tag k="addr:state" v="VT"/>
    <tag k="ref:vcgi:esiteid" v="139197"/>
  </node>
  <node id="-130" visible="true" lat="43.280845853064" lon="-72.843373333629">
    <!-- conflict: "155 Cody Road, Londonderry, VT" Fuzzy match to "155 Cody Road, Landgrove, VT" -->
    <tag k="addr:city" v="Londonderry"/>
    <tag k="addr:housenumber" v="155"/>
    <tag k="addr:street" v="Cody Road"/>
    <tag k="addr:state" v="VT"/>
    <tag k="ref:vcgi:esiteid" v="139198"/>
  </node>
  <node id="-131" visible="true" lat="43.279725069284" lon="-72.841155375861">
    <!-- conflict: "146 Cody Road, Londonderry, VT" Fuzzy match to "146 Cody Road, Landgrove, VT" -->
    <tag k="addr:city" v="Londonderry"/>
    <tag k="addr:housenumber" v="146"/>
    <tag k="addr:street" v="Cody Road"/>
    <tag k="addr:state" v="VT"/>
    <tag k="ref:vcgi:esiteid" v="139199"/>
  </node>
  <node id="-132" visible="true" lat="43.279248520623" lon="-72.857910769449">
    <!-- conflict: "190 Landgrove Road, Londonderry, VT" Fuzzy match to "190 Landgrove Road, Landgrove, VT" -->
    <tag k="addr:city" v="Londonderry"/>
    <tag k="addr:housenumber" v="190"/>
    <tag k="addr:street" v="Landgrove Road"/>
    <tag k="addr:state" v="VT"/>
    <tag k="ref:vcgi:esiteid" v="139200"/>
  </node>
  <node id="-133" visible="true" lat="43.279105535479" lon="-72.850400392775">
    <!-- conflict: "45 Uphill Road, Londonderry, VT" Fuzzy match to "45 Uphill Road, Landgrove, VT" -->
    <tag k="addr:city" v="Londonderry"/>
    <tag k="addr:housenumber" v="45"/>
    <tag k="addr:street" v="Uphill Road"/>
    <tag k="addr:state" v="VT"/>
    <tag k="ref:vcgi:esiteid" v="139201"/>
  </node>
  <node id="-134" visible="true" lat="43.278924060487" lon="-72.842981045207">
    <!-- conflict: "141 Cody Road, Londonderry, VT" Fuzzy match to "141 Cody Road, Landgrove, VT" -->
    <tag k="addr:city" v="Londonderry"/>
    <tag k="addr:housenumber" v="141"/>
    <tag k="addr:street" v="Cody Road"/>
    <tag k="addr:state" v="VT"/>
    <tag k="ref:vcgi:esiteid" v="139202"/>
  </node>
  <node id="-135" visible="true" lat="43.278792794691" lon="-72.858416050076">
    <!-- conflict: "2 Uphill Road, Londonderry, VT" Fuzzy match to "2 Uphill Road, Landgrove, VT" -->
    <tag k="addr:city" v="Londonderry"/>
    <tag k="addr:housenumber" v="2"/>
    <tag k="addr:street" v="Uphill Road"/>
    <tag k="addr:state" v="VT"/>
    <tag k="ref:vcgi:esiteid" v="139203"/>
  </node>
  <node id="-136" visible="true" lat="43.277845465056" lon="-72.859285815424">
    <!-- conflict: "178 Landgrove Road, Londonderry, VT" Fuzzy match to "178 Landgrove Road, Landgrove, VT" -->
    <tag k="addr:city" v="Londonderry"/>
    <tag k="addr:housenumber" v="178"/>
    <tag k="addr:street" v="Landgrove Road"/>
    <tag k="addr:state" v="VT"/>
    <tag k="ref:vcgi:esiteid" v="139204"/>
  </node>
  <node id="-137" visible="true" lat="43.27779759461" lon="-72.843095206192">
    <!-- conflict: "135 Cody Road, Londonderry, VT" Fuzzy match to "135 Cody Road, Landgrove, VT" -->
    <tag k="addr:city" v="Londonderry"/>
    <tag k="addr:housenumber" v="135"/>
    <tag k="addr:street" v="Cody Road"/>
    <tag k="addr:state" v="VT"/>
    <tag k="ref:vcgi:esiteid" v="139205"/>
  </node>
  <node id="-138" visible="true" lat="43.277718692579" lon="-72.85413018634">
    <!-- conflict: "27 Uphill Road, Londonderry, VT" Fuzzy match to "27 Uphill Road, Landgrove, VT" -->
    <tag k="addr:city" v="Londonderry"/>
    <tag k="addr:housenumber" v="27"/>
    <tag k="addr:street" v="Uphill Road"/>
    <tag k="addr:state" v="VT"/>
    <tag k="ref:vcgi:esiteid" v="139206"/>
  </node>
  <node id="-139" visible="true" lat="43.277572857474" lon="-72.861021310782">
    <!-- conflict: "171 Landgrove Road, Londonderry, VT" Fuzzy match to "171 Landgrove Road, Landgrove, VT" -->
    <tag k="addr:city" v="Londonderry"/>
    <tag k="addr:housenumber" v="171"/>
    <tag k="addr:street" v="Landgrove Road"/>
    <tag k="addr:state" v="VT"/>
    <tag k="ref:vcgi:esiteid" v="139207"/>
  </node>
  <node id="-140" visible="true" lat="43.277133420586" lon="-72.851129608154">
    <!-- conflict: "43 Uphill Road, Londonderry, VT" Fuzzy match to "43 Uphill Road, Landgrove, VT" -->
    <tag k="addr:city" v="Londonderry"/>
    <tag k="addr:housenumber" v="43"/>
    <tag k="addr:street" v="Uphill Road"/>
    <tag k="addr:state" v="VT"/>
    <tag k="ref:vcgi:esiteid" v="139208"/>
  </node>
  <node id="-141" visible="true" lat="43.276794036483" lon="-72.849590043104">
    <!-- conflict: "49 Uphill Road, Londonderry, VT" Fuzzy match to "49 Uphill Road, Landgrove, VT" -->
    <tag k="addr:city" v="Londonderry"/>
    <tag k="addr:housenumber" v="49"/>
    <tag k="addr:street" v="Uphill Road"/>
    <tag k="addr:state" v="VT"/>
    <tag k="ref:vcgi:esiteid" v="139209"/>
  </node>
  <node id="-142" visible="true" lat="43.276664161732" lon="-72.85619101087">
    <!-- conflict: "14 Uphill Road, Londonderry, VT" Fuzzy match to "14 Uphill Road, Landgrove, VT" -->
    <tag k="addr:city" v="Londonderry"/>
    <tag k="addr:housenumber" v="14"/>
    <tag k="addr:street" v="Uphill Road"/>
    <tag k="addr:state" v="VT"/>
    <tag k="ref:vcgi:esiteid" v="139210"/>
  </node>
  <node id="-143" visible="true" lat="43.276448521767" lon="-72.84876823192">
    <!-- conflict: "53 Uphill Road, Londonderry, VT" Fuzzy match to "53 Uphill Road, Landgrove, VT" -->
    <tag k="addr:city" v="Londonderry"/>
    <tag k="addr:housenumber" v="53"/>
    <tag k="addr:street" v="Uphill Road"/>
    <tag k="addr:state" v="VT"/>
    <tag k="ref:vcgi:esiteid" v="139211"/>
  </node>
  <node id="-144" visible="true" lat="43.275741214533" lon="-72.85008590608">
    <!-- conflict: "46 Uphill Road, Londonderry, VT" Fuzzy match to "46 Uphill Road, Landgrove, VT" -->
    <tag k="addr:city" v="Londonderry"/>
    <tag k="addr:housenumber" v="46"/>
    <tag k="addr:street" v="Uphill Road"/>
    <tag k="addr:state" v="VT"/>
    <tag k="ref:vcgi:esiteid" v="139212"/>
  </node>
  <node id="-145" visible="true" lat="43.275447555435" lon="-72.848862123602">
    <!-- conflict: "55 Uphill Road, Londonderry, VT" Fuzzy match to "55 Uphill Road, Landgrove, VT" -->
    <tag k="addr:city" v="Londonderry"/>
    <tag k="addr:housenumber" v="55"/>
    <tag k="addr:street" v="Uphill Road"/>
    <tag k="addr:state" v="VT"/>
    <tag k="ref:vcgi:esiteid" v="139213"/>
  </node>
  <node id="-146" visible="true" lat="43.275085858325" lon="-72.842983949534">
    <!-- conflict: "116 Cody Road, Londonderry, VT" Fuzzy match to "116 Cody Road, Landgrove, VT" -->
    <tag k="addr:city" v="Londonderry"/>
    <tag k="addr:housenumber" v="116"/>
    <tag k="addr:street" v="Cody Road"/>
    <tag k="addr:state" v="VT"/>
    <tag k="ref:vcgi:esiteid" v="139214"/>
  </node>
  <node id="-147" visible="true" lat="43.274705570367" lon="-72.861437637183">
    <!-- conflict: "2 Little Michigan Road, Londonderry, VT" Fuzzy match to "2 Little Michigan Road, Landgrove, VT" -->
    <tag k="addr:city" v="Londonderry"/>
    <tag k="addr:housenumber" v="2"/>
    <tag k="addr:street" v="Little Michigan Road"/>
    <tag k="addr:state" v="VT"/>
    <tag k="ref:vcgi:esiteid" v="139215"/>
  </node>
  <node id="-148" visible="true" lat="43.272841611382" lon="-72.862125736409">
    <!-- conflict: "141 Landgrove Road, Londonderry, VT" Fuzzy match to "141 Landgrove Road, Landgrove, VT" -->
    <tag k="addr:city" v="Londonderry"/>
    <tag k="addr:housenumber" v="141"/>
    <tag k="addr:street" v="Landgrove Road"/>
    <tag k="addr:state" v="VT"/>
    <tag k="ref:vcgi:esiteid" v="139216"/>
  </node>
  <node id="-149" visible="true" lat="43.272542325115" lon="-72.86198714822">
    <!-- conflict: "139 Landgrove Road, Londonderry, VT" Fuzzy match to "139 Landgrove Road, Landgrove, VT" -->
    <tag k="addr:city" v="Londonderry"/>
    <tag k="addr:housenumber" v="139"/>
    <tag k="addr:street" v="Landgrove Road"/>
    <tag k="addr:state" v="VT"/>
    <tag k="ref:vcgi:esiteid" v="139217"/>
  </node>
  <node id="-150" visible="true" lat="43.272416150108" lon="-72.844975790309">
    <!-- conflict: "101 Cody Road, Londonderry, VT" Fuzzy match to "101 Cody Road, Landgrove, VT" -->
    <tag k="addr:city" v="Londonderry"/>
    <tag k="addr:housenumber" v="101"/>
    <tag k="addr:street" v="Cody Road"/>
    <tag k="addr:state" v="VT"/>
    <tag k="ref:vcgi:esiteid" v="139218"/>
  </node>
  <node id="-151" visible="true" lat="43.272026548051" lon="-72.849855993797">
    <!-- conflict: "41 Tarpley Road, Londonderry, VT" Fuzzy match to "41 Tarpley Road, Landgrove, VT" -->
    <tag k="addr:city" v="Londonderry"/>
    <tag k="addr:housenumber" v="41"/>
    <tag k="addr:street" v="Tarpley Road"/>
    <tag k="addr:state" v="VT"/>
    <tag k="ref:vcgi:esiteid" v="139219"/>
  </node>
  <node id="-152" visible="true" lat="43.271792799347" lon="-72.8611854242">
    <!-- conflict: "132 Landgrove Road, Londonderry, VT" Fuzzy match to "132 Landgrove Road, Landgrove, VT" -->
    <tag k="addr:city" v="Londonderry"/>
    <tag k="addr:housenumber" v="132"/>
    <tag k="addr:street" v="Landgrove Road"/>
    <tag k="addr:state" v="VT"/>
    <tag k="ref:vcgi:esiteid" v="139220"/>
  </node>
  <node id="-153" visible="true" lat="43.270617605961" lon="-72.862052263067">
    <!-- conflict: "125 Landgrove Road, Londonderry, VT" Fuzzy match to "125 Landgrove Road, Landgrove, VT" -->
    <tag k="addr:city" v="Londonderry"/>
    <tag k="addr:housenumber" v="125"/>
    <tag k="addr:street" v="Landgrove Road"/>
    <tag k="addr:state" v="VT"/>
    <tag k="ref:vcgi:esiteid" v="139221"/>
  </node>
  <node id="-154" visible="true" lat="43.270335774084" lon="-72.860332057076">
    <!-- conflict: "120 Landgrove Road, Londonderry, VT" Fuzzy match to "120 Landgrove Road, Landgrove, VT" -->
    <tag k="addr:city" v="Londonderry"/>
    <tag k="addr:housenumber" v="120"/>
    <tag k="addr:street" v="Landgrove Road"/>
    <tag k="addr:state" v="VT"/>
    <tag k="ref:vcgi:esiteid" v="139222"/>
  </node>
  <node id="-155" visible="true" lat="43.269703210535" lon="-72.850350440471">
    <!-- conflict: "25 Tarpley Road, Londonderry, VT" Fuzzy match to "25 Tarpley Road, Landgrove, VT" -->
    <tag k="addr:city" v="Londonderry"/>
    <tag k="addr:housenumber" v="25"/>
    <tag k="addr:street" v="Tarpley Road"/>
    <tag k="addr:state" v="VT"/>
    <tag k="ref:vcgi:esiteid" v="139223"/>
  </node>
  <node id="-156" visible="true" lat="43.269664069941" lon="-72.83489041175">
    <!-- conflict: "27 Sled Run Drive, Londonderry, VT" Fuzzy match to "27 Sled Run Drive, Landgrove, VT" -->
    <tag k="addr:city" v="Londonderry"/>
    <tag k="addr:housenumber" v="27"/>
    <tag k="addr:street" v="Sled Run Drive"/>
    <tag k="addr:state" v="VT"/>
    <tag k="ref:vcgi:esiteid" v="139224"/>
  </node>
  <node id="-157" visible="true" lat="43.269556589067" lon="-72.848196570498">
    <!-- conflict: "28 Tarpley Road, Londonderry, VT" Fuzzy match to "28 Tarpley Road, Landgrove, VT" -->
    <tag k="addr:city" v="Londonderry"/>
    <tag k="addr:housenumber" v="28"/>
    <tag k="addr:street" v="Tarpley Road"/>
    <tag k="addr:state" v="VT"/>
    <tag k="ref:vcgi:esiteid" v="139225"/>
  </node>
  <node id="-158" visible="true" lat="43.269076351914" lon="-72.858225671109">
    <!-- conflict: "108 Landgrove Road, Londonderry, VT" Fuzzy match to "108 Landgrove Road, Landgrove, VT" -->
    <tag k="addr:city" v="Londonderry"/>
    <tag k="addr:housenumber" v="108"/>
    <tag k="addr:street" v="Landgrove Road"/>
    <tag k="addr:state" v="VT"/>
    <tag k="ref:vcgi:esiteid" v="139226"/>
  </node>
  <node id="-159" visible="true" lat="43.268971608723" lon="-72.832213587136">
    <!-- conflict: "14 Sled Run Drive, Londonderry, VT" Fuzzy match to "14 Sled Run Drive, Landgrove, VT" -->
    <tag k="addr:city" v="Londonderry"/>
    <tag k="addr:housenumber" v="14"/>
    <tag k="addr:street" v="Sled Run Drive"/>
    <tag k="addr:state" v="VT"/>
    <tag k="ref:vcgi:esiteid" v="139227"/>
  </node>
  <node id="-160" visible="true" lat="43.268963127337" lon="-72.840875821846">
    <!-- conflict: "70 Cody Road, Londonderry, VT" Fuzzy match to "70 Cody Road, Landgrove, VT" -->
    <tag k="addr:city" v="Londonderry"/>
    <tag k="addr:housenumber" v="70"/>
    <tag k="addr:street" v="Cody Road"/>
    <tag k="addr:state" v="VT"/>
    <tag k="ref:vcgi:esiteid" v="139228"/>
  </node>
  <node id="-161" visible="true" lat="43.268185868573" lon="-72.850716057948">
    <!-- conflict: "13 Tarpley Road, Londonderry, VT" Fuzzy match to "13 Tarpley Road, Landgrove, VT" -->
    <tag k="addr:city" v="Londonderry"/>
    <tag k="addr:housenumber" v="13"/>
    <tag k="addr:street" v="Tarpley Road"/>
    <tag k="addr:state" v="VT"/>
    <tag k="ref:vcgi:esiteid" v="139229"/>
  </node>
  <node id="-162" visible="true" lat="43.267715784686" lon="-72.843716725068">
    <!-- conflict: "57 Cody Road, Londonderry, VT" Fuzzy match to "57 Cody Road, Landgrove, VT" -->
    <tag k="addr:city" v="Londonderry"/>
    <tag k="addr:housenumber" v="57"/>
    <tag k="addr:street" v="Cody Road"/>
    <tag k="addr:state" v="VT"/>
    <tag k="ref:vcgi:esiteid" v="139230"/>
  </node>
  <node id="-163" visible="true" lat="43.26745770102" lon="-72.857935481648">
    <!-- conflict: "98 Landgrove Road, Londonderry, VT" Fuzzy match to "98 Landgrove Road, Landgrove, VT" -->
    <tag k="addr:city" v="Londonderry"/>
    <tag k="addr:housenumber" v="98"/>
    <tag k="addr:street" v="Landgrove Road"/>
    <tag k="addr:state" v="VT"/>
    <tag k="ref:vcgi:esiteid" v="139231"/>
  </node>
  <node id="-164" visible="true" lat="43.267316075655" lon="-72.835697179744">
    <!-- conflict: "13 Sled Run Drive, Londonderry, VT" Fuzzy match to "13 Sled Run Drive, Landgrove, VT" -->
    <tag k="addr:city" v="Londonderry"/>
    <tag k="addr:housenumber" v="13"/>
    <tag k="addr:street" v="Sled Run Drive"/>
    <tag k="addr:state" v="VT"/>
    <tag k="ref:vcgi:esiteid" v="139232"/>
  </node>
  <node id="-165" visible="true" lat="43.267404511412" lon="-72.849429142551">
    <!-- conflict: "8 Tarpley Road, Londonderry, VT" Fuzzy match to "8 Tarpley Road, Landgrove, VT" -->
    <tag k="addr:city" v="Londonderry"/>
    <tag k="addr:housenumber" v="8"/>
    <tag k="addr:street" v="Tarpley Road"/>
    <tag k="addr:state" v="VT"/>
    <tag k="ref:vcgi:esiteid" v="139233"/>
  </node>
  <node id="-166" visible="true" lat="43.267190172324" lon="-72.850681334368">
    <!-- conflict: "9 Tarpley Road, Londonderry, VT" Fuzzy match to "9 Tarpley Road, Landgrove, VT" -->
    <tag k="addr:city" v="Londonderry"/>
    <tag k="addr:housenumber" v="9"/>
    <tag k="addr:street" v="Tarpley Road"/>
    <tag k="addr:state" v="VT"/>
    <tag k="ref:vcgi:esiteid" v="139234"/>
  </node>
  <node id="-167" visible="true" lat="43.266251361798" lon="-72.854709252258">
    <!-- conflict: "12 Old County Road East, Londonderry, VT" Fuzzy match to "12 Old County Road East, Landgrove, VT" -->
    <tag k="addr:city" v="Londonderry"/>
    <tag k="addr:housenumber" v="12"/>
    <tag k="addr:street" v="Old County Road East"/>
    <tag k="addr:state" v="VT"/>
    <tag k="ref:vcgi:esiteid" v="139235"/>
  </node>
  <node id="-168" visible="true" lat="43.266307351913" lon="-72.857258186187">
    <!-- conflict: "88 Landgrove Road, Londonderry, VT" Fuzzy match to "88 Landgrove Road, Landgrove, VT" -->
    <tag k="addr:city" v="Londonderry"/>
    <tag k="addr:housenumber" v="88"/>
    <tag k="addr:street" v="Landgrove Road"/>
    <tag k="addr:state" v="VT"/>
    <tag k="ref:vcgi:esiteid" v="139236"/>
  </node>
  <node id="-169" visible="true" lat="43.266376684417" lon="-72.845965459046">
    <!-- conflict: "31 Cody Road, Londonderry, VT" Fuzzy match to "31 Cody Road, Landgrove, VT" -->
    <tag k="addr:city" v="Londonderry"/>
    <tag k="addr:housenumber" v="31"/>
    <tag k="addr:street" v="Cody Road"/>
    <tag k="addr:state" v="VT"/>
    <tag k="ref:vcgi:esiteid" v="139237"/>
  </node>
  <node id="-170" visible="true" lat="43.265509336861" lon="-72.850281342049">
    <!-- conflict: "38 Old County Road East, Londonderry, VT" Fuzzy match to "38 Old County Road East, Landgrove, VT" -->
    <tag k="addr:city" v="Londonderry"/>
    <tag k="addr:housenumber" v="38"/>
    <tag k="addr:street" v="Old County Road East"/>
    <tag k="addr:state" v="VT"/>
    <tag k="ref:vcgi:esiteid" v="139238"/>
  </node>
  <node id="-171" visible="true" lat="43.266068220158" lon="-72.840524221032">
    <!-- conflict: "11 Old County Road East, Londonderry, VT" Fuzzy match to "11 Old County Road East, Landgrove, VT" -->
    <tag k="addr:city" v="Londonderry"/>
    <tag k="addr:housenumber" v="11"/>
    <tag k="addr:street" v="Old County Road East"/>
    <tag k="addr:state" v="VT"/>
    <tag k="ref:vcgi:esiteid" v="139239"/>
  </node>
  <node id="-172" visible="true" lat="43.265855785035" lon="-72.840172913674">
    <!-- conflict: "13 Old County Road East, Londonderry, VT" Fuzzy match to "13 Old County Road East, Landgrove, VT" -->
    <tag k="addr:city" v="Londonderry"/>
    <tag k="addr:housenumber" v="13"/>
    <tag k="addr:street" v="Old County Road East"/>
    <tag k="addr:state" v="VT"/>
    <tag k="ref:vcgi:esiteid" v="139240"/>
  </node>
  <node id="-173" visible="true" lat="43.265812741499" lon="-72.855587768714">
    <!-- conflict: "6 Old County Road East, Londonderry, VT" Fuzzy match to "6 Old County Road East, Landgrove, VT" -->
    <tag k="addr:city" v="Londonderry"/>
    <tag k="addr:housenumber" v="6"/>
    <tag k="addr:street" v="Old County Road East"/>
    <tag k="addr:state" v="VT"/>
    <tag k="ref:vcgi:esiteid" v="139241"/>
  </node>
  <node id="-174" visible="true" lat="43.26579343652" lon="-72.856523493672">
    <!-- conflict: "84 Landgrove Road, Londonderry, VT" Fuzzy match to "84 Landgrove Road, Landgrove, VT" -->
    <tag k="addr:city" v="Londonderry"/>
    <tag k="addr:housenumber" v="84"/>
    <tag k="addr:street" v="Landgrove Road"/>
    <tag k="addr:state" v="VT"/>
    <tag k="ref:vcgi:esiteid" v="139242"/>
  </node>
  <node id="-175" visible="true" lat="43.2657710902" lon="-72.833283172242">
    <!-- conflict: "49 Old County Road East, Londonderry, VT" Fuzzy match to "49 Old County Road East, Landgrove, VT" -->
    <tag k="addr:city" v="Londonderry"/>
    <tag k="addr:housenumber" v="49"/>
    <tag k="addr:street" v="Old County Road East"/>
    <tag k="addr:state" v="VT"/>
    <tag k="ref:vcgi:esiteid" v="139243"/>
  </node>
  <node id="-176" visible="true" lat="43.26569518674" lon="-72.842691414373">
    <!-- conflict: "4 Old County Road East, Londonderry, VT" Fuzzy match to "4 Old County Road East, Landgrove, VT" -->
    <tag k="addr:city" v="Londonderry"/>
    <tag k="addr:housenumber" v="4"/>
    <tag k="addr:street" v="Old County Road East"/>
    <tag k="addr:state" v="VT"/>
    <tag k="ref:vcgi:esiteid" v="139244"/>
  </node>
  <node id="-177" visible="true" lat="43.26504067034" lon="-72.854853864313">
    <!-- conflict: "74 Landgrove Road, Londonderry, VT" Fuzzy match to "74 Landgrove Road, Landgrove, VT" -->
    <tag k="addr:city" v="Londonderry"/>
    <tag k="addr:housenumber" v="74"/>
    <tag k="addr:street" v="Landgrove Road"/>
    <tag k="addr:state" v="VT"/>
    <tag k="ref:vcgi:esiteid" v="139245"/>
  </node>
  <node id="-178" visible="true" lat="43.264283564022" lon="-72.860835773356">
    <!-- conflict: "17 Hapgood Pond Road, Londonderry, VT" Fuzzy match to "17 Hapgood Pond Road, Landgrove, VT" -->
    <tag k="addr:city" v="Londonderry"/>
    <tag k="addr:housenumber" v="17"/>
    <tag k="addr:street" v="Hapgood Pond Road"/>
    <tag k="addr:state" v="VT"/>
    <tag k="ref:vcgi:esiteid" v="139246"/>
  </node>
  <node id="-179" visible="true" lat="43.263999119276" lon="-72.855290045177">
    <!-- conflict: "69 Landgrove Road, Londonderry, VT" Fuzzy match to "69 Landgrove Road, Landgrove, VT" -->
    <tag k="addr:city" v="Londonderry"/>
    <tag k="addr:housenumber" v="69"/>
    <tag k="addr:street" v="Landgrove Road"/>
    <tag k="addr:state" v="VT"/>
    <tag k="ref:vcgi:esiteid" v="139247"/>
  </node>
  <node id="-180" visible="true" lat="43.264015009085" lon="-72.848419186119">
    <!-- conflict: "15 Cody Road, Londonderry, VT" Fuzzy match to "15 Cody Road, Landgrove, VT" -->
    <tag k="addr:city" v="Londonderry"/>
    <tag k="addr:housenumber" v="15"/>
    <tag k="addr:street" v="Cody Road"/>
    <tag k="addr:state" v="VT"/>
    <tag k="ref:vcgi:esiteid" v="139248"/>
  </node>
  <node id="-181" visible="true" lat="43.263896043293" lon="-72.861173880799">
    <!-- conflict: "15 Hapgood Pond Road, Londonderry, VT" Fuzzy match to "15 Hapgood Pond Road, Landgrove, VT" -->
    <tag k="addr:city" v="Londonderry"/>
    <tag k="addr:housenumber" v="15"/>
    <tag k="addr:street" v="Hapgood Pond Road"/>
    <tag k="addr:state" v="VT"/>
    <tag k="ref:vcgi:esiteid" v="139249"/>
  </node>
  <node id="-182" visible="true" lat="43.263856149634" lon="-72.842548203929">
    <!-- conflict: "8 Old County Road East, Londonderry, VT" Fuzzy match to "8 Old County Road East, Landgrove, VT" -->
    <tag k="addr:city" v="Londonderry"/>
    <tag k="addr:housenumber" v="8"/>
    <tag k="addr:street" v="Old County Road East"/>
    <tag k="addr:state" v="VT"/>
    <tag k="ref:vcgi:esiteid" v="139250"/>
  </node>
  <node id="-183" visible="true" lat="43.263557542819" lon="-72.845160413589">
    <!-- conflict: "10 Cody Road, Londonderry, VT" Fuzzy match to "10 Cody Road, Landgrove, VT" -->
    <tag k="addr:city" v="Londonderry"/>
    <tag k="addr:housenumber" v="10"/>
    <tag k="addr:street" v="Cody Road"/>
    <tag k="addr:state" v="VT"/>
    <tag k="ref:vcgi:esiteid" v="139251"/>
  </node>
  <node id="-184" visible="true" lat="43.263593965241" lon="-72.861820367284">
    <!-- conflict: "13 Hapgood Pond Road, Londonderry, VT" Fuzzy match to "13 Hapgood Pond Road, Landgrove, VT" -->
    <tag k="addr:city" v="Londonderry"/>
    <tag k="addr:housenumber" v="13"/>
    <tag k="addr:street" v="Hapgood Pond Road"/>
    <tag k="addr:state" v="VT"/>
    <tag k="ref:vcgi:esiteid" v="139252"/>
  </node>
  <node id="-185" visible="true" lat="43.263081548216" lon="-72.846703889407">
    <!-- conflict: "7 Cody Road, Londonderry, VT" Fuzzy match to "7 Cody Road, Landgrove, VT" -->
    <tag k="addr:city" v="Londonderry"/>
    <tag k="addr:housenumber" v="7"/>
    <tag k="addr:street" v="Cody Road"/>
    <tag k="addr:state" v="VT"/>
    <tag k="ref:vcgi:esiteid" v="139253"/>
  </node>
  <node id="-186" visible="true" lat="43.263194411859" lon="-72.860538586651">
    <!-- conflict: "14 Hapgood Pond Road, Londonderry, VT" Fuzzy match to "14 Hapgood Pond Road, Landgrove, VT" -->
    <tag k="addr:city" v="Londonderry"/>
    <tag k="addr:housenumber" v="14"/>
    <tag k="addr:street" v="Hapgood Pond Road"/>
    <tag k="addr:state" v="VT"/>
    <tag k="ref:vcgi:esiteid" v="139254"/>
  </node>
  <node id="-187" visible="true" lat="43.263120752582" lon="-72.862409532823">
    <!-- conflict: "7 Hapgood Pond Road, Londonderry, VT" Fuzzy match to "7 Hapgood Pond Road, Landgrove, VT" -->
    <tag k="addr:city" v="Londonderry"/>
    <tag k="addr:housenumber" v="7"/>
    <tag k="addr:street" v="Hapgood Pond Road"/>
    <tag k="addr:state" v="VT"/>
    <tag k="ref:vcgi:esiteid" v="139255"/>
  </node>
  <node id="-188" visible="true" lat="43.262663269756" lon="-72.845787428553">
    <!-- conflict: "6 Cody Road, Londonderry, VT" Fuzzy match to "6 Cody Road, Landgrove, VT" -->
    <tag k="addr:city" v="Londonderry"/>
    <tag k="addr:housenumber" v="6"/>
    <tag k="addr:street" v="Cody Road"/>
    <tag k="addr:state" v="VT"/>
    <tag k="ref:vcgi:esiteid" v="139256"/>
  </node>
  <node id="-189" visible="true" lat="43.261944838059" lon="-72.848423273903">
    <!-- conflict: "30 Landgrove Road, Londonderry, VT" Fuzzy match to "30 Landgrove Road, Landgrove, VT" -->
    <tag k="addr:city" v="Londonderry"/>
    <tag k="addr:housenumber" v="30"/>
    <tag k="addr:street" v="Landgrove Road"/>
    <tag k="addr:state" v="VT"/>
    <tag k="ref:vcgi:esiteid" v="139257"/>
  </node>
  <node id="-190" visible="true" lat="43.260884536438" lon="-72.848819107891">
    <!-- conflict: "23 Landgrove Road, Londonderry, VT" Fuzzy match to "23 Landgrove Road, Landgrove, VT" -->
    <tag k="addr:city" v="Londonderry"/>
    <tag k="addr:housenumber" v="23"/>
    <tag k="addr:street" v="Landgrove Road"/>
    <tag k="addr:state" v="VT"/>
    <tag k="ref:vcgi:esiteid" v="139258"/>
  </node>
  <node id="-191" visible="true" lat="43.260487666753" lon="-72.848873784415">
    <!-- conflict: "21 Landgrove Road, Londonderry, VT" Fuzzy match to "21 Landgrove Road, Landgrove, VT" -->
    <tag k="addr:city" v="Londonderry"/>
    <tag k="addr:housenumber" v="21"/>
    <tag k="addr:street" v="Landgrove Road"/>
    <tag k="addr:state" v="VT"/>
    <tag k="ref:vcgi:esiteid" v="139259"/>
  </node>
  <node id="-192" visible="true" lat="43.260151961774" lon="-72.848937507295">
    <!-- conflict: "19 Landgrove Road, Londonderry, VT" Fuzzy match to "19 Landgrove Road, Landgrove, VT" -->
    <tag k="addr:city" v="Londonderry"/>
    <tag k="addr:housenumber" v="19"/>
    <tag k="addr:street" v="Landgrove Road"/>
    <tag k="addr:state" v="VT"/>
    <tag k="ref:vcgi:esiteid" v="139260"/>
  </node>
  <node id="-193" visible="true" lat="43.25988331138" lon="-72.84852836364">
    <!-- conflict: "18 Landgrove Road, Londonderry, VT" Fuzzy match to "18 Landgrove Road, Landgrove, VT" -->
    <tag k="addr:city" v="Londonderry"/>
    <tag k="addr:housenumber" v="18"/>
    <tag k="addr:street" v="Landgrove Road"/>
    <tag k="addr:state" v="VT"/>
    <tag k="ref:vcgi:esiteid" v="139261"/>
  </node>
  <node id="-194" visible="true" lat="43.259825845465" lon="-72.848942367139">
    <!-- conflict: "17 Landgrove Road, Londonderry, VT" Fuzzy match to "17 Landgrove Road, Landgrove, VT" -->
    <tag k="addr:city" v="Londonderry"/>
    <tag k="addr:housenumber" v="17"/>
    <tag k="addr:street" v="Landgrove Road"/>
    <tag k="addr:state" v="VT"/>
    <tag k="ref:vcgi:esiteid" v="139262"/>
  </node>
  <node id="-195" visible="true" lat="43.259820123124" lon="-72.850152542407">
    <!-- conflict: "8 Nichols Road, Londonderry, VT" Fuzzy match to "8 Nichols Road, Landgrove, VT" -->
    <tag k="addr:city" v="Londonderry"/>
    <tag k="addr:housenumber" v="8"/>
    <tag k="addr:street" v="Nichols Road"/>
    <tag k="addr:state" v="VT"/>
    <tag k="ref:vcgi:esiteid" v="139263"/>
  </node>
  <node id="-196" visible="true" lat="43.259589637255" lon="-72.861406206303">
    <!-- conflict: "10 Hapgood Pond Road, Londonderry, VT" Fuzzy match to "10 Hapgood Pond Road, Landgrove, VT" -->
    <tag k="addr:city" v="Londonderry"/>
    <tag k="addr:housenumber" v="10"/>
    <tag k="addr:street" v="Hapgood Pond Road"/>
    <tag k="addr:state" v="VT"/>
    <tag k="ref:vcgi:esiteid" v="139264"/>
  </node>
  <node id="-197" visible="true" lat="43.259614292728" lon="-72.848424476786">
    <!-- conflict: "16 Landgrove Road, Londonderry, VT" Fuzzy match to "16 Landgrove Road, Landgrove, VT" -->
    <tag k="addr:city" v="Londonderry"/>
    <tag k="addr:housenumber" v="16"/>
    <tag k="addr:street" v="Landgrove Road"/>
    <tag k="addr:state" v="VT"/>
    <tag k="ref:vcgi:esiteid" v="139265"/>
  </node>
  <node id="-198" visible="true" lat="43.259505708867" lon="-72.849204411391">
    <!-- conflict: "5 Nichols Road, Londonderry, VT" Fuzzy match to "5 Nichols Road, Landgrove, VT" -->
    <tag k="addr:city" v="Londonderry"/>
    <tag k="addr:housenumber" v="5"/>
    <tag k="addr:street" v="Nichols Road"/>
    <tag k="addr:state" v="VT"/>
    <tag k="ref:vcgi:esiteid" v="139266"/>
  </node>
  <node id="-200" visible="true" lat="43.25941962464" lon="-72.848769020476">
    <!-- conflict: "15 Landgrove Road, Londonderry, VT" Fuzzy match to "15 Landgrove Road, Landgrove, VT" -->
    <tag k="addr:city" v="Londonderry"/>
    <tag k="addr:housenumber" v="15"/>
    <tag k="addr:street" v="Landgrove Road"/>
    <tag k="addr:state" v="VT"/>
    <tag k="ref:vcgi:esiteid" v="139268"/>
  </node>
  <node id="-201" visible="true" lat="43.259270643219" lon="-72.860227328059">
    <!-- conflict: "8 Hapgood Pond Road, Londonderry, VT" Fuzzy match to "8 Hapgood Pond Road, Landgrove, VT" -->
    <tag k="addr:city" v="Londonderry"/>
    <tag k="addr:housenumber" v="8"/>
    <tag k="addr:street" v="Hapgood Pond Road"/>
    <tag k="addr:state" v="VT"/>
    <tag k="ref:vcgi:esiteid" v="139269"/>
  </node>
  <node id="-202" visible="true" lat="43.259099373288" lon="-72.848775164745">
    <!-- conflict: "13 Landgrove Road, Londonderry, VT" Fuzzy match to "13 Landgrove Road, Landgrove, VT" -->
    <tag k="addr:city" v="Londonderry"/>
    <tag k="addr:housenumber" v="13"/>
    <tag k="addr:street" v="Landgrove Road"/>
    <tag k="addr:state" v="VT"/>
    <tag k="ref:vcgi:esiteid" v="139270"/>
  </node>
  <node id="-203" visible="true" lat="43.258961880871" lon="-72.848397574143">
    <!-- conflict: "12 Landgrove Road, Londonderry, VT" Fuzzy match to "12 Landgrove Road, Landgrove, VT" -->
    <tag k="addr:city" v="Londonderry"/>
    <tag k="addr:housenumber" v="12"/>
    <tag k="addr:street" v="Landgrove Road"/>
    <tag k="addr:state" v="VT"/>
    <tag k="ref:vcgi:esiteid" v="139271"/>
  </node>
  <node id="-204" visible="true" lat="43.259005562779" lon="-72.84930935186">
    <!-- conflict: "7 Landgrove Road, Londonderry, VT" Fuzzy match to "7 Landgrove Road, Landgrove, VT" -->
    <tag k="addr:city" v="Londonderry"/>
    <tag k="addr:housenumber" v="7"/>
    <tag k="addr:street" v="Landgrove Road"/>
    <tag k="addr:state" v="VT"/>
    <tag k="ref:vcgi:esiteid" v="139272"/>
  </node>
  <node id="-205" visible="true" lat="43.258942934955" lon="-72.856290320284">
    <!-- conflict: "40 Nichols Road, Londonderry, VT" Fuzzy match to "40 Nichols Road, Landgrove, VT" -->
    <tag k="addr:city" v="Londonderry"/>
    <tag k="addr:housenumber" v="40"/>
    <tag k="addr:street" v="Nichols Road"/>
    <tag k="addr:state" v="VT"/>
    <tag k="ref:vcgi:esiteid" v="139273"/>
  </node>
  <node id="-206" visible="true" lat="43.258998125449" lon="-72.85272809741">
    <!-- conflict: "22 Nichols Road, Londonderry, VT" Fuzzy match to "22 Nichols Road, Landgrove, VT" -->
    <tag k="addr:city" v="Londonderry"/>
    <tag k="addr:housenumber" v="22"/>
    <tag k="addr:street" v="Nichols Road"/>
    <tag k="addr:state" v="VT"/>
    <tag k="ref:vcgi:esiteid" v="139274"/>
  </node>
  <node id="-207" visible="true" lat="43.258851313054" lon="-72.853986851787">
    <!-- conflict: "28 Nichols Road, Londonderry, VT" Fuzzy match to "28 Nichols Road, Landgrove, VT" -->
    <tag k="addr:city" v="Londonderry"/>
    <tag k="addr:housenumber" v="28"/>
    <tag k="addr:street" v="Nichols Road"/>
    <tag k="addr:state" v="VT"/>
    <tag k="ref:vcgi:esiteid" v="139275"/>
  </node>
  <node id="-208" visible="true" lat="43.25872494117" lon="-72.848876805873">
    <!-- conflict: "11 Landgrove Road, Londonderry, VT" Fuzzy match to "11 Landgrove Road, Landgrove, VT" -->
    <tag k="addr:city" v="Londonderry"/>
    <tag k="addr:housenumber" v="11"/>
    <tag k="addr:street" v="Landgrove Road"/>
    <tag k="addr:state" v="VT"/>
    <tag k="ref:vcgi:esiteid" v="139276"/>
  </node>
  <node id="-209" visible="true" lat="43.258346099735" lon="-72.855251475047">
    <!-- conflict: "37 Nichols Road, Londonderry, VT" Fuzzy match to "37 Nichols Road, Landgrove, VT" -->
    <tag k="addr:city" v="Londonderry"/>
    <tag k="addr:housenumber" v="37"/>
    <tag k="addr:street" v="Nichols Road"/>
    <tag k="addr:state" v="VT"/>
    <tag k="ref:vcgi:esiteid" v="139278"/>
  </node>
  <node id="-210" visible="true" lat="43.25584156626" lon="-72.85125770974">
    <!-- conflict: "139 Ridge Road, Londonderry, VT" Fuzzy match to "139 Ridge Road, Landgrove, VT" -->
    <tag k="addr:city" v="Londonderry"/>
    <tag k="addr:housenumber" v="139"/>
    <tag k="addr:street" v="Ridge Road"/>
    <tag k="addr:state" v="VT"/>
    <tag k="ref:vcgi:esiteid" v="139279"/>
  </node>
  <node id="-211" visible="true" lat="43.255547794375" lon="-72.858287224813">
    <!-- conflict: "62 Nichols Road, Londonderry, VT" Fuzzy match to "62 Nichols Road, Landgrove, VT" -->
    <tag k="addr:city" v="Londonderry"/>
    <tag k="addr:housenumber" v="62"/>
    <tag k="addr:street" v="Nichols Road"/>
    <tag k="addr:state" v="VT"/>
    <tag k="ref:vcgi:esiteid" v="139280"/>
  </node>
  <node id="-212" visible="true" lat="43.25555316809" lon="-72.85142349297">
    <!-- conflict: "137 Ridge Road, Londonderry, VT" Fuzzy match to "137 Ridge Road, Landgrove, VT" -->
    <tag k="addr:city" v="Londonderry"/>
    <tag k="addr:housenumber" v="137"/>
    <tag k="addr:street" v="Ridge Road"/>
    <tag k="addr:state" v="VT"/>
    <tag k="ref:vcgi:esiteid" v="139281"/>
  </node>
  <node id="-213" visible="true" lat="43.254847730021" lon="-72.858090735887">
    <!-- conflict: "66 Nichols Road, Londonderry, VT" Fuzzy match to "66 Nichols Road, Landgrove, VT" -->
    <tag k="addr:city" v="Londonderry"/>
    <tag k="addr:housenumber" v="66"/>
    <tag k="addr:street" v="Nichols Road"/>
    <tag k="addr:state" v="VT"/>
    <tag k="ref:vcgi:esiteid" v="139282"/>
  </node>
  <node id="-214" visible="true" lat="43.254701200715" lon="-72.852105355321">
    <!-- conflict: "129 Ridge Road, Londonderry, VT" Fuzzy match to "129 Ridge Road, Landgrove, VT" -->
    <tag k="addr:city" v="Londonderry"/>
    <tag k="addr:housenumber" v="129"/>
    <tag k="addr:street" v="Ridge Road"/>
    <tag k="addr:state" v="VT"/>
    <tag k="ref:vcgi:esiteid" v="139283"/>
  </node>
  <node id="-215" visible="true" lat="43.254615039693" lon="-72.862107356083">
    <!-- conflict: "102 Nichols Road, Londonderry, VT" Fuzzy match to "102 Nichols Road, Landgrove, VT" -->
    <tag k="addr:city" v="Londonderry"/>
    <tag k="addr:housenumber" v="102"/>
    <tag k="addr:street" v="Nichols Road"/>
    <tag k="addr:state" v="VT"/>
    <tag k="ref:vcgi:esiteid" v="139284"/>
  </node>
  <node id="-216" visible="true" lat="43.254291162405" lon="-72.848806462848">
    <!-- conflict: "138 Ridge Road, Londonderry, VT" Fuzzy match to "138 Ridge Road, Landgrove, VT" -->
    <tag k="addr:city" v="Londonderry"/>
    <tag k="addr:housenumber" v="138"/>
    <tag k="addr:street" v="Ridge Road"/>
    <tag k="addr:state" v="VT"/>
    <tag k="ref:vcgi:esiteid" v="139285"/>
  </node>
  <node id="-217" visible="true" lat="43.253935381831" lon="-72.858042612643">
    <!-- conflict: "73 Nichols Road, Londonderry, VT" Fuzzy match to "73 Nichols Road, Landgrove, VT" -->
    <tag k="addr:city" v="Londonderry"/>
    <tag k="addr:housenumber" v="73"/>
    <tag k="addr:street" v="Nichols Road"/>
    <tag k="addr:state" v="VT"/>
    <tag k="ref:vcgi:esiteid" v="139286"/>
  </node>
  <node id="-218" visible="true" lat="43.253862680743" lon="-72.859133346776">
    <!-- conflict: "78 Nichols Road, Londonderry, VT" Fuzzy match to "78 Nichols Road, Landgrove, VT" -->
    <tag k="addr:city" v="Londonderry"/>
    <tag k="addr:housenumber" v="78"/>
    <tag k="addr:street" v="Nichols Road"/>
    <tag k="addr:state" v="VT"/>
    <tag k="ref:vcgi:esiteid" v="139287"/>
  </node>
  <node id="-219" visible="true" lat="43.253682878338" lon="-72.852259253183">
    <!-- conflict: "124 Ridge Road, Londonderry, VT" Fuzzy match to "124 Ridge Road, Landgrove, VT" -->
    <tag k="addr:city" v="Londonderry"/>
    <tag k="addr:housenumber" v="124"/>
    <tag k="addr:street" v="Ridge Road"/>
    <tag k="addr:state" v="VT"/>
    <tag k="ref:vcgi:esiteid" v="139288"/>
  </node>
  <node id="-220" visible="true" lat="43.253016824856" lon="-72.861289208847">
    <!-- conflict: "92 Nichols Road, Londonderry, VT" Fuzzy match to "92 Nichols Road, Landgrove, VT" -->
    <tag k="addr:city" v="Londonderry"/>
    <tag k="addr:housenumber" v="92"/>
    <tag k="addr:street" v="Nichols Road"/>
    <tag k="addr:state" v="VT"/>
    <tag k="ref:vcgi:esiteid" v="139289"/>
  </node>
  <node id="-221" visible="true" lat="43.252963392014" lon="-72.862453466642">
    <!-- conflict: "100 Nichols Road, Londonderry, VT" Fuzzy match to "100 Nichols Road, Landgrove, VT" -->
    <tag k="addr:city" v="Londonderry"/>
    <tag k="addr:housenumber" v="100"/>
    <tag k="addr:street" v="Nichols Road"/>
    <tag k="addr:state" v="VT"/>
    <tag k="ref:vcgi:esiteid" v="139290"/>
  </node>
  <node id="-222" visible="true" lat="43.252440648774" lon="-72.86069875215">
    <!-- conflict: "89 Nichols Road, Londonderry, VT" Fuzzy match to "89 Nichols Road, Landgrove, VT" -->
    <tag k="addr:city" v="Londonderry"/>
    <tag k="addr:housenumber" v="89"/>
    <tag k="addr:street" v="Nichols Road"/>
    <tag k="addr:state" v="VT"/>
    <tag k="ref:vcgi:esiteid" v="139291"/>
  </node>
  <node id="-223" visible="true" lat="43.251012465522" lon="-72.854510782153">
    <!-- conflict: "101 Ridge Road, Londonderry, VT" Fuzzy match to "101 Ridge Road, Landgrove, VT" -->
    <tag k="addr:city" v="Londonderry"/>
    <tag k="addr:housenumber" v="101"/>
    <tag k="addr:street" v="Ridge Road"/>
    <tag k="addr:state" v="VT"/>
    <tag k="ref:vcgi:esiteid" v="139292"/>
  </node>
  <node id="-224" visible="true" lat="43.244009027743" lon="-72.854594585932">
    <!-- conflict: "54 Ridge Road, Londonderry, VT" Fuzzy match to "54 Ridge Road, Landgrove, VT" -->
    <tag k="addr:city" v="Londonderry"/>
    <tag k="addr:housenumber" v="54"/>
    <tag k="addr:street" v="Ridge Road"/>
    <tag k="addr:state" v="VT"/>
    <tag k="ref:vcgi:esiteid" v="139293"/>
  </node>
  <node id="-225" visible="true" lat="43.243762380431" lon="-72.855532327132">
    <!-- conflict: "51 Ridge Road, Londonderry, VT" Fuzzy match to "51 Ridge Road, Landgrove, VT" -->
    <tag k="addr:city" v="Londonderry"/>
    <tag k="addr:housenumber" v="51"/>
    <tag k="addr:street" v="Ridge Road"/>
    <tag k="addr:state" v="VT"/>
    <tag k="ref:vcgi:esiteid" v="139294"/>
  </node>
  <node id="-226" visible="true" lat="43.242128829147" lon="-72.855406669058">
    <!-- conflict: "39 Ridge Road, Londonderry, VT" Fuzzy match to "39 Ridge Road, Landgrove, VT" -->
    <tag k="addr:city" v="Londonderry"/>
    <tag k="addr:housenumber" v="39"/>
    <tag k="addr:street" v="Ridge Road"/>
    <tag k="addr:state" v="VT"/>
    <tag k="ref:vcgi:esiteid" v="139295"/>
  </node>
  <node id="-227" visible="true" lat="43.241274811258" lon="-72.855578486237">
    <!-- conflict: "35 Ridge Road, Londonderry, VT" Fuzzy match to "35 Ridge Road, Landgrove, VT" -->
    <tag k="addr:city" v="Londonderry"/>
    <tag k="addr:housenumber" v="35"/>
    <tag k="addr:street" v="Ridge Road"/>
    <tag k="addr:state" v="VT"/>
    <tag k="ref:vcgi:esiteid" v="139296"/>
  </node>
  <node id="-228" visible="true" lat="43.239390917932" lon="-72.853827138404">
    <!-- conflict: "34 Ridge Road, Londonderry, VT" Fuzzy match to "34 Ridge Road, Landgrove, VT" -->
    <tag k="addr:city" v="Londonderry"/>
    <tag k="addr:housenumber" v="34"/>
    <tag k="addr:street" v="Ridge Road"/>
    <tag k="addr:state" v="VT"/>
    <tag k="ref:vcgi:esiteid" v="139297"/>
  </node>
  <node id="-229" visible="true" lat="43.240444306991" lon="-72.851689088253">
    <!-- conflict: "23 Valley View Drive, Londonderry, VT" Fuzzy match to "23 Valley View Drive, Landgrove, VT" -->
    <tag k="addr:city" v="Londonderry"/>
    <tag k="addr:housenumber" v="23"/>
    <tag k="addr:street" v="Valley View Drive"/>
    <tag k="addr:state" v="VT"/>
    <tag k="ref:vcgi:esiteid" v="139298"/>
  </node>
  <node id="-230" visible="true" lat="43.238913525671" lon="-72.851834968252">
    <!-- conflict: "17 Valley View Drive, Londonderry, VT" Fuzzy match to "17 Valley View Drive, Landgrove, VT" -->
    <tag k="addr:city" v="Londonderry"/>
    <tag k="addr:housenumber" v="17"/>
    <tag k="addr:street" v="Valley View Drive"/>
    <tag k="addr:state" v="VT"/>
    <tag k="ref:vcgi:esiteid" v="139299"/>
  </node>
  <node id="-231" visible="true" lat="43.237545692266" lon="-72.855424283993">
    <!-- conflict: "8 Ridge Road, Londonderry, VT" Fuzzy match to "8 Ridge Road, Landgrove, VT" -->
    <tag k="addr:city" v="Londonderry"/>
    <tag k="addr:housenumber" v="8"/>
    <tag k="addr:street" v="Ridge Road"/>
    <tag k="addr:state" v="VT"/>
    <tag k="ref:vcgi:esiteid" v="139300"/>
  </node>
  <node id="-232" visible="true" lat="43.237342160658" lon="-72.854037410127">
    <!-- conflict: "59 Vermont Route 11, Londonderry, VT" Fuzzy match to "59 Vermont Route 11, Landgrove, VT" -->
    <tag k="addr:city" v="Londonderry"/>
    <tag k="addr:housenumber" v="59"/>
    <tag k="addr:street" v="Vermont Route 11"/>
    <tag k="addr:state" v="VT"/>
    <tag k="ref:vcgi:esiteid" v="139301"/>
  </node>
  <node id="-233" visible="true" lat="43.237118243188" lon="-72.850783122719">
    <!-- conflict: "3 Valley View Drive, Londonderry, VT" Fuzzy match to "3 Valley View Drive, Landgrove, VT" -->
    <tag k="addr:city" v="Londonderry"/>
    <tag k="addr:housenumber" v="3"/>
    <tag k="addr:street" v="Valley View Drive"/>
    <tag k="addr:state" v="VT"/>
    <tag k="ref:vcgi:esiteid" v="139302"/>
  </node>
  <node id="-234" visible="true" lat="43.236609696069" lon="-72.856476723222">
    <!-- conflict: "47 Vermont Route 11, Londonderry, VT" Fuzzy match to "47 Vermont Route 11, Landgrove, VT" -->
    <tag k="addr:city" v="Londonderry"/>
    <tag k="addr:housenumber" v="47"/>
    <tag k="addr:street" v="Vermont Route 11"/>
    <tag k="addr:state" v="VT"/>
    <tag k="ref:vcgi:esiteid" v="139304"/>
  </node>
  <node id="-235" visible="true" lat="43.236520229996" lon="-72.854049200756">
    <!-- conflict: "58 Vermont Route 11, Londonderry, VT" Fuzzy match to "58 Vermont Route 11, Landgrove, VT" -->
    <tag k="addr:city" v="Londonderry"/>
    <tag k="addr:housenumber" v="58"/>
    <tag k="addr:street" v="Vermont Route 11"/>
    <tag k="addr:state" v="VT"/>
    <tag k="ref:vcgi:esiteid" v="139305"/>
  </node>
  <node id="-236" visible="true" lat="43.236176745249" lon="-72.850904908112">
    <!-- conflict: "78 Vermont Route 11, Londonderry, VT" Fuzzy match to "78 Vermont Route 11, Landgrove, VT" -->
    <tag k="addr:city" v="Londonderry"/>
    <tag k="addr:housenumber" v="78"/>
    <tag k="addr:street" v="Vermont Route 11"/>
    <tag k="addr:state" v="VT"/>
    <tag k="ref:vcgi:esiteid" v="139306"/>
  </node>
  <node id="-237" visible="true" lat="43.235708202236" lon="-72.855484799852">
    <!-- conflict: "7 Landgrove Hollow Road, Londonderry, VT" Fuzzy match to "7 Landgrove Hollow Road, Landgrove, VT" -->
    <tag k="addr:city" v="Londonderry"/>
    <tag k="addr:housenumber" v="7"/>
    <tag k="addr:street" v="Landgrove Hollow Road"/>
    <tag k="addr:state" v="VT"/>
    <tag k="ref:vcgi:esiteid" v="139307"/>
  </node>
  <node id="-238" visible="true" lat="43.234904743866" lon="-72.856508992683">
    <!-- conflict: "8 Landgrove Hollow Road, Londonderry, VT" Fuzzy match to "8 Landgrove Hollow Road, Landgrove, VT" -->
    <tag k="addr:city" v="Londonderry"/>
    <tag k="addr:housenumber" v="8"/>
    <tag k="addr:street" v="Landgrove Hollow Road"/>
    <tag k="addr:state" v="VT"/>
    <tag k="ref:vcgi:esiteid" v="139308"/>
  </node>
  <node id="-239" visible="true" lat="43.235152806683" lon="-72.860435653659">
    <!-- conflict: "24 Vermont Route 11, Londonderry, VT" Fuzzy match to "24 Vermont Route 11, Landgrove, VT" -->
    <tag k="addr:city" v="Londonderry"/>
    <tag k="addr:housenumber" v="24"/>
    <tag k="addr:street" v="Vermont Route 11"/>
    <tag k="addr:state" v="VT"/>
    <tag k="ref:vcgi:esiteid" v="139309"/>
  </node>
  <node id="-240" visible="true" lat="43.233021991279" lon="-72.85587519841">
    <!-- conflict: "25 Landgrove Hollow Road, Londonderry, VT" Fuzzy match to "25 Landgrove Hollow Road, Landgrove, VT" -->
    <tag k="addr:city" v="Londonderry"/>
    <tag k="addr:housenumber" v="25"/>
    <tag k="addr:street" v="Landgrove Hollow Road"/>
    <tag k="addr:state" v="VT"/>
    <tag k="ref:vcgi:esiteid" v="139310"/>
  </node>
  <node id="-241" visible="true" lat="43.22979448006" lon="-72.862671217305">
    <!-- conflict: "34 Red Pine Drive, Londonderry, VT" Fuzzy match to "34 Red Pine Drive, Landgrove, VT" -->
    <tag k="addr:city" v="Londonderry"/>
    <tag k="addr:housenumber" v="34"/>
    <tag k="addr:street" v="Red Pine Drive"/>
    <tag k="addr:state" v="VT"/>
    <tag k="ref:vcgi:esiteid" v="139311"/>
  </node>
  <node id="-242" visible="true" lat="43.228269261865" lon="-72.860756695715">
    <!-- conflict: "44 Red Pine Drive, Londonderry, VT" Fuzzy match to "44 Red Pine Drive, Landgrove, VT" -->
    <tag k="addr:city" v="Londonderry"/>
    <tag k="addr:housenumber" v="44"/>
    <tag k="addr:street" v="Red Pine Drive"/>
    <tag k="addr:state" v="VT"/>
    <tag k="ref:vcgi:esiteid" v="139312"/>
  </node>
  <node id="-243" visible="true" lat="43.289546949714" lon="-72.829608242836">
    <!-- conflict: "382 Landgrove Road, Londonderry, VT" Fuzzy match to "382 Landgrove Road, Landgrove, VT" -->
    <tag k="addr:city" v="Londonderry"/>
    <tag k="addr:housenumber" v="382"/>
    <tag k="addr:street" v="Landgrove Road"/>
    <tag k="addr:state" v="VT"/>
    <tag k="ref:vcgi:esiteid" v="139313"/>
  </node>
  <node id="-244" visible="true" lat="43.281085967454" lon="-72.854437295056">
    <!-- conflict: "206 Landgrove Road, Londonderry, VT" Fuzzy match to "206 Landgrove Road, Landgrove, VT" -->
    <tag k="addr:city" v="Londonderry"/>
    <tag k="addr:housenumber" v="206"/>
    <tag k="addr:street" v="Landgrove Road"/>
    <tag k="addr:state" v="VT"/>
    <tag k="ref:vcgi:esiteid" v="139314"/>
  </node>
  <node id="-245" visible="true" lat="43.294656820171" lon="-72.855281461634">
    <!-- conflict: "23 Russet Hill Road, Londonderry, VT" Fuzzy match to "23 Russet Hill Road, Landgrove, VT" -->
    <tag k="addr:city" v="Londonderry"/>
    <tag k="addr:housenumber" v="23"/>
    <tag k="addr:street" v="Russet Hill Road"/>
    <tag k="addr:state" v="VT"/>
    <tag k="ref:vcgi:esiteid" v="139315"/>
  </node>
  <node id="-247" visible="true" lat="43.26630471108" lon="-72.830459764588">
    <!-- conflict: "53 Old County Road East, Londonderry, VT" Fuzzy match to "53 Old County Road East, Landgrove, VT" -->
    <tag k="addr:city" v="Londonderry"/>
    <tag k="addr:housenumber" v="53"/>
    <tag k="addr:street" v="Old County Road East"/>
    <tag k="addr:state" v="VT"/>
    <tag k="ref:vcgi:esiteid" v="139317"/>
  </node>
  <node id="-248" visible="true" lat="43.272481696442" lon="-72.836143071363">
    <!-- conflict: "76 Cody Road, Londonderry, VT" Fuzzy match to "76 Cody Road, Landgrove, VT" -->
    <tag k="addr:city" v="Londonderry"/>
    <tag k="addr:housenumber" v="76"/>
    <tag k="addr:street" v="Cody Road"/>
    <tag k="addr:state" v="VT"/>
    <tag k="ref:vcgi:esiteid" v="139318"/>
  </node>
  <node id="-249" visible="true" lat="43.288888671569" lon="-72.845008803097">
    <!-- conflict: "296 Landgrove Road, Londonderry, VT" Fuzzy match to "296 Landgrove Road, Landgrove, VT" -->
    <tag k="addr:city" v="Londonderry"/>
    <tag k="addr:housenumber" v="296"/>
    <tag k="addr:street" v="Landgrove Road"/>
    <tag k="addr:state" v="VT"/>
    <tag k="ref:vcgi:esiteid" v="139319"/>
  </node>
  <node id="-250" visible="true" lat="43.283162440287" lon="-72.859532453616">
    <!-- conflict: "217 Landgrove Road, Londonderry, VT" Fuzzy match to "217 Landgrove Road, Landgrove, VT" -->
    <tag k="addr:city" v="Londonderry"/>
    <tag k="addr:housenumber" v="217"/>
    <tag k="addr:street" v="Landgrove Road"/>
    <tag k="addr:state" v="VT"/>
    <tag k="ref:vcgi:esiteid" v="139320"/>
  </node>
  <node id="-251" visible="true" lat="43.234023702822" lon="-72.858614473609">
    <!-- conflict: "12 Landgrove Hollow Road, Londonderry, VT" Fuzzy match to "12 Landgrove Hollow Road, Landgrove, VT" -->
    <tag k="addr:city" v="Londonderry"/>
    <tag k="addr:housenumber" v="12"/>
    <tag k="addr:street" v="Landgrove Hollow Road"/>
    <tag k="addr:state" v="VT"/>
    <tag k="ref:vcgi:esiteid" v="139321"/>
  </node>
  <node id="-252" visible="true" lat="43.239067616777" lon="-72.8500456066">
    <!-- conflict: "16 Valley View Drive, Londonderry, VT" Fuzzy match to "16 Valley View Drive, Landgrove, VT" -->
    <tag k="addr:city" v="Londonderry"/>
    <tag k="addr:housenumber" v="16"/>
    <tag k="addr:street" v="Valley View Drive"/>
    <tag k="addr:state" v="VT"/>
    <tag k="ref:vcgi:esiteid" v="139322"/>
  </node>
  <node id="-253" visible="true" lat="43.240677184989" lon="-72.849865666319">
    <!-- conflict: "22 Valley View Drive, Londonderry, VT" Fuzzy match to "22 Valley View Drive, Landgrove, VT" -->
    <tag k="addr:city" v="Londonderry"/>
    <tag k="addr:housenumber" v="22"/>
    <tag k="addr:street" v="Valley View Drive"/>
    <tag k="addr:state" v="VT"/>
    <tag k="ref:vcgi:esiteid" v="139323"/>
  </node>
  <node id="-254" visible="true" lat="43.234673119247" lon="-72.85522155758">
    <!-- conflict: "6 Cest La Vie Drive, Londonderry, VT" Fuzzy match to "6 Cest La Vie Drive, Landgrove, VT" -->
    <tag k="addr:city" v="Londonderry"/>
    <tag k="addr:housenumber" v="6"/>
    <tag k="addr:street" v="Cest La Vie Drive"/>
    <tag k="addr:state" v="VT"/>
    <tag k="ref:vcgi:esiteid" v="139324"/>
  </node>
  <node id="-255" visible="true" lat="43.264400205801" lon="-72.823243307366">
    <!-- conflict: "25 Shaw Knoll Road, Weston, VT" Fuzzy match to "25 Shaw Knoll Road, Landgrove, VT" -->
    <tag k="addr:city" v="Weston"/>
    <tag k="addr:housenumber" v="25"/>
    <tag k="addr:street" v="Shaw Knoll Road"/>
    <tag k="addr:state" v="VT"/>
    <tag k="ref:vcgi:esiteid" v="139325"/>
  </node>
  <node id="-256" visible="true" lat="43.259999929303" lon="-72.820704306356">
    <!-- conflict: "35 Breeds Hill Drive, Weston, VT" Fuzzy match to "35 Breeds Hill Drive, Landgrove, VT" -->
    <tag k="addr:city" v="Weston"/>
    <tag k="addr:housenumber" v="35"/>
    <tag k="addr:street" v="Breeds Hill Drive"/>
    <tag k="addr:state" v="VT"/>
    <tag k="ref:vcgi:esiteid" v="139326"/>
  </node>
  <node id="-257" visible="true" lat="43.242723826173" lon="-72.863901867828">
    <!-- conflict: "63 Brook Road, Londonderry, VT" Fuzzy match to "63 Brook Road, Landgrove, VT" -->
    <tag k="addr:city" v="Londonderry"/>
    <tag k="addr:housenumber" v="63"/>
    <tag k="addr:street" v="Brook Road"/>
    <tag k="addr:state" v="VT"/>
    <tag k="ref:vcgi:esiteid" v="139329"/>
  </node>
  <node id="-260" visible="true" lat="43.263495401633" lon="-72.820553187826">
    <!-- conflict: "7 Breeds Hill Drive, Weston, VT" Fuzzy match to "7 Breeds Hill Drive, Landgrove, VT" -->
    <tag k="addr:city" v="Weston"/>
    <tag k="addr:housenumber" v="7"/>
    <tag k="addr:street" v="Breeds Hill Drive"/>
    <tag k="addr:state" v="VT"/>
    <tag k="ref:vcgi:esiteid" v="329432"/>
  </node>
  <node id="-261" visible="true" lat="43.297339171033" lon="-72.858482871961">
    <!-- conflict: "54 Russet Hill Road, Londonderry, VT" Fuzzy match to "54 Russet Hill Road, Landgrove, VT" -->
    <tag k="addr:city" v="Londonderry"/>
    <tag k="addr:housenumber" v="54"/>
    <tag k="addr:street" v="Russet Hill Road"/>
    <tag k="addr:state" v="VT"/>
    <tag k="ref:vcgi:esiteid" v="330003"/>
  </node>
  <node id="-262" visible="true" lat="43.236355729032" lon="-72.855943612761">
    <!-- conflict: "1 Landgrove Hollow Road, Londonderry, VT" Fuzzy match to "1 Landgrove Hollow Road, Landgrove, VT" -->
    <tag k="addr:city" v="Londonderry"/>
    <tag k="addr:housenumber" v="1"/>
    <tag k="addr:street" v="Landgrove Hollow Road"/>
    <tag k="addr:state" v="VT"/>
    <tag k="ref:vcgi:esiteid" v="336524"/>
  </node>
  <node id="-263" visible="true" lat="43.261721064171" lon="-72.821472492923">
    <!-- conflict: "26 Breeds Hill Drive, Weston, VT" Fuzzy match to "26 Breeds Hill Drive, Landgrove, VT" -->
    <tag k="addr:city" v="Weston"/>
    <tag k="addr:housenumber" v="26"/>
    <tag k="addr:street" v="Breeds Hill Drive"/>
    <tag k="addr:state" v="VT"/>
    <tag k="ref:vcgi:esiteid" v="336567"/>
  </node>
  <node id="-264" visible="true" lat="43.26152747925" lon="-72.819884399598">
    <!-- conflict: "23 Breeds Hill Drive, Weston, VT" Fuzzy match to "23 Breeds Hill Drive, Landgrove, VT" -->
    <tag k="addr:city" v="Weston"/>
    <tag k="addr:housenumber" v="23"/>
    <tag k="addr:street" v="Breeds Hill Drive"/>
    <tag k="addr:state" v="VT"/>
    <tag k="ref:vcgi:esiteid" v="336751"/>
  </node>
  <node id="-265" visible="true" lat="43.278416964699" lon="-72.854421251816">
    <!-- conflict: "23 Uphill Road, Londonderry, VT" Fuzzy match to "23 Uphill Road, Landgrove, VT" -->
    <tag k="addr:city" v="Londonderry"/>
    <tag k="addr:housenumber" v="23"/>
    <tag k="addr:street" v="Uphill Road"/>
    <tag k="addr:state" v="VT"/>
    <tag k="ref:vcgi:esiteid" v="340229"/>
  </node>
  <node id="-266" visible="true" lat="43.205957905089" lon="-72.865849124115">
    <!-- conflict: "48 South Road, Peru, VT" Fuzzy match to "48 South Road, Landgrove, VT" -->
    <tag k="addr:city" v="Peru"/>
    <tag k="addr:housenumber" v="48"/>
    <tag k="addr:street" v="South Road"/>
    <tag k="addr:state" v="VT"/>
    <tag k="ref:vcgi:esiteid" v="449216"/>
  </node>
  <node id="-268" visible="true" lat="43.280504883587" lon="-72.830329248802">
    <!-- conflict: "67 Ardis Lane, Weston, VT" Fuzzy match to "67 Ardis Lane, Landgrove, VT" -->
    <tag k="addr:city" v="Weston"/>
    <tag k="addr:housenumber" v="67"/>
    <tag k="addr:street" v="Ardis Lane"/>
    <tag k="addr:state" v="VT"/>
    <tag k="ref:vcgi:esiteid" v="452573"/>
  </node>
  <node id="-269" visible="true" lat="43.280921635279" lon="-72.820523923967">
    <!-- conflict: "15 Ardis Lane, Weston, VT" Fuzzy match to "15 Ardis Lane, Landgrove, VT" -->
    <tag k="addr:city" v="Weston"/>
    <tag k="addr:housenumber" v="15"/>
    <tag k="addr:street" v="Ardis Lane"/>
    <tag k="addr:state" v="VT"/>
    <tag k="ref:vcgi:esiteid" v="452574"/>
  </node>
  <node id="-270" visible="true" lat="43.28088289985" lon="-72.824737480856">
    <!-- conflict: "33 Ardis Lane, Weston, VT" Fuzzy match to "33 Ardis Lane, Landgrove, VT" -->
    <tag k="addr:city" v="Weston"/>
    <tag k="addr:housenumber" v="33"/>
    <tag k="addr:street" v="Ardis Lane"/>
    <tag k="addr:state" v="VT"/>
    <tag k="ref:vcgi:esiteid" v="452575"/>
  </node>
  <node id="-271" visible="true" lat="43.263057009971" lon="-72.840147137852">
    <!-- conflict: "10 Old County Road East, Londonderry, VT" Fuzzy match to "10 Old County Road East, Landgrove, VT" -->
    <tag k="addr:city" v="Londonderry"/>
    <tag k="addr:housenumber" v="10"/>
    <tag k="addr:street" v="Old County Road East"/>
    <tag k="addr:state" v="VT"/>
    <tag k="ref:vcgi:esiteid" v="453658"/>
  </node>
  <node id="-272" visible="true" lat="43.288774857141" lon="-72.844758198136">
    <!-- conflict: "298 Landgrove Road, Londonderry, VT" Fuzzy match to "298 Landgrove Road, Landgrove, VT" -->
    <tag k="addr:city" v="Londonderry"/>
    <tag k="addr:housenumber" v="298"/>
    <tag k="addr:street" v="Landgrove Road"/>
    <tag k="addr:state" v="VT"/>
    <tag k="ref:vcgi:esiteid" v="613572"/>
  </node>
  <node id="-273" visible="true" lat="43.291412437579" lon="-72.821920711106">
    <!-- conflict: "419 Landgrove Road, Londonderry, VT" Fuzzy match to "419 Landgrove Road, Landgrove, VT" -->
    <tag k="addr:city" v="Londonderry"/>
    <tag k="addr:housenumber" v="419"/>
    <tag k="addr:street" v="Landgrove Road"/>
    <tag k="addr:state" v="VT"/>
    <tag k="ref:vcgi:esiteid" v="613573"/>
  </node>
  <node id="-277" visible="true" lat="43.275883089406" lon="-72.860884567411">
    <!-- conflict: "163 Landgrove Road, Londonderry, VT" Fuzzy match to "163 Landgrove Road, Landgrove, VT" -->
    <tag k="addr:city" v="Londonderry"/>
    <tag k="addr:housenumber" v="163"/>
    <tag k="addr:street" v="Landgrove Road"/>
    <tag k="addr:state" v="VT"/>
    <tag k="ref:vcgi:esiteid" v="617458"/>
  </node>
  <node id="-278" visible="true" lat="43.227813173764" lon="-72.861824524222">
    <!-- conflict: "56 Red Pine Drive, Londonderry, VT" Fuzzy match to "56 Red Pine Drive, Landgrove, VT" -->
    <tag k="addr:city" v="Londonderry"/>
    <tag k="addr:housenumber" v="56"/>
    <tag k="addr:street" v="Red Pine Drive"/>
    <tag k="addr:state" v="VT"/>
    <tag k="ref:vcgi:esiteid" v="617459"/>
  </node>
  <node id="-279" visible="true" lat="43.259693537079" lon="-72.851764568672">
    <!-- conflict: "16 Nichols Road, Londonderry, VT" Fuzzy match to "16 Nichols Road, Landgrove, VT" -->
    <tag k="addr:city" v="Londonderry"/>
    <tag k="addr:housenumber" v="16"/>
    <tag k="addr:street" v="Nichols Road"/>
    <tag k="addr:state" v="VT"/>
    <tag k="ref:vcgi:esiteid" v="617828"/>
  </node>
  <node id="-280" visible="true" lat="43.277596053607" lon="-72.860315430671">
    <!-- conflict: "175 Landgrove Road, Londonderry, VT" Fuzzy match to "175 Landgrove Road, Landgrove, VT" -->
    <tag k="addr:city" v="Londonderry"/>
    <tag k="addr:housenumber" v="175"/>
    <tag k="addr:street" v="Landgrove Road"/>
    <tag k="addr:state" v="VT"/>
    <tag k="ref:vcgi:esiteid" v="618443"/>
  </node>
  <node id="-316" visible="true" lat="43.26654649652" lon="-72.846621936385">
    <!-- conflict: "51 Old County Road East, Londonderry, VT" Fuzzy match to "51 Old County Road East, Landgrove, VT" -->
    <tag k="addr:city" v="Londonderry"/>
    <tag k="addr:housenumber" v="51"/>
    <tag k="addr:street" v="Old County Road East"/>
    <tag k="addr:state" v="VT"/>
    <tag k="ref:vcgi:esiteid" v="646490"/>
  </node>
  <node id="-318" visible="true" lat="43.298050359301" lon="-72.826326127516">
    <!-- conflict: "521 Holt Mountain Road, Weston, VT" Fuzzy match to "521 Holt Mountain Road, Landgrove, VT" -->
    <tag k="addr:city" v="Weston"/>
    <tag k="addr:housenumber" v="521"/>
    <tag k="addr:street" v="Holt Mountain Road"/>
    <tag k="addr:state" v="VT"/>
    <tag k="ref:vcgi:esiteid" v="752091"/>
  </node>
  <node id="-319" visible="true" lat="43.26937625454" lon="-72.860105960975">
    <!-- conflict: "115 Landgrove Road, Londonderry, VT" Fuzzy match to "115 Landgrove Road, Landgrove, VT" -->
    <tag k="addr:city" v="Londonderry"/>
    <tag k="addr:housenumber" v="115"/>
    <tag k="addr:street" v="Landgrove Road"/>
    <tag k="addr:state" v="VT"/>
    <tag k="ref:vcgi:esiteid" v="755861"/>
  </node>
  <node id="-320" visible="true" lat="43.271828551769" lon="-72.840470019547">
    <!-- conflict: "80 Cody Road, Londonderry, VT" Fuzzy match to "80 Cody Road, Landgrove, VT" -->
    <tag k="addr:city" v="Londonderry"/>
    <tag k="addr:housenumber" v="80"/>
    <tag k="addr:street" v="Cody Road"/>
    <tag k="addr:state" v="VT"/>
    <tag k="ref:vcgi:esiteid" v="760997"/>
  </node>
  <node id="-321" visible="true" lat="43.264038105204" lon="-72.837076453127">
    <!-- conflict: "28 Old County Road East, Londonderry, VT" Fuzzy match to "28 Old County Road East, Landgrove, VT" -->
    <tag k="addr:city" v="Londonderry"/>
    <tag k="addr:housenumber" v="28"/>
    <tag k="addr:street" v="Old County Road East"/>
    <tag k="addr:state" v="VT"/>
    <tag k="ref:vcgi:esiteid" v="764318"/>
  </node>
  <node id="-322" visible="true" lat="43.294477805784" lon="-72.837032706899">
    <!-- conflict: "30 Jaquith Road, Londonderry, VT" Fuzzy match to "30 Jaquith Road, Landgrove, VT" -->
    <tag k="addr:city" v="Londonderry"/>
    <tag k="addr:housenumber" v="30"/>
    <tag k="addr:street" v="Jaquith Road"/>
    <tag k="addr:state" v="VT"/>
    <tag k="ref:vcgi:esiteid" v="767050"/>
  </node>
  <node id="-323" visible="true" lat="43.264236052245" lon="-72.831065106657">
    <!-- conflict: "70 Old County Road East, Londonderry, VT" Fuzzy match to "70 Old County Road East, Landgrove, VT" -->
    <tag k="addr:city" v="Londonderry"/>
    <tag k="addr:housenumber" v="70"/>
    <tag k="addr:street" v="Old County Road East"/>
    <tag k="addr:state" v="VT"/>
    <tag k="ref:vcgi:esiteid" v="768207"/>
  </node>
  <node id="-324" visible="true" lat="43.27298199831" lon="-72.859482061201">
    <!-- conflict: "144 Landgrove Road, Londonderry, VT" Fuzzy match to "144 Landgrove Road, Landgrove, VT" -->
    <tag k="addr:city" v="Londonderry"/>
    <tag k="addr:housenumber" v="144"/>
    <tag k="addr:street" v="Landgrove Road"/>
    <tag k="addr:state" v="VT"/>
    <tag k="ref:vcgi:esiteid" v="768847"/>
  </node>
  <node id="-325" visible="true" lat="43.265372199984" lon="-72.835644528972">
    <!-- conflict: "44 Old County Road East, Londonderry, VT" Fuzzy match to "44 Old County Road East, Landgrove, VT" -->
    <tag k="addr:city" v="Londonderry"/>
    <tag k="addr:housenumber" v="44"/>
    <tag k="addr:street" v="Old County Road East"/>
    <tag k="addr:state" v="VT"/>
    <tag k="ref:vcgi:esiteid" v="772714"/>
  </node>
  <node id="-328" visible="true" lat="43.265925009917" lon="-72.858728311861">
    <!-- conflict: "33 Hapgood Pond Road, Londonderry, VT" Fuzzy match to "33 Hapgood Pond Road, Landgrove, VT" -->
    <tag k="addr:city" v="Londonderry"/>
    <tag k="addr:housenumber" v="33"/>
    <tag k="addr:street" v="Hapgood Pond Road"/>
    <tag k="addr:state" v="VT"/>
    <tag k="ref:vcgi:esiteid" v="1050327"/>
  </node>
</osm>
