<?xml version="1.0" encoding="UTF-8"?>
<osm version="0.6" generator="JOSM" upload="false">
  <node id="-100" visible="true" lat="44.917294479012" lon="-71.764408941521">
    <!-- conflict: "13297 Lewis Pond Road, Norton, VT" Fuzzy match to "13297 Lewis Pond Road, Lewis, VT" -->
    <tag k="addr:city" v="Norton"/>
    <tag k="addr:housenumber" v="13297"/>
    <tag k="addr:street" v="Lewis Pond Road"/>
    <tag k="addr:state" v="VT"/>
    <tag k="ref:vcgi:esiteid" v="305286"/>
  </node>
  <node id="-101" visible="true" lat="44.911119490676" lon="-71.754303297489">
    <!-- conflict: "12630 Lewis Pond Road, Norton, VT" Fuzzy match to "12630 Lewis Pond Road, Lewis, VT" -->
    <tag k="addr:city" v="Norton"/>
    <tag k="addr:housenumber" v="12630"/>
    <tag k="addr:street" v="Lewis Pond Road"/>
    <tag k="addr:state" v="VT"/>
    <tag k="ref:vcgi:esiteid" v="305287"/>
  </node>
  <node id="-102" visible="true" lat="44.901449355357" lon="-71.759533029137">
    <!-- conflict: "11652 Lewis Pond Road, Norton, VT" Fuzzy match to "11652 Lewis Pond Road, Lewis, VT" -->
    <tag k="addr:city" v="Norton"/>
    <tag k="addr:housenumber" v="11652"/>
    <tag k="addr:street" v="Lewis Pond Road"/>
    <tag k="addr:state" v="VT"/>
    <tag k="ref:vcgi:esiteid" v="305288"/>
  </node>
  <node id="-103" visible="true" lat="44.893168382967" lon="-71.7699414123">
    <!-- conflict: "10791 Lewis Pond Road, Norton, VT" Fuzzy match to "10791 Lewis Pond Road, Lewis, VT" -->
    <tag k="addr:city" v="Norton"/>
    <tag k="addr:housenumber" v="10791"/>
    <tag k="addr:street" v="Lewis Pond Road"/>
    <tag k="addr:state" v="VT"/>
    <tag k="ref:vcgi:esiteid" v="305290"/>
  </node>
  <node id="-104" visible="true" lat="44.891919650837" lon="-71.700834464885">
    <!-- conflict: "5776 East Branch Road, Norton, VT" Fuzzy match to "5776 East Branch Road, Lewis, VT" -->
    <tag k="addr:city" v="Norton"/>
    <tag k="addr:housenumber" v="5776"/>
    <tag k="addr:street" v="East Branch Road"/>
    <tag k="addr:state" v="VT"/>
    <tag k="ref:vcgi:esiteid" v="305291"/>
  </node>
  <node id="-105" visible="true" lat="44.88550432436" lon="-71.778640895019">
    <!-- conflict: "419 Lloyd Potter Road, Norton, VT" Fuzzy match to "419 Lloyd Potter Road, Lewis, VT" -->
    <tag k="addr:city" v="Norton"/>
    <tag k="addr:housenumber" v="419"/>
    <tag k="addr:street" v="Lloyd Potter Road"/>
    <tag k="addr:state" v="VT"/>
    <tag k="ref:vcgi:esiteid" v="305293"/>
  </node>
  <node id="-106" visible="true" lat="44.885324697827" lon="-71.770620076324">
    <!-- conflict: "10219 Lewis Pond Road, Norton, VT" Fuzzy match to "10219 Lewis Pond Road, Lewis, VT" -->
    <tag k="addr:city" v="Norton"/>
    <tag k="addr:housenumber" v="10219"/>
    <tag k="addr:street" v="Lewis Pond Road"/>
    <tag k="addr:state" v="VT"/>
    <tag k="ref:vcgi:esiteid" v="305294"/>
  </node>
  <node id="-107" visible="true" lat="44.884075790779" lon="-71.784288830408">
    <!-- conflict: "780 Lewis Pond Trail, Norton, VT" Fuzzy match to "780 Lewis Pond Trail, Lewis, VT" -->
    <tag k="addr:city" v="Norton"/>
    <tag k="addr:housenumber" v="780"/>
    <tag k="addr:street" v="Lewis Pond Trail"/>
    <tag k="addr:state" v="VT"/>
    <tag k="ref:vcgi:esiteid" v="305297"/>
  </node>
  <node id="-108" visible="true" lat="44.883183991382" lon="-71.684110826821">
    <!-- conflict: "7037 East Branch Road, Norton, VT" Fuzzy match to "7037 East Branch Road, Lewis, VT" -->
    <tag k="addr:city" v="Norton"/>
    <tag k="addr:housenumber" v="7037"/>
    <tag k="addr:street" v="East Branch Road"/>
    <tag k="addr:state" v="VT"/>
    <tag k="ref:vcgi:esiteid" v="305298"/>
  </node>
  <node id="-109" visible="true" lat="44.882077728539" lon="-71.797407374101">
    <!-- conflict: "592 Tim Carroll Brook Road, Norton, VT" Fuzzy match to "592 Tim Carroll Brook Road, Lewis, VT" -->
    <tag k="addr:city" v="Norton"/>
    <tag k="addr:housenumber" v="592"/>
    <tag k="addr:street" v="Tim Carroll Brook Road"/>
    <tag k="addr:state" v="VT"/>
    <tag k="ref:vcgi:esiteid" v="305305"/>
  </node>
  <node id="-110" visible="true" lat="44.881686577291" lon="-71.777358160441">
    <!-- conflict: "165 Lloyd Potter Road, Norton, VT" Fuzzy match to "165 Lloyd Potter Road, Lewis, VT" -->
    <tag k="addr:city" v="Norton"/>
    <tag k="addr:housenumber" v="165"/>
    <tag k="addr:street" v="Lloyd Potter Road"/>
    <tag k="addr:state" v="VT"/>
    <tag k="ref:vcgi:esiteid" v="305306"/>
  </node>
  <node id="-111" visible="true" lat="44.871873413929" lon="-71.684744066043">
    <!-- conflict: "7823 East Branch Road, Norton, VT" Fuzzy match to "7823 East Branch Road, Lewis, VT" -->
    <tag k="addr:city" v="Norton"/>
    <tag k="addr:housenumber" v="7823"/>
    <tag k="addr:street" v="East Branch Road"/>
    <tag k="addr:state" v="VT"/>
    <tag k="ref:vcgi:esiteid" v="305310"/>
  </node>
  <node id="-112" visible="true" lat="44.870416858872" lon="-71.789758842094">
    <!-- conflict: "8506 Lewis Pond Road, Norton, VT" Fuzzy match to "8506 Lewis Pond Road, Lewis, VT" -->
    <tag k="addr:city" v="Norton"/>
    <tag k="addr:housenumber" v="8506"/>
    <tag k="addr:street" v="Lewis Pond Road"/>
    <tag k="addr:state" v="VT"/>
    <tag k="ref:vcgi:esiteid" v="305311"/>
  </node>
  <node id="-113" visible="true" lat="44.860654385805" lon="-71.80921005048">
    <!-- conflict: "1279 Henshaw Road, Norton, VT" Fuzzy match to "1279 Henshaw Road, Lewis, VT" -->
    <tag k="addr:city" v="Norton"/>
    <tag k="addr:housenumber" v="1279"/>
    <tag k="addr:street" v="Henshaw Road"/>
    <tag k="addr:state" v="VT"/>
    <tag k="ref:vcgi:esiteid" v="305313"/>
  </node>
  <node id="-114" visible="true" lat="44.856700302833" lon="-71.801141985351">
    <!-- conflict: "3497 Four Mile Road, Norton, VT" Fuzzy match to "3497 Four Mile Road, Lewis, VT" -->
    <tag k="addr:city" v="Norton"/>
    <tag k="addr:housenumber" v="3497"/>
    <tag k="addr:street" v="Four Mile Road"/>
    <tag k="addr:state" v="VT"/>
    <tag k="ref:vcgi:esiteid" v="305315"/>
  </node>
  <node id="-115" visible="true" lat="44.854698336876" lon="-71.816208343271">
    <!-- conflict: "515 Henshaw Road, Norton, VT" Fuzzy match to "515 Henshaw Road, Lewis, VT" -->
    <tag k="addr:city" v="Norton"/>
    <tag k="addr:housenumber" v="515"/>
    <tag k="addr:street" v="Henshaw Road"/>
    <tag k="addr:state" v="VT"/>
    <tag k="ref:vcgi:esiteid" v="305316"/>
  </node>
  <node id="-116" visible="true" lat="44.861444136747" lon="-71.72146221586">
    <!-- conflict: "6255 Power Line Road, Norton, VT" Fuzzy match to "6255 Power Line Road, Lewis, VT" -->
    <tag k="addr:city" v="Norton"/>
    <tag k="addr:housenumber" v="6255"/>
    <tag k="addr:street" v="Power Line Road"/>
    <tag k="addr:state" v="VT"/>
    <tag k="ref:vcgi:esiteid" v="305317"/>
  </node>
  <node id="-117" visible="true" lat="44.851354782134" lon="-71.819232561117">
    <!-- conflict: "185 Henshaw Road, Norton, VT" Fuzzy match to "185 Henshaw Road, Lewis, VT" -->
    <tag k="addr:city" v="Norton"/>
    <tag k="addr:housenumber" v="185"/>
    <tag k="addr:street" v="Henshaw Road"/>
    <tag k="addr:state" v="VT"/>
    <tag k="ref:vcgi:esiteid" v="305319"/>
  </node>
  <node id="-118" visible="true" lat="44.849611430769" lon="-71.717942663337">
    <!-- conflict: "1736 Lower Tin Shack Road, Norton, VT" Fuzzy match to "1736 Lower Tin Shack Road, Lewis, VT" -->
    <tag k="addr:city" v="Norton"/>
    <tag k="addr:housenumber" v="1736"/>
    <tag k="addr:street" v="Lower Tin Shack Road"/>
    <tag k="addr:state" v="VT"/>
    <tag k="ref:vcgi:esiteid" v="305320"/>
  </node>
  <node id="-119" visible="true" lat="44.848501400774" lon="-71.751462651537">
    <!-- conflict: "1234 Eagles Nest Road, Norton, VT" Fuzzy match to "1234 Eagles Nest Road, Lewis, VT" -->
    <tag k="addr:city" v="Norton"/>
    <tag k="addr:housenumber" v="1234"/>
    <tag k="addr:street" v="Eagles Nest Road"/>
    <tag k="addr:state" v="VT"/>
    <tag k="ref:vcgi:esiteid" v="305323"/>
  </node>
  <node id="-120" visible="true" lat="44.846478114109" lon="-71.772462710672">
    <!-- conflict: "6344 Lewis Pond Road, Norton, VT" Fuzzy match to "6344 Lewis Pond Road, Lewis, VT" -->
    <tag k="addr:city" v="Norton"/>
    <tag k="addr:housenumber" v="6344"/>
    <tag k="addr:street" v="Lewis Pond Road"/>
    <tag k="addr:state" v="VT"/>
    <tag k="ref:vcgi:esiteid" v="305324"/>
  </node>
  <node id="-121" visible="true" lat="44.839238672089" lon="-71.760297986428">
    <!-- conflict: "5452 Lewis Pond Road, Norton, VT" Fuzzy match to "5452 Lewis Pond Road, Lewis, VT" -->
    <tag k="addr:city" v="Norton"/>
    <tag k="addr:housenumber" v="5452"/>
    <tag k="addr:street" v="Lewis Pond Road"/>
    <tag k="addr:state" v="VT"/>
    <tag k="ref:vcgi:esiteid" v="305326"/>
  </node>
  <node id="-122" visible="true" lat="44.833196194146" lon="-71.756283082136">
    <!-- conflict: "74 Eagles Nest Road, Norton, VT" Fuzzy match to "74 Eagles Nest Road, Lewis, VT" -->
    <tag k="addr:city" v="Norton"/>
    <tag k="addr:housenumber" v="74"/>
    <tag k="addr:street" v="Eagles Nest Road"/>
    <tag k="addr:state" v="VT"/>
    <tag k="ref:vcgi:esiteid" v="305327"/>
  </node>
  <node id="-123" visible="true" lat="44.82423437269" lon="-71.758843375588">
    <!-- conflict: "4358 Lewis Pond Road, Norton, VT" Fuzzy match to "4358 Lewis Pond Road, Lewis, VT" -->
    <tag k="addr:city" v="Norton"/>
    <tag k="addr:housenumber" v="4358"/>
    <tag k="addr:street" v="Lewis Pond Road"/>
    <tag k="addr:state" v="VT"/>
    <tag k="ref:vcgi:esiteid" v="305328"/>
  </node>
  <node id="-124" visible="true" lat="44.860601283794" lon="-71.802791532271">
    <!-- conflict: "3430 Four Mile Road, Norton, VT" Fuzzy match to "3430 Four Mile Road, Lewis, VT" -->
    <tag k="addr:city" v="Norton"/>
    <tag k="addr:housenumber" v="3430"/>
    <tag k="addr:street" v="Four Mile Road"/>
    <tag k="addr:state" v="VT"/>
    <tag k="ref:vcgi:esiteid" v="305330"/>
  </node>
  <node id="-127" visible="true" lat="44.859743536365" lon="-71.788439633554">
    <!-- conflict: "7533 Lewis Pond Road, Norton, VT" Fuzzy match to "7533 Lewis Pond Road, Lewis, VT" -->
    <tag k="addr:city" v="Norton"/>
    <tag k="addr:housenumber" v="7533"/>
    <tag k="addr:street" v="Lewis Pond Road"/>
    <tag k="addr:state" v="VT"/>
    <tag k="ref:vcgi:esiteid" v="454675"/>
  </node>
  <node id="-128" visible="true" lat="44.892638432051" lon="-71.770285537433">
    <!-- conflict: "5 Lewis Pond Overlook, Norton, VT" Fuzzy match to "5 Lewis Pond Overlook, Lewis, VT" -->
    <tag k="addr:city" v="Norton"/>
    <tag k="addr:housenumber" v="5"/>
    <tag k="addr:street" v="Lewis Pond Overlook"/>
    <tag k="addr:state" v="VT"/>
    <tag k="ref:vcgi:esiteid" v="761973"/>
  </node>
  <node id="-130" visible="true" lat="44.885360218334" lon="-71.784532631348">
    <!-- conflict: "890 Lewis Pond Trail, Norton, VT" Fuzzy match to "890 Lewis Pond Trail, Lewis, VT" -->
    <tag k="addr:city" v="Norton"/>
    <tag k="addr:housenumber" v="890"/>
    <tag k="addr:street" v="Lewis Pond Trail"/>
    <tag k="addr:state" v="VT"/>
    <tag k="ref:vcgi:esiteid" v="767231"/>
  </node>
  <node id="-140" visible="true" lat="44.880416477884" lon="-71.729808728644">
    <!-- conflict: "1988 Upper Tin Shack Road, Norton, VT" Fuzzy match to "1988 Upper Tin Shack Road, Lewis, VT" -->
    <tag k="addr:city" v="Norton"/>
    <tag k="addr:housenumber" v="1988"/>
    <tag k="addr:street" v="Upper Tin Shack Road"/>
    <tag k="addr:state" v="VT"/>
    <tag k="ref:vcgi:esiteid" v="768547"/>
  </node>
  <node id="-141" visible="true" lat="44.881602121906" lon="-71.804275302436">
    <!-- conflict: "771 Tim Carroll Brook Road, Norton, VT" Fuzzy match to "771 Tim Carroll Brook Road, Lewis, VT" -->
    <tag k="addr:city" v="Norton"/>
    <tag k="addr:housenumber" v="771"/>
    <tag k="addr:street" v="Tim Carroll Brook Road"/>
    <tag k="addr:state" v="VT"/>
    <tag k="ref:vcgi:esiteid" v="768555"/>
  </node>
</osm>
