<?xml version="1.0" encoding="UTF-8"?>
<osm version="0.6" generator="JOSM" upload="false">
  <node id="-758" visible="true" lat="44.109302490013" lon="-72.987834366301">
    <tag k="addr:city" v="Bristol"/>
    <tag k="addr:housenumber" v="468"/>
    <tag k="addr:street" v="Elder Hill Road"/>
    <tag k="addr:state" v="VT"/>
    <tag k="ref:vcgi:esiteid" v="448244"/>
  </node>
  <node id="-773" visible="true" lat="44.111676816664" lon="-72.936793162383">
    <tag k="addr:city" v="Bristol"/>
    <tag k="addr:housenumber" v="1937"/>
    <tag k="addr:street" v="Elder Hill Road"/>
    <tag k="addr:state" v="VT"/>
    <tag k="ref:vcgi:esiteid" v="450412"/>
  </node>
  <node id="-789" visible="true" lat="44.147834068174" lon="-72.968855354125">
    <tag k="addr:city" v="Bristol"/>
    <tag k="addr:housenumber" v="95"/>
    <tag k="addr:street" v="Biddle Road"/>
    <tag k="addr:state" v="VT"/>
    <tag k="ref:vcgi:esiteid" v="500083"/>
  </node>
  <node id="-790" visible="true" lat="44.122314127698" lon="-73.005418427384">
    <tag k="addr:city" v="Bristol"/>
    <tag k="addr:housenumber" v="346"/>
    <tag k="addr:street" v="Bull Run Road"/>
    <tag k="addr:state" v="VT"/>
    <tag k="ref:vcgi:esiteid" v="600019"/>
  </node>
  <node id="-805" visible="true" lat="44.06196506202" lon="-72.958589719672">
    <tag k="addr:city" v="Bristol"/>
    <tag k="addr:housenumber" v="486"/>
    <tag k="addr:street" v="Masterson Road"/>
    <tag k="addr:state" v="VT"/>
    <tag k="ref:vcgi:esiteid" v="620993"/>
  </node>
  <node id="-809" visible="true" lat="44.053735960322" lon="-73.013064423845">
    <tag k="addr:city" v="Bristol"/>
    <tag k="addr:housenumber" v="2900"/>
    <tag k="addr:street" v="Ripton Road"/>
    <tag k="addr:state" v="VT"/>
    <tag k="ref:vcgi:esiteid" v="646650"/>
  </node>
  <node id="-810" visible="true" lat="44.074070538824" lon="-72.999521115783">
    <tag k="addr:city" v="Bristol"/>
    <tag k="addr:housenumber" v="1700"/>
    <tag k="addr:street" v="West Hill Road"/>
    <tag k="addr:state" v="VT"/>
    <tag k="ref:vcgi:esiteid" v="646672"/>
  </node>
  <node id="-820" visible="true" lat="44.070157971248" lon="-72.976568799854">
    <tag k="addr:city" v="Bristol"/>
    <tag k="addr:housenumber" v="214"/>
    <tag k="addr:street" v="Grimes Road"/>
    <tag k="addr:state" v="VT"/>
    <tag k="ref:vcgi:esiteid" v="656643"/>
  </node>
  <node id="-831" visible="true" lat="44.092597480289" lon="-72.953219787389">
    <tag k="addr:city" v="Bristol"/>
    <tag k="addr:housenumber" v="1657"/>
    <tag k="addr:street" v="Lincoln Gap Road"/>
    <tag k="addr:state" v="VT"/>
    <tag k="ref:vcgi:esiteid" v="656662"/>
  </node>
  <node id="-832" visible="true" lat="44.071677791516" lon="-72.99988888525">
    <tag k="addr:city" v="Bristol"/>
    <tag k="addr:housenumber" v="31"/>
    <tag k="addr:street" v="Green Road South"/>
    <tag k="addr:state" v="VT"/>
    <tag k="ref:vcgi:esiteid" v="656670"/>
  </node>
  <node id="-833" visible="true" lat="44.095149870783" lon="-72.998883029649">
    <tag k="addr:city" v="Bristol"/>
    <tag k="addr:housenumber" v="144"/>
    <tag k="addr:street" v="West Hill Road"/>
    <tag k="addr:state" v="VT"/>
    <tag k="ref:vcgi:esiteid" v="656700"/>
  </node>
  <node id="-834" visible="true" lat="44.129616090702" lon="-72.974640050616">
    <tag k="addr:city" v="Bristol"/>
    <tag k="addr:housenumber" v="287"/>
    <tag k="addr:street" v="Marsters Road"/>
    <tag k="addr:state" v="VT"/>
    <tag k="ref:vcgi:esiteid" v="656701"/>
  </node>
  <node id="-835" visible="true" lat="44.107600989997" lon="-72.99893374092">
    <tag k="addr:city" v="Bristol"/>
    <tag k="addr:housenumber" v="182"/>
    <tag k="addr:street" v="West River Road"/>
    <tag k="addr:state" v="VT"/>
    <tag k="ref:vcgi:esiteid" v="656774"/>
  </node>
  <node id="-836" visible="true" lat="44.107509578369" lon="-72.999284355253">
    <tag k="addr:city" v="Bristol"/>
    <tag k="addr:housenumber" v="180"/>
    <tag k="addr:street" v="West River Road"/>
    <tag k="addr:state" v="VT"/>
    <tag k="ref:vcgi:esiteid" v="656775"/>
  </node>
  <node id="-837" visible="true" lat="44.108237054598" lon="-72.999055201895">
    <tag k="addr:city" v="Bristol"/>
    <tag k="addr:housenumber" v="248"/>
    <tag k="addr:street" v="West River Road"/>
    <tag k="addr:state" v="VT"/>
    <tag k="ref:vcgi:esiteid" v="656800"/>
  </node>
  <node id="-913" visible="true" lat="44.120478102159" lon="-72.968234807095">
    <tag k="addr:city" v="Bristol"/>
    <tag k="addr:housenumber" v="586"/>
    <tag k="addr:street" v="James Road"/>
    <tag k="addr:state" v="VT"/>
    <tag k="ref:vcgi:esiteid" v="773607"/>
  </node>
  <node id="-914" visible="true" lat="44.097699694759" lon="-72.95634936145">
    <tag k="addr:city" v="Bristol"/>
    <tag k="addr:housenumber" v="312"/>
    <tag k="addr:street" v="Norton Ridge Road"/>
    <tag k="addr:state" v="VT"/>
    <tag k="ref:vcgi:esiteid" v="773618"/>
  </node>
</osm>
