<?xml version="1.0" encoding="UTF-8"?>
<osm version="0.6" generator="JOSM" upload="false">
  <node id="-1435" visible="true" lat="43.215822500422" lon="-72.765029820977">
    <tag k="addr:city" v="Londonderry"/>
    <tag k="addr:housenumber" v="33"/>
    <tag k="addr:street" v="Muskrat Lane"/>
    <tag k="addr:state" v="VT"/>
    <tag k="ref:vcgi:esiteid" v="142041"/>
  </node>
  <node id="-1521" visible="true" lat="43.215302395607" lon="-72.813818505557">
    <tag k="addr:city" v="Londonderry"/>
    <tag k="addr:housenumber" v="85"/>
    <tag k="addr:street" v="Brooks Lane"/>
    <tag k="addr:state" v="VT"/>
    <tag k="ref:vcgi:esiteid" v="500015"/>
  </node>
  <node id="-1656" visible="true" lat="43.230064270555" lon="-72.814958228333">
    <tag k="addr:city" v="Londonderry"/>
    <tag k="addr:housenumber" v="1945"/>
    <tag k="addr:street" v="North Main Street"/>
    <tag k="addr:state" v="VT"/>
    <tag k="ref:vcgi:esiteid" v="773143"/>
  </node>
  <node id="-1657" visible="true" lat="43.178624364374" lon="-72.822591117055">
    <tag k="addr:city" v="South Londonderry"/>
    <tag k="addr:housenumber" v="128"/>
    <tag k="addr:street" v="Glebe View Lane"/>
    <tag k="addr:state" v="VT"/>
    <tag k="ref:vcgi:esiteid" v="773144"/>
  </node>
  <node id="-1658" visible="true" lat="43.206096364101" lon="-72.81123513699">
    <tag k="addr:city" v="South Londonderry"/>
    <tag k="addr:housenumber" v="79"/>
    <tag k="addr:street" v="Parsons Lane"/>
    <tag k="addr:state" v="VT"/>
    <tag k="ref:vcgi:esiteid" v="773145"/>
  </node>
  <node id="-1659" visible="true" lat="43.210606801818" lon="-72.813796598318">
    <tag k="addr:city" v="South Londonderry"/>
    <tag k="addr:housenumber" v="1241"/>
    <tag k="addr:street" v="Middletown Road"/>
    <tag k="addr:state" v="VT"/>
    <tag k="ref:vcgi:esiteid" v="773146"/>
  </node>
  <node id="-1660" visible="true" lat="43.19477345624" lon="-72.813736142673">
    <tag k="addr:city" v="South Londonderry"/>
    <tag k="addr:housenumber" v="140"/>
    <tag k="addr:street" v="Middletown Road"/>
    <tag k="addr:state" v="VT"/>
    <tag k="ref:vcgi:esiteid" v="773198"/>
  </node>
  <node id="-1661" visible="true" lat="43.170117522961" lon="-72.809041906733">
    <tag k="addr:city" v="South Londonderry"/>
    <tag k="addr:housenumber" v="178"/>
    <tag k="addr:street" v="Magoon Road"/>
    <tag k="addr:state" v="VT"/>
    <tag k="ref:vcgi:esiteid" v="773524"/>
  </node>
  <node id="-1662" visible="true" lat="43.20863657196" lon="-72.84385056898">
    <tag k="addr:city" v="South Londonderry"/>
    <tag k="addr:housenumber" v="1669"/>
    <tag k="addr:street" v="Winhall Hollow Road"/>
    <tag k="addr:state" v="VT"/>
    <tag k="ref:vcgi:esiteid" v="773556"/>
  </node>
  <node id="-1663" visible="true" lat="43.212909163441" lon="-72.785669375895">
    <tag k="addr:city" v="Londonderry"/>
    <tag k="addr:housenumber" v="66"/>
    <tag k="addr:street" v="Stoney Brook Road"/>
    <tag k="addr:state" v="VT"/>
    <tag k="ref:vcgi:esiteid" v="773867"/>
  </node>
</osm>
