<?xml version="1.0" encoding="UTF-8"?>
<osm version="0.6" generator="JOSM" upload="false">
  <node id="-682" visible="true" lat="44.740917014391" lon="-72.433528259449">
    <tag k="addr:city" v="Lowell"/>
    <tag k="addr:housenumber" v="1715"/>
    <tag k="addr:street" v="South Edward Drive"/>
    <tag k="addr:state" v="VT"/>
    <tag k="ref:vcgi:esiteid" v="455203"/>
  </node>
  <node id="-684" visible="true" lat="44.763040433363" lon="-72.41126160413">
    <tag k="addr:city" v="Lowell"/>
    <tag k="addr:housenumber" v="586"/>
    <tag k="addr:street" v="North Edward Drive"/>
    <tag k="addr:state" v="VT"/>
    <tag k="ref:vcgi:esiteid" v="455205"/>
  </node>
  <node id="-685" visible="true" lat="44.767112108787" lon="-72.408464568087">
    <tag k="addr:city" v="Lowell"/>
    <tag k="addr:housenumber" v="855"/>
    <tag k="addr:street" v="North Edward Drive"/>
    <tag k="addr:state" v="VT"/>
    <tag k="ref:vcgi:esiteid" v="455206"/>
  </node>
  <node id="-687" visible="true" lat="44.76900284953" lon="-72.407275035706">
    <tag k="addr:city" v="Lowell"/>
    <tag k="addr:housenumber" v="1121"/>
    <tag k="addr:street" v="North Edward Drive"/>
    <tag k="addr:state" v="VT"/>
    <tag k="ref:vcgi:esiteid" v="455208"/>
  </node>
  <node id="-688" visible="true" lat="44.765277261401" lon="-72.40959377794">
    <tag k="addr:city" v="Lowell"/>
    <tag k="addr:housenumber" v="799"/>
    <tag k="addr:street" v="North Edward Drive"/>
    <tag k="addr:state" v="VT"/>
    <tag k="ref:vcgi:esiteid" v="455209"/>
  </node>
  <node id="-689" visible="true" lat="44.753358773109" lon="-72.423726791515">
    <tag k="addr:city" v="Lowell"/>
    <tag k="addr:housenumber" v="606"/>
    <tag k="addr:street" v="South Edward Drive"/>
    <tag k="addr:state" v="VT"/>
    <tag k="ref:vcgi:esiteid" v="455210"/>
  </node>
  <node id="-690" visible="true" lat="44.750957197941" lon="-72.425016367277">
    <tag k="addr:city" v="Lowell"/>
    <tag k="addr:housenumber" v="810"/>
    <tag k="addr:street" v="South Edward Drive"/>
    <tag k="addr:state" v="VT"/>
    <tag k="ref:vcgi:esiteid" v="455211"/>
  </node>
  <node id="-692" visible="true" lat="44.746147254" lon="-72.428226670458">
    <tag k="addr:city" v="Lowell"/>
    <tag k="addr:housenumber" v="1206"/>
    <tag k="addr:street" v="South Edward Drive"/>
    <tag k="addr:state" v="VT"/>
    <tag k="ref:vcgi:esiteid" v="455213"/>
  </node>
  <node id="-693" visible="true" lat="44.760851336626" lon="-72.413109692916">
    <tag k="addr:city" v="Lowell"/>
    <tag k="addr:housenumber" v="336"/>
    <tag k="addr:street" v="North Edward Drive"/>
    <tag k="addr:state" v="VT"/>
    <tag k="ref:vcgi:esiteid" v="455214"/>
  </node>
  <node id="-694" visible="true" lat="44.735017055906" lon="-72.442637684885">
    <tag k="addr:city" v="Lowell"/>
    <tag k="addr:housenumber" v="2450"/>
    <tag k="addr:street" v="South Edward Drive"/>
    <tag k="addr:state" v="VT"/>
    <tag k="ref:vcgi:esiteid" v="455215"/>
  </node>
  <node id="-695" visible="true" lat="44.748474268646" lon="-72.425714548323">
    <tag k="addr:city" v="Lowell"/>
    <tag k="addr:housenumber" v="969"/>
    <tag k="addr:street" v="South Edward Drive"/>
    <tag k="addr:state" v="VT"/>
    <tag k="ref:vcgi:esiteid" v="455216"/>
  </node>
  <node id="-696" visible="true" lat="44.745086644682" lon="-72.430356205922">
    <tag k="addr:city" v="Lowell"/>
    <tag k="addr:housenumber" v="1356"/>
    <tag k="addr:street" v="South Edward Drive"/>
    <tag k="addr:state" v="VT"/>
    <tag k="ref:vcgi:esiteid" v="455217"/>
  </node>
  <node id="-697" visible="true" lat="44.733256471006" lon="-72.445418577478">
    <tag k="addr:city" v="Lowell"/>
    <tag k="addr:housenumber" v="2670"/>
    <tag k="addr:street" v="South Edward Drive"/>
    <tag k="addr:state" v="VT"/>
    <tag k="ref:vcgi:esiteid" v="455218"/>
  </node>
  <node id="-698" visible="true" lat="44.755812662769" lon="-72.418931671499">
    <tag k="addr:city" v="Lowell"/>
    <tag k="addr:housenumber" v="250"/>
    <tag k="addr:street" v="South Edward Drive"/>
    <tag k="addr:state" v="VT"/>
    <tag k="ref:vcgi:esiteid" v="455219"/>
  </node>
  <node id="-699" visible="true" lat="44.754943381184" lon="-72.422040552525">
    <tag k="addr:city" v="Lowell"/>
    <tag k="addr:housenumber" v="470"/>
    <tag k="addr:street" v="South Edward Drive"/>
    <tag k="addr:state" v="VT"/>
    <tag k="ref:vcgi:esiteid" v="455220"/>
  </node>
  <node id="-701" visible="true" lat="44.736620971186" lon="-72.440905710168">
    <tag k="addr:city" v="Lowell"/>
    <tag k="addr:housenumber" v="2325"/>
    <tag k="addr:street" v="South Edward Drive"/>
    <tag k="addr:state" v="VT"/>
    <tag k="ref:vcgi:esiteid" v="455222"/>
  </node>
  <node id="-800" visible="true" lat="44.803916340466" lon="-72.401727178602">
    <tag k="addr:city" v="Lowell"/>
    <tag k="addr:housenumber" v="496"/>
    <tag k="addr:street" v="McAllister Road"/>
    <tag k="addr:state" v="VT"/>
    <tag k="ref:vcgi:esiteid" v="773271"/>
  </node>
</osm>
