<?xml version="1.0" encoding="UTF-8"?>
<osm version="0.6" generator="JOSM" upload="false">
  <node id="-1465" visible="true" lat="44.486865711328" lon="-71.700545312525">
    <tag k="addr:city" v="Lunenburg"/>
    <tag k="addr:housenumber" v="7"/>
    <tag k="addr:street" v="West Side Road"/>
    <tag k="addr:state" v="VT"/>
    <tag k="ref:vcgi:esiteid" v="656608"/>
  </node>
  <node id="-1518" visible="true" lat="44.476083929765" lon="-71.754709022667">
    <tag k="addr:city" v="Lunenburg"/>
    <tag k="addr:housenumber" v="460"/>
    <tag k="addr:street" v="Horn of the Moon Road"/>
    <tag k="addr:state" v="VT"/>
    <tag k="ref:vcgi:esiteid" v="773104"/>
  </node>
  <node id="-1519" visible="true" lat="44.477340497445" lon="-71.755618252066">
    <tag k="addr:city" v="Lunenburg"/>
    <tag k="addr:housenumber" v="536"/>
    <tag k="addr:street" v="Horn of the Moon Road"/>
    <tag k="addr:state" v="VT"/>
    <tag k="ref:vcgi:esiteid" v="773105"/>
  </node>
  <node id="-1520" visible="true" lat="44.479650652103" lon="-71.75481570068">
    <tag k="addr:city" v="Lunenburg"/>
    <tag k="addr:housenumber" v="836"/>
    <tag k="addr:street" v="Horn of the Moon Road"/>
    <tag k="addr:state" v="VT"/>
    <tag k="ref:vcgi:esiteid" v="773106"/>
  </node>
  <node id="-1523" visible="true" lat="44.448039322209" lon="-71.67700369246">
    <tag k="addr:city" v="Lunenburg"/>
    <tag k="addr:housenumber" v="584"/>
    <tag k="addr:street" v="South Lunenburg Road"/>
    <tag k="addr:state" v="VT"/>
    <tag k="ref:vcgi:esiteid" v="773544"/>
  </node>
  <node id="-1524" visible="true" lat="44.466291699968" lon="-71.664656080838">
    <tag k="addr:city" v="Lunenburg"/>
    <tag k="addr:housenumber" v="451"/>
    <tag k="addr:street" v="East Main Street"/>
    <tag k="addr:state" v="VT"/>
    <tag k="ref:vcgi:esiteid" v="773565"/>
  </node>
  <node id="-1525" visible="true" lat="44.467051304767" lon="-71.663815701432">
    <tag k="addr:city" v="Lunenburg"/>
    <tag k="addr:housenumber" v="491"/>
    <tag k="addr:street" v="East Main Street"/>
    <tag k="addr:state" v="VT"/>
    <tag k="ref:vcgi:esiteid" v="773566"/>
  </node>
  <node id="-1526" visible="true" lat="44.482384807153" lon="-71.708907373668">
    <tag k="addr:city" v="Lunenburg"/>
    <tag k="addr:housenumber" v="836"/>
    <tag k="addr:street" v="Kimball Road"/>
    <tag k="addr:state" v="VT"/>
    <tag k="ref:vcgi:esiteid" v="773761"/>
  </node>
  <node id="-1527" visible="true" lat="44.479543296287" lon="-71.707133781437">
    <tag k="addr:city" v="Lunenburg"/>
    <tag k="addr:housenumber" v="748"/>
    <tag k="addr:street" v="Kimball Road"/>
    <tag k="addr:state" v="VT"/>
    <tag k="ref:vcgi:esiteid" v="773982"/>
  </node>
</osm>
