<?xml version="1.0" encoding="UTF-8"?>
<osm version="0.6" generator="JOSM" upload="false">
  <node id="-301" visible="true" lat="44.483820641538" lon="-71.760273320574">
    <!-- conflict: "1085 Horn of the Moon Road, Lunenburg, VT" No match in OSM, but a different address exists <5m away: "149 Horn of the Moon Road, Lunenburg, VT" -->
    <tag k="addr:city" v="Lunenburg"/>
    <tag k="addr:housenumber" v="1085"/>
    <tag k="addr:street" v="Horn of the Moon Road"/>
    <tag k="addr:state" v="VT"/>
    <tag k="ref:vcgi:esiteid" v="145304"/>
  </node>
  <node id="-302" visible="true" lat="44.483394843444" lon="-71.759823701251">
    <!-- conflict: "1070 Horn of the Moon Road, Lunenburg, VT" No match in OSM, but a different address exists <5m away: "147 Horn of the Moon Road, Lunenburg, VT" -->
    <tag k="addr:city" v="Lunenburg"/>
    <tag k="addr:housenumber" v="1070"/>
    <tag k="addr:street" v="Horn of the Moon Road"/>
    <tag k="addr:state" v="VT"/>
    <tag k="ref:vcgi:esiteid" v="145305"/>
  </node>
  <node id="-386" visible="true" lat="44.479025878369" lon="-71.769793320126">
    <!-- conflict: "2458 West Lunenburg Road, North Concord, VT" Fuzzy match to "2458 West Lunenburg Road, Lunenburg, VT" -->
    <tag k="addr:city" v="North Concord"/>
    <tag k="addr:housenumber" v="2458"/>
    <tag k="addr:street" v="West Lunenburg Road"/>
    <tag k="addr:state" v="VT"/>
    <tag k="ref:vcgi:esiteid" v="145391"/>
  </node>
  <node id="-910" visible="true" lat="44.422747977403" lon="-71.691061138641">
    <!-- conflict: "2042 River Road, Gilman, VT" Fuzzy match to "2042 River Road, Lunenburg, VT" -->
    <tag k="addr:city" v="Gilman"/>
    <tag k="addr:housenumber" v="2042"/>
    <tag k="addr:street" v="River Road"/>
    <tag k="addr:state" v="VT"/>
    <tag k="ref:vcgi:esiteid" v="145925"/>
  </node>
  <node id="-911" visible="true" lat="44.424110833287" lon="-71.688227380777">
    <!-- conflict: "1928 River Road, Gilman, VT" Fuzzy match to "1928 River Road, Lunenburg, VT" -->
    <tag k="addr:city" v="Gilman"/>
    <tag k="addr:housenumber" v="1928"/>
    <tag k="addr:street" v="River Road"/>
    <tag k="addr:state" v="VT"/>
    <tag k="ref:vcgi:esiteid" v="145926"/>
  </node>
  <node id="-913" visible="true" lat="44.422361317752" lon="-71.692142983135">
    <!-- conflict: "2060 River Road, Gilman, VT" Fuzzy match to "2060 River Road, Lunenburg, VT" -->
    <tag k="addr:city" v="Gilman"/>
    <tag k="addr:housenumber" v="2060"/>
    <tag k="addr:street" v="River Road"/>
    <tag k="addr:state" v="VT"/>
    <tag k="ref:vcgi:esiteid" v="145928"/>
  </node>
  <node id="-915" visible="true" lat="44.421113992972" lon="-71.695166354996">
    <!-- conflict: "2150 River Road, Gilman, VT" Fuzzy match to "2150 River Road, Lunenburg, VT" -->
    <tag k="addr:city" v="Gilman"/>
    <tag k="addr:housenumber" v="2150"/>
    <tag k="addr:street" v="River Road"/>
    <tag k="addr:state" v="VT"/>
    <tag k="ref:vcgi:esiteid" v="145930"/>
  </node>
  <node id="-917" visible="true" lat="44.420088827778" lon="-71.697285517833">
    <!-- conflict: "2188 River Road, Gilman, VT" Fuzzy match to "2188 River Road, Lunenburg, VT" -->
    <tag k="addr:city" v="Gilman"/>
    <tag k="addr:housenumber" v="2188"/>
    <tag k="addr:street" v="River Road"/>
    <tag k="addr:state" v="VT"/>
    <tag k="ref:vcgi:esiteid" v="145932"/>
  </node>
  <node id="-918" visible="true" lat="44.418761065456" lon="-71.697008658454">
    <!-- conflict: "2251 River Road, Gilman, VT" Fuzzy match to "2251 River Road, Lunenburg, VT" -->
    <tag k="addr:city" v="Gilman"/>
    <tag k="addr:housenumber" v="2251"/>
    <tag k="addr:street" v="River Road"/>
    <tag k="addr:state" v="VT"/>
    <tag k="ref:vcgi:esiteid" v="145933"/>
  </node>
  <node id="-919" visible="true" lat="44.420498548998" lon="-71.695414016618">
    <!-- conflict: "2157 River Road, Gilman, VT" Fuzzy match to "2157 River Road, Lunenburg, VT" -->
    <tag k="addr:city" v="Gilman"/>
    <tag k="addr:housenumber" v="2157"/>
    <tag k="addr:street" v="River Road"/>
    <tag k="addr:state" v="VT"/>
    <tag k="ref:vcgi:esiteid" v="145934"/>
  </node>
  <node id="-921" visible="true" lat="44.418853555426" lon="-71.698243312673">
    <!-- conflict: "2256 River Road, Gilman, VT" Fuzzy match to "2256 River Road, Lunenburg, VT" -->
    <tag k="addr:city" v="Gilman"/>
    <tag k="addr:housenumber" v="2256"/>
    <tag k="addr:street" v="River Road"/>
    <tag k="addr:state" v="VT"/>
    <tag k="ref:vcgi:esiteid" v="145937"/>
  </node>
  <node id="-924" visible="true" lat="44.419919868838" lon="-71.697876231961">
    <!-- conflict: "2190 River Road, Gilman, VT" Fuzzy match to "2190 River Road, Lunenburg, VT" -->
    <tag k="addr:city" v="Gilman"/>
    <tag k="addr:housenumber" v="2190"/>
    <tag k="addr:street" v="River Road"/>
    <tag k="addr:state" v="VT"/>
    <tag k="ref:vcgi:esiteid" v="145940"/>
  </node>
  <node id="-926" visible="true" lat="44.418251034325" lon="-71.699248248992">
    <!-- conflict: "2298 River Road, Gilman, VT" Fuzzy match to "2298 River Road, Lunenburg, VT" -->
    <tag k="addr:city" v="Gilman"/>
    <tag k="addr:housenumber" v="2298"/>
    <tag k="addr:street" v="River Road"/>
    <tag k="addr:state" v="VT"/>
    <tag k="ref:vcgi:esiteid" v="145942"/>
  </node>
  <node id="-938" visible="true" lat="44.41404962429" lon="-71.721982543189">
    <!-- conflict: "88 Jefferson Avenue, Gilman, VT" Fuzzy match to "88 Jefferson Avenue, Lunenburg, VT" -->
    <tag k="addr:city" v="Gilman"/>
    <tag k="addr:housenumber" v="88"/>
    <tag k="addr:street" v="Jefferson Avenue"/>
    <tag k="addr:state" v="VT"/>
    <tag k="ref:vcgi:esiteid" v="145954"/>
  </node>
  <node id="-939" visible="true" lat="44.414162109708" lon="-71.721612298284">
    <!-- conflict: "76 Jefferson Avenue, Gilman, VT" Fuzzy match to "76 Jefferson Avenue, Lunenburg, VT" -->
    <tag k="addr:city" v="Gilman"/>
    <tag k="addr:housenumber" v="76"/>
    <tag k="addr:street" v="Jefferson Avenue"/>
    <tag k="addr:state" v="VT"/>
    <tag k="ref:vcgi:esiteid" v="145955"/>
  </node>
  <node id="-941" visible="true" lat="44.4176097902" lon="-71.721861579574">
    <!-- conflict: "90 Cedar Street, Gilman, VT" Fuzzy match to "90 Cedar Street, Lunenburg, VT" -->
    <tag k="addr:city" v="Gilman"/>
    <tag k="addr:housenumber" v="90"/>
    <tag k="addr:street" v="Cedar Street"/>
    <tag k="addr:state" v="VT"/>
    <tag k="ref:vcgi:esiteid" v="145957"/>
  </node>
  <node id="-942" visible="true" lat="44.415398181646" lon="-71.721021827533">
    <!-- conflict: "79 Cedar Street, Gilman, VT" Fuzzy match to "79 Cedar Street, Lunenburg, VT" -->
    <tag k="addr:city" v="Gilman"/>
    <tag k="addr:housenumber" v="79"/>
    <tag k="addr:street" v="Cedar Street"/>
    <tag k="addr:state" v="VT"/>
    <tag k="ref:vcgi:esiteid" v="145958"/>
  </node>
  <node id="-943" visible="true" lat="44.415104473229" lon="-71.720690854047">
    <!-- conflict: "67 Cedar Street, Gilman, VT" Fuzzy match to "67 Cedar Street, Lunenburg, VT" -->
    <tag k="addr:city" v="Gilman"/>
    <tag k="addr:housenumber" v="67"/>
    <tag k="addr:street" v="Cedar Street"/>
    <tag k="addr:state" v="VT"/>
    <tag k="ref:vcgi:esiteid" v="145959"/>
  </node>
  <node id="-944" visible="true" lat="44.414857563048" lon="-71.720518724598">
    <!-- conflict: "57 Cedar Street, Gilman, VT" Fuzzy match to "57 Cedar Street, Lunenburg, VT" -->
    <tag k="addr:city" v="Gilman"/>
    <tag k="addr:housenumber" v="57"/>
    <tag k="addr:street" v="Cedar Street"/>
    <tag k="addr:state" v="VT"/>
    <tag k="ref:vcgi:esiteid" v="145960"/>
  </node>
  <node id="-946" visible="true" lat="44.414644996721" lon="-71.720354112088">
    <!-- conflict: "40 Jefferson Avenue, Gilman, VT" Fuzzy match to "40 Jefferson Avenue, Lunenburg, VT" -->
    <tag k="addr:city" v="Gilman"/>
    <tag k="addr:housenumber" v="40"/>
    <tag k="addr:street" v="Jefferson Avenue"/>
    <tag k="addr:state" v="VT"/>
    <tag k="ref:vcgi:esiteid" v="145962"/>
  </node>
  <node id="-948" visible="true" lat="44.414509759372" lon="-71.720634969352">
    <!-- conflict: "50 Jefferson Avenue, Gilman, VT" Fuzzy match to "50 Jefferson Avenue, Lunenburg, VT" -->
    <tag k="addr:city" v="Gilman"/>
    <tag k="addr:housenumber" v="50"/>
    <tag k="addr:street" v="Jefferson Avenue"/>
    <tag k="addr:state" v="VT"/>
    <tag k="ref:vcgi:esiteid" v="145964"/>
  </node>
  <node id="-949" visible="true" lat="44.41439563574" lon="-71.720913400414">
    <!-- conflict: "56 Jefferson Avenue, Gilman, VT" Fuzzy match to "56 Jefferson Avenue, Lunenburg, VT" -->
    <tag k="addr:city" v="Gilman"/>
    <tag k="addr:housenumber" v="56"/>
    <tag k="addr:street" v="Jefferson Avenue"/>
    <tag k="addr:state" v="VT"/>
    <tag k="ref:vcgi:esiteid" v="145965"/>
  </node>
  <node id="-950" visible="true" lat="44.414296535071" lon="-71.721211861199">
    <!-- conflict: "58 Jefferson Avenue, Gilman, VT" Fuzzy match to "58 Jefferson Avenue, Lunenburg, VT" -->
    <tag k="addr:city" v="Gilman"/>
    <tag k="addr:housenumber" v="58"/>
    <tag k="addr:street" v="Jefferson Avenue"/>
    <tag k="addr:state" v="VT"/>
    <tag k="ref:vcgi:esiteid" v="145966"/>
  </node>
  <node id="-954" visible="true" lat="44.414172240683" lon="-71.720583639867">
    <!-- conflict: "53 Jefferson Avenue, Gilman, VT" Fuzzy match to "53 Jefferson Avenue, Lunenburg, VT" -->
    <tag k="addr:city" v="Gilman"/>
    <tag k="addr:housenumber" v="53"/>
    <tag k="addr:street" v="Jefferson Avenue"/>
    <tag k="addr:state" v="VT"/>
    <tag k="ref:vcgi:esiteid" v="145970"/>
  </node>
  <node id="-955" visible="true" lat="44.414227967124" lon="-71.720375601795">
    <!-- conflict: "45 Jefferson Avenue, Gilman, VT" Fuzzy match to "45 Jefferson Avenue, Lunenburg, VT" -->
    <tag k="addr:city" v="Gilman"/>
    <tag k="addr:housenumber" v="45"/>
    <tag k="addr:street" v="Jefferson Avenue"/>
    <tag k="addr:state" v="VT"/>
    <tag k="ref:vcgi:esiteid" v="145971"/>
  </node>
  <node id="-956" visible="true" lat="44.414084186008" lon="-71.720241969515">
    <!-- conflict: "23 Cedar Street, Gilman, VT" Fuzzy match to "23 Cedar Street, Lunenburg, VT" -->
    <tag k="addr:city" v="Gilman"/>
    <tag k="addr:housenumber" v="23"/>
    <tag k="addr:street" v="Cedar Street"/>
    <tag k="addr:state" v="VT"/>
    <tag k="ref:vcgi:esiteid" v="145972"/>
  </node>
  <node id="-957" visible="true" lat="44.414102688643" lon="-71.719603880341">
    <!-- conflict: "31 Jefferson Avenue, Gilman, VT" Fuzzy match to "31 Jefferson Avenue, Lunenburg, VT" -->
    <tag k="addr:city" v="Gilman"/>
    <tag k="addr:housenumber" v="31"/>
    <tag k="addr:street" v="Jefferson Avenue"/>
    <tag k="addr:state" v="VT"/>
    <tag k="ref:vcgi:esiteid" v="145973"/>
  </node>
  <node id="-958" visible="true" lat="44.414410382898" lon="-71.719472217713">
    <!-- conflict: "29 Jefferson Avenue, Gilman, VT" Fuzzy match to "29 Jefferson Avenue, Lunenburg, VT" -->
    <tag k="addr:city" v="Gilman"/>
    <tag k="addr:housenumber" v="29"/>
    <tag k="addr:street" v="Jefferson Avenue"/>
    <tag k="addr:state" v="VT"/>
    <tag k="ref:vcgi:esiteid" v="145974"/>
  </node>
  <node id="-959" visible="true" lat="44.415543541808" lon="-71.720549477635">
    <!-- conflict: "84 Cedar Street, Gilman, VT" Fuzzy match to "84 Cedar Street, Lunenburg, VT" -->
    <tag k="addr:city" v="Gilman"/>
    <tag k="addr:housenumber" v="84"/>
    <tag k="addr:street" v="Cedar Street"/>
    <tag k="addr:state" v="VT"/>
    <tag k="ref:vcgi:esiteid" v="145975"/>
  </node>
  <node id="-960" visible="true" lat="44.415330810487" lon="-71.720360946994">
    <!-- conflict: "74 Cedar Street, Gilman, VT" Fuzzy match to "74 Cedar Street, Lunenburg, VT" -->
    <tag k="addr:city" v="Gilman"/>
    <tag k="addr:housenumber" v="74"/>
    <tag k="addr:street" v="Cedar Street"/>
    <tag k="addr:state" v="VT"/>
    <tag k="ref:vcgi:esiteid" v="145976"/>
  </node>
  <node id="-963" visible="true" lat="44.415112908051" lon="-71.720252216809">
    <!-- conflict: "66 Cedar Street, Gilman, VT" Fuzzy match to "66 Cedar Street, Lunenburg, VT" -->
    <tag k="addr:city" v="Gilman"/>
    <tag k="addr:housenumber" v="66"/>
    <tag k="addr:street" v="Cedar Street"/>
    <tag k="addr:state" v="VT"/>
    <tag k="ref:vcgi:esiteid" v="145979"/>
  </node>
  <node id="-965" visible="true" lat="44.41494028452" lon="-71.720079101761">
    <!-- conflict: "56 Cedar Street, Gilman, VT" Fuzzy match to "56 Cedar Street, Lunenburg, VT" -->
    <tag k="addr:city" v="Gilman"/>
    <tag k="addr:housenumber" v="56"/>
    <tag k="addr:street" v="Cedar Street"/>
    <tag k="addr:state" v="VT"/>
    <tag k="ref:vcgi:esiteid" v="145981"/>
  </node>
  <node id="-966" visible="true" lat="44.414744640565" lon="-71.719882373186">
    <!-- conflict: "48 Cedar Street, Gilman, VT" Fuzzy match to "48 Cedar Street, Lunenburg, VT" -->
    <tag k="addr:city" v="Gilman"/>
    <tag k="addr:housenumber" v="48"/>
    <tag k="addr:street" v="Cedar Street"/>
    <tag k="addr:state" v="VT"/>
    <tag k="ref:vcgi:esiteid" v="145982"/>
  </node>
  <node id="-967" visible="true" lat="44.414857181773" lon="-71.719625736813">
    <!-- conflict: "16 Jefferson Avenue, Gilman, VT" Fuzzy match to "16 Jefferson Avenue, Lunenburg, VT" -->
    <tag k="addr:city" v="Gilman"/>
    <tag k="addr:housenumber" v="16"/>
    <tag k="addr:street" v="Jefferson Avenue"/>
    <tag k="addr:state" v="VT"/>
    <tag k="ref:vcgi:esiteid" v="145983"/>
  </node>
  <node id="-968" visible="true" lat="44.415037528978" lon="-71.719256573213">
    <!-- conflict: "8 Jefferson Avenue, Gilman, VT" Fuzzy match to "8 Jefferson Avenue, Lunenburg, VT" -->
    <tag k="addr:city" v="Gilman"/>
    <tag k="addr:housenumber" v="8"/>
    <tag k="addr:street" v="Jefferson Avenue"/>
    <tag k="addr:state" v="VT"/>
    <tag k="ref:vcgi:esiteid" v="145984"/>
  </node>
  <node id="-969" visible="true" lat="44.415062121102" lon="-71.718674204356">
    <!-- conflict: "52 Elm Street, Gilman, VT" Fuzzy match to "52 Elm Street, Lunenburg, VT" -->
    <tag k="addr:city" v="Gilman"/>
    <tag k="addr:housenumber" v="52"/>
    <tag k="addr:street" v="Elm Street"/>
    <tag k="addr:state" v="VT"/>
    <tag k="ref:vcgi:esiteid" v="145985"/>
  </node>
  <node id="-970" visible="true" lat="44.414545442221" lon="-71.718330267372">
    <!-- conflict: "42 Elm Street, Gilman, VT" Fuzzy match to "42 Elm Street, Lunenburg, VT" -->
    <tag k="addr:city" v="Gilman"/>
    <tag k="addr:housenumber" v="42"/>
    <tag k="addr:street" v="Elm Street"/>
    <tag k="addr:state" v="VT"/>
    <tag k="ref:vcgi:esiteid" v="145986"/>
  </node>
  <node id="-971" visible="true" lat="44.414075686295" lon="-71.716494753457">
    <!-- conflict: "27 Parish Street, Gilman, VT" Fuzzy match to "27 Parish Street, Lunenburg, VT" -->
    <tag k="addr:city" v="Gilman"/>
    <tag k="addr:housenumber" v="27"/>
    <tag k="addr:street" v="Parish Street"/>
    <tag k="addr:state" v="VT"/>
    <tag k="ref:vcgi:esiteid" v="145987"/>
  </node>
  <node id="-972" visible="true" lat="44.414025517133" lon="-71.716678803949">
    <!-- conflict: "19 Parish Street, Gilman, VT" Fuzzy match to "19 Parish Street, Lunenburg, VT" -->
    <tag k="addr:city" v="Gilman"/>
    <tag k="addr:housenumber" v="19"/>
    <tag k="addr:street" v="Parish Street"/>
    <tag k="addr:state" v="VT"/>
    <tag k="ref:vcgi:esiteid" v="145988"/>
  </node>
  <node id="-973" visible="true" lat="44.414131843772" lon="-71.716350490327">
    <!-- conflict: "31 Parish Street, Gilman, VT" Fuzzy match to "31 Parish Street, Lunenburg, VT" -->
    <tag k="addr:city" v="Gilman"/>
    <tag k="addr:housenumber" v="31"/>
    <tag k="addr:street" v="Parish Street"/>
    <tag k="addr:state" v="VT"/>
    <tag k="ref:vcgi:esiteid" v="145989"/>
  </node>
  <node id="-974" visible="true" lat="44.414153498835" lon="-71.716174793153">
    <!-- conflict: "17 Church Street, Gilman, VT" Fuzzy match to "17 Church Street, Lunenburg, VT" -->
    <tag k="addr:city" v="Gilman"/>
    <tag k="addr:housenumber" v="17"/>
    <tag k="addr:street" v="Church Street"/>
    <tag k="addr:state" v="VT"/>
    <tag k="ref:vcgi:esiteid" v="145990"/>
  </node>
  <node id="-975" visible="true" lat="44.415459916047" lon="-71.715846385939">
    <!-- conflict: "65 Church Street, Gilman, VT" Fuzzy match to "65 Church Street, Lunenburg, VT" -->
    <tag k="addr:city" v="Gilman"/>
    <tag k="addr:housenumber" v="65"/>
    <tag k="addr:street" v="Church Street"/>
    <tag k="addr:state" v="VT"/>
    <tag k="ref:vcgi:esiteid" v="145991"/>
  </node>
  <node id="-976" visible="true" lat="44.416657358909" lon="-71.716292837876">
    <!-- conflict: "1958 Baptist Hill Road, Gilman, VT" Fuzzy match to "1958 Baptist Hill Road, Lunenburg, VT" -->
    <tag k="addr:city" v="Gilman"/>
    <tag k="addr:housenumber" v="1958"/>
    <tag k="addr:street" v="Baptist Hill Road"/>
    <tag k="addr:state" v="VT"/>
    <tag k="ref:vcgi:esiteid" v="145992"/>
  </node>
  <node id="-978" visible="true" lat="44.41707701267" lon="-71.71665401009">
    <!-- conflict: "1956 Baptist Hill Road, Gilman, VT" Fuzzy match to "1956 Baptist Hill Road, Lunenburg, VT" -->
    <tag k="addr:city" v="Gilman"/>
    <tag k="addr:housenumber" v="1956"/>
    <tag k="addr:street" v="Baptist Hill Road"/>
    <tag k="addr:state" v="VT"/>
    <tag k="ref:vcgi:esiteid" v="145994"/>
  </node>
  <node id="-979" visible="true" lat="44.417310389272" lon="-71.717352561264">
    <!-- conflict: "1946 Baptist Hill Road, Gilman, VT" Fuzzy match to "1946 Baptist Hill Road, Lunenburg, VT" -->
    <tag k="addr:city" v="Gilman"/>
    <tag k="addr:housenumber" v="1946"/>
    <tag k="addr:street" v="Baptist Hill Road"/>
    <tag k="addr:state" v="VT"/>
    <tag k="ref:vcgi:esiteid" v="145995"/>
  </node>
  <node id="-982" visible="true" lat="44.414780189463" lon="-71.714481947931">
    <!-- conflict: "2720 River Road, Gilman, VT" Fuzzy match to "2720 River Road, Lunenburg, VT" -->
    <tag k="addr:city" v="Gilman"/>
    <tag k="addr:housenumber" v="2720"/>
    <tag k="addr:street" v="River Road"/>
    <tag k="addr:state" v="VT"/>
    <tag k="ref:vcgi:esiteid" v="145998"/>
  </node>
  <node id="-984" visible="true" lat="44.414526882181" lon="-71.708994017009">
    <!-- conflict: "2597 River Road, Gilman, VT" Fuzzy match to "2597 River Road, Lunenburg, VT" -->
    <tag k="addr:city" v="Gilman"/>
    <tag k="addr:housenumber" v="2597"/>
    <tag k="addr:street" v="River Road"/>
    <tag k="addr:state" v="VT"/>
    <tag k="ref:vcgi:esiteid" v="146000"/>
  </node>
  <node id="-985" visible="true" lat="44.414592526231" lon="-71.708570556963">
    <!-- conflict: "2575 River Road, Gilman, VT" Fuzzy match to "2575 River Road, Lunenburg, VT" -->
    <tag k="addr:city" v="Gilman"/>
    <tag k="addr:housenumber" v="2575"/>
    <tag k="addr:street" v="River Road"/>
    <tag k="addr:state" v="VT"/>
    <tag k="ref:vcgi:esiteid" v="146001"/>
  </node>
  <node id="-987" visible="true" lat="44.414947359854" lon="-71.708645502298">
    <!-- conflict: "2582 River Road, Gilman, VT" Fuzzy match to "2582 River Road, Lunenburg, VT" -->
    <tag k="addr:city" v="Gilman"/>
    <tag k="addr:housenumber" v="2582"/>
    <tag k="addr:street" v="River Road"/>
    <tag k="addr:state" v="VT"/>
    <tag k="ref:vcgi:esiteid" v="146003"/>
  </node>
  <node id="-989" visible="true" lat="44.414969242048" lon="-71.70768045439">
    <!-- conflict: "2556 River Road, Gilman, VT" Fuzzy match to "2556 River Road, Lunenburg, VT" -->
    <tag k="addr:city" v="Gilman"/>
    <tag k="addr:housenumber" v="2556"/>
    <tag k="addr:street" v="River Road"/>
    <tag k="addr:state" v="VT"/>
    <tag k="ref:vcgi:esiteid" v="146005"/>
  </node>
  <node id="-991" visible="true" lat="44.415023508159" lon="-71.707265116551">
    <!-- conflict: "2548 River Road, Gilman, VT" Fuzzy match to "2548 River Road, Lunenburg, VT" -->
    <tag k="addr:city" v="Gilman"/>
    <tag k="addr:housenumber" v="2548"/>
    <tag k="addr:street" v="River Road"/>
    <tag k="addr:state" v="VT"/>
    <tag k="ref:vcgi:esiteid" v="146007"/>
  </node>
  <node id="-992" visible="true" lat="44.415231556478" lon="-71.706775943071">
    <!-- conflict: "2534 River Road, Gilman, VT" Fuzzy match to "2534 River Road, Lunenburg, VT" -->
    <tag k="addr:city" v="Gilman"/>
    <tag k="addr:housenumber" v="2534"/>
    <tag k="addr:street" v="River Road"/>
    <tag k="addr:state" v="VT"/>
    <tag k="ref:vcgi:esiteid" v="146008"/>
  </node>
  <node id="-993" visible="true" lat="44.414729646966" lon="-71.706918271146">
    <!-- conflict: "2531 River Road, Gilman, VT" Fuzzy match to "2531 River Road, Lunenburg, VT" -->
    <tag k="addr:city" v="Gilman"/>
    <tag k="addr:housenumber" v="2531"/>
    <tag k="addr:street" v="River Road"/>
    <tag k="addr:state" v="VT"/>
    <tag k="ref:vcgi:esiteid" v="146009"/>
  </node>
  <node id="-996" visible="true" lat="44.415447708055" lon="-71.704987017368">
    <!-- conflict: "2482 River Road, Gilman, VT" Fuzzy match to "2482 River Road, Lunenburg, VT" -->
    <tag k="addr:city" v="Gilman"/>
    <tag k="addr:housenumber" v="2482"/>
    <tag k="addr:street" v="River Road"/>
    <tag k="addr:state" v="VT"/>
    <tag k="ref:vcgi:esiteid" v="146012"/>
  </node>
  <node id="-998" visible="true" lat="44.415938944372" lon="-71.703313943142">
    <!-- conflict: "2418 River Road, Gilman, VT" Fuzzy match to "2418 River Road, Lunenburg, VT" -->
    <tag k="addr:city" v="Gilman"/>
    <tag k="addr:housenumber" v="2418"/>
    <tag k="addr:street" v="River Road"/>
    <tag k="addr:state" v="VT"/>
    <tag k="ref:vcgi:esiteid" v="146014"/>
  </node>
  <node id="-1000" visible="true" lat="44.416521140457" lon="-71.701575816328">
    <!-- conflict: "2382 River Road, Gilman, VT" Fuzzy match to "2382 River Road, Lunenburg, VT" -->
    <tag k="addr:city" v="Gilman"/>
    <tag k="addr:housenumber" v="2382"/>
    <tag k="addr:street" v="River Road"/>
    <tag k="addr:state" v="VT"/>
    <tag k="ref:vcgi:esiteid" v="146016"/>
  </node>
  <node id="-1001" visible="true" lat="44.417278699451" lon="-71.702035942286">
    <!-- conflict: "2358 River Road, Gilman, VT" Fuzzy match to "2358 River Road, Lunenburg, VT" -->
    <tag k="addr:city" v="Gilman"/>
    <tag k="addr:housenumber" v="2358"/>
    <tag k="addr:street" v="River Road"/>
    <tag k="addr:state" v="VT"/>
    <tag k="ref:vcgi:esiteid" v="146017"/>
  </node>
  <node id="-1003" visible="true" lat="44.417818027791" lon="-71.699891697217">
    <!-- conflict: "2312 River Road, Gilman, VT" Fuzzy match to "2312 River Road, Lunenburg, VT" -->
    <tag k="addr:city" v="Gilman"/>
    <tag k="addr:housenumber" v="2312"/>
    <tag k="addr:street" v="River Road"/>
    <tag k="addr:state" v="VT"/>
    <tag k="ref:vcgi:esiteid" v="146019"/>
  </node>
  <node id="-1006" visible="true" lat="44.417873674176" lon="-71.698862349536">
    <!-- conflict: "2311 River Road, Gilman, VT" Fuzzy match to "2311 River Road, Lunenburg, VT" -->
    <tag k="addr:city" v="Gilman"/>
    <tag k="addr:housenumber" v="2311"/>
    <tag k="addr:street" v="River Road"/>
    <tag k="addr:state" v="VT"/>
    <tag k="ref:vcgi:esiteid" v="146022"/>
  </node>
  <node id="-1007" visible="true" lat="44.415147157332" lon="-71.704090783528">
    <!-- conflict: "2451 River Road, Gilman, VT" Fuzzy match to "2451 River Road, Lunenburg, VT" -->
    <tag k="addr:city" v="Gilman"/>
    <tag k="addr:housenumber" v="2451"/>
    <tag k="addr:street" v="River Road"/>
    <tag k="addr:state" v="VT"/>
    <tag k="ref:vcgi:esiteid" v="146023"/>
  </node>
  <node id="-1008" visible="true" lat="44.413866774221" lon="-71.720204992437">
    <!-- conflict: "15 Cedar Street, Gilman, VT" Fuzzy match to "15 Cedar Street, Lunenburg, VT" -->
    <tag k="addr:city" v="Gilman"/>
    <tag k="addr:housenumber" v="15"/>
    <tag k="addr:street" v="Cedar Street"/>
    <tag k="addr:state" v="VT"/>
    <tag k="ref:vcgi:esiteid" v="146024"/>
  </node>
  <node id="-1009" visible="true" lat="44.41384777512" lon="-71.721608495086">
    <!-- conflict: "79 Jefferson Avenue, Gilman, VT" Fuzzy match to "79 Jefferson Avenue, Lunenburg, VT" -->
    <tag k="addr:city" v="Gilman"/>
    <tag k="addr:housenumber" v="79"/>
    <tag k="addr:street" v="Jefferson Avenue"/>
    <tag k="addr:state" v="VT"/>
    <tag k="ref:vcgi:esiteid" v="146025"/>
  </node>
  <node id="-1011" visible="true" lat="44.413456762042" lon="-71.721254898557">
    <!-- conflict: "162 Commercial Avenue, Gilman, VT" Fuzzy match to "162 Commercial Avenue, Lunenburg, VT" -->
    <tag k="addr:city" v="Gilman"/>
    <tag k="addr:housenumber" v="162"/>
    <tag k="addr:street" v="Commercial Avenue"/>
    <tag k="addr:state" v="VT"/>
    <tag k="ref:vcgi:esiteid" v="146028"/>
  </node>
  <node id="-1012" visible="true" lat="44.413460029666" lon="-71.720896072972">
    <!-- conflict: "160 Commercial Avenue, Gilman, VT" Fuzzy match to "160 Commercial Avenue, Lunenburg, VT" -->
    <tag k="addr:city" v="Gilman"/>
    <tag k="addr:housenumber" v="160"/>
    <tag k="addr:street" v="Commercial Avenue"/>
    <tag k="addr:state" v="VT"/>
    <tag k="ref:vcgi:esiteid" v="146029"/>
  </node>
  <node id="-1013" visible="true" lat="44.413492084782" lon="-71.720568755462">
    <!-- conflict: "152 Commercial Avenue, Gilman, VT" Fuzzy match to "152 Commercial Avenue, Lunenburg, VT" -->
    <tag k="addr:city" v="Gilman"/>
    <tag k="addr:housenumber" v="152"/>
    <tag k="addr:street" v="Commercial Avenue"/>
    <tag k="addr:state" v="VT"/>
    <tag k="ref:vcgi:esiteid" v="146030"/>
  </node>
  <node id="-1014" visible="true" lat="44.413489854657" lon="-71.720241894454">
    <!-- conflict: "140 Commercial Avenue, Gilman, VT" Fuzzy match to "140 Commercial Avenue, Lunenburg, VT" -->
    <tag k="addr:city" v="Gilman"/>
    <tag k="addr:housenumber" v="140"/>
    <tag k="addr:street" v="Commercial Avenue"/>
    <tag k="addr:state" v="VT"/>
    <tag k="ref:vcgi:esiteid" v="146031"/>
  </node>
  <node id="-1016" visible="true" lat="44.41365995882" lon="-71.718373955095">
    <!-- conflict: "90 Commercial Avenue, Gilman, VT" Fuzzy match to "90 Commercial Avenue, Lunenburg, VT" -->
    <tag k="addr:city" v="Gilman"/>
    <tag k="addr:housenumber" v="90"/>
    <tag k="addr:street" v="Commercial Avenue"/>
    <tag k="addr:state" v="VT"/>
    <tag k="ref:vcgi:esiteid" v="146033"/>
  </node>
  <node id="-1017" visible="true" lat="44.413806398922" lon="-71.718061058007">
    <!-- conflict: "86 Commercial Avenue, Gilman, VT" Fuzzy match to "86 Commercial Avenue, Lunenburg, VT" -->
    <tag k="addr:city" v="Gilman"/>
    <tag k="addr:housenumber" v="86"/>
    <tag k="addr:street" v="Commercial Avenue"/>
    <tag k="addr:state" v="VT"/>
    <tag k="ref:vcgi:esiteid" v="146034"/>
  </node>
  <node id="-1018" visible="true" lat="44.413714152994" lon="-71.717942691422">
    <!-- conflict: "80 Commercial Avenue, Gilman, VT" Fuzzy match to "80 Commercial Avenue, Lunenburg, VT" -->
    <tag k="addr:city" v="Gilman"/>
    <tag k="addr:housenumber" v="80"/>
    <tag k="addr:street" v="Commercial Avenue"/>
    <tag k="addr:state" v="VT"/>
    <tag k="ref:vcgi:esiteid" v="146035"/>
  </node>
  <node id="-1019" visible="true" lat="44.413701249638" lon="-71.717727593184">
    <!-- conflict: "74 Commercial Avenue, Gilman, VT" Fuzzy match to "74 Commercial Avenue, Lunenburg, VT" -->
    <tag k="addr:city" v="Gilman"/>
    <tag k="addr:housenumber" v="74"/>
    <tag k="addr:street" v="Commercial Avenue"/>
    <tag k="addr:state" v="VT"/>
    <tag k="ref:vcgi:esiteid" v="146036"/>
  </node>
  <node id="-1020" visible="true" lat="44.413754077187" lon="-71.717097023647">
    <!-- conflict: "5 Parish Street, Gilman, VT" Fuzzy match to "5 Parish Street, Lunenburg, VT" -->
    <tag k="addr:city" v="Gilman"/>
    <tag k="addr:housenumber" v="5"/>
    <tag k="addr:street" v="Parish Street"/>
    <tag k="addr:state" v="VT"/>
    <tag k="ref:vcgi:esiteid" v="146037"/>
  </node>
  <node id="-1021" visible="true" lat="44.413970124519" lon="-71.716934680908">
    <!-- conflict: "14 Parish Street, Gilman, VT" Fuzzy match to "14 Parish Street, Lunenburg, VT" -->
    <tag k="addr:city" v="Gilman"/>
    <tag k="addr:housenumber" v="14"/>
    <tag k="addr:street" v="Parish Street"/>
    <tag k="addr:state" v="VT"/>
    <tag k="ref:vcgi:esiteid" v="146038"/>
  </node>
  <node id="-1022" visible="true" lat="44.413551591307" lon="-71.71590378019">
    <!-- conflict: "29 Commercial Avenue, Gilman, VT" Fuzzy match to "29 Commercial Avenue, Lunenburg, VT" -->
    <tag k="addr:city" v="Gilman"/>
    <tag k="addr:housenumber" v="29"/>
    <tag k="addr:street" v="Commercial Avenue"/>
    <tag k="addr:state" v="VT"/>
    <tag k="ref:vcgi:esiteid" v="146039"/>
  </node>
  <node id="-1023" visible="true" lat="44.413513013806" lon="-71.716111591004">
    <!-- conflict: "31 Commercial Avenue, Gilman, VT" Fuzzy match to "31 Commercial Avenue, Lunenburg, VT" -->
    <tag k="addr:city" v="Gilman"/>
    <tag k="addr:housenumber" v="31"/>
    <tag k="addr:street" v="Commercial Avenue"/>
    <tag k="addr:state" v="VT"/>
    <tag k="ref:vcgi:esiteid" v="146040"/>
  </node>
  <node id="-1024" visible="true" lat="44.41347432834" lon="-71.716303459617">
    <!-- conflict: "37 Commercial Avenue, Gilman, VT" Fuzzy match to "37 Commercial Avenue, Lunenburg, VT" -->
    <tag k="addr:city" v="Gilman"/>
    <tag k="addr:housenumber" v="37"/>
    <tag k="addr:street" v="Commercial Avenue"/>
    <tag k="addr:state" v="VT"/>
    <tag k="ref:vcgi:esiteid" v="146041"/>
  </node>
  <node id="-1027" visible="true" lat="44.413447397262" lon="-71.716543008645">
    <!-- conflict: "43 Commercial Avenue, Gilman, VT" Fuzzy match to "43 Commercial Avenue, Lunenburg, VT" -->
    <tag k="addr:city" v="Gilman"/>
    <tag k="addr:housenumber" v="43"/>
    <tag k="addr:street" v="Commercial Avenue"/>
    <tag k="addr:state" v="VT"/>
    <tag k="ref:vcgi:esiteid" v="146044"/>
  </node>
  <node id="-1028" visible="true" lat="44.413408655487" lon="-71.716726903325">
    <!-- conflict: "49 Commercial Avenue, Gilman, VT" Fuzzy match to "49 Commercial Avenue, Lunenburg, VT" -->
    <tag k="addr:city" v="Gilman"/>
    <tag k="addr:housenumber" v="49"/>
    <tag k="addr:street" v="Commercial Avenue"/>
    <tag k="addr:state" v="VT"/>
    <tag k="ref:vcgi:esiteid" v="146045"/>
  </node>
  <node id="-1029" visible="true" lat="44.413370077388" lon="-71.716934714354">
    <!-- conflict: "57 Commercial Avenue, Gilman, VT" Fuzzy match to "57 Commercial Avenue, Lunenburg, VT" -->
    <tag k="addr:city" v="Gilman"/>
    <tag k="addr:housenumber" v="57"/>
    <tag k="addr:street" v="Commercial Avenue"/>
    <tag k="addr:state" v="VT"/>
    <tag k="ref:vcgi:esiteid" v="146046"/>
  </node>
  <node id="-1030" visible="true" lat="44.413342927313" lon="-71.7171423739">
    <!-- conflict: "59 Commercial Avenue, Gilman, VT" Fuzzy match to "59 Commercial Avenue, Lunenburg, VT" -->
    <tag k="addr:city" v="Gilman"/>
    <tag k="addr:housenumber" v="59"/>
    <tag k="addr:street" v="Commercial Avenue"/>
    <tag k="addr:state" v="VT"/>
    <tag k="ref:vcgi:esiteid" v="146047"/>
  </node>
  <node id="-1031" visible="true" lat="44.413321491948" lon="-71.717349955776">
    <!-- conflict: "63 Commercial Avenue, Gilman, VT" Fuzzy match to "63 Commercial Avenue, Lunenburg, VT" -->
    <tag k="addr:city" v="Gilman"/>
    <tag k="addr:housenumber" v="63"/>
    <tag k="addr:street" v="Commercial Avenue"/>
    <tag k="addr:state" v="VT"/>
    <tag k="ref:vcgi:esiteid" v="146048"/>
  </node>
  <node id="-1032" visible="true" lat="44.41330593245" lon="-71.717581379158">
    <!-- conflict: "71 Commercial Avenue, Gilman, VT" Fuzzy match to "71 Commercial Avenue, Lunenburg, VT" -->
    <tag k="addr:city" v="Gilman"/>
    <tag k="addr:housenumber" v="71"/>
    <tag k="addr:street" v="Commercial Avenue"/>
    <tag k="addr:state" v="VT"/>
    <tag k="ref:vcgi:esiteid" v="146049"/>
  </node>
  <node id="-1033" visible="true" lat="44.413301637979" lon="-71.71778873225">
    <!-- conflict: "79 Commercial Avenue, Gilman, VT" Fuzzy match to "79 Commercial Avenue, Lunenburg, VT" -->
    <tag k="addr:city" v="Gilman"/>
    <tag k="addr:housenumber" v="79"/>
    <tag k="addr:street" v="Commercial Avenue"/>
    <tag k="addr:state" v="VT"/>
    <tag k="ref:vcgi:esiteid" v="146050"/>
  </node>
  <node id="-1036" visible="true" lat="44.413202673059" lon="-71.720030441029">
    <!-- conflict: "133 Commercial Avenue, Gilman, VT" Fuzzy match to "133 Commercial Avenue, Lunenburg, VT" -->
    <tag k="addr:city" v="Gilman"/>
    <tag k="addr:housenumber" v="133"/>
    <tag k="addr:street" v="Commercial Avenue"/>
    <tag k="addr:state" v="VT"/>
    <tag k="ref:vcgi:esiteid" v="146053"/>
  </node>
  <node id="-1037" visible="true" lat="44.413199244902" lon="-71.720365349766">
    <!-- conflict: "149 Commercial Avenue, Gilman, VT" Fuzzy match to "149 Commercial Avenue, Lunenburg, VT" -->
    <tag k="addr:city" v="Gilman"/>
    <tag k="addr:housenumber" v="149"/>
    <tag k="addr:street" v="Commercial Avenue"/>
    <tag k="addr:state" v="VT"/>
    <tag k="ref:vcgi:esiteid" v="146054"/>
  </node>
  <node id="-1038" visible="true" lat="44.413173525393" lon="-71.720718554427">
    <!-- conflict: "159 Commercial Avenue, Gilman, VT" Fuzzy match to "159 Commercial Avenue, Lunenburg, VT" -->
    <tag k="addr:city" v="Gilman"/>
    <tag k="addr:housenumber" v="159"/>
    <tag k="addr:street" v="Commercial Avenue"/>
    <tag k="addr:state" v="VT"/>
    <tag k="ref:vcgi:esiteid" v="146055"/>
  </node>
  <node id="-1039" visible="true" lat="44.413175460495" lon="-71.721067280932">
    <!-- conflict: "167 Commercial Avenue, Gilman, VT" Fuzzy match to "167 Commercial Avenue, Lunenburg, VT" -->
    <tag k="addr:city" v="Gilman"/>
    <tag k="addr:housenumber" v="167"/>
    <tag k="addr:street" v="Commercial Avenue"/>
    <tag k="addr:state" v="VT"/>
    <tag k="ref:vcgi:esiteid" v="146056"/>
  </node>
  <node id="-1040" visible="true" lat="44.413154723648" lon="-71.721378500428">
    <!-- conflict: "175 Commercial Avenue, Gilman, VT" Fuzzy match to "175 Commercial Avenue, Lunenburg, VT" -->
    <tag k="addr:city" v="Gilman"/>
    <tag k="addr:housenumber" v="175"/>
    <tag k="addr:street" v="Commercial Avenue"/>
    <tag k="addr:state" v="VT"/>
    <tag k="ref:vcgi:esiteid" v="146057"/>
  </node>
  <node id="-1041" visible="true" lat="44.413140407236" lon="-71.721793282178">
    <!-- conflict: "179 Commercial Avenue, Gilman, VT" Fuzzy match to "179 Commercial Avenue, Lunenburg, VT" -->
    <tag k="addr:city" v="Gilman"/>
    <tag k="addr:housenumber" v="179"/>
    <tag k="addr:street" v="Commercial Avenue"/>
    <tag k="addr:state" v="VT"/>
    <tag k="ref:vcgi:esiteid" v="146058"/>
  </node>
  <node id="-1048" visible="true" lat="44.412651788857" lon="-71.719663040392">
    <!-- conflict: "30 Beech Street, Gilman, VT" Fuzzy match to "30 Beech Street, Lunenburg, VT" -->
    <tag k="addr:city" v="Gilman"/>
    <tag k="addr:housenumber" v="30"/>
    <tag k="addr:street" v="Beech Street"/>
    <tag k="addr:state" v="VT"/>
    <tag k="ref:vcgi:esiteid" v="146066"/>
  </node>
  <node id="-1049" visible="true" lat="44.412452042594" lon="-71.719737450577">
    <!-- conflict: "40 Beech Street, Gilman, VT" Fuzzy match to "40 Beech Street, Lunenburg, VT" -->
    <tag k="addr:city" v="Gilman"/>
    <tag k="addr:housenumber" v="40"/>
    <tag k="addr:street" v="Beech Street"/>
    <tag k="addr:state" v="VT"/>
    <tag k="ref:vcgi:esiteid" v="146067"/>
  </node>
  <node id="-1050" visible="true" lat="44.412207038956" lon="-71.719844355541">
    <!-- conflict: "48 Beech Street, Gilman, VT" Fuzzy match to "48 Beech Street, Lunenburg, VT" -->
    <tag k="addr:city" v="Gilman"/>
    <tag k="addr:housenumber" v="48"/>
    <tag k="addr:street" v="Beech Street"/>
    <tag k="addr:state" v="VT"/>
    <tag k="ref:vcgi:esiteid" v="146068"/>
  </node>
  <node id="-1051" visible="true" lat="44.411956595009" lon="-71.719991194328">
    <!-- conflict: "58 Beech Street, Gilman, VT" Fuzzy match to "58 Beech Street, Lunenburg, VT" -->
    <tag k="addr:city" v="Gilman"/>
    <tag k="addr:housenumber" v="58"/>
    <tag k="addr:street" v="Beech Street"/>
    <tag k="addr:state" v="VT"/>
    <tag k="ref:vcgi:esiteid" v="146071"/>
  </node>
  <node id="-1052" visible="true" lat="44.411805685001" lon="-71.720487509726">
    <!-- conflict: "15 Riverside Avenue, Gilman, VT" Fuzzy match to "15 Riverside Avenue, Lunenburg, VT" -->
    <tag k="addr:city" v="Gilman"/>
    <tag k="addr:housenumber" v="15"/>
    <tag k="addr:street" v="Riverside Avenue"/>
    <tag k="addr:state" v="VT"/>
    <tag k="ref:vcgi:esiteid" v="146072"/>
  </node>
  <node id="-1053" visible="true" lat="44.411890309773" lon="-71.720326929845">
    <!-- conflict: "54 Beech Street, Gilman, VT" Fuzzy match to "54 Beech Street, Lunenburg, VT" -->
    <tag k="addr:city" v="Gilman"/>
    <tag k="addr:housenumber" v="54"/>
    <tag k="addr:street" v="Beech Street"/>
    <tag k="addr:state" v="VT"/>
    <tag k="ref:vcgi:esiteid" v="146073"/>
  </node>
  <node id="-1054" visible="true" lat="44.411723290773" lon="-71.720137805324">
    <!-- conflict: "66 Beech Street, Gilman, VT" Fuzzy match to "66 Beech Street, Lunenburg, VT" -->
    <tag k="addr:city" v="Gilman"/>
    <tag k="addr:housenumber" v="66"/>
    <tag k="addr:street" v="Beech Street"/>
    <tag k="addr:state" v="VT"/>
    <tag k="ref:vcgi:esiteid" v="146074"/>
  </node>
  <node id="-1055" visible="true" lat="44.411971684424" lon="-71.721330417161">
    <!-- conflict: "42 Riverside Avenue, Gilman, VT" Fuzzy match to "42 Riverside Avenue, Lunenburg, VT" -->
    <tag k="addr:city" v="Gilman"/>
    <tag k="addr:housenumber" v="42"/>
    <tag k="addr:street" v="Riverside Avenue"/>
    <tag k="addr:state" v="VT"/>
    <tag k="ref:vcgi:esiteid" v="146076"/>
  </node>
  <node id="-1056" visible="true" lat="44.410917850402" lon="-71.718932684899">
    <!-- conflict: "1 Riverside Avenue, Gilman, VT" Fuzzy match to "1 Riverside Avenue, Lunenburg, VT" -->
    <tag k="addr:city" v="Gilman"/>
    <tag k="addr:housenumber" v="1"/>
    <tag k="addr:street" v="Riverside Avenue"/>
    <tag k="addr:state" v="VT"/>
    <tag k="ref:vcgi:esiteid" v="146080"/>
  </node>
  <node id="-1057" visible="true" lat="44.412227824849" lon="-71.719325881746">
    <!-- conflict: "49 Beech Street, Gilman, VT" Fuzzy match to "49 Beech Street, Lunenburg, VT" -->
    <tag k="addr:city" v="Gilman"/>
    <tag k="addr:housenumber" v="49"/>
    <tag k="addr:street" v="Beech Street"/>
    <tag k="addr:state" v="VT"/>
    <tag k="ref:vcgi:esiteid" v="146083"/>
  </node>
  <node id="-1058" visible="true" lat="44.41247130287" lon="-71.719210989429">
    <!-- conflict: "37 Beech Street, Gilman, VT" Fuzzy match to "37 Beech Street, Lunenburg, VT" -->
    <tag k="addr:city" v="Gilman"/>
    <tag k="addr:housenumber" v="37"/>
    <tag k="addr:street" v="Beech Street"/>
    <tag k="addr:state" v="VT"/>
    <tag k="ref:vcgi:esiteid" v="146084"/>
  </node>
  <node id="-1059" visible="true" lat="44.412504872798" lon="-71.718522738001">
    <!-- conflict: "41 Treatment Plant Road, Gilman, VT" Fuzzy match to "41 Treatment Plant Road, Lunenburg, VT" -->
    <tag k="addr:city" v="Gilman"/>
    <tag k="addr:housenumber" v="41"/>
    <tag k="addr:street" v="Treatment Plant Road"/>
    <tag k="addr:state" v="VT"/>
    <tag k="ref:vcgi:esiteid" v="146085"/>
  </node>
  <node id="-1060" visible="true" lat="44.412087196897" lon="-71.716529277899">
    <!-- conflict: "3 Riverside Avenue, Gilman, VT" Fuzzy match to "3 Riverside Avenue, Lunenburg, VT" -->
    <tag k="addr:city" v="Gilman"/>
    <tag k="addr:housenumber" v="3"/>
    <tag k="addr:street" v="Riverside Avenue"/>
    <tag k="addr:state" v="VT"/>
    <tag k="ref:vcgi:esiteid" v="146086"/>
  </node>
  <node id="-1061" visible="true" lat="44.412527726272" lon="-71.714458564912">
    <!-- conflict: "220 Treatment Plant Road, Gilman, VT" Fuzzy match to "220 Treatment Plant Road, Lunenburg, VT" -->
    <tag k="addr:city" v="Gilman"/>
    <tag k="addr:housenumber" v="220"/>
    <tag k="addr:street" v="Treatment Plant Road"/>
    <tag k="addr:state" v="VT"/>
    <tag k="ref:vcgi:esiteid" v="146087"/>
  </node>
  <node id="-1068" visible="true" lat="44.41120197856" lon="-71.717584182718">
    <!-- conflict: "2 Riverside Avenue, Gilman, VT" Fuzzy match to "2 Riverside Avenue, Lunenburg, VT" -->
    <tag k="addr:city" v="Gilman"/>
    <tag k="addr:housenumber" v="2"/>
    <tag k="addr:street" v="Riverside Avenue"/>
    <tag k="addr:state" v="VT"/>
    <tag k="ref:vcgi:esiteid" v="146094"/>
  </node>
  <node id="-1069" visible="true" lat="44.412733722812" lon="-71.719143715006">
    <!-- conflict: "7 Washington Avenue, Gilman, VT" Fuzzy match to "7 Washington Avenue, Lunenburg, VT" -->
    <tag k="addr:city" v="Gilman"/>
    <tag k="addr:housenumber" v="7"/>
    <tag k="addr:street" v="Washington Avenue"/>
    <tag k="addr:state" v="VT"/>
    <tag k="ref:vcgi:esiteid" v="146095"/>
  </node>
  <node id="-1070" visible="true" lat="44.412755161451" lon="-71.718936134567">
    <!-- conflict: "13 Washington Avenue, Gilman, VT" Fuzzy match to "13 Washington Avenue, Lunenburg, VT" -->
    <tag k="addr:city" v="Gilman"/>
    <tag k="addr:housenumber" v="13"/>
    <tag k="addr:street" v="Washington Avenue"/>
    <tag k="addr:state" v="VT"/>
    <tag k="ref:vcgi:esiteid" v="146096"/>
  </node>
  <node id="-1071" visible="true" lat="44.412759402588" lon="-71.718720811357">
    <!-- conflict: "19 Washington Avenue, Gilman, VT" Fuzzy match to "19 Washington Avenue, Lunenburg, VT" -->
    <tag k="addr:city" v="Gilman"/>
    <tag k="addr:housenumber" v="19"/>
    <tag k="addr:street" v="Washington Avenue"/>
    <tag k="addr:state" v="VT"/>
    <tag k="ref:vcgi:esiteid" v="146097"/>
  </node>
  <node id="-1072" visible="true" lat="44.412769468402" lon="-71.718521354977">
    <!-- conflict: "21 Washington Avenue, Gilman, VT" Fuzzy match to "21 Washington Avenue, Lunenburg, VT" -->
    <tag k="addr:city" v="Gilman"/>
    <tag k="addr:housenumber" v="21"/>
    <tag k="addr:street" v="Washington Avenue"/>
    <tag k="addr:state" v="VT"/>
    <tag k="ref:vcgi:esiteid" v="146098"/>
  </node>
  <node id="-1073" visible="true" lat="44.412773765125" lon="-71.718314005045">
    <!-- conflict: "27 Washington Avenue, Gilman, VT" Fuzzy match to "27 Washington Avenue, Lunenburg, VT" -->
    <tag k="addr:city" v="Gilman"/>
    <tag k="addr:housenumber" v="27"/>
    <tag k="addr:street" v="Washington Avenue"/>
    <tag k="addr:state" v="VT"/>
    <tag k="ref:vcgi:esiteid" v="146099"/>
  </node>
  <node id="-1074" visible="true" lat="44.412783828437" lon="-71.718114549835">
    <!-- conflict: "33 Washington Avenue, Gilman, VT" Fuzzy match to "33 Washington Avenue, Lunenburg, VT" -->
    <tag k="addr:city" v="Gilman"/>
    <tag k="addr:housenumber" v="33"/>
    <tag k="addr:street" v="Washington Avenue"/>
    <tag k="addr:state" v="VT"/>
    <tag k="ref:vcgi:esiteid" v="146100"/>
  </node>
  <node id="-1075" visible="true" lat="44.412782353816" lon="-71.717899301387">
    <!-- conflict: "39 Washington Avenue, Gilman, VT" Fuzzy match to "39 Washington Avenue, Lunenburg, VT" -->
    <tag k="addr:city" v="Gilman"/>
    <tag k="addr:housenumber" v="39"/>
    <tag k="addr:street" v="Washington Avenue"/>
    <tag k="addr:state" v="VT"/>
    <tag k="ref:vcgi:esiteid" v="146101"/>
  </node>
  <node id="-1076" visible="true" lat="44.412792308995" lon="-71.717683901824">
    <!-- conflict: "43 Washington Avenue, Gilman, VT" Fuzzy match to "43 Washington Avenue, Lunenburg, VT" -->
    <tag k="addr:city" v="Gilman"/>
    <tag k="addr:housenumber" v="43"/>
    <tag k="addr:street" v="Washington Avenue"/>
    <tag k="addr:state" v="VT"/>
    <tag k="ref:vcgi:esiteid" v="146102"/>
  </node>
  <node id="-1077" visible="true" lat="44.412802208239" lon="-71.717460528831">
    <!-- conflict: "51 Washington Avenue, Gilman, VT" Fuzzy match to "51 Washington Avenue, Lunenburg, VT" -->
    <tag k="addr:city" v="Gilman"/>
    <tag k="addr:housenumber" v="51"/>
    <tag k="addr:street" v="Washington Avenue"/>
    <tag k="addr:state" v="VT"/>
    <tag k="ref:vcgi:esiteid" v="146103"/>
  </node>
  <node id="-1078" visible="true" lat="44.412817929623" lon="-71.717253025055">
    <!-- conflict: "55 Washington Avenue, Gilman, VT" Fuzzy match to "55 Washington Avenue, Lunenburg, VT" -->
    <tag k="addr:city" v="Gilman"/>
    <tag k="addr:housenumber" v="55"/>
    <tag k="addr:street" v="Washington Avenue"/>
    <tag k="addr:state" v="VT"/>
    <tag k="ref:vcgi:esiteid" v="146104"/>
  </node>
  <node id="-1082" visible="true" lat="44.413525269209" lon="-71.722083178382">
    <!-- conflict: "188 Commercial Avenue, Gilman, VT" Fuzzy match to "188 Commercial Avenue, Lunenburg, VT" -->
    <tag k="addr:city" v="Gilman"/>
    <tag k="addr:housenumber" v="188"/>
    <tag k="addr:street" v="Commercial Avenue"/>
    <tag k="addr:state" v="VT"/>
    <tag k="ref:vcgi:esiteid" v="146109"/>
  </node>
  <node id="-1084" visible="true" lat="44.413466265824" lon="-71.722650039279">
    <!-- conflict: "204 Commercial Avenue, Gilman, VT" Fuzzy match to "204 Commercial Avenue, Lunenburg, VT" -->
    <tag k="addr:city" v="Gilman"/>
    <tag k="addr:housenumber" v="204"/>
    <tag k="addr:street" v="Commercial Avenue"/>
    <tag k="addr:state" v="VT"/>
    <tag k="ref:vcgi:esiteid" v="146111"/>
  </node>
  <node id="-1087" visible="true" lat="44.413383372544" lon="-71.723065730914">
    <!-- conflict: "224 Commercial Avenue, Gilman, VT" Fuzzy match to "224 Commercial Avenue, Lunenburg, VT" -->
    <tag k="addr:city" v="Gilman"/>
    <tag k="addr:housenumber" v="224"/>
    <tag k="addr:street" v="Commercial Avenue"/>
    <tag k="addr:state" v="VT"/>
    <tag k="ref:vcgi:esiteid" v="146114"/>
  </node>
  <node id="-1088" visible="true" lat="44.413350823266" lon="-71.723321295431">
    <!-- conflict: "232 Commercial Avenue, Gilman, VT" Fuzzy match to "232 Commercial Avenue, Lunenburg, VT" -->
    <tag k="addr:city" v="Gilman"/>
    <tag k="addr:housenumber" v="232"/>
    <tag k="addr:street" v="Commercial Avenue"/>
    <tag k="addr:state" v="VT"/>
    <tag k="ref:vcgi:esiteid" v="146115"/>
  </node>
  <node id="-1089" visible="true" lat="44.413329918615" lon="-71.723608599779">
    <!-- conflict: "234 Commercial Avenue, Gilman, VT" Fuzzy match to "234 Commercial Avenue, Lunenburg, VT" -->
    <tag k="addr:city" v="Gilman"/>
    <tag k="addr:housenumber" v="234"/>
    <tag k="addr:street" v="Commercial Avenue"/>
    <tag k="addr:state" v="VT"/>
    <tag k="ref:vcgi:esiteid" v="146116"/>
  </node>
  <node id="-1090" visible="true" lat="44.413303133799" lon="-71.723872060434">
    <!-- conflict: "236 Commercial Avenue, Gilman, VT" Fuzzy match to "236 Commercial Avenue, Lunenburg, VT" -->
    <tag k="addr:city" v="Gilman"/>
    <tag k="addr:housenumber" v="236"/>
    <tag k="addr:street" v="Commercial Avenue"/>
    <tag k="addr:state" v="VT"/>
    <tag k="ref:vcgi:esiteid" v="146117"/>
  </node>
  <node id="-1092" visible="true" lat="44.413302943261" lon="-71.724685301742">
    <!-- conflict: "254 Commercial Avenue, Gilman, VT" Fuzzy match to "254 Commercial Avenue, Lunenburg, VT" -->
    <tag k="addr:city" v="Gilman"/>
    <tag k="addr:housenumber" v="254"/>
    <tag k="addr:street" v="Commercial Avenue"/>
    <tag k="addr:state" v="VT"/>
    <tag k="ref:vcgi:esiteid" v="146119"/>
  </node>
  <node id="-1093" visible="true" lat="44.41309641907" lon="-71.724568435899">
    <!-- conflict: "245 Commercial Avenue, Gilman, VT" Fuzzy match to "245 Commercial Avenue, Lunenburg, VT" -->
    <tag k="addr:city" v="Gilman"/>
    <tag k="addr:housenumber" v="245"/>
    <tag k="addr:street" v="Commercial Avenue"/>
    <tag k="addr:state" v="VT"/>
    <tag k="ref:vcgi:esiteid" v="146120"/>
  </node>
  <node id="-1094" visible="true" lat="44.413071551599" lon="-71.722591485141">
    <!-- conflict: "201 Commercial Avenue, Gilman, VT" Fuzzy match to "201 Commercial Avenue, Lunenburg, VT" -->
    <tag k="addr:city" v="Gilman"/>
    <tag k="addr:housenumber" v="201"/>
    <tag k="addr:street" v="Commercial Avenue"/>
    <tag k="addr:state" v="VT"/>
    <tag k="ref:vcgi:esiteid" v="146121"/>
  </node>
  <node id="-1104" visible="true" lat="44.412352225859" lon="-71.722908631375">
    <!-- conflict: "82 Riverside Avenue, Gilman, VT" Fuzzy match to "82 Riverside Avenue, Lunenburg, VT" -->
    <tag k="addr:city" v="Gilman"/>
    <tag k="addr:housenumber" v="82"/>
    <tag k="addr:street" v="Riverside Avenue"/>
    <tag k="addr:state" v="VT"/>
    <tag k="ref:vcgi:esiteid" v="146132"/>
  </node>
  <node id="-1105" visible="true" lat="44.41232304315" lon="-71.722609375506">
    <!-- conflict: "76 Riverside Avenue, Gilman, VT" Fuzzy match to "76 Riverside Avenue, Lunenburg, VT" -->
    <tag k="addr:city" v="Gilman"/>
    <tag k="addr:housenumber" v="76"/>
    <tag k="addr:street" v="Riverside Avenue"/>
    <tag k="addr:state" v="VT"/>
    <tag k="ref:vcgi:esiteid" v="146133"/>
  </node>
  <node id="-1106" visible="true" lat="44.412339190882" lon="-71.722462990913">
    <!-- conflict: "72 Riverside Avenue, Gilman, VT" Fuzzy match to "72 Riverside Avenue, Lunenburg, VT" -->
    <tag k="addr:city" v="Gilman"/>
    <tag k="addr:housenumber" v="72"/>
    <tag k="addr:street" v="Riverside Avenue"/>
    <tag k="addr:state" v="VT"/>
    <tag k="ref:vcgi:esiteid" v="146134"/>
  </node>
  <node id="-1107" visible="true" lat="44.41232658559" lon="-71.722290415952">
    <!-- conflict: "66 Riverside Avenue, Gilman, VT" Fuzzy match to "66 Riverside Avenue, Lunenburg, VT" -->
    <tag k="addr:city" v="Gilman"/>
    <tag k="addr:housenumber" v="66"/>
    <tag k="addr:street" v="Riverside Avenue"/>
    <tag k="addr:state" v="VT"/>
    <tag k="ref:vcgi:esiteid" v="146135"/>
  </node>
  <node id="-1160" visible="true" lat="44.412359062133" lon="-71.723307970024">
    <!-- conflict: "90 Riverside Avenue, Gilman, VT" Fuzzy match to "90 Riverside Avenue, Lunenburg, VT" -->
    <tag k="addr:city" v="Gilman"/>
    <tag k="addr:housenumber" v="90"/>
    <tag k="addr:street" v="Riverside Avenue"/>
    <tag k="addr:state" v="VT"/>
    <tag k="ref:vcgi:esiteid" v="146195"/>
  </node>
  <node id="-1163" visible="true" lat="44.414079278114" lon="-71.720831637853">
    <!-- conflict: "57 Jefferson Avenue, Gilman, VT" Fuzzy match to "57 Jefferson Avenue, Lunenburg, VT" -->
    <tag k="addr:city" v="Gilman"/>
    <tag k="addr:housenumber" v="57"/>
    <tag k="addr:street" v="Jefferson Avenue"/>
    <tag k="addr:state" v="VT"/>
    <tag k="ref:vcgi:esiteid" v="146200"/>
  </node>
  <node id="-1170" visible="true" lat="44.419861769811" lon="-71.695641064048">
    <!-- conflict: "2183 River Road, Gilman, VT" Fuzzy match to "2183 River Road, Lunenburg, VT" -->
    <tag k="addr:city" v="Gilman"/>
    <tag k="addr:housenumber" v="2183"/>
    <tag k="addr:street" v="River Road"/>
    <tag k="addr:state" v="VT"/>
    <tag k="ref:vcgi:esiteid" v="146211"/>
  </node>
  <node id="-1171" visible="true" lat="44.420938611665" lon="-71.696115324704">
    <!-- conflict: "2172 River Road, Gilman, VT" Fuzzy match to "2172 River Road, Lunenburg, VT" -->
    <tag k="addr:city" v="Gilman"/>
    <tag k="addr:housenumber" v="2172"/>
    <tag k="addr:street" v="River Road"/>
    <tag k="addr:state" v="VT"/>
    <tag k="ref:vcgi:esiteid" v="146212"/>
  </node>
  <node id="-1299" visible="true" lat="44.414264924025" lon="-71.715767171483">
    <!-- conflict: "20 Church Street, Gilman, VT" Fuzzy match to "20 Church Street, Lunenburg, VT" -->
    <tag k="addr:city" v="Gilman"/>
    <tag k="addr:housenumber" v="20"/>
    <tag k="addr:street" v="Church Street"/>
    <tag k="addr:state" v="VT"/>
    <tag k="ref:vcgi:esiteid" v="146349"/>
  </node>
  <node id="-1300" visible="true" lat="44.414208996048" lon="-71.715417259663">
    <!-- conflict: "16 Commercial Avenue, Gilman, VT" Fuzzy match to "16 Commercial Avenue, Lunenburg, VT" -->
    <tag k="addr:city" v="Gilman"/>
    <tag k="addr:housenumber" v="16"/>
    <tag k="addr:street" v="Commercial Avenue"/>
    <tag k="addr:state" v="VT"/>
    <tag k="ref:vcgi:esiteid" v="146350"/>
  </node>
  <node id="-1325" visible="true" lat="44.42092287689" lon="-71.693952848981">
    <!-- conflict: "2153 River Road, Gilman, VT" Fuzzy match to "2153 River Road, Lunenburg, VT" -->
    <tag k="addr:city" v="Gilman"/>
    <tag k="addr:housenumber" v="2153"/>
    <tag k="addr:street" v="River Road"/>
    <tag k="addr:state" v="VT"/>
    <tag k="ref:vcgi:esiteid" v="341401"/>
  </node>
  <node id="-1332" visible="true" lat="44.423478777764" lon="-71.69063211082">
    <!-- conflict: "1992 River Road, Gilman, VT" Fuzzy match to "1992 River Road, Lunenburg, VT" -->
    <tag k="addr:city" v="Gilman"/>
    <tag k="addr:housenumber" v="1992"/>
    <tag k="addr:street" v="River Road"/>
    <tag k="addr:state" v="VT"/>
    <tag k="ref:vcgi:esiteid" v="346188"/>
  </node>
  <node id="-1333" visible="true" lat="44.424306239331" lon="-71.689962802979">
    <!-- conflict: "1978 River Road, Gilman, VT" Fuzzy match to "1978 River Road, Lunenburg, VT" -->
    <tag k="addr:city" v="Gilman"/>
    <tag k="addr:housenumber" v="1978"/>
    <tag k="addr:street" v="River Road"/>
    <tag k="addr:state" v="VT"/>
    <tag k="ref:vcgi:esiteid" v="346189"/>
  </node>
  <node id="-1379" visible="true" lat="44.421469242706" lon="-71.69736179604">
    <!-- conflict: "2176 River Road, Gilman, VT" Fuzzy match to "2176 River Road, Lunenburg, VT" -->
    <tag k="addr:city" v="Gilman"/>
    <tag k="addr:housenumber" v="2176"/>
    <tag k="addr:street" v="River Road"/>
    <tag k="addr:state" v="VT"/>
    <tag k="ref:vcgi:esiteid" v="452657"/>
  </node>
  <node id="-1400" visible="true" lat="44.430198301488" lon="-71.688798284685">
    <!-- conflict: "1912 River Road, Gilman, VT" Fuzzy match to "1912 River Road, Lunenburg, VT" -->
    <tag k="addr:city" v="Gilman"/>
    <tag k="addr:housenumber" v="1912"/>
    <tag k="addr:street" v="River Road"/>
    <tag k="addr:state" v="VT"/>
    <tag k="ref:vcgi:esiteid" v="454590"/>
  </node>
  <node id="-1401" visible="true" lat="44.429365988789" lon="-71.688456749295">
    <!-- conflict: "1914 River Road, Gilman, VT" Fuzzy match to "1914 River Road, Lunenburg, VT" -->
    <tag k="addr:city" v="Gilman"/>
    <tag k="addr:housenumber" v="1914"/>
    <tag k="addr:street" v="River Road"/>
    <tag k="addr:state" v="VT"/>
    <tag k="ref:vcgi:esiteid" v="454591"/>
  </node>
  <node id="-1402" visible="true" lat="44.415993696318" lon="-71.702839998614">
    <!-- conflict: "2408 River Road, Gilman, VT" Fuzzy match to "2408 River Road, Lunenburg, VT" -->
    <tag k="addr:city" v="Gilman"/>
    <tag k="addr:housenumber" v="2408"/>
    <tag k="addr:street" v="River Road"/>
    <tag k="addr:state" v="VT"/>
    <tag k="ref:vcgi:esiteid" v="454592"/>
  </node>
  <node id="-1403" visible="true" lat="44.415640338077" lon="-71.702669719782">
    <!-- conflict: "2449 River Road, Gilman, VT" Fuzzy match to "2449 River Road, Lunenburg, VT" -->
    <tag k="addr:city" v="Gilman"/>
    <tag k="addr:housenumber" v="2449"/>
    <tag k="addr:street" v="River Road"/>
    <tag k="addr:state" v="VT"/>
    <tag k="ref:vcgi:esiteid" v="454593"/>
  </node>
  <node id="-1532" visible="true" lat="44.415051717437" lon="-71.714998554262">
    <!-- conflict: "2043 Baptist Hill Road, Gilman, VT" Fuzzy match to "2043 Baptist Hill Road, Lunenburg, VT" -->
    <tag k="addr:city" v="Gilman"/>
    <tag k="addr:housenumber" v="2043"/>
    <tag k="addr:street" v="Baptist Hill Road"/>
    <tag k="addr:state" v="VT"/>
    <tag k="ref:vcgi:esiteid" v="1050773"/>
  </node>
</osm>
