<?xml version="1.0" encoding="UTF-8"?>
<osm version="0.6" generator="JOSM" upload="false">
  <node id="-2927" visible="true" lat="43.174923257156" lon="-73.066184158315">
    <tag k="addr:city" v="Manchester Center"/>
    <tag k="addr:housenumber" v="165"/>
    <tag k="addr:street" v="High Hill Road"/>
    <tag k="addr:state" v="VT"/>
    <tag k="ref:vcgi:esiteid" v="500086"/>
  </node>
  <node id="-3177" visible="true" lat="43.145602056796" lon="-73.087220098779">
    <tag k="addr:city" v="Manchester Center"/>
    <tag k="addr:housenumber" v="155"/>
    <tag k="addr:street" v="at Village Ormsby Hill"/>
    <tag k="addr:state" v="VT"/>
    <tag k="ref:vcgi:esiteid" v="773086"/>
  </node>
  <node id="-3178" visible="true" lat="43.198757272464" lon="-73.053014299243">
    <tag k="addr:city" v="Manchester Center"/>
    <tag k="addr:housenumber" v="38"/>
    <tag k="addr:street" v="Mount Aeolus Road"/>
    <tag k="addr:state" v="VT"/>
    <tag k="ref:vcgi:esiteid" v="773826"/>
  </node>
  <node id="-3179" visible="true" lat="43.147400403869" lon="-73.093305372283">
    <tag k="addr:city" v="Manchester Center"/>
    <tag k="addr:housenumber" v="283"/>
    <tag k="addr:street" v="Rocking Stone Lane"/>
    <tag k="addr:state" v="VT"/>
    <tag k="ref:vcgi:esiteid" v="773988"/>
  </node>
</osm>
