<?xml version="1.0" encoding="UTF-8"?>
<osm version="0.6" generator="JOSM" upload="false">
  <node id="-975" visible="true" lat="43.17736652" lon="-73.05349603">
    <!-- conflict: "377 Center Hill, , VT" Fuzzy match to "377 Center Hill Road, Manchester Center, VT" -->
    <tag k="addr:housenumber" v="377"/>
    <tag k="addr:street" v="Center Hill"/>
    <tag k="addr:state" v="VT"/>
    <tag k="ref:vcgi:esiteid" v="149940"/>
  </node>
  <node id="-985" visible="true" lat="43.17731515" lon="-73.05309114">
    <!-- conflict: "357 Center Hill, , VT" Fuzzy match to "357 Center Hill Road, Manchester Center, VT" -->
    <tag k="addr:housenumber" v="357"/>
    <tag k="addr:street" v="Center Hill"/>
    <tag k="addr:state" v="VT"/>
    <tag k="ref:vcgi:esiteid" v="149952"/>
  </node>
  <node id="-995" visible="true" lat="43.17724068" lon="-73.0529466">
    <!-- conflict: "345 Center Hill, , VT" Fuzzy match to "345 Center Hill Road, Manchester Center, VT" -->
    <tag k="addr:housenumber" v="345"/>
    <tag k="addr:street" v="Center Hill"/>
    <tag k="addr:state" v="VT"/>
    <tag k="ref:vcgi:esiteid" v="149963"/>
  </node>
  <node id="-997" visible="true" lat="43.177213" lon="-73.0520653">
    <!-- conflict: "308 Center Hill, , VT" Fuzzy match to "308 Center Hill Road, Manchester Center, VT" -->
    <tag k="addr:housenumber" v="308"/>
    <tag k="addr:street" v="Center Hill"/>
    <tag k="addr:state" v="VT"/>
    <tag k="ref:vcgi:esiteid" v="149965"/>
  </node>
  <node id="-1014" visible="true" lat="43.17701339" lon="-73.05268096">
    <!-- conflict: "321 Center Hill, , VT" Fuzzy match to "321 Center Hill Road, Manchester Center, VT" -->
    <tag k="addr:housenumber" v="321"/>
    <tag k="addr:street" v="Center Hill"/>
    <tag k="addr:state" v="VT"/>
    <tag k="ref:vcgi:esiteid" v="149985"/>
  </node>
  <node id="-1025" visible="true" lat="43.17686835" lon="-73.05232603">
    <!-- conflict: "303 Center Hill, , VT" Fuzzy match to "303 Center Hill Road, Manchester Center, VT" -->
    <tag k="addr:housenumber" v="303"/>
    <tag k="addr:street" v="Center Hill"/>
    <tag k="addr:state" v="VT"/>
    <tag k="ref:vcgi:esiteid" v="149999"/>
  </node>
  <node id="-1084" visible="true" lat="43.17595001" lon="-73.05069884">
    <!-- conflict: "214 Center Hill, , VT" Fuzzy match to "214 Center Hill Road, , VT" -->
    <tag k="addr:housenumber" v="214"/>
    <tag k="addr:street" v="Center Hill"/>
    <tag k="addr:state" v="VT"/>
    <tag k="ref:vcgi:esiteid" v="150071"/>
  </node>
  <node id="-1106" visible="true" lat="43.17570807" lon="-73.05061603">
    <!-- conflict: "200 Center Hill, , VT" Fuzzy match to "200 Center Hill Road, , VT" -->
    <tag k="addr:housenumber" v="200"/>
    <tag k="addr:street" v="Center Hill"/>
    <tag k="addr:state" v="VT"/>
    <tag k="ref:vcgi:esiteid" v="150097"/>
  </node>
  <node id="-1170" visible="true" lat="43.17490768" lon="-73.04953002">
    <!-- conflict: "106 Center Hill, , VT" Fuzzy match to "106 Center Hill Road, , VT" -->
    <tag k="addr:housenumber" v="106"/>
    <tag k="addr:street" v="Center Hill"/>
    <tag k="addr:state" v="VT"/>
    <tag k="ref:vcgi:esiteid" v="150167"/>
  </node>
  <node id="-1209" visible="true" lat="43.17434052" lon="-73.04934975">
    <!-- conflict: "78 Center Hill, , VT" Fuzzy match to "78 Center Hill Road, Manchester Center, VT" -->
    <tag k="addr:housenumber" v="78"/>
    <tag k="addr:street" v="Center Hill"/>
    <tag k="addr:state" v="VT"/>
    <tag k="ref:vcgi:esiteid" v="150210"/>
  </node>
  <node id="-1251" visible="true" lat="43.17396625" lon="-73.04916913">
    <!-- conflict: "48 Center Hill, , VT" Fuzzy match to "48 Center Hill Road, Manchester Center, VT" -->
    <tag k="addr:housenumber" v="48"/>
    <tag k="addr:street" v="Center Hill"/>
    <tag k="addr:state" v="VT"/>
    <tag k="ref:vcgi:esiteid" v="150256"/>
  </node>
  <node id="-1279" visible="true" lat="43.17373688" lon="-73.04910118">
    <!-- conflict: "32 Center Hill, , VT" Fuzzy match to "32 Center Hill Road, Manchester Center, VT" -->
    <tag k="addr:housenumber" v="32"/>
    <tag k="addr:street" v="Center Hill"/>
    <tag k="addr:state" v="VT"/>
    <tag k="ref:vcgi:esiteid" v="150288"/>
  </node>
  <node id="-2622" visible="true" lat="43.17389211" lon="-73.04973591">
    <!-- conflict: "49 Center Hill, , VT" Fuzzy match to "49 Center Hill Road, Manchester, VT" -->
    <tag k="addr:housenumber" v="49"/>
    <tag k="addr:street" v="Center Hill"/>
    <tag k="addr:state" v="VT"/>
    <tag k="ref:vcgi:esiteid" v="151777"/>
  </node>
  <node id="-2888" visible="true" lat="43.17679404" lon="-73.05223215">
    <!-- conflict: "295 Center Hill, , VT" Fuzzy match to "295 Center Hill Road, , VT" -->
    <tag k="addr:housenumber" v="295"/>
    <tag k="addr:street" v="Center Hill"/>
    <tag k="addr:state" v="VT"/>
    <tag k="ref:vcgi:esiteid" v="341765"/>
  </node>
</osm>
