<?xml version="1.0" encoding="UTF-8"?>
<osm version="0.6" generator="JOSM" upload="false">
  <node id="-760" visible="true" lat="42.833874006114" lon="-72.801453241439">
    <tag k="addr:city" v="Brattleboro"/>
    <tag k="addr:housenumber" v="567"/>
    <tag k="addr:street" v="Shearer Hill Road"/>
    <tag k="addr:state" v="VT"/>
    <tag k="ref:vcgi:esiteid" v="616150"/>
  </node>
  <node id="-843" visible="true" lat="42.865454611128" lon="-72.777952821111">
    <tag k="addr:city" v="Brattleboro"/>
    <tag k="addr:housenumber" v="40"/>
    <tag k="addr:street" v="Hughes Road"/>
    <tag k="addr:state" v="VT"/>
    <tag k="ref:vcgi:esiteid" v="773562"/>
  </node>
</osm>
