<?xml version="1.0" encoding="UTF-8"?>
<osm version="0.6" generator="JOSM" upload="false">
  <node id="-247" visible="true" lat="44.343953536118" lon="-72.613984384809">
    <tag k="addr:city" v="Montpelier"/>
    <tag k="addr:housenumber" v="31"/>
    <tag k="addr:street" v="Private Road 2"/>
    <tag k="addr:state" v="VT"/>
    <tag k="ref:vcgi:esiteid" v="156988"/>
  </node>
  <node id="-248" visible="true" lat="44.343785689894" lon="-72.613114632952">
    <tag k="addr:city" v="Montpelier"/>
    <tag k="addr:housenumber" v="25"/>
    <tag k="addr:street" v="Private Road 2"/>
    <tag k="addr:state" v="VT"/>
    <tag k="ref:vcgi:esiteid" v="156989"/>
  </node>
  <node id="-586" visible="true" lat="44.301232441099" lon="-72.689978879841">
    <tag k="addr:city" v="Montpelier"/>
    <tag k="addr:housenumber" v="1078"/>
    <tag k="addr:street" v="United States Route 2"/>
    <tag k="addr:state" v="VT"/>
    <tag k="ref:vcgi:esiteid" v="157330"/>
  </node>
  <node id="-652" visible="true" lat="44.292723963033" lon="-72.678726162677">
    <tag k="addr:city" v="Montpelier"/>
    <tag k="addr:housenumber" v="910"/>
    <tag k="addr:street" v="United States Route 2"/>
    <tag k="addr:state" v="VT"/>
    <tag k="ref:vcgi:esiteid" v="157408"/>
  </node>
  <node id="-672" visible="true" lat="44.290883455896" lon="-72.67087679642">
    <tag k="addr:city" v="Montpelier"/>
    <tag k="addr:housenumber" v="821"/>
    <tag k="addr:street" v="United States Route 2"/>
    <tag k="addr:state" v="VT"/>
    <tag k="ref:vcgi:esiteid" v="157430"/>
  </node>
  <node id="-673" visible="true" lat="44.290524590248" lon="-72.670054662817">
    <tag k="addr:city" v="Montpelier"/>
    <tag k="addr:housenumber" v="811"/>
    <tag k="addr:street" v="United States Route 2"/>
    <tag k="addr:state" v="VT"/>
    <tag k="ref:vcgi:esiteid" v="157431"/>
  </node>
  <node id="-730" visible="true" lat="44.275739453922" lon="-72.643044123391">
    <tag k="addr:city" v="Montpelier"/>
    <tag k="addr:housenumber" v="409"/>
    <tag k="addr:street" v="United States Route 2"/>
    <tag k="addr:state" v="VT"/>
    <tag k="ref:vcgi:esiteid" v="157488"/>
  </node>
  <node id="-828" visible="true" lat="44.301798629546" lon="-72.690980834033">
    <tag k="addr:city" v="Montpelier"/>
    <tag k="addr:housenumber" v="1096"/>
    <tag k="addr:street" v="United States Route 2"/>
    <tag k="addr:state" v="VT"/>
    <tag k="ref:vcgi:esiteid" v="157595"/>
  </node>
  <node id="-930" visible="true" lat="44.356673339636" lon="-72.625029621307">
    <tag k="addr:city" v="Montpelier"/>
    <tag k="addr:housenumber" v="222"/>
    <tag k="addr:street" v="East Bear Swamp Road"/>
    <tag k="addr:state" v="VT"/>
    <tag k="ref:vcgi:esiteid" v="500071"/>
  </node>
  <node id="-947" visible="true" lat="44.368074596269" lon="-72.625757842459">
    <tag k="addr:city" v="Worcester"/>
    <tag k="addr:housenumber" v="249"/>
    <tag k="addr:street" v="North Bear Swamp Road"/>
    <tag k="addr:state" v="VT"/>
    <tag k="ref:vcgi:esiteid" v="656796"/>
  </node>
  <node id="-1011" visible="true" lat="44.329821891805" lon="-72.65217921209">
    <tag k="addr:city" v="Montpelier"/>
    <tag k="addr:housenumber" v="157"/>
    <tag k="addr:street" v="Zdon Road"/>
    <tag k="addr:state" v="VT"/>
    <tag k="ref:vcgi:esiteid" v="771265"/>
  </node>
</osm>
