<?xml version="1.0" encoding="UTF-8"?>
<osm version="0.6" generator="JOSM" upload="false">
  <node id="-123" visible="true" lat="44.047229335681" lon="-73.163466650768">
    <tag k="addr:city" v="Middlebury"/>
    <tag k="addr:housenumber" v="1740"/>
    <tag k="addr:street" v="United States Route 7 North"/>
    <tag k="addr:state" v="VT"/>
    <tag k="ref:vcgi:esiteid" v="153892"/>
  </node>
  <node id="-142" visible="true" lat="44.043733597105" lon="-73.162874377868">
    <tag k="addr:city" v="Middlebury"/>
    <tag k="addr:housenumber" v="1485"/>
    <tag k="addr:street" v="United States Route 7 North"/>
    <tag k="addr:state" v="VT"/>
    <tag k="ref:vcgi:esiteid" v="153912"/>
  </node>
  <node id="-160" visible="true" lat="44.039313814916" lon="-73.162101898487">
    <tag k="addr:city" v="Middlebury"/>
    <tag k="addr:housenumber" v="1179"/>
    <tag k="addr:street" v="United States Route 7 North"/>
    <tag k="addr:state" v="VT"/>
    <tag k="ref:vcgi:esiteid" v="153931"/>
  </node>
  <node id="-164" visible="true" lat="44.038629118755" lon="-73.162190875656">
    <tag k="addr:city" v="Middlebury"/>
    <tag k="addr:housenumber" v="1137"/>
    <tag k="addr:street" v="United States Route 7 North"/>
    <tag k="addr:state" v="VT"/>
    <tag k="ref:vcgi:esiteid" v="153935"/>
  </node>
  <node id="-168" visible="true" lat="44.03778327039" lon="-73.160605815366">
    <tag k="addr:city" v="Middlebury"/>
    <tag k="addr:housenumber" v="1062"/>
    <tag k="addr:street" v="United States Route 7 North"/>
    <tag k="addr:state" v="VT"/>
    <tag k="ref:vcgi:esiteid" v="153939"/>
  </node>
  <node id="-191" visible="true" lat="44.035352081689" lon="-73.162034471271">
    <tag k="addr:city" v="Middlebury"/>
    <tag k="addr:housenumber" v="896"/>
    <tag k="addr:street" v="United States Route 7 North"/>
    <tag k="addr:state" v="VT"/>
    <tag k="ref:vcgi:esiteid" v="153964"/>
  </node>
  <node id="-208" visible="true" lat="44.033425659299" lon="-73.164323291566">
    <tag k="addr:city" v="Middlebury"/>
    <tag k="addr:housenumber" v="708"/>
    <tag k="addr:street" v="United States Route 7 North"/>
    <tag k="addr:state" v="VT"/>
    <tag k="ref:vcgi:esiteid" v="153983"/>
  </node>
  <node id="-217" visible="true" lat="44.031957000782" lon="-73.165475330412">
    <tag k="addr:city" v="Middlebury"/>
    <tag k="addr:housenumber" v="610"/>
    <tag k="addr:street" v="United States Route 7 North"/>
    <tag k="addr:state" v="VT"/>
    <tag k="ref:vcgi:esiteid" v="153993"/>
  </node>
  <node id="-239" visible="true" lat="44.030526487545" lon="-73.166490041093">
    <tag k="addr:city" v="Middlebury"/>
    <tag k="addr:housenumber" v="476"/>
    <tag k="addr:street" v="United States Route 7 North"/>
    <tag k="addr:state" v="VT"/>
    <tag k="ref:vcgi:esiteid" v="154016"/>
  </node>
  <node id="-267" visible="true" lat="44.029184952192" lon="-73.167997241963">
    <tag k="addr:city" v="Middlebury"/>
    <tag k="addr:housenumber" v="325"/>
    <tag k="addr:street" v="United States Route 7 North"/>
    <tag k="addr:state" v="VT"/>
    <tag k="ref:vcgi:esiteid" v="154047"/>
  </node>
  <node id="-283" visible="true" lat="44.028394073256" lon="-73.167199573607">
    <tag k="addr:city" v="Middlebury"/>
    <tag k="addr:housenumber" v="290"/>
    <tag k="addr:street" v="United States Route 7 North"/>
    <tag k="addr:state" v="VT"/>
    <tag k="ref:vcgi:esiteid" v="154067"/>
  </node>
  <node id="-1758" visible="true" lat="44.001234468537" lon="-73.150645267171">
    <tag k="addr:city" v="Middlebury"/>
    <tag k="addr:housenumber" v="510"/>
    <tag k="addr:street" v="United States Route 7 South"/>
    <tag k="addr:state" v="VT"/>
    <tag k="ref:vcgi:esiteid" v="155740"/>
  </node>
  <node id="-1845" visible="true" lat="43.994809473252" lon="-73.144410561559">
    <tag k="addr:city" v="Middlebury"/>
    <tag k="addr:housenumber" v="1050"/>
    <tag k="addr:street" v="United States Route 7 South"/>
    <tag k="addr:state" v="VT"/>
    <tag k="ref:vcgi:esiteid" v="155836"/>
  </node>
  <node id="-1846" visible="true" lat="43.99475225271" lon="-73.145623636473">
    <tag k="addr:city" v="Middlebury"/>
    <tag k="addr:housenumber" v="1036"/>
    <tag k="addr:street" v="United States Route 7 South"/>
    <tag k="addr:state" v="VT"/>
    <tag k="ref:vcgi:esiteid" v="155837"/>
  </node>
  <node id="-1852" visible="true" lat="43.9945930701" lon="-73.143989148831">
    <tag k="addr:city" v="Middlebury"/>
    <tag k="addr:housenumber" v="1080"/>
    <tag k="addr:street" v="United States Route 7 South"/>
    <tag k="addr:state" v="VT"/>
    <tag k="ref:vcgi:esiteid" v="155843"/>
  </node>
  <node id="-1857" visible="true" lat="43.99406494736" lon="-73.140611545318">
    <tag k="addr:city" v="Middlebury"/>
    <tag k="addr:housenumber" v="1223"/>
    <tag k="addr:street" v="United States Route 7 South"/>
    <tag k="addr:state" v="VT"/>
    <tag k="ref:vcgi:esiteid" v="155848"/>
  </node>
  <node id="-1860" visible="true" lat="43.993909405416" lon="-73.141035540579">
    <tag k="addr:city" v="Middlebury"/>
    <tag k="addr:housenumber" v="1219"/>
    <tag k="addr:street" v="United States Route 7 South"/>
    <tag k="addr:state" v="VT"/>
    <tag k="ref:vcgi:esiteid" v="155852"/>
  </node>
  <node id="-1888" visible="true" lat="43.992284142298" lon="-73.139817664839">
    <tag k="addr:city" v="Middlebury"/>
    <tag k="addr:housenumber" v="1293"/>
    <tag k="addr:street" v="United States Route 7 South"/>
    <tag k="addr:state" v="VT"/>
    <tag k="ref:vcgi:esiteid" v="155881"/>
  </node>
  <node id="-1913" visible="true" lat="43.990386347771" lon="-73.139496775439">
    <tag k="addr:city" v="Middlebury"/>
    <tag k="addr:housenumber" v="1438"/>
    <tag k="addr:street" v="United States Route 7 South"/>
    <tag k="addr:state" v="VT"/>
    <tag k="ref:vcgi:esiteid" v="155908"/>
  </node>
  <node id="-1916" visible="true" lat="43.990357355543" lon="-73.137940968431">
    <tag k="addr:city" v="Middlebury"/>
    <tag k="addr:housenumber" v="1499"/>
    <tag k="addr:street" v="United States Route 7 South"/>
    <tag k="addr:state" v="VT"/>
    <tag k="ref:vcgi:esiteid" v="155912"/>
  </node>
  <node id="-1919" visible="true" lat="43.99004491385" lon="-73.138894508494">
    <tag k="addr:city" v="Middlebury"/>
    <tag k="addr:housenumber" v="1458"/>
    <tag k="addr:street" v="United States Route 7 South"/>
    <tag k="addr:state" v="VT"/>
    <tag k="ref:vcgi:esiteid" v="155915"/>
  </node>
  <node id="-1921" visible="true" lat="43.98996825642" lon="-73.137330614937">
    <tag k="addr:city" v="Middlebury"/>
    <tag k="addr:housenumber" v="1557"/>
    <tag k="addr:street" v="United States Route 7 South"/>
    <tag k="addr:state" v="VT"/>
    <tag k="ref:vcgi:esiteid" v="155918"/>
  </node>
  <node id="-1928" visible="true" lat="43.989190422951" lon="-73.137650915574">
    <tag k="addr:city" v="Middlebury"/>
    <tag k="addr:housenumber" v="1560"/>
    <tag k="addr:street" v="United States Route 7 South"/>
    <tag k="addr:state" v="VT"/>
    <tag k="ref:vcgi:esiteid" v="155927"/>
  </node>
  <node id="-1933" visible="true" lat="43.988908135917" lon="-73.137185523326">
    <tag k="addr:city" v="Middlebury"/>
    <tag k="addr:housenumber" v="1590"/>
    <tag k="addr:street" v="United States Route 7 South"/>
    <tag k="addr:state" v="VT"/>
    <tag k="ref:vcgi:esiteid" v="155932"/>
  </node>
  <node id="-1946" visible="true" lat="43.987711050344" lon="-73.133025354603">
    <tag k="addr:city" v="Middlebury"/>
    <tag k="addr:housenumber" v="1741"/>
    <tag k="addr:street" v="United States Route 7 South"/>
    <tag k="addr:state" v="VT"/>
    <tag k="ref:vcgi:esiteid" v="155946"/>
  </node>
  <node id="-1954" visible="true" lat="43.986729752332" lon="-73.134480405347">
    <tag k="addr:city" v="Middlebury"/>
    <tag k="addr:housenumber" v="1786"/>
    <tag k="addr:street" v="United States Route 7 South"/>
    <tag k="addr:state" v="VT"/>
    <tag k="ref:vcgi:esiteid" v="155957"/>
  </node>
  <node id="-1994" visible="true" lat="43.983853659968" lon="-73.128381198495">
    <tag k="addr:city" v="Middlebury"/>
    <tag k="addr:housenumber" v="2149"/>
    <tag k="addr:street" v="United States Route 7 South"/>
    <tag k="addr:state" v="VT"/>
    <tag k="ref:vcgi:esiteid" v="156002"/>
  </node>
  <node id="-2005" visible="true" lat="43.982999169145" lon="-73.12737411809">
    <tag k="addr:city" v="Middlebury"/>
    <tag k="addr:housenumber" v="2225"/>
    <tag k="addr:street" v="United States Route 7 South"/>
    <tag k="addr:state" v="VT"/>
    <tag k="ref:vcgi:esiteid" v="156013"/>
  </node>
  <node id="-2012" visible="true" lat="43.982537588496" lon="-73.129998629472">
    <tag k="addr:city" v="Middlebury"/>
    <tag k="addr:housenumber" v="2160"/>
    <tag k="addr:street" v="United States Route 7 South"/>
    <tag k="addr:state" v="VT"/>
    <tag k="ref:vcgi:esiteid" v="156022"/>
  </node>
  <node id="-2018" visible="true" lat="43.982209525763" lon="-73.12632126071">
    <tag k="addr:city" v="Middlebury"/>
    <tag k="addr:housenumber" v="2301"/>
    <tag k="addr:street" v="United States Route 7 South"/>
    <tag k="addr:state" v="VT"/>
    <tag k="ref:vcgi:esiteid" v="156029"/>
  </node>
  <node id="-2025" visible="true" lat="43.981765847695" lon="-73.126602703054">
    <tag k="addr:city" v="Middlebury"/>
    <tag k="addr:housenumber" v="2316"/>
    <tag k="addr:street" v="United States Route 7 South"/>
    <tag k="addr:state" v="VT"/>
    <tag k="ref:vcgi:esiteid" v="156036"/>
  </node>
  <node id="-2029" visible="true" lat="43.981431327109" lon="-73.125230255856">
    <tag k="addr:city" v="Middlebury"/>
    <tag k="addr:housenumber" v="2377"/>
    <tag k="addr:street" v="United States Route 7 South"/>
    <tag k="addr:state" v="VT"/>
    <tag k="ref:vcgi:esiteid" v="156040"/>
  </node>
  <node id="-2047" visible="true" lat="43.979588828282" lon="-73.12230056914">
    <tag k="addr:city" v="Middlebury"/>
    <tag k="addr:housenumber" v="2571"/>
    <tag k="addr:street" v="United States Route 7 South"/>
    <tag k="addr:state" v="VT"/>
    <tag k="ref:vcgi:esiteid" v="156059"/>
  </node>
  <node id="-2285" visible="true" lat="43.971139273438" lon="-73.116258084309">
    <tag k="addr:city" v="Middlebury"/>
    <tag k="addr:housenumber" v="3255"/>
    <tag k="addr:street" v="United States Route 7 South"/>
    <tag k="addr:state" v="VT"/>
    <tag k="ref:vcgi:esiteid" v="156322"/>
  </node>
  <node id="-2318" visible="true" lat="43.970255144313" lon="-73.116892805723">
    <tag k="addr:city" v="Middlebury"/>
    <tag k="addr:housenumber" v="3318"/>
    <tag k="addr:street" v="United States Route 7 South"/>
    <tag k="addr:state" v="VT"/>
    <tag k="ref:vcgi:esiteid" v="156359"/>
  </node>
  <node id="-2373" visible="true" lat="43.964631396888" lon="-73.116944731378">
    <tag k="addr:city" v="Middlebury"/>
    <tag k="addr:housenumber" v="3706"/>
    <tag k="addr:street" v="United States Route 7 South"/>
    <tag k="addr:state" v="VT"/>
    <tag k="ref:vcgi:esiteid" v="156417"/>
  </node>
  <node id="-2379" visible="true" lat="43.964017231543" lon="-73.115807950106">
    <tag k="addr:city" v="Middlebury"/>
    <tag k="addr:housenumber" v="3751"/>
    <tag k="addr:street" v="United States Route 7 South"/>
    <tag k="addr:state" v="VT"/>
    <tag k="ref:vcgi:esiteid" v="156423"/>
  </node>
  <node id="-2868" visible="true" lat="43.992336546365" lon="-73.107698389312">
    <tag k="addr:city" v="Middlebury"/>
    <tag k="addr:housenumber" v="185"/>
    <tag k="addr:street" v="Case Street"/>
    <tag k="addr:state" v="VT"/>
    <tag k="ref:vcgi:esiteid" v="331620"/>
  </node>
  <node id="-3021" visible="true" lat="43.992082607478" lon="-73.145554777668">
    <tag k="addr:city" v="Middlebury"/>
    <tag k="addr:housenumber" v="1290"/>
    <tag k="addr:street" v="United States Route 7 South"/>
    <tag k="addr:state" v="VT"/>
    <tag k="ref:vcgi:esiteid" v="452639"/>
  </node>
  <node id="-3025" visible="true" lat="43.981063946373" lon="-73.127674217222">
    <tag k="addr:city" v="Middlebury"/>
    <tag k="addr:housenumber" v="2340"/>
    <tag k="addr:street" v="United States Route 7 South"/>
    <tag k="addr:state" v="VT"/>
    <tag k="ref:vcgi:esiteid" v="454339"/>
  </node>
  <node id="-3099" visible="true" lat="43.991486752165" lon="-73.1061957219">
    <tag k="addr:city" v="Middlebury"/>
    <tag k="addr:housenumber" v="49"/>
    <tag k="addr:street" v="Lunar Grove"/>
    <tag k="addr:state" v="VT"/>
    <tag k="ref:vcgi:esiteid" v="656830"/>
  </node>
  <node id="-3271" visible="true" lat="43.981585192549" lon="-73.172214216261">
    <tag k="addr:city" v="Middlebury"/>
    <tag k="addr:housenumber" v="1776"/>
    <tag k="addr:street" v="South Street Extension"/>
    <tag k="addr:state" v="VT"/>
    <tag k="ref:vcgi:esiteid" v="773186"/>
  </node>
  <node id="-3273" visible="true" lat="44.045965350828" lon="-73.158471286061">
    <tag k="addr:city" v="Middlebury"/>
    <tag k="addr:housenumber" v="186"/>
    <tag k="addr:street" v="Acker Farm Road"/>
    <tag k="addr:state" v="VT"/>
    <tag k="ref:vcgi:esiteid" v="773829"/>
  </node>
  <node id="-3274" visible="true" lat="44.047474257602" lon="-73.159099286255">
    <tag k="addr:city" v="Middlebury"/>
    <tag k="addr:housenumber" v="355"/>
    <tag k="addr:street" v="Acker Farm Road"/>
    <tag k="addr:state" v="VT"/>
    <tag k="ref:vcgi:esiteid" v="773830"/>
  </node>
</osm>
