<?xml version="1.0" encoding="UTF-8"?>
<osm version="0.6" generator="JOSM" upload="false">
  <node id="-738" visible="true" lat="44.263841028239" lon="-72.559079653845">
    <!-- conflict: "12 College Street, Montpelier, VT" Fuzzy match to "12 North College Street, Montpelier, VT" -->
    <tag k="addr:city" v="Montpelier"/>
    <tag k="addr:housenumber" v="12"/>
    <tag k="addr:street" v="College Street"/>
    <tag k="addr:state" v="VT"/>
    <tag k="ref:vcgi:esiteid" v="164840"/>
  </node>
  <node id="-779" visible="true" lat="44.263320175718" lon="-72.559687229475">
    <!-- conflict: "8 College Street, Montpelier, VT" Fuzzy match to "8 North College Street, Montpelier, VT" -->
    <tag k="addr:city" v="Montpelier"/>
    <tag k="addr:housenumber" v="8"/>
    <tag k="addr:street" v="College Street"/>
    <tag k="addr:state" v="VT"/>
    <tag k="ref:vcgi:esiteid" v="164884"/>
  </node>
  <node id="-781" visible="true" lat="44.263379500814" lon="-72.55911240735">
    <!-- conflict: "9 College Street, Montpelier, VT" Fuzzy match to "9 North College Street, Montpelier, VT" -->
    <tag k="addr:city" v="Montpelier"/>
    <tag k="addr:housenumber" v="9"/>
    <tag k="addr:street" v="College Street"/>
    <tag k="addr:state" v="VT"/>
    <tag k="ref:vcgi:esiteid" v="164886"/>
  </node>
  <node id="-800" visible="true" lat="44.263091282347" lon="-72.559768461343">
    <!-- conflict: "6 College Street, Montpelier, VT" Fuzzy match to "6 North College Street, Montpelier, VT" -->
    <tag k="addr:city" v="Montpelier"/>
    <tag k="addr:housenumber" v="6"/>
    <tag k="addr:street" v="College Street"/>
    <tag k="addr:state" v="VT"/>
    <tag k="ref:vcgi:esiteid" v="164905"/>
  </node>
  <node id="-859" visible="true" lat="44.262610814268" lon="-72.553406975063">
    <!-- conflict: "231 Chestnut Hill Road, Montpelier, VT" No match in OSM, but a different address exists <5m away: "231 Dover Road, Montpelier, VT" -->
    <tag k="addr:city" v="Montpelier"/>
    <tag k="addr:housenumber" v="231"/>
    <tag k="addr:street" v="Chestnut Hill Road"/>
    <tag k="addr:state" v="VT"/>
    <tag k="ref:vcgi:esiteid" v="164972"/>
  </node>
  <node id="-863" visible="true" lat="44.26255937209" lon="-72.559179900901">
    <!-- conflict: "1 College Street, Montpelier, VT" Fuzzy match to "1 North College Street, Montpelier, VT" -->
    <tag k="addr:city" v="Montpelier"/>
    <tag k="addr:housenumber" v="1"/>
    <tag k="addr:street" v="College Street"/>
    <tag k="addr:state" v="VT"/>
    <tag k="ref:vcgi:esiteid" v="164976"/>
  </node>
</osm>
