<?xml version="1.0" encoding="UTF-8"?>
<osm version="0.6" generator="JOSM" upload="false">
  <node id="-1023" visible="true" lat="44.882519108649" lon="-72.575333761151">
    <tag k="addr:city" v="Montgomery Center"/>
    <tag k="addr:housenumber" v="1916"/>
    <tag k="addr:street" v="Mountain Road"/>
    <tag k="addr:state" v="VT"/>
    <tag k="ref:vcgi:esiteid" v="773323"/>
  </node>
  <node id="-1024" visible="true" lat="44.882258040798" lon="-72.575311837082">
    <tag k="addr:city" v="Montgomery Center"/>
    <tag k="addr:housenumber" v="1914"/>
    <tag k="addr:street" v="Mountain Road"/>
    <tag k="addr:state" v="VT"/>
    <tag k="ref:vcgi:esiteid" v="773324"/>
  </node>
  <node id="-1025" visible="true" lat="44.885107183999" lon="-72.545709833847">
    <tag k="addr:city" v="Montgomery Center"/>
    <tag k="addr:housenumber" v="119"/>
    <tag k="addr:street" v="Christmas Road"/>
    <tag k="addr:state" v="VT"/>
    <tag k="ref:vcgi:esiteid" v="773821"/>
  </node>
  <node id="-1026" visible="true" lat="44.889367098754" lon="-72.572887114621">
    <tag k="addr:city" v="Montgomery Center"/>
    <tag k="addr:housenumber" v="537"/>
    <tag k="addr:street" v="Hannah Clark Brook Road"/>
    <tag k="addr:state" v="VT"/>
    <tag k="ref:vcgi:esiteid" v="773846"/>
  </node>
</osm>
