<?xml version="1.0" encoding="UTF-8"?>
<osm version="0.6" generator="JOSM" upload="false">
  <node id="-886" visible="true" lat="43.409481623836" lon="-72.812761478003">
    <tag k="addr:city" v="Mount Holly"/>
    <tag k="addr:housenumber" v="450"/>
    <tag k="addr:street" v="Dodge Road"/>
    <tag k="addr:state" v="VT"/>
    <tag k="ref:vcgi:esiteid" v="171776"/>
  </node>
  <node id="-1160" visible="true" lat="43.410194656186" lon="-72.81111305498">
    <tag k="addr:city" v="Mount Holly"/>
    <tag k="addr:housenumber" v="391"/>
    <tag k="addr:street" v="Dodge Road"/>
    <tag k="addr:state" v="VT"/>
    <tag k="ref:vcgi:esiteid" v="315558"/>
  </node>
  <node id="-1341" visible="true" lat="43.436811917137" lon="-72.751282035218">
    <tag k="addr:city" v="Mount Holly"/>
    <tag k="addr:housenumber" v="33"/>
    <tag k="addr:street" v="Station Road"/>
    <tag k="addr:state" v="VT"/>
    <tag k="ref:vcgi:esiteid" v="773195"/>
  </node>
</osm>
