<?xml version="1.0" encoding="UTF-8"?>
<osm version="0.6" generator="JOSM" upload="false">
  <node id="-213" visible="true" lat="44.131843657086" lon="-73.189294852263">
    <tag k="addr:city" v="New Haven"/>
    <tag k="addr:housenumber" v="36"/>
    <tag k="addr:street" v="Lime Kiln Road"/>
    <tag k="addr:state" v="VT"/>
    <tag k="ref:vcgi:esiteid" v="172284"/>
  </node>
  <node id="-776" visible="true" lat="44.132159220583" lon="-73.189619647652">
    <tag k="addr:city" v="New Haven"/>
    <tag k="addr:housenumber" v="38"/>
    <tag k="addr:street" v="Lime Kiln Road"/>
    <tag k="addr:state" v="VT"/>
    <tag k="ref:vcgi:esiteid" v="172856"/>
  </node>
  <node id="-1013" visible="true" lat="44.118230207594" lon="-73.121576149384">
    <tag k="addr:city" v="New Haven"/>
    <tag k="addr:housenumber" v="564"/>
    <tag k="addr:street" v="East Street"/>
    <tag k="addr:state" v="VT"/>
    <tag k="ref:vcgi:esiteid" v="773835"/>
  </node>
</osm>
