<?xml version="1.0" encoding="UTF-8"?>
<osm version="0.6" generator="JOSM" upload="false">
  <node id="-111" visible="true" lat="44.174349915972" lon="-72.11290785875">
    <tag k="addr:city" v="South Ryegate"/>
    <tag k="addr:housenumber" v="4358"/>
    <tag k="addr:street" v="United States Route 302"/>
    <tag k="addr:state" v="VT"/>
    <tag k="ref:vcgi:esiteid" v="173442"/>
  </node>
  <node id="-126" visible="true" lat="44.169404419929" lon="-72.103608226444">
    <tag k="addr:city" v="Wells River"/>
    <tag k="addr:housenumber" v="3779"/>
    <tag k="addr:street" v="United States Route 302"/>
    <tag k="addr:state" v="VT"/>
    <tag k="ref:vcgi:esiteid" v="173457"/>
  </node>
  <node id="-225" visible="true" lat="44.155431822477" lon="-72.083235537827">
    <tag k="addr:city" v="Wells River"/>
    <tag k="addr:housenumber" v="2420"/>
    <tag k="addr:street" v="United States Route 302"/>
    <tag k="addr:state" v="VT"/>
    <tag k="ref:vcgi:esiteid" v="173561"/>
  </node>
  <node id="-329" visible="true" lat="44.151399045785" lon="-72.084046453007">
    <tag k="addr:city" v="Wells River"/>
    <tag k="addr:housenumber" v="2111"/>
    <tag k="addr:street" v="United States Route 302"/>
    <tag k="addr:state" v="VT"/>
    <tag k="ref:vcgi:esiteid" v="173678"/>
  </node>
  <node id="-331" visible="true" lat="44.151326567205" lon="-72.083588687762">
    <tag k="addr:city" v="Wells River"/>
    <tag k="addr:housenumber" v="2045"/>
    <tag k="addr:street" v="United States Route 302"/>
    <tag k="addr:state" v="VT"/>
    <tag k="ref:vcgi:esiteid" v="173680"/>
  </node>
  <node id="-357" visible="true" lat="44.149400145665" lon="-72.056229669856">
    <tag k="addr:city" v="Wells River"/>
    <tag k="addr:housenumber" v="589"/>
    <tag k="addr:street" v="United States Route 302"/>
    <tag k="addr:state" v="VT"/>
    <tag k="ref:vcgi:esiteid" v="173708"/>
  </node>
  <node id="-363" visible="true" lat="44.148955903925" lon="-72.057440623758">
    <tag k="addr:city" v="Wells River"/>
    <tag k="addr:housenumber" v="651"/>
    <tag k="addr:street" v="United States Route 302"/>
    <tag k="addr:state" v="VT"/>
    <tag k="ref:vcgi:esiteid" v="173714"/>
  </node>
  <node id="-967" visible="true" lat="44.069188491397" lon="-72.058816030097">
    <tag k="addr:city" v="Newbury"/>
    <tag k="addr:housenumber" v="5720"/>
    <tag k="addr:street" v="United States Route 5 South"/>
    <tag k="addr:state" v="VT"/>
    <tag k="ref:vcgi:esiteid" v="174357"/>
  </node>
  <node id="-984" visible="true" lat="44.066205397776" lon="-72.062157705443">
    <tag k="addr:city" v="Newbury"/>
    <tag k="addr:housenumber" v="5988"/>
    <tag k="addr:street" v="United States Route 5 South"/>
    <tag k="addr:state" v="VT"/>
    <tag k="ref:vcgi:esiteid" v="174376"/>
  </node>
  <node id="-991" visible="true" lat="44.065569853789" lon="-72.062809512191">
    <tag k="addr:city" v="Newbury"/>
    <tag k="addr:housenumber" v="6036"/>
    <tag k="addr:street" v="United States Route 5 South"/>
    <tag k="addr:state" v="VT"/>
    <tag k="ref:vcgi:esiteid" v="174383"/>
  </node>
  <node id="-997" visible="true" lat="44.065169309612" lon="-72.063259645486">
    <tag k="addr:city" v="Newbury"/>
    <tag k="addr:housenumber" v="6072"/>
    <tag k="addr:street" v="United States Route 5 South"/>
    <tag k="addr:state" v="VT"/>
    <tag k="ref:vcgi:esiteid" v="174390"/>
  </node>
  <node id="-1000" visible="true" lat="44.065221204736" lon="-72.061814382189">
    <tag k="addr:city" v="Newbury"/>
    <tag k="addr:housenumber" v="6059"/>
    <tag k="addr:street" v="United States Route 5 South"/>
    <tag k="addr:state" v="VT"/>
    <tag k="ref:vcgi:esiteid" v="174394"/>
  </node>
  <node id="-1061" visible="true" lat="44.05878199558" lon="-72.071396904862">
    <tag k="addr:city" v="Newbury"/>
    <tag k="addr:housenumber" v="6680"/>
    <tag k="addr:street" v="United States Route 5 South"/>
    <tag k="addr:state" v="VT"/>
    <tag k="ref:vcgi:esiteid" v="174458"/>
  </node>
  <node id="-1067" visible="true" lat="44.058118238573" lon="-72.071824150013">
    <tag k="addr:city" v="Newbury"/>
    <tag k="addr:housenumber" v="6728"/>
    <tag k="addr:street" v="United States Route 5 South"/>
    <tag k="addr:state" v="VT"/>
    <tag k="ref:vcgi:esiteid" v="174464"/>
  </node>
  <node id="-1074" visible="true" lat="44.056386363931" lon="-72.072365839684">
    <tag k="addr:city" v="Newbury"/>
    <tag k="addr:housenumber" v="6846"/>
    <tag k="addr:street" v="United States Route 5 South"/>
    <tag k="addr:state" v="VT"/>
    <tag k="ref:vcgi:esiteid" v="174471"/>
  </node>
  <node id="-1082" visible="true" lat="44.054944408462" lon="-72.072442131416">
    <tag k="addr:city" v="Newbury"/>
    <tag k="addr:housenumber" v="6946"/>
    <tag k="addr:street" v="United States Route 5 South"/>
    <tag k="addr:state" v="VT"/>
    <tag k="ref:vcgi:esiteid" v="174479"/>
  </node>
  <node id="-1109" visible="true" lat="44.051068675674" lon="-72.07401378704">
    <tag k="addr:city" v="Newbury"/>
    <tag k="addr:housenumber" v="7227"/>
    <tag k="addr:street" v="United States Route 5 South"/>
    <tag k="addr:state" v="VT"/>
    <tag k="ref:vcgi:esiteid" v="174506"/>
  </node>
  <node id="-1113" visible="true" lat="44.050618542315" lon="-72.075539666924">
    <tag k="addr:city" v="Newbury"/>
    <tag k="addr:housenumber" v="7292"/>
    <tag k="addr:street" v="United States Route 5 South"/>
    <tag k="addr:state" v="VT"/>
    <tag k="ref:vcgi:esiteid" v="174510"/>
  </node>
  <node id="-1320" visible="true" lat="44.151804351701" lon="-72.085211037921">
    <tag k="addr:city" v="Wells River"/>
    <tag k="addr:housenumber" v="2373"/>
    <tag k="addr:street" v="United States Route 302"/>
    <tag k="addr:state" v="VT"/>
    <tag k="ref:vcgi:esiteid" v="174722"/>
  </node>
  <node id="-1346" visible="true" lat="44.06472906159" lon="-72.064753774004">
    <tag k="addr:city" v="Newbury"/>
    <tag k="addr:housenumber" v="6140"/>
    <tag k="addr:street" v="United States Route 5 South"/>
    <tag k="addr:state" v="VT"/>
    <tag k="ref:vcgi:esiteid" v="174748"/>
  </node>
  <node id="-1409" visible="true" lat="44.060299915125" lon="-72.068174227261">
    <tag k="addr:city" v="Newbury"/>
    <tag k="addr:housenumber" v="6521"/>
    <tag k="addr:street" v="United States Route 5 South"/>
    <tag k="addr:state" v="VT"/>
    <tag k="ref:vcgi:esiteid" v="310652"/>
  </node>
  <node id="-1433" visible="true" lat="44.05859744678" lon="-72.070738527096">
    <tag k="addr:city" v="Newbury"/>
    <tag k="addr:housenumber" v="6679"/>
    <tag k="addr:street" v="United States Route 5 South"/>
    <tag k="addr:state" v="VT"/>
    <tag k="ref:vcgi:esiteid" v="328619"/>
  </node>
  <node id="-1525" visible="true" lat="44.175849204995" lon="-72.113526244502">
    <tag k="addr:city" v="South Ryegate"/>
    <tag k="addr:housenumber" v="4456"/>
    <tag k="addr:street" v="United States Route 302"/>
    <tag k="addr:state" v="VT"/>
    <tag k="ref:vcgi:esiteid" v="754715"/>
  </node>
  <node id="-1592" visible="true" lat="44.08848209207" lon="-72.152820481262">
    <tag k="addr:city" v="Newbury"/>
    <tag k="addr:housenumber" v="1561"/>
    <tag k="addr:street" v="Urquhart Road"/>
    <tag k="addr:state" v="VT"/>
    <tag k="ref:vcgi:esiteid" v="773355"/>
  </node>
  <node id="-1593" visible="true" lat="44.081319757149" lon="-72.14727173896">
    <tag k="addr:city" v="Newbury"/>
    <tag k="addr:housenumber" v="959"/>
    <tag k="addr:street" v="Urquhart Road"/>
    <tag k="addr:state" v="VT"/>
    <tag k="ref:vcgi:esiteid" v="773356"/>
  </node>
  <node id="-1594" visible="true" lat="44.093081477591" lon="-72.161470811428">
    <tag k="addr:city" v="Newbury"/>
    <tag k="addr:housenumber" v="2175"/>
    <tag k="addr:street" v="Urquhart Road"/>
    <tag k="addr:state" v="VT"/>
    <tag k="ref:vcgi:esiteid" v="773357"/>
  </node>
  <node id="-1596" visible="true" lat="44.07791825686" lon="-72.14586506035">
    <tag k="addr:city" v="Newbury"/>
    <tag k="addr:housenumber" v="725"/>
    <tag k="addr:street" v="Urquhart Road"/>
    <tag k="addr:state" v="VT"/>
    <tag k="ref:vcgi:esiteid" v="773646"/>
  </node>
  <node id="-1598" visible="true" lat="44.112015506545" lon="-72.185939076395">
    <tag k="addr:city" v="Newbury"/>
    <tag k="addr:housenumber" v="2509"/>
    <tag k="addr:street" v="Fuller Road"/>
    <tag k="addr:state" v="VT"/>
    <tag k="ref:vcgi:esiteid" v="773963"/>
  </node>
</osm>
