<?xml version="1.0" encoding="UTF-8"?>
<osm version="0.6" generator="JOSM" upload="false">
  <node id="-365" visible="true" lat="42.923461166543" lon="-73.229204621148">
    <!-- conflict: "420 College Road, North Bennington, VT" No match in OSM, but a different address exists <5m away: "201 Honeysuckle Lane, North Bennington, VT" -->
    <tag k="addr:city" v="North Bennington"/>
    <tag k="addr:housenumber" v="420"/>
    <tag k="addr:street" v="College Road"/>
    <tag k="addr:state" v="VT"/>
    <tag k="ref:vcgi:esiteid" v="305010"/>
  </node>
</osm>
