<?xml version="1.0" encoding="UTF-8"?>
<osm version="0.6" generator="JOSM" upload="false">
  <node id="-101" visible="true" lat="43.719949071035" lon="-72.397221929535">
    <!-- conflict: "1019 Podunk Road, White River Junction, VT" Fuzzy match to "1019 Podunk Road, Norwich, VT" -->
    <tag k="addr:city" v="White River Junction"/>
    <tag k="addr:housenumber" v="1019"/>
    <tag k="addr:street" v="Podunk Road"/>
    <tag k="addr:state" v="VT"/>
    <tag k="ref:vcgi:esiteid" v="182108"/>
  </node>
  <node id="-121" visible="true" lat="43.794172206555" lon="-72.342231582775">
    <!-- conflict: "1802 Turnpike Road, Norwich, VT" Fuzzy match to "1802 Turnpike Road, , VT" -->
    <tag k="addr:city" v="Norwich"/>
    <tag k="addr:housenumber" v="1802"/>
    <tag k="addr:street" v="Turnpike Road"/>
    <tag k="addr:state" v="VT"/>
    <tag k="ref:vcgi:esiteid" v="182129"/>
  </node>
  <node id="-157" visible="true" lat="43.785416918521" lon="-72.27297318605">
    <!-- conflict: "319 Kerwin Hill Road, Norwich, VT" Fuzzy match to "319 Kerwin Hill Road, , VT" -->
    <tag k="addr:city" v="Norwich"/>
    <tag k="addr:housenumber" v="319"/>
    <tag k="addr:street" v="Kerwin Hill Road"/>
    <tag k="addr:state" v="VT"/>
    <tag k="ref:vcgi:esiteid" v="182166"/>
  </node>
  <node id="-161" visible="true" lat="43.785134965614" lon="-72.274386235609">
    <!-- conflict: "355 Kerwin Hill Road, Norwich, VT" Fuzzy match to "355 Kerwin Hill Road, , VT" -->
    <tag k="addr:city" v="Norwich"/>
    <tag k="addr:housenumber" v="355"/>
    <tag k="addr:street" v="Kerwin Hill Road"/>
    <tag k="addr:state" v="VT"/>
    <tag k="ref:vcgi:esiteid" v="182170"/>
  </node>
  <node id="-193" visible="true" lat="43.782464341312" lon="-72.289063583943">
    <!-- conflict: "107 Ladeau Road, Norwich, VT" Fuzzy match to "107 Ladeau Road, , VT" -->
    <tag k="addr:city" v="Norwich"/>
    <tag k="addr:housenumber" v="107"/>
    <tag k="addr:street" v="Ladeau Road"/>
    <tag k="addr:state" v="VT"/>
    <tag k="ref:vcgi:esiteid" v="182203"/>
  </node>
  <node id="-205" visible="true" lat="43.781497920039" lon="-72.302786931113">
    <!-- conflict: "1249 New Boston Road, Norwich, VT" Fuzzy match to "1249 New Boston Road, , VT" -->
    <tag k="addr:city" v="Norwich"/>
    <tag k="addr:housenumber" v="1249"/>
    <tag k="addr:street" v="New Boston Road"/>
    <tag k="addr:state" v="VT"/>
    <tag k="ref:vcgi:esiteid" v="182215"/>
  </node>
  <node id="-206" visible="true" lat="43.781003312509" lon="-72.254082797714">
    <!-- conflict: "537 Campbell Flats Road, Norwich, VT" Fuzzy match to "537 Campbell Flats Road, , VT" -->
    <tag k="addr:city" v="Norwich"/>
    <tag k="addr:housenumber" v="537"/>
    <tag k="addr:street" v="Campbell Flats Road"/>
    <tag k="addr:state" v="VT"/>
    <tag k="ref:vcgi:esiteid" v="182216"/>
  </node>
  <node id="-229" visible="true" lat="43.778104140976" lon="-72.298668994766">
    <!-- conflict: "1090 New Boston Road, Norwich, VT" Fuzzy match to "1090 New Boston Road, , VT" -->
    <tag k="addr:city" v="Norwich"/>
    <tag k="addr:housenumber" v="1090"/>
    <tag k="addr:street" v="New Boston Road"/>
    <tag k="addr:state" v="VT"/>
    <tag k="ref:vcgi:esiteid" v="182240"/>
  </node>
  <node id="-247" visible="true" lat="43.774936160913" lon="-72.300941779562">
    <!-- conflict: "1003 New Boston Road, Norwich, VT" Fuzzy match to "1003 New Boston Road, , VT" -->
    <tag k="addr:city" v="Norwich"/>
    <tag k="addr:housenumber" v="1003"/>
    <tag k="addr:street" v="New Boston Road"/>
    <tag k="addr:state" v="VT"/>
    <tag k="ref:vcgi:esiteid" v="182258"/>
  </node>
  <node id="-293" visible="true" lat="43.769374851813" lon="-72.330932358004">
    <!-- conflict: "1184 Turnpike Road, Norwich, VT" Fuzzy match to "1184 Turnpike Road, , VT" -->
    <tag k="addr:city" v="Norwich"/>
    <tag k="addr:housenumber" v="1184"/>
    <tag k="addr:street" v="Turnpike Road"/>
    <tag k="addr:state" v="VT"/>
    <tag k="ref:vcgi:esiteid" v="182305"/>
  </node>
  <node id="-304" visible="true" lat="43.768476223511" lon="-72.256370529663">
    <!-- conflict: "1422 Union Village Road, Norwich, VT" Fuzzy match to "1422 Union Village Road, , VT" -->
    <tag k="addr:city" v="Norwich"/>
    <tag k="addr:housenumber" v="1422"/>
    <tag k="addr:street" v="Union Village Road"/>
    <tag k="addr:state" v="VT"/>
    <tag k="ref:vcgi:esiteid" v="182316"/>
  </node>
  <node id="-305" visible="true" lat="43.768325683199" lon="-72.379046835574">
    <!-- conflict: "1802 Beaver Meadow Road, Sharon, VT" Fuzzy match to "1802 Beaver Meadow Road, Norwich, VT" -->
    <tag k="addr:city" v="Sharon"/>
    <tag k="addr:housenumber" v="1802"/>
    <tag k="addr:street" v="Beaver Meadow Road"/>
    <tag k="addr:state" v="VT"/>
    <tag k="ref:vcgi:esiteid" v="182317"/>
  </node>
  <node id="-308" visible="true" lat="43.768067601033" lon="-72.214334104296">
    <!-- conflict: "1743 United States Route 5 North, Norwich, VT" No match in OSM, but a different address exists <5m away: "1743 U.S. Route 5 North, Norwich, VT" -->
    <tag k="addr:city" v="Norwich"/>
    <tag k="addr:housenumber" v="1743"/>
    <tag k="addr:street" v="United States Route 5 North"/>
    <tag k="addr:state" v="VT"/>
    <tag k="ref:vcgi:esiteid" v="182320"/>
  </node>
  <node id="-311" visible="true" lat="43.767715976839" lon="-72.260972780656">
    <!-- conflict: "1401 Union Village Road, Norwich, VT" Fuzzy match to "1401 Union Village Road, , VT" -->
    <tag k="addr:city" v="Norwich"/>
    <tag k="addr:housenumber" v="1401"/>
    <tag k="addr:street" v="Union Village Road"/>
    <tag k="addr:state" v="VT"/>
    <tag k="ref:vcgi:esiteid" v="182323"/>
  </node>
  <node id="-312" visible="true" lat="43.767766503203" lon="-72.215263247687">
    <!-- conflict: "1737 United States Route 5 North, Norwich, VT" No match in OSM, but a different address exists <5m away: "1737 U.S. Route 5 North, Norwich, VT" -->
    <tag k="addr:city" v="Norwich"/>
    <tag k="addr:housenumber" v="1737"/>
    <tag k="addr:street" v="United States Route 5 North"/>
    <tag k="addr:state" v="VT"/>
    <tag k="ref:vcgi:esiteid" v="182324"/>
  </node>
  <node id="-314" visible="true" lat="43.76772434485" lon="-72.374230543278">
    <!-- conflict: "65 Sugarhouse Road, Sharon, VT" Fuzzy match to "65 Sugarhouse Road, Norwich, VT" -->
    <tag k="addr:city" v="Sharon"/>
    <tag k="addr:housenumber" v="65"/>
    <tag k="addr:street" v="Sugarhouse Road"/>
    <tag k="addr:state" v="VT"/>
    <tag k="ref:vcgi:esiteid" v="182326"/>
  </node>
  <node id="-315" visible="true" lat="43.76742594898" lon="-72.216812129717">
    <!-- conflict: "1717 United States Route 5 North, Norwich, VT" No match in OSM, but a different address exists <5m away: "1717 U.S. Route 5 North, Norwich, VT" -->
    <tag k="addr:city" v="Norwich"/>
    <tag k="addr:housenumber" v="1717"/>
    <tag k="addr:street" v="United States Route 5 North"/>
    <tag k="addr:state" v="VT"/>
    <tag k="ref:vcgi:esiteid" v="182327"/>
  </node>
  <node id="-319" visible="true" lat="43.767354319125" lon="-72.378686111132">
    <!-- conflict: "1785 Beaver Meadow Road, Sharon, VT" Fuzzy match to "1785 Beaver Meadow Road, Norwich, VT" -->
    <tag k="addr:city" v="Sharon"/>
    <tag k="addr:housenumber" v="1785"/>
    <tag k="addr:street" v="Beaver Meadow Road"/>
    <tag k="addr:state" v="VT"/>
    <tag k="ref:vcgi:esiteid" v="182331"/>
  </node>
  <node id="-320" visible="true" lat="43.766764673385" lon="-72.217976586064">
    <!-- conflict: "1701 United States Route 5 North, Norwich, VT" No match in OSM, but a different address exists <5m away: "1701 U.S. Route 5 North, Norwich, VT" -->
    <tag k="addr:city" v="Norwich"/>
    <tag k="addr:housenumber" v="1701"/>
    <tag k="addr:street" v="United States Route 5 North"/>
    <tag k="addr:state" v="VT"/>
    <tag k="ref:vcgi:esiteid" v="182332"/>
  </node>
  <node id="-325" visible="true" lat="43.76676304089" lon="-72.377984207218">
    <!-- conflict: "1767 Beaver Meadow Road, Sharon, VT" Fuzzy match to "1767 Beaver Meadow Road, Norwich, VT" -->
    <tag k="addr:city" v="Sharon"/>
    <tag k="addr:housenumber" v="1767"/>
    <tag k="addr:street" v="Beaver Meadow Road"/>
    <tag k="addr:state" v="VT"/>
    <tag k="ref:vcgi:esiteid" v="182337"/>
  </node>
  <node id="-333" visible="true" lat="43.766011551036" lon="-72.237176053719">
    <!-- conflict: "143 Hogback Road, Norwich, VT" Fuzzy match to "143 Hogback Road, , VT" -->
    <tag k="addr:city" v="Norwich"/>
    <tag k="addr:housenumber" v="143"/>
    <tag k="addr:street" v="Hogback Road"/>
    <tag k="addr:state" v="VT"/>
    <tag k="ref:vcgi:esiteid" v="182345"/>
  </node>
  <node id="-341" visible="true" lat="43.765542270436" lon="-72.376502421802">
    <!-- conflict: "2 Mitchell Brook Road, Sharon, VT" Fuzzy match to "2 Mitchell Brook Road, Norwich, VT" -->
    <tag k="addr:city" v="Sharon"/>
    <tag k="addr:housenumber" v="2"/>
    <tag k="addr:street" v="Mitchell Brook Road"/>
    <tag k="addr:state" v="VT"/>
    <tag k="ref:vcgi:esiteid" v="182353"/>
  </node>
  <node id="-342" visible="true" lat="43.765523264972" lon="-72.371079600728">
    <!-- conflict: "272 Chapel Hill Road, Norwich, VT" Fuzzy match to "272 Chapel Hill Road, , VT" -->
    <tag k="addr:city" v="Norwich"/>
    <tag k="addr:housenumber" v="272"/>
    <tag k="addr:street" v="Chapel Hill Road"/>
    <tag k="addr:state" v="VT"/>
    <tag k="ref:vcgi:esiteid" v="182354"/>
  </node>
  <node id="-346" visible="true" lat="43.765101015867" lon="-72.377147127335">
    <!-- conflict: "16 Mitchell Brook Road, Sharon, VT" Fuzzy match to "16 Mitchell Brook Road, Norwich, VT" -->
    <tag k="addr:city" v="Sharon"/>
    <tag k="addr:housenumber" v="16"/>
    <tag k="addr:street" v="Mitchell Brook Road"/>
    <tag k="addr:state" v="VT"/>
    <tag k="ref:vcgi:esiteid" v="182358"/>
  </node>
  <node id="-420" visible="true" lat="43.760560804357" lon="-72.223715565173">
    <!-- conflict: "1540 United States Route 5 North, Norwich, VT" No match in OSM, but a different address exists <5m away: "1540 U.S. Route 5 North, Norwich, VT" -->
    <tag k="addr:city" v="Norwich"/>
    <tag k="addr:housenumber" v="1540"/>
    <tag k="addr:street" v="United States Route 5 North"/>
    <tag k="addr:state" v="VT"/>
    <tag k="ref:vcgi:esiteid" v="182433"/>
  </node>
  <node id="-422" visible="true" lat="43.760555928913" lon="-72.228473545291">
    <!-- conflict: "12 Goodell Road, Norwich, VT" Fuzzy match to "12 Goodell Road, , VT" -->
    <tag k="addr:city" v="Norwich"/>
    <tag k="addr:housenumber" v="12"/>
    <tag k="addr:street" v="Goodell Road"/>
    <tag k="addr:state" v="VT"/>
    <tag k="ref:vcgi:esiteid" v="182435"/>
  </node>
  <node id="-427" visible="true" lat="43.760233840386" lon="-72.224104999619">
    <!-- conflict: "1528 United States Route 5 North, Norwich, VT" No match in OSM, but a different address exists <5m away: "1528 U.S. Route 5 North, Norwich, VT" -->
    <tag k="addr:city" v="Norwich"/>
    <tag k="addr:housenumber" v="1528"/>
    <tag k="addr:street" v="United States Route 5 North"/>
    <tag k="addr:state" v="VT"/>
    <tag k="ref:vcgi:esiteid" v="182440"/>
  </node>
  <node id="-468" visible="true" lat="43.757508586655" lon="-72.32804980332">
    <!-- conflict: "19 Upper Turnpike Road, Norwich, VT" Fuzzy match to "19 Upper Turnpike Road, , VT" -->
    <tag k="addr:city" v="Norwich"/>
    <tag k="addr:housenumber" v="19"/>
    <tag k="addr:street" v="Upper Turnpike Road"/>
    <tag k="addr:state" v="VT"/>
    <tag k="ref:vcgi:esiteid" v="182482"/>
  </node>
  <node id="-469" visible="true" lat="43.757210682546" lon="-72.227709952234">
    <!-- conflict: "1412 United States Route 5 North, Norwich, VT" No match in OSM, but a different address exists <5m away: "1412 U.S. Route 5 North, Norwich, VT" -->
    <tag k="addr:city" v="Norwich"/>
    <tag k="addr:housenumber" v="1412"/>
    <tag k="addr:street" v="United States Route 5 North"/>
    <tag k="addr:state" v="VT"/>
    <tag k="ref:vcgi:esiteid" v="182483"/>
  </node>
  <node id="-471" visible="true" lat="43.757148915053" lon="-72.228341677067">
    <!-- conflict: "1410 United States Route 5 North, Norwich, VT" No match in OSM, but a different address exists <5m away: "1410 U.S. Route 5 North, Norwich, VT" -->
    <tag k="addr:city" v="Norwich"/>
    <tag k="addr:housenumber" v="1410"/>
    <tag k="addr:street" v="United States Route 5 North"/>
    <tag k="addr:state" v="VT"/>
    <tag k="ref:vcgi:esiteid" v="182485"/>
  </node>
  <node id="-478" visible="true" lat="43.756499891211" lon="-72.229951497269">
    <!-- conflict: "1399 United States Route 5 North, Norwich, VT" No match in OSM, but a different address exists <5m away: "1399 U.S. Route 5 North, , VT" -->
    <tag k="addr:city" v="Norwich"/>
    <tag k="addr:housenumber" v="1399"/>
    <tag k="addr:street" v="United States Route 5 North"/>
    <tag k="addr:state" v="VT"/>
    <tag k="ref:vcgi:esiteid" v="182492"/>
  </node>
  <node id="-521" visible="true" lat="43.754376720116" lon="-72.28308976492">
    <!-- conflict: "913 Union Village Road, Norwich, VT" Fuzzy match to "913 Union Village Road, , VT" -->
    <tag k="addr:city" v="Norwich"/>
    <tag k="addr:housenumber" v="913"/>
    <tag k="addr:street" v="Union Village Road"/>
    <tag k="addr:state" v="VT"/>
    <tag k="ref:vcgi:esiteid" v="182535"/>
  </node>
  <node id="-530" visible="true" lat="43.753404594212" lon="-72.279773446941">
    <!-- conflict: "914 Union Village Road, Norwich, VT" Fuzzy match to "914 Union Village Road, , VT" -->
    <tag k="addr:city" v="Norwich"/>
    <tag k="addr:housenumber" v="914"/>
    <tag k="addr:street" v="Union Village Road"/>
    <tag k="addr:state" v="VT"/>
    <tag k="ref:vcgi:esiteid" v="182544"/>
  </node>
  <node id="-533" visible="true" lat="43.753438302299" lon="-72.366562999178">
    <!-- conflict: "66 Tucker Hill Road, Norwich, VT" Fuzzy match to "66 Tucker Hill Road, , VT" -->
    <tag k="addr:city" v="Norwich"/>
    <tag k="addr:housenumber" v="66"/>
    <tag k="addr:street" v="Tucker Hill Road"/>
    <tag k="addr:state" v="VT"/>
    <tag k="ref:vcgi:esiteid" v="182547"/>
  </node>
  <node id="-543" visible="true" lat="43.75240706627" lon="-72.386336915363">
    <!-- conflict: "49 Tigertown Road, Norwich, VT" Fuzzy match to "49 Tigertown Road, , VT" -->
    <tag k="addr:city" v="Norwich"/>
    <tag k="addr:housenumber" v="49"/>
    <tag k="addr:street" v="Tigertown Road"/>
    <tag k="addr:state" v="VT"/>
    <tag k="ref:vcgi:esiteid" v="182557"/>
  </node>
  <node id="-575" visible="true" lat="43.7493501127" lon="-72.232404488538">
    <!-- conflict: "1222 United States Route 5 North, Norwich, VT" No match in OSM, but a different address exists <5m away: "1222 U.S. Route 5 North, Norwich, VT" -->
    <tag k="addr:city" v="Norwich"/>
    <tag k="addr:housenumber" v="1222"/>
    <tag k="addr:street" v="United States Route 5 North"/>
    <tag k="addr:state" v="VT"/>
    <tag k="ref:vcgi:esiteid" v="182589"/>
  </node>
  <node id="-605" visible="true" lat="43.748090100923" lon="-72.237580411003">
    <!-- conflict: "1141 United States Route 5 North, Norwich, VT" No match in OSM, but a different address exists <5m away: "1141 U.S. Route 5 North, Norwich, VT" -->
    <tag k="addr:city" v="Norwich"/>
    <tag k="addr:housenumber" v="1141"/>
    <tag k="addr:street" v="United States Route 5 North"/>
    <tag k="addr:state" v="VT"/>
    <tag k="ref:vcgi:esiteid" v="182619"/>
  </node>
  <node id="-639" visible="true" lat="43.745988944569" lon="-72.29495665666">
    <!-- conflict: "60 Bradley Hill Road, Norwich, VT" Fuzzy match to "60 Bradley Hill Road, , VT" -->
    <tag k="addr:city" v="Norwich"/>
    <tag k="addr:housenumber" v="60"/>
    <tag k="addr:street" v="Bradley Hill Road"/>
    <tag k="addr:state" v="VT"/>
    <tag k="ref:vcgi:esiteid" v="182654"/>
  </node>
  <node id="-676" visible="true" lat="43.74201950372" lon="-72.319288579102">
    <!-- conflict: "522 Turnpike Road, Norwich, VT" Fuzzy match to "522 Turnpike Road, , VT" -->
    <tag k="addr:city" v="Norwich"/>
    <tag k="addr:housenumber" v="522"/>
    <tag k="addr:street" v="Turnpike Road"/>
    <tag k="addr:state" v="VT"/>
    <tag k="ref:vcgi:esiteid" v="182692"/>
  </node>
  <node id="-683" visible="true" lat="43.740901740357" lon="-72.387789115366">
    <!-- conflict: "192 Sue Spaulding Road, White River Junction, VT" Fuzzy match to "192 Sue Spaulding Road, , VT" -->
    <tag k="addr:city" v="White River Junction"/>
    <tag k="addr:housenumber" v="192"/>
    <tag k="addr:street" v="Sue Spaulding Road"/>
    <tag k="addr:state" v="VT"/>
    <tag k="ref:vcgi:esiteid" v="182700"/>
  </node>
  <node id="-704" visible="true" lat="43.739354438047" lon="-72.321198602582">
    <!-- conflict: "449 Turnpike Road, Norwich, VT" Fuzzy match to "449 Turnpike Road, , VT" -->
    <tag k="addr:city" v="Norwich"/>
    <tag k="addr:housenumber" v="449"/>
    <tag k="addr:street" v="Turnpike Road"/>
    <tag k="addr:state" v="VT"/>
    <tag k="ref:vcgi:esiteid" v="182721"/>
  </node>
  <node id="-723" visible="true" lat="43.737384719354" lon="-72.399186962578">
    <!-- conflict: "497 Tigertown Road, White River Junction, VT" Fuzzy match to "497 Tigertown Road, Norwich, VT" -->
    <tag k="addr:city" v="White River Junction"/>
    <tag k="addr:housenumber" v="497"/>
    <tag k="addr:street" v="Tigertown Road"/>
    <tag k="addr:state" v="VT"/>
    <tag k="ref:vcgi:esiteid" v="182740"/>
  </node>
  <node id="-726" visible="true" lat="43.73741656816" lon="-72.401078390041">
    <!-- conflict: "501 Tigertown Road, White River Junction, VT" Fuzzy match to "501 Tigertown Road, , VT" -->
    <tag k="addr:city" v="White River Junction"/>
    <tag k="addr:housenumber" v="501"/>
    <tag k="addr:street" v="Tigertown Road"/>
    <tag k="addr:state" v="VT"/>
    <tag k="ref:vcgi:esiteid" v="182743"/>
  </node>
  <node id="-731" visible="true" lat="43.737111393785" lon="-72.401627706529">
    <!-- conflict: "513 Tigertown Road, White River Junction, VT" Fuzzy match to "513 Tigertown Road, Norwich, VT" -->
    <tag k="addr:city" v="White River Junction"/>
    <tag k="addr:housenumber" v="513"/>
    <tag k="addr:street" v="Tigertown Road"/>
    <tag k="addr:state" v="VT"/>
    <tag k="ref:vcgi:esiteid" v="182748"/>
  </node>
  <node id="-734" visible="true" lat="43.73663017403" lon="-72.26412067885">
    <!-- conflict: "627 United States Route 5 North, Norwich, VT" No match in OSM, but a different address exists <5m away: "627 U.S. Route 5 North, Norwich, VT" -->
    <tag k="addr:city" v="Norwich"/>
    <tag k="addr:housenumber" v="627"/>
    <tag k="addr:street" v="United States Route 5 North"/>
    <tag k="addr:state" v="VT"/>
    <tag k="ref:vcgi:esiteid" v="182751"/>
  </node>
  <node id="-742" visible="true" lat="43.735755323537" lon="-72.264312475504">
    <!-- conflict: "625 United States Route 5 North, Norwich, VT" No match in OSM, but a different address exists <5m away: "625 U.S. Route 5 North, Norwich, VT" -->
    <tag k="addr:city" v="Norwich"/>
    <tag k="addr:housenumber" v="625"/>
    <tag k="addr:street" v="United States Route 5 North"/>
    <tag k="addr:state" v="VT"/>
    <tag k="ref:vcgi:esiteid" v="182759"/>
  </node>
  <node id="-745" visible="true" lat="43.735959940103" lon="-72.402443764867">
    <!-- conflict: "545 Tigertown Road, White River Junction, VT" Fuzzy match to "545 Tigertown Road, Norwich, VT" -->
    <tag k="addr:city" v="White River Junction"/>
    <tag k="addr:housenumber" v="545"/>
    <tag k="addr:street" v="Tigertown Road"/>
    <tag k="addr:state" v="VT"/>
    <tag k="ref:vcgi:esiteid" v="182763"/>
  </node>
  <node id="-773" visible="true" lat="43.733575172162" lon="-72.272996070869">
    <!-- conflict: "445 United States Route 5 North, Norwich, VT" No match in OSM, but a different address exists <5m away: "445 U.S. Route 5 North, Norwich, VT" -->
    <tag k="addr:city" v="Norwich"/>
    <tag k="addr:housenumber" v="445"/>
    <tag k="addr:street" v="United States Route 5 North"/>
    <tag k="addr:state" v="VT"/>
    <tag k="ref:vcgi:esiteid" v="182792"/>
  </node>
  <node id="-776" visible="true" lat="43.733397030875" lon="-72.273278377913">
    <!-- conflict: "443 United States Route 5 North, Norwich, VT" No match in OSM, but a different address exists <5m away: "443 U.S. Route 5 North, Norwich, VT" -->
    <tag k="addr:city" v="Norwich"/>
    <tag k="addr:housenumber" v="443"/>
    <tag k="addr:street" v="United States Route 5 North"/>
    <tag k="addr:state" v="VT"/>
    <tag k="ref:vcgi:esiteid" v="182795"/>
  </node>
  <node id="-777" visible="true" lat="43.733640669639" lon="-72.400442626763">
    <!-- conflict: "593 Tigertown Road, White River Junction, VT" Fuzzy match to "593 Tigertown Road, Norwich, VT" -->
    <tag k="addr:city" v="White River Junction"/>
    <tag k="addr:housenumber" v="593"/>
    <tag k="addr:street" v="Tigertown Road"/>
    <tag k="addr:state" v="VT"/>
    <tag k="ref:vcgi:esiteid" v="182796"/>
  </node>
  <node id="-781" visible="true" lat="43.732812230649" lon="-72.333535336879">
    <!-- conflict: "648 Beaver Meadow Road, Norwich, VT" Fuzzy match to "648 Beaver Meadow Road, , VT" -->
    <tag k="addr:city" v="Norwich"/>
    <tag k="addr:housenumber" v="648"/>
    <tag k="addr:street" v="Beaver Meadow Road"/>
    <tag k="addr:state" v="VT"/>
    <tag k="ref:vcgi:esiteid" v="182800"/>
  </node>
  <node id="-783" visible="true" lat="43.732194251405" lon="-72.274087075099">
    <!-- conflict: "419 United States Route 5 North, Norwich, VT" No match in OSM, but a different address exists <5m away: "419 U.S. Route 5 North, Norwich, VT" -->
    <tag k="addr:city" v="Norwich"/>
    <tag k="addr:housenumber" v="419"/>
    <tag k="addr:street" v="United States Route 5 North"/>
    <tag k="addr:state" v="VT"/>
    <tag k="ref:vcgi:esiteid" v="182803"/>
  </node>
  <node id="-801" visible="true" lat="43.730130495625" lon="-72.40666310793">
    <!-- conflict: "689 Tigertown Road, White River Junction, VT" Fuzzy match to "689 Tigertown Road, Norwich, VT" -->
    <tag k="addr:city" v="White River Junction"/>
    <tag k="addr:housenumber" v="689"/>
    <tag k="addr:street" v="Tigertown Road"/>
    <tag k="addr:state" v="VT"/>
    <tag k="ref:vcgi:esiteid" v="182821"/>
  </node>
  <node id="-825" visible="true" lat="43.728520253783" lon="-72.309666271168">
    <!-- conflict: "128 Union Village Road, Norwich, VT" Fuzzy match to "128 Union Village Road, , VT" -->
    <tag k="addr:city" v="Norwich"/>
    <tag k="addr:housenumber" v="128"/>
    <tag k="addr:street" v="Union Village Road"/>
    <tag k="addr:state" v="VT"/>
    <tag k="ref:vcgi:esiteid" v="182847"/>
  </node>
  <node id="-826" visible="true" lat="43.728232242105" lon="-72.27655963705">
    <!-- conflict: "319 United States Route 5 North, Norwich, VT" No match in OSM, but a different address exists <5m away: "319 U.S. Route 5 North, Norwich, VT" -->
    <tag k="addr:city" v="Norwich"/>
    <tag k="addr:housenumber" v="319"/>
    <tag k="addr:street" v="United States Route 5 North"/>
    <tag k="addr:state" v="VT"/>
    <tag k="ref:vcgi:esiteid" v="182848"/>
  </node>
  <node id="-828" visible="true" lat="43.728474239541" lon="-72.407062098058">
    <!-- conflict: "745 Tigertown Road, White River Junction, VT" Fuzzy match to "745 Tigertown Road, Norwich, VT" -->
    <tag k="addr:city" v="White River Junction"/>
    <tag k="addr:housenumber" v="745"/>
    <tag k="addr:street" v="Tigertown Road"/>
    <tag k="addr:state" v="VT"/>
    <tag k="ref:vcgi:esiteid" v="182850"/>
  </node>
  <node id="-829" visible="true" lat="43.728284182154" lon="-72.409875084035">
    <!-- conflict: "752 Tigertown Road, White River Junction, VT" Fuzzy match to "752 Tigertown Road, Norwich, VT" -->
    <tag k="addr:city" v="White River Junction"/>
    <tag k="addr:housenumber" v="752"/>
    <tag k="addr:street" v="Tigertown Road"/>
    <tag k="addr:state" v="VT"/>
    <tag k="ref:vcgi:esiteid" v="182851"/>
  </node>
  <node id="-832" visible="true" lat="43.728127735855" lon="-72.276941867513">
    <!-- conflict: "317 United States Route 5 North, Norwich, VT" No match in OSM, but a different address exists <5m away: "317 U.S. Route 5 North, Norwich, VT" -->
    <tag k="addr:city" v="Norwich"/>
    <tag k="addr:housenumber" v="317"/>
    <tag k="addr:street" v="United States Route 5 North"/>
    <tag k="addr:state" v="VT"/>
    <tag k="ref:vcgi:esiteid" v="182854"/>
  </node>
  <node id="-849" visible="true" lat="43.732423123783" lon="-72.390151242738">
    <!-- conflict: "1696 Podunk Road, White River Junction, VT" Fuzzy match to "1696 Podunk Road, , VT" -->
    <tag k="addr:city" v="White River Junction"/>
    <tag k="addr:housenumber" v="1696"/>
    <tag k="addr:street" v="Podunk Road"/>
    <tag k="addr:state" v="VT"/>
    <tag k="ref:vcgi:esiteid" v="182872"/>
  </node>
  <node id="-851" visible="true" lat="43.727078738163" lon="-72.410058189477">
    <!-- conflict: "782 Tigertown Road, White River Junction, VT" Fuzzy match to "782 Tigertown Road, Norwich, VT" -->
    <tag k="addr:city" v="White River Junction"/>
    <tag k="addr:housenumber" v="782"/>
    <tag k="addr:street" v="Tigertown Road"/>
    <tag k="addr:state" v="VT"/>
    <tag k="ref:vcgi:esiteid" v="182874"/>
  </node>
  <node id="-869" visible="true" lat="43.725544606725" lon="-72.319784353161">
    <!-- conflict: "313 Beaver Meadow Road, Norwich, VT" Fuzzy match to "313 Beaver Meadow Road, , VT" -->
    <tag k="addr:city" v="Norwich"/>
    <tag k="addr:housenumber" v="313"/>
    <tag k="addr:street" v="Beaver Meadow Road"/>
    <tag k="addr:state" v="VT"/>
    <tag k="ref:vcgi:esiteid" v="182894"/>
  </node>
  <node id="-873" visible="true" lat="43.725823701231" lon="-72.398430987517">
    <!-- conflict: "1260 Podunk Road, White River Junction, VT" Fuzzy match to "1260 Podunk Road, Norwich, VT" -->
    <tag k="addr:city" v="White River Junction"/>
    <tag k="addr:housenumber" v="1260"/>
    <tag k="addr:street" v="Podunk Road"/>
    <tag k="addr:state" v="VT"/>
    <tag k="ref:vcgi:esiteid" v="182898"/>
  </node>
  <node id="-875" visible="true" lat="43.725646665734" lon="-72.314333009751">
    <!-- conflict: "102 Turnpike Road, Norwich, VT" Fuzzy match to "102 Turnpike Road, , VT" -->
    <tag k="addr:city" v="Norwich"/>
    <tag k="addr:housenumber" v="102"/>
    <tag k="addr:street" v="Turnpike Road"/>
    <tag k="addr:state" v="VT"/>
    <tag k="ref:vcgi:esiteid" v="182900"/>
  </node>
  <node id="-886" visible="true" lat="43.725407903701" lon="-72.32332720238">
    <!-- conflict: "386 Beaver Meadow Road, Norwich, VT" Fuzzy match to "386 Beaver Meadow Road, , VT" -->
    <tag k="addr:city" v="Norwich"/>
    <tag k="addr:housenumber" v="386"/>
    <tag k="addr:street" v="Beaver Meadow Road"/>
    <tag k="addr:state" v="VT"/>
    <tag k="ref:vcgi:esiteid" v="182912"/>
  </node>
  <node id="-887" visible="true" lat="43.725400273861" lon="-72.322877068927">
    <!-- conflict: "394 Beaver Meadow Road, Norwich, VT" Fuzzy match to "394 Beaver Meadow Road, , VT" -->
    <tag k="addr:city" v="Norwich"/>
    <tag k="addr:housenumber" v="394"/>
    <tag k="addr:street" v="Beaver Meadow Road"/>
    <tag k="addr:state" v="VT"/>
    <tag k="ref:vcgi:esiteid" v="182913"/>
  </node>
  <node id="-893" visible="true" lat="43.727028352357" lon="-72.392497907109">
    <!-- conflict: "1476 Podunk Road, White River Junction, VT" Fuzzy match to "1476 Podunk Road, , VT" -->
    <tag k="addr:city" v="White River Junction"/>
    <tag k="addr:housenumber" v="1476"/>
    <tag k="addr:street" v="Podunk Road"/>
    <tag k="addr:state" v="VT"/>
    <tag k="ref:vcgi:esiteid" v="182922"/>
  </node>
  <node id="-905" visible="true" lat="43.724681950576" lon="-72.312521201465">
    <!-- conflict: "66 Turnpike Road, Norwich, VT" Fuzzy match to "66 Turnpike Road, , VT" -->
    <tag k="addr:city" v="Norwich"/>
    <tag k="addr:housenumber" v="66"/>
    <tag k="addr:street" v="Turnpike Road"/>
    <tag k="addr:state" v="VT"/>
    <tag k="ref:vcgi:esiteid" v="182935"/>
  </node>
  <node id="-938" visible="true" lat="43.723591966015" lon="-72.305329088628">
    <!-- conflict: "66 Willey Hill Road, Norwich, VT" Fuzzy match to "66 Willey Hill Road, , VT" -->
    <tag k="addr:city" v="Norwich"/>
    <tag k="addr:housenumber" v="66"/>
    <tag k="addr:street" v="Willey Hill Road"/>
    <tag k="addr:state" v="VT"/>
    <tag k="ref:vcgi:esiteid" v="182971"/>
  </node>
  <node id="-944" visible="true" lat="43.723387584251" lon="-72.283194422679">
    <!-- conflict: "173 United States Route 5 North, Norwich, VT" No match in OSM, but a different address exists <5m away: "173 U.S. Route 5 North, Norwich, VT" -->
    <tag k="addr:city" v="Norwich"/>
    <tag k="addr:housenumber" v="173"/>
    <tag k="addr:street" v="United States Route 5 North"/>
    <tag k="addr:state" v="VT"/>
    <tag k="ref:vcgi:esiteid" v="182977"/>
  </node>
  <node id="-948" visible="true" lat="43.72345463325" lon="-72.395446246924">
    <!-- conflict: "1355 Podunk Road, White River Junction, VT" Fuzzy match to "1355 Podunk Road, Norwich, VT" -->
    <tag k="addr:city" v="White River Junction"/>
    <tag k="addr:housenumber" v="1355"/>
    <tag k="addr:street" v="Podunk Road"/>
    <tag k="addr:state" v="VT"/>
    <tag k="ref:vcgi:esiteid" v="182982"/>
  </node>
  <node id="-949" visible="true" lat="43.723143557831" lon="-72.283497670621">
    <!-- conflict: "171 United States Route 5 North, Norwich, VT" No match in OSM, but a different address exists <5m away: "171 U.S. Route 5 North, Norwich, VT" -->
    <tag k="addr:city" v="Norwich"/>
    <tag k="addr:housenumber" v="171"/>
    <tag k="addr:street" v="United States Route 5 North"/>
    <tag k="addr:state" v="VT"/>
    <tag k="ref:vcgi:esiteid" v="182984"/>
  </node>
  <node id="-957" visible="true" lat="43.723026184233" lon="-72.396600867827">
    <!-- conflict: "1299 Podunk Road, White River Junction, VT" Fuzzy match to "1299 Podunk Road, Norwich, VT" -->
    <tag k="addr:city" v="White River Junction"/>
    <tag k="addr:housenumber" v="1299"/>
    <tag k="addr:street" v="Podunk Road"/>
    <tag k="addr:state" v="VT"/>
    <tag k="ref:vcgi:esiteid" v="182994"/>
  </node>
  <node id="-983" visible="true" lat="43.721753418849" lon="-72.379853405809">
    <!-- conflict: "915 Wallace Road, White River Junction, VT" Fuzzy match to "915 Wallace Road, Norwich, VT" -->
    <tag k="addr:city" v="White River Junction"/>
    <tag k="addr:housenumber" v="915"/>
    <tag k="addr:street" v="Wallace Road"/>
    <tag k="addr:state" v="VT"/>
    <tag k="ref:vcgi:esiteid" v="183020"/>
  </node>
  <node id="-995" visible="true" lat="43.721432984365" lon="-72.398186846444">
    <!-- conflict: "1165 Podunk Road, White River Junction, VT" Fuzzy match to "1165 Podunk Road, Norwich, VT" -->
    <tag k="addr:city" v="White River Junction"/>
    <tag k="addr:housenumber" v="1165"/>
    <tag k="addr:street" v="Podunk Road"/>
    <tag k="addr:state" v="VT"/>
    <tag k="ref:vcgi:esiteid" v="183033"/>
  </node>
  <node id="-1068" visible="true" lat="43.718956530591" lon="-72.298913453165">
    <!-- conflict: "65 Four Wheel Drive, Norwich, VT" Fuzzy match to "65 Four Wheel Drive, , VT" -->
    <tag k="addr:city" v="Norwich"/>
    <tag k="addr:housenumber" v="65"/>
    <tag k="addr:street" v="Four Wheel Drive"/>
    <tag k="addr:state" v="VT"/>
    <tag k="ref:vcgi:esiteid" v="183110"/>
  </node>
  <node id="-1079" visible="true" lat="43.718545260726" lon="-72.308320179168">
    <!-- conflict: "49 Hazen Street, Norwich, VT" Fuzzy match to "49 Hazen Street, , VT" -->
    <tag k="addr:city" v="Norwich"/>
    <tag k="addr:housenumber" v="49"/>
    <tag k="addr:street" v="Hazen Street"/>
    <tag k="addr:state" v="VT"/>
    <tag k="ref:vcgi:esiteid" v="183125"/>
  </node>
  <node id="-1081" visible="true" lat="43.718526042957" lon="-72.286817110976">
    <!-- conflict: "48 United States Route 5 North, Norwich, VT" No match in OSM, but a different address exists <5m away: "48 U.S. Route 5 North, Norwich, VT" -->
    <tag k="addr:city" v="Norwich"/>
    <tag k="addr:housenumber" v="48"/>
    <tag k="addr:street" v="United States Route 5 North"/>
    <tag k="addr:state" v="VT"/>
    <tag k="ref:vcgi:esiteid" v="183128"/>
  </node>
  <node id="-1148" visible="true" lat="43.716712037695" lon="-72.289737441886">
    <!-- conflict: "349 River Road, Norwich, VT" Fuzzy match to "349 River Road, , VT" -->
    <tag k="addr:city" v="Norwich"/>
    <tag k="addr:housenumber" v="349"/>
    <tag k="addr:street" v="River Road"/>
    <tag k="addr:state" v="VT"/>
    <tag k="ref:vcgi:esiteid" v="183201"/>
  </node>
  <node id="-1172" visible="true" lat="43.716066526099" lon="-72.368914522787">
    <!-- conflict: "597 Sugartop Road, White River Junction, VT" Fuzzy match to "597 Sugartop Road, Norwich, VT" -->
    <tag k="addr:city" v="White River Junction"/>
    <tag k="addr:housenumber" v="597"/>
    <tag k="addr:street" v="Sugartop Road"/>
    <tag k="addr:state" v="VT"/>
    <tag k="ref:vcgi:esiteid" v="183226"/>
  </node>
  <node id="-1176" visible="true" lat="43.715913117999" lon="-72.378052867109">
    <!-- conflict: "153 Delta Drive, White River Junction, VT" Fuzzy match to "153 Delta Drive, Norwich, VT" -->
    <tag k="addr:city" v="White River Junction"/>
    <tag k="addr:housenumber" v="153"/>
    <tag k="addr:street" v="Delta Drive"/>
    <tag k="addr:state" v="VT"/>
    <tag k="ref:vcgi:esiteid" v="183230"/>
  </node>
  <node id="-1179" visible="true" lat="43.715641869627" lon="-72.30782505587">
    <!-- conflict: "16 Firehouse Lane, Norwich, VT" Fuzzy match to "16 Firehouse Lane, , VT" -->
    <tag k="addr:city" v="Norwich"/>
    <tag k="addr:housenumber" v="16"/>
    <tag k="addr:street" v="Firehouse Lane"/>
    <tag k="addr:state" v="VT"/>
    <tag k="ref:vcgi:esiteid" v="183233"/>
  </node>
  <node id="-1196" visible="true" lat="43.715473535437" lon="-72.313297879124">
    <!-- conflict: "28 Hopson Road, Norwich, VT" Fuzzy match to "28 Hopson Road, , VT" -->
    <tag k="addr:city" v="Norwich"/>
    <tag k="addr:housenumber" v="28"/>
    <tag k="addr:street" v="Hopson Road"/>
    <tag k="addr:state" v="VT"/>
    <tag k="ref:vcgi:esiteid" v="183254"/>
  </node>
  <node id="-1216" visible="true" lat="43.715253173781" lon="-72.37730518602">
    <!-- conflict: "115 Delta Drive, White River Junction, VT" Fuzzy match to "115 Delta Drive, Norwich, VT" -->
    <tag k="addr:city" v="White River Junction"/>
    <tag k="addr:housenumber" v="115"/>
    <tag k="addr:street" v="Delta Drive"/>
    <tag k="addr:state" v="VT"/>
    <tag k="ref:vcgi:esiteid" v="183277"/>
  </node>
  <node id="-1226" visible="true" lat="43.714889738617" lon="-72.290864289046">
    <!-- conflict: "303 River Road, Norwich, VT" Fuzzy match to "303 River Road, , VT" -->
    <tag k="addr:city" v="Norwich"/>
    <tag k="addr:housenumber" v="303"/>
    <tag k="addr:street" v="River Road"/>
    <tag k="addr:state" v="VT"/>
    <tag k="ref:vcgi:esiteid" v="183288"/>
  </node>
  <node id="-1240" visible="true" lat="43.714573989238" lon="-72.291296096445">
    <!-- conflict: "295 River Road, Norwich, VT" Fuzzy match to "295 River Road, , VT" -->
    <tag k="addr:city" v="Norwich"/>
    <tag k="addr:housenumber" v="295"/>
    <tag k="addr:street" v="River Road"/>
    <tag k="addr:state" v="VT"/>
    <tag k="ref:vcgi:esiteid" v="183303"/>
  </node>
  <node id="-1249" visible="true" lat="43.714257022969" lon="-72.370955385085">
    <!-- conflict: "592 Sugartop Road, White River Junction, VT" Fuzzy match to "592 Sugartop Road, Norwich, VT" -->
    <tag k="addr:city" v="White River Junction"/>
    <tag k="addr:housenumber" v="592"/>
    <tag k="addr:street" v="Sugartop Road"/>
    <tag k="addr:state" v="VT"/>
    <tag k="ref:vcgi:esiteid" v="183313"/>
  </node>
  <node id="-1252" visible="true" lat="43.714082066075" lon="-72.292786725812">
    <!-- conflict: "271 River Road, Norwich, VT" Fuzzy match to "271 River Road, , VT" -->
    <tag k="addr:city" v="Norwich"/>
    <tag k="addr:housenumber" v="271"/>
    <tag k="addr:street" v="River Road"/>
    <tag k="addr:state" v="VT"/>
    <tag k="ref:vcgi:esiteid" v="183318"/>
  </node>
  <node id="-1273" visible="true" lat="43.713822512627" lon="-72.308580325286">
    <!-- conflict: "295 Main Street, Norwich, VT" Fuzzy match to "295 Main Street, , VT" -->
    <tag k="addr:city" v="Norwich"/>
    <tag k="addr:housenumber" v="295"/>
    <tag k="addr:street" v="Main Street"/>
    <tag k="addr:state" v="VT"/>
    <tag k="ref:vcgi:esiteid" v="183341"/>
  </node>
  <node id="-1286" visible="true" lat="43.713154176597" lon="-72.371899741912">
    <!-- conflict: "546 Sugartop Road, White River Junction, VT" Fuzzy match to "546 Sugartop Road, Norwich, VT" -->
    <tag k="addr:city" v="White River Junction"/>
    <tag k="addr:housenumber" v="546"/>
    <tag k="addr:street" v="Sugartop Road"/>
    <tag k="addr:state" v="VT"/>
    <tag k="ref:vcgi:esiteid" v="183355"/>
  </node>
  <node id="-1290" visible="true" lat="43.71273939755" lon="-72.360920063445">
    <!-- conflict: "436 Joshua Road, White River Junction, VT" Fuzzy match to "436 Joshua Road, Norwich, VT" -->
    <tag k="addr:city" v="White River Junction"/>
    <tag k="addr:housenumber" v="436"/>
    <tag k="addr:street" v="Joshua Road"/>
    <tag k="addr:state" v="VT"/>
    <tag k="ref:vcgi:esiteid" v="183359"/>
  </node>
  <node id="-1314" visible="true" lat="43.712067692577" lon="-72.370187127332">
    <!-- conflict: "487 Sugartop Road, White River Junction, VT" Fuzzy match to "487 Sugartop Road, Norwich, VT" -->
    <tag k="addr:city" v="White River Junction"/>
    <tag k="addr:housenumber" v="487"/>
    <tag k="addr:street" v="Sugartop Road"/>
    <tag k="addr:state" v="VT"/>
    <tag k="ref:vcgi:esiteid" v="183385"/>
  </node>
  <node id="-1321" visible="true" lat="43.711646137366" lon="-72.366104665951">
    <!-- conflict: "179 Sugartop Road, White River Junction, VT" Fuzzy match to "179 Sugartop Road, Norwich, VT" -->
    <tag k="addr:city" v="White River Junction"/>
    <tag k="addr:housenumber" v="179"/>
    <tag k="addr:street" v="Sugartop Road"/>
    <tag k="addr:state" v="VT"/>
    <tag k="ref:vcgi:esiteid" v="183393"/>
  </node>
  <node id="-1333" visible="true" lat="43.710681082312" lon="-72.314137443163">
    <!-- conflict: "96 Elm Street, Norwich, VT" Fuzzy match to "96 Elm Street, , VT" -->
    <tag k="addr:city" v="Norwich"/>
    <tag k="addr:housenumber" v="96"/>
    <tag k="addr:street" v="Elm Street"/>
    <tag k="addr:state" v="VT"/>
    <tag k="ref:vcgi:esiteid" v="183405"/>
  </node>
  <node id="-1336" visible="true" lat="43.710095610135" lon="-72.362054660802">
    <!-- conflict: "208 Joshua Road, White River Junction, VT" Fuzzy match to "208 Joshua Road, Norwich, VT" -->
    <tag k="addr:city" v="White River Junction"/>
    <tag k="addr:housenumber" v="208"/>
    <tag k="addr:street" v="Joshua Road"/>
    <tag k="addr:state" v="VT"/>
    <tag k="ref:vcgi:esiteid" v="183409"/>
  </node>
  <node id="-1337" visible="true" lat="43.710159377227" lon="-72.360373279799">
    <!-- conflict: "265 Joshua Road, White River Junction, VT" Fuzzy match to "265 Joshua Road, Norwich, VT" -->
    <tag k="addr:city" v="White River Junction"/>
    <tag k="addr:housenumber" v="265"/>
    <tag k="addr:street" v="Joshua Road"/>
    <tag k="addr:state" v="VT"/>
    <tag k="ref:vcgi:esiteid" v="183410"/>
  </node>
  <node id="-1340" visible="true" lat="43.709906131997" lon="-72.313732052221">
    <!-- conflict: "95 Elm Street, Norwich, VT" Fuzzy match to "95 Elm Street, , VT" -->
    <tag k="addr:city" v="Norwich"/>
    <tag k="addr:housenumber" v="95"/>
    <tag k="addr:street" v="Elm Street"/>
    <tag k="addr:state" v="VT"/>
    <tag k="ref:vcgi:esiteid" v="183413"/>
  </node>
  <node id="-1350" visible="true" lat="43.709331853461" lon="-72.362362633077">
    <!-- conflict: "170 Joshua Road, White River Junction, VT" Fuzzy match to "170 Joshua Road, Norwich, VT" -->
    <tag k="addr:city" v="White River Junction"/>
    <tag k="addr:housenumber" v="170"/>
    <tag k="addr:street" v="Joshua Road"/>
    <tag k="addr:state" v="VT"/>
    <tag k="ref:vcgi:esiteid" v="183424"/>
  </node>
  <node id="-1371" visible="true" lat="43.70757418918" lon="-72.34592547691">
    <!-- conflict: "730 Newton Lane, White River Junction, VT" Fuzzy match to "730 Newton Lane, Norwich, VT" -->
    <tag k="addr:city" v="White River Junction"/>
    <tag k="addr:housenumber" v="730"/>
    <tag k="addr:street" v="Newton Lane"/>
    <tag k="addr:state" v="VT"/>
    <tag k="ref:vcgi:esiteid" v="183447"/>
  </node>
  <node id="-1381" visible="true" lat="43.706639587759" lon="-72.345765257639">
    <!-- conflict: "690 Newton Lane, White River Junction, VT" Fuzzy match to "690 Newton Lane, Norwich, VT" -->
    <tag k="addr:city" v="White River Junction"/>
    <tag k="addr:housenumber" v="690"/>
    <tag k="addr:street" v="Newton Lane"/>
    <tag k="addr:state" v="VT"/>
    <tag k="ref:vcgi:esiteid" v="183457"/>
  </node>
  <node id="-1383" visible="true" lat="43.706122368067" lon="-72.302985509461">
    <!-- conflict: "44 McKenna Road, Norwich, VT" Fuzzy match to "44 McKenna Road, , VT" -->
    <tag k="addr:city" v="Norwich"/>
    <tag k="addr:housenumber" v="44"/>
    <tag k="addr:street" v="McKenna Road"/>
    <tag k="addr:state" v="VT"/>
    <tag k="ref:vcgi:esiteid" v="183460"/>
  </node>
  <node id="-1387" visible="true" lat="43.706043970004" lon="-72.34604203516">
    <!-- conflict: "640 Newton Lane, White River Junction, VT" Fuzzy match to "640 Newton Lane, Norwich, VT" -->
    <tag k="addr:city" v="White River Junction"/>
    <tag k="addr:housenumber" v="640"/>
    <tag k="addr:street" v="Newton Lane"/>
    <tag k="addr:state" v="VT"/>
    <tag k="ref:vcgi:esiteid" v="183464"/>
  </node>
  <node id="-1390" visible="true" lat="43.705536008407" lon="-72.300876856069">
    <!-- conflict: "31 River Road, Norwich, VT" Fuzzy match to "31 River Road, , VT" -->
    <tag k="addr:city" v="Norwich"/>
    <tag k="addr:housenumber" v="31"/>
    <tag k="addr:street" v="River Road"/>
    <tag k="addr:state" v="VT"/>
    <tag k="ref:vcgi:esiteid" v="183467"/>
  </node>
  <node id="-1391" visible="true" lat="43.70533404263" lon="-72.300944502912">
    <!-- conflict: "21 River Road, Norwich, VT" Fuzzy match to "21 River Road, , VT" -->
    <tag k="addr:city" v="Norwich"/>
    <tag k="addr:housenumber" v="21"/>
    <tag k="addr:street" v="River Road"/>
    <tag k="addr:state" v="VT"/>
    <tag k="ref:vcgi:esiteid" v="183468"/>
  </node>
  <node id="-1394" visible="true" lat="43.705306298574" lon="-72.30875058479">
    <!-- conflict: "63 United States Route 5 South, Norwich, VT" No match in OSM, but a different address exists <5m away: "63 U.S. Route 5 South, Norwich, VT" -->
    <tag k="addr:city" v="Norwich"/>
    <tag k="addr:housenumber" v="63"/>
    <tag k="addr:street" v="United States Route 5 South"/>
    <tag k="addr:state" v="VT"/>
    <tag k="ref:vcgi:esiteid" v="183471"/>
  </node>
  <node id="-1395" visible="true" lat="43.705145175614" lon="-72.30149985365">
    <!-- conflict: "12 Ledyard Lane, Norwich, VT" Fuzzy match to "12 Ledyard Lane, , VT" -->
    <tag k="addr:city" v="Norwich"/>
    <tag k="addr:housenumber" v="12"/>
    <tag k="addr:street" v="Ledyard Lane"/>
    <tag k="addr:state" v="VT"/>
    <tag k="ref:vcgi:esiteid" v="183472"/>
  </node>
  <node id="-1396" visible="true" lat="43.704999268343" lon="-72.310441150008">
    <!-- conflict: "80 United States Route 5 South, Norwich, VT" No match in OSM, but a different address exists <5m away: "80 U.S. Route 5 South, , VT" -->
    <tag k="addr:city" v="Norwich"/>
    <tag k="addr:housenumber" v="80"/>
    <tag k="addr:street" v="United States Route 5 South"/>
    <tag k="addr:state" v="VT"/>
    <tag k="ref:vcgi:esiteid" v="183473"/>
  </node>
  <node id="-1398" visible="true" lat="43.704907717605" lon="-72.300881515133">
    <!-- conflict: "15 River Road, Norwich, VT" Fuzzy match to "15 River Road, , VT" -->
    <tag k="addr:city" v="Norwich"/>
    <tag k="addr:housenumber" v="15"/>
    <tag k="addr:street" v="River Road"/>
    <tag k="addr:state" v="VT"/>
    <tag k="ref:vcgi:esiteid" v="183475"/>
  </node>
  <node id="-1399" visible="true" lat="43.70474368467" lon="-72.301682601503">
    <!-- conflict: "18 Ledyard Lane, Norwich, VT" Fuzzy match to "18 Ledyard Lane, , VT" -->
    <tag k="addr:city" v="Norwich"/>
    <tag k="addr:housenumber" v="18"/>
    <tag k="addr:street" v="Ledyard Lane"/>
    <tag k="addr:state" v="VT"/>
    <tag k="ref:vcgi:esiteid" v="183476"/>
  </node>
  <node id="-1408" visible="true" lat="43.704501753747" lon="-72.301310797559">
    <!-- conflict: "11 Ledyard Lane, Norwich, VT" Fuzzy match to "11 Ledyard Lane, , VT" -->
    <tag k="addr:city" v="Norwich"/>
    <tag k="addr:housenumber" v="11"/>
    <tag k="addr:street" v="Ledyard Lane"/>
    <tag k="addr:state" v="VT"/>
    <tag k="ref:vcgi:esiteid" v="183486"/>
  </node>
  <node id="-1416" visible="true" lat="43.703669407052" lon="-72.31271687922">
    <!-- conflict: "132 United States Route 5 South, Norwich, VT" No match in OSM, but a different address exists <5m away: "132 U.S. Route 5 South, , VT" -->
    <tag k="addr:city" v="Norwich"/>
    <tag k="addr:housenumber" v="132"/>
    <tag k="addr:street" v="United States Route 5 South"/>
    <tag k="addr:state" v="VT"/>
    <tag k="ref:vcgi:esiteid" v="183494"/>
  </node>
  <node id="-1420" visible="true" lat="43.703199763316" lon="-72.312180434408">
    <!-- conflict: "133 United States Route 5 South, Norwich, VT" No match in OSM, but a different address exists <5m away: "133 U.S. Route 5 South, , VT" -->
    <tag k="addr:city" v="Norwich"/>
    <tag k="addr:housenumber" v="133"/>
    <tag k="addr:street" v="United States Route 5 South"/>
    <tag k="addr:state" v="VT"/>
    <tag k="ref:vcgi:esiteid" v="183498"/>
  </node>
  <node id="-1422" visible="true" lat="43.702817072002" lon="-72.312861165705">
    <!-- conflict: "147 United States Route 5 South, Norwich, VT" No match in OSM, but a different address exists <5m away: "147 U.S. Route 5 South, , VT" -->
    <tag k="addr:city" v="Norwich"/>
    <tag k="addr:housenumber" v="147"/>
    <tag k="addr:street" v="United States Route 5 South"/>
    <tag k="addr:state" v="VT"/>
    <tag k="ref:vcgi:esiteid" v="183500"/>
  </node>
  <node id="-1425" visible="true" lat="43.702436812249" lon="-72.313317487407">
    <!-- conflict: "155 United States Route 5 South, Norwich, VT" No match in OSM, but a different address exists <5m away: "155 U.S. Route 5 South, Norwich, VT" -->
    <tag k="addr:city" v="Norwich"/>
    <tag k="addr:housenumber" v="155"/>
    <tag k="addr:street" v="United States Route 5 South"/>
    <tag k="addr:state" v="VT"/>
    <tag k="ref:vcgi:esiteid" v="183503"/>
  </node>
  <node id="-1434" visible="true" lat="43.700687088615" lon="-72.314534520888">
    <!-- conflict: "221 United States Route 5 South, Norwich, VT" No match in OSM, but a different address exists <5m away: "221 U.S. Route 5 South, , VT" -->
    <tag k="addr:city" v="Norwich"/>
    <tag k="addr:housenumber" v="221"/>
    <tag k="addr:street" v="United States Route 5 South"/>
    <tag k="addr:state" v="VT"/>
    <tag k="ref:vcgi:esiteid" v="183512"/>
  </node>
  <node id="-1436" visible="true" lat="43.699357330162" lon="-72.31717790715">
    <!-- conflict: "256 United States Route 5 South, Norwich, VT" No match in OSM, but a different address exists <5m away: "256 U.S. Route 5 South, , VT" -->
    <tag k="addr:city" v="Norwich"/>
    <tag k="addr:housenumber" v="256"/>
    <tag k="addr:street" v="United States Route 5 South"/>
    <tag k="addr:state" v="VT"/>
    <tag k="ref:vcgi:esiteid" v="183514"/>
  </node>
  <node id="-1437" visible="true" lat="43.699326812369" lon="-72.317414419049">
    <!-- conflict: "258 United States Route 5 South, Norwich, VT" No match in OSM, but a different address exists <5m away: "258 U.S. Route 5 South, , VT" -->
    <tag k="addr:city" v="Norwich"/>
    <tag k="addr:housenumber" v="258"/>
    <tag k="addr:street" v="United States Route 5 South"/>
    <tag k="addr:state" v="VT"/>
    <tag k="ref:vcgi:esiteid" v="183515"/>
  </node>
  <node id="-1440" visible="true" lat="43.697359006782" lon="-72.318912658575">
    <!-- conflict: "304 United States Route 5 South, Norwich, VT" No match in OSM, but a different address exists <5m away: "304 U.S. Route 5 South, Norwich, VT" -->
    <tag k="addr:city" v="Norwich"/>
    <tag k="addr:housenumber" v="304"/>
    <tag k="addr:street" v="United States Route 5 South"/>
    <tag k="addr:state" v="VT"/>
    <tag k="ref:vcgi:esiteid" v="183518"/>
  </node>
  <node id="-1441" visible="true" lat="43.697072204779" lon="-72.318818470505">
    <!-- conflict: "318 United States Route 5 South, Norwich, VT" No match in OSM, but a different address exists <5m away: "318 U.S. Route 5 South, Norwich, VT" -->
    <tag k="addr:city" v="Norwich"/>
    <tag k="addr:housenumber" v="318"/>
    <tag k="addr:street" v="United States Route 5 South"/>
    <tag k="addr:state" v="VT"/>
    <tag k="ref:vcgi:esiteid" v="183519"/>
  </node>
  <node id="-1443" visible="true" lat="43.696715108278" lon="-72.319115904418">
    <!-- conflict: "320 United States Route 5 South, Norwich, VT" No match in OSM, but a different address exists <5m away: "320 U.S. Route 5 South, Norwich, VT" -->
    <tag k="addr:city" v="Norwich"/>
    <tag k="addr:housenumber" v="320"/>
    <tag k="addr:street" v="United States Route 5 South"/>
    <tag k="addr:state" v="VT"/>
    <tag k="ref:vcgi:esiteid" v="183521"/>
  </node>
  <node id="-1444" visible="true" lat="43.696506587293" lon="-72.318301667547">
    <!-- conflict: "319 United States Route 5 South, Norwich, VT" No match in OSM, but a different address exists <5m away: "319 U.S. Route 5 South, Norwich, VT" -->
    <tag k="addr:city" v="Norwich"/>
    <tag k="addr:housenumber" v="319"/>
    <tag k="addr:street" v="United States Route 5 South"/>
    <tag k="addr:state" v="VT"/>
    <tag k="ref:vcgi:esiteid" v="183522"/>
  </node>
  <node id="-1445" visible="true" lat="43.696328246754" lon="-72.318428246725">
    <!-- conflict: "321 United States Route 5 South, Norwich, VT" No match in OSM, but a different address exists <5m away: "321 U.S. Route 5 South, Norwich, VT" -->
    <tag k="addr:city" v="Norwich"/>
    <tag k="addr:housenumber" v="321"/>
    <tag k="addr:street" v="United States Route 5 South"/>
    <tag k="addr:state" v="VT"/>
    <tag k="ref:vcgi:esiteid" v="183523"/>
  </node>
  <node id="-1446" visible="true" lat="43.695876486495" lon="-72.316404005023">
    <!-- conflict: "317 United States Route 5 South, Norwich, VT" No match in OSM, but a different address exists <5m away: "317 U.S. Route 5 South, , VT" -->
    <tag k="addr:city" v="Norwich"/>
    <tag k="addr:housenumber" v="317"/>
    <tag k="addr:street" v="United States Route 5 South"/>
    <tag k="addr:state" v="VT"/>
    <tag k="ref:vcgi:esiteid" v="183524"/>
  </node>
  <node id="-1448" visible="true" lat="43.716593785592" lon="-72.290047230206">
    <!-- conflict: "347 River Road, Norwich, VT" Fuzzy match to "347 River Road, , VT" -->
    <tag k="addr:city" v="Norwich"/>
    <tag k="addr:housenumber" v="347"/>
    <tag k="addr:street" v="River Road"/>
    <tag k="addr:state" v="VT"/>
    <tag k="ref:vcgi:esiteid" v="183526"/>
  </node>
  <node id="-1456" visible="true" lat="43.708813694581" lon="-72.346401277355">
    <!-- conflict: "850 Newton Lane, White River Junction, VT" Fuzzy match to "850 Newton Lane, Norwich, VT" -->
    <tag k="addr:city" v="White River Junction"/>
    <tag k="addr:housenumber" v="850"/>
    <tag k="addr:street" v="Newton Lane"/>
    <tag k="addr:state" v="VT"/>
    <tag k="ref:vcgi:esiteid" v="183534"/>
  </node>
  <node id="-1457" visible="true" lat="43.704159905974" lon="-72.345600580704">
    <!-- conflict: "554 Newton Lane, White River Junction, VT" Fuzzy match to "554 Newton Lane, Norwich, VT" -->
    <tag k="addr:city" v="White River Junction"/>
    <tag k="addr:housenumber" v="554"/>
    <tag k="addr:street" v="Newton Lane"/>
    <tag k="addr:state" v="VT"/>
    <tag k="ref:vcgi:esiteid" v="183535"/>
  </node>
  <node id="-1458" visible="true" lat="43.702775541524" lon="-72.340415864663">
    <!-- conflict: "221 Newton Lane, White River Junction, VT" Fuzzy match to "221 Newton Lane, Norwich, VT" -->
    <tag k="addr:city" v="White River Junction"/>
    <tag k="addr:housenumber" v="221"/>
    <tag k="addr:street" v="Newton Lane"/>
    <tag k="addr:state" v="VT"/>
    <tag k="ref:vcgi:esiteid" v="183536"/>
  </node>
  <node id="-1476" visible="true" lat="43.773920256681" lon="-72.299765905252">
    <!-- conflict: "1004 New Boston Road, Norwich, VT" Fuzzy match to "1004 New Boston Road, , VT" -->
    <tag k="addr:city" v="Norwich"/>
    <tag k="addr:housenumber" v="1004"/>
    <tag k="addr:street" v="New Boston Road"/>
    <tag k="addr:state" v="VT"/>
    <tag k="ref:vcgi:esiteid" v="333920"/>
  </node>
  <node id="-1493" visible="true" lat="43.765922041416" lon="-72.218135035785">
    <!-- conflict: "218 Kendall Station Road, Norwich, VT" Fuzzy match to "218 Kendall Station Road, , VT" -->
    <tag k="addr:city" v="Norwich"/>
    <tag k="addr:housenumber" v="218"/>
    <tag k="addr:street" v="Kendall Station Road"/>
    <tag k="addr:state" v="VT"/>
    <tag k="ref:vcgi:esiteid" v="334703"/>
  </node>
  <node id="-1496" visible="true" lat="43.767219832446" lon="-72.218051685396">
    <!-- conflict: "1703 United States Route 5 North, Norwich, VT" No match in OSM, but a different address exists <5m away: "1703 U.S. Route 5 North, Norwich, VT" -->
    <tag k="addr:city" v="Norwich"/>
    <tag k="addr:housenumber" v="1703"/>
    <tag k="addr:street" v="United States Route 5 North"/>
    <tag k="addr:state" v="VT"/>
    <tag k="ref:vcgi:esiteid" v="334707"/>
  </node>
  <node id="-1497" visible="true" lat="43.767295398944" lon="-72.21742016278">
    <!-- conflict: "1705 United States Route 5 North, Norwich, VT" No match in OSM, but a different address exists <5m away: "1705 U.S. Route 5 North, Norwich, VT" -->
    <tag k="addr:city" v="Norwich"/>
    <tag k="addr:housenumber" v="1705"/>
    <tag k="addr:street" v="United States Route 5 North"/>
    <tag k="addr:state" v="VT"/>
    <tag k="ref:vcgi:esiteid" v="334709"/>
  </node>
  <node id="-1508" visible="true" lat="43.756263820186" lon="-72.314992750464">
    <!-- conflict: "557 New Boston Road, Norwich, VT" Fuzzy match to "557 New Boston Road, , VT" -->
    <tag k="addr:city" v="Norwich"/>
    <tag k="addr:housenumber" v="557"/>
    <tag k="addr:street" v="New Boston Road"/>
    <tag k="addr:state" v="VT"/>
    <tag k="ref:vcgi:esiteid" v="334721"/>
  </node>
  <node id="-1519" visible="true" lat="43.750096593095" lon="-72.295870260878">
    <!-- conflict: "153 Bradley Hill Road, Norwich, VT" Fuzzy match to "153 Bradley Hill Road, , VT" -->
    <tag k="addr:city" v="Norwich"/>
    <tag k="addr:housenumber" v="153"/>
    <tag k="addr:street" v="Bradley Hill Road"/>
    <tag k="addr:state" v="VT"/>
    <tag k="ref:vcgi:esiteid" v="334732"/>
  </node>
  <node id="-1526" visible="true" lat="43.75350540923" lon="-72.272576584188">
    <!-- conflict: "694 Goodrich Four Corners Road, Norwich, VT" Fuzzy match to "694 Goodrich Four Corners Road, , VT" -->
    <tag k="addr:city" v="Norwich"/>
    <tag k="addr:housenumber" v="694"/>
    <tag k="addr:street" v="Goodrich Four Corners Road"/>
    <tag k="addr:state" v="VT"/>
    <tag k="ref:vcgi:esiteid" v="334739"/>
  </node>
  <node id="-1528" visible="true" lat="43.765848831261" lon="-72.261375683085">
    <!-- conflict: "27 Middle Road, Norwich, VT" Fuzzy match to "27 Middle Road, , VT" -->
    <tag k="addr:city" v="Norwich"/>
    <tag k="addr:housenumber" v="27"/>
    <tag k="addr:street" v="Middle Road"/>
    <tag k="addr:state" v="VT"/>
    <tag k="ref:vcgi:esiteid" v="334741"/>
  </node>
  <node id="-1531" visible="true" lat="43.732073175651" lon="-72.40667745006">
    <!-- conflict: "648 Tigertown Road, White River Junction, VT" Fuzzy match to "648 Tigertown Road, Norwich, VT" -->
    <tag k="addr:city" v="White River Junction"/>
    <tag k="addr:housenumber" v="648"/>
    <tag k="addr:street" v="Tigertown Road"/>
    <tag k="addr:state" v="VT"/>
    <tag k="ref:vcgi:esiteid" v="334744"/>
  </node>
  <node id="-1532" visible="true" lat="43.730990036701" lon="-72.405594436143">
    <!-- conflict: "655 Tigertown Road, White River Junction, VT" Fuzzy match to "655 Tigertown Road, Norwich, VT" -->
    <tag k="addr:city" v="White River Junction"/>
    <tag k="addr:housenumber" v="655"/>
    <tag k="addr:street" v="Tigertown Road"/>
    <tag k="addr:state" v="VT"/>
    <tag k="ref:vcgi:esiteid" v="334745"/>
  </node>
  <node id="-1533" visible="true" lat="43.729988480222" lon="-72.412558669155">
    <!-- conflict: "756 Tigertown Road, White River Junction, VT" Fuzzy match to "756 Tigertown Road, Norwich, VT" -->
    <tag k="addr:city" v="White River Junction"/>
    <tag k="addr:housenumber" v="756"/>
    <tag k="addr:street" v="Tigertown Road"/>
    <tag k="addr:state" v="VT"/>
    <tag k="ref:vcgi:esiteid" v="334746"/>
  </node>
  <node id="-1534" visible="true" lat="43.729651056737" lon="-72.409910762357">
    <!-- conflict: "724 Tigertown Road, White River Junction, VT" Fuzzy match to "724 Tigertown Road, Norwich, VT" -->
    <tag k="addr:city" v="White River Junction"/>
    <tag k="addr:housenumber" v="724"/>
    <tag k="addr:street" v="Tigertown Road"/>
    <tag k="addr:state" v="VT"/>
    <tag k="ref:vcgi:esiteid" v="334747"/>
  </node>
  <node id="-1535" visible="true" lat="43.729750753459" lon="-72.408850405105">
    <!-- conflict: "722 Tigertown Road, White River Junction, VT" Fuzzy match to "722 Tigertown Road, Norwich, VT" -->
    <tag k="addr:city" v="White River Junction"/>
    <tag k="addr:housenumber" v="722"/>
    <tag k="addr:street" v="Tigertown Road"/>
    <tag k="addr:state" v="VT"/>
    <tag k="ref:vcgi:esiteid" v="334748"/>
  </node>
  <node id="-1536" visible="true" lat="43.723169725601" lon="-72.410344511965">
    <!-- conflict: "859 Tigertown Road, White River Junction, VT" Fuzzy match to "859 Tigertown Road, Norwich, VT" -->
    <tag k="addr:city" v="White River Junction"/>
    <tag k="addr:housenumber" v="859"/>
    <tag k="addr:street" v="Tigertown Road"/>
    <tag k="addr:state" v="VT"/>
    <tag k="ref:vcgi:esiteid" v="334749"/>
  </node>
  <node id="-1537" visible="true" lat="43.739043262641" lon="-72.396487979061">
    <!-- conflict: "495 Tigertown Road, White River Junction, VT" Fuzzy match to "495 Tigertown Road, Norwich, VT" -->
    <tag k="addr:city" v="White River Junction"/>
    <tag k="addr:housenumber" v="495"/>
    <tag k="addr:street" v="Tigertown Road"/>
    <tag k="addr:state" v="VT"/>
    <tag k="ref:vcgi:esiteid" v="334750"/>
  </node>
  <node id="-1538" visible="true" lat="43.735414316988" lon="-72.382729976862">
    <!-- conflict: "414 Burton Woods Road, White River Junction, VT" Fuzzy match to "414 Burton Woods Road, Norwich, VT" -->
    <tag k="addr:city" v="White River Junction"/>
    <tag k="addr:housenumber" v="414"/>
    <tag k="addr:street" v="Burton Woods Road"/>
    <tag k="addr:state" v="VT"/>
    <tag k="ref:vcgi:esiteid" v="334751"/>
  </node>
  <node id="-1539" visible="true" lat="43.727285899399" lon="-72.38692901216">
    <!-- conflict: "577 Burton Woods Road, White River Junction, VT" Fuzzy match to "577 Burton Woods Road, , VT" -->
    <tag k="addr:city" v="White River Junction"/>
    <tag k="addr:housenumber" v="577"/>
    <tag k="addr:street" v="Burton Woods Road"/>
    <tag k="addr:state" v="VT"/>
    <tag k="ref:vcgi:esiteid" v="334752"/>
  </node>
  <node id="-1542" visible="true" lat="43.740339279093" lon="-72.317195559487">
    <!-- conflict: "440 Turnpike Road, Norwich, VT" Fuzzy match to "440 Turnpike Road, , VT" -->
    <tag k="addr:city" v="Norwich"/>
    <tag k="addr:housenumber" v="440"/>
    <tag k="addr:street" v="Turnpike Road"/>
    <tag k="addr:state" v="VT"/>
    <tag k="ref:vcgi:esiteid" v="334755"/>
  </node>
  <node id="-1544" visible="true" lat="43.713806439023" lon="-72.360097372856">
    <!-- conflict: "438 Joshua Road, White River Junction, VT" Fuzzy match to "438 Joshua Road, Norwich, VT" -->
    <tag k="addr:city" v="White River Junction"/>
    <tag k="addr:housenumber" v="438"/>
    <tag k="addr:street" v="Joshua Road"/>
    <tag k="addr:state" v="VT"/>
    <tag k="ref:vcgi:esiteid" v="334906"/>
  </node>
  <node id="-1545" visible="true" lat="43.713558337663" lon="-72.357471454296">
    <!-- conflict: "531 Joshua Road, White River Junction, VT" Fuzzy match to "531 Joshua Road, Norwich, VT" -->
    <tag k="addr:city" v="White River Junction"/>
    <tag k="addr:housenumber" v="531"/>
    <tag k="addr:street" v="Joshua Road"/>
    <tag k="addr:state" v="VT"/>
    <tag k="ref:vcgi:esiteid" v="334907"/>
  </node>
  <node id="-1548" visible="true" lat="43.72028244772" lon="-72.321603412322">
    <!-- conflict: "108 Dutton Hill, Norwich, VT" Fuzzy match to "108 Dutton Hill, , VT" -->
    <tag k="addr:city" v="Norwich"/>
    <tag k="addr:housenumber" v="108"/>
    <tag k="addr:street" v="Dutton Hill"/>
    <tag k="addr:state" v="VT"/>
    <tag k="ref:vcgi:esiteid" v="334910"/>
  </node>
  <node id="-1561" visible="true" lat="43.713713796575" lon="-72.308736544447">
    <!-- conflict: "293 Main Street, Norwich, VT" Fuzzy match to "293 Main Street, , VT" -->
    <tag k="addr:city" v="Norwich"/>
    <tag k="addr:housenumber" v="293"/>
    <tag k="addr:street" v="Main Street"/>
    <tag k="addr:state" v="VT"/>
    <tag k="ref:vcgi:esiteid" v="334923"/>
  </node>
  <node id="-1563" visible="true" lat="43.71315464748" lon="-72.307881195373">
    <!-- conflict: "286 Main Street, Norwich, VT" Fuzzy match to "286 Main Street, , VT" -->
    <tag k="addr:city" v="Norwich"/>
    <tag k="addr:housenumber" v="286"/>
    <tag k="addr:street" v="Main Street"/>
    <tag k="addr:state" v="VT"/>
    <tag k="ref:vcgi:esiteid" v="334925"/>
  </node>
  <node id="-1565" visible="true" lat="43.710125493187" lon="-72.313610040689">
    <!-- conflict: "93 Elm Street, Norwich, VT" Fuzzy match to "93 Elm Street, , VT" -->
    <tag k="addr:city" v="Norwich"/>
    <tag k="addr:housenumber" v="93"/>
    <tag k="addr:street" v="Elm Street"/>
    <tag k="addr:state" v="VT"/>
    <tag k="ref:vcgi:esiteid" v="334927"/>
  </node>
  <node id="-1568" visible="true" lat="43.738929150873" lon="-72.351717583824">
    <!-- conflict: "940 Bragg Hill Road, Norwich, VT" Fuzzy match to "940 Bragg Hill Road, , VT" -->
    <tag k="addr:city" v="Norwich"/>
    <tag k="addr:housenumber" v="940"/>
    <tag k="addr:street" v="Bragg Hill Road"/>
    <tag k="addr:state" v="VT"/>
    <tag k="ref:vcgi:esiteid" v="334930"/>
  </node>
  <node id="-1574" visible="true" lat="43.781045027447" lon="-72.254008337661">
    <!-- conflict: "539 Campbell Flats Road, Norwich, VT" Fuzzy match to "539 Campbell Flats Road, , VT" -->
    <tag k="addr:city" v="Norwich"/>
    <tag k="addr:housenumber" v="539"/>
    <tag k="addr:street" v="Campbell Flats Road"/>
    <tag k="addr:state" v="VT"/>
    <tag k="ref:vcgi:esiteid" v="335075"/>
  </node>
  <node id="-1590" visible="true" lat="43.743665829806" lon="-72.283610073064">
    <!-- conflict: "720 Union Village Road, Norwich, VT" Fuzzy match to "720 Union Village Road, , VT" -->
    <tag k="addr:city" v="Norwich"/>
    <tag k="addr:housenumber" v="720"/>
    <tag k="addr:street" v="Union Village Road"/>
    <tag k="addr:state" v="VT"/>
    <tag k="ref:vcgi:esiteid" v="335111"/>
  </node>
  <node id="-1594" visible="true" lat="43.725521938297" lon="-72.319734530429">
    <!-- conflict: "311 Beaver Meadow Road, Norwich, VT" Fuzzy match to "311 Beaver Meadow Road, , VT" -->
    <tag k="addr:city" v="Norwich"/>
    <tag k="addr:housenumber" v="311"/>
    <tag k="addr:street" v="Beaver Meadow Road"/>
    <tag k="addr:state" v="VT"/>
    <tag k="ref:vcgi:esiteid" v="335120"/>
  </node>
  <node id="-1601" visible="true" lat="43.726503508318" lon="-72.293921117928">
    <!-- conflict: "111 Hawk Pine Road, Norwich, VT" Fuzzy match to "111 Hawk Pine Road, , VT" -->
    <tag k="addr:city" v="Norwich"/>
    <tag k="addr:housenumber" v="111"/>
    <tag k="addr:street" v="Hawk Pine Road"/>
    <tag k="addr:state" v="VT"/>
    <tag k="ref:vcgi:esiteid" v="335127"/>
  </node>
  <node id="-1603" visible="true" lat="43.724261502828" lon="-72.392070710809">
    <!-- conflict: "91 Illsley Road, White River Junction, VT" Fuzzy match to "91 Illsley Road, Norwich, VT" -->
    <tag k="addr:city" v="White River Junction"/>
    <tag k="addr:housenumber" v="91"/>
    <tag k="addr:street" v="Illsley Road"/>
    <tag k="addr:state" v="VT"/>
    <tag k="ref:vcgi:esiteid" v="335130"/>
  </node>
  <node id="-1604" visible="true" lat="43.714348316269" lon="-72.378138071918">
    <!-- conflict: "111 Delta Drive, White River Junction, VT" Fuzzy match to "111 Delta Drive, Norwich, VT" -->
    <tag k="addr:city" v="White River Junction"/>
    <tag k="addr:housenumber" v="111"/>
    <tag k="addr:street" v="Delta Drive"/>
    <tag k="addr:state" v="VT"/>
    <tag k="ref:vcgi:esiteid" v="335131"/>
  </node>
  <node id="-1605" visible="true" lat="43.71745872545" lon="-72.378371475706">
    <!-- conflict: "166 Delta Drive, White River Junction, VT" Fuzzy match to "166 Delta Drive, Norwich, VT" -->
    <tag k="addr:city" v="White River Junction"/>
    <tag k="addr:housenumber" v="166"/>
    <tag k="addr:street" v="Delta Drive"/>
    <tag k="addr:state" v="VT"/>
    <tag k="ref:vcgi:esiteid" v="335132"/>
  </node>
  <node id="-1609" visible="true" lat="43.697993170406" lon="-72.314821482903">
    <!-- conflict: "223 United States Route 5 South, Norwich, VT" No match in OSM, but a different address exists <5m away: "223 U.S. Route 5 South, , VT" -->
    <tag k="addr:city" v="Norwich"/>
    <tag k="addr:housenumber" v="223"/>
    <tag k="addr:street" v="United States Route 5 South"/>
    <tag k="addr:state" v="VT"/>
    <tag k="ref:vcgi:esiteid" v="337021"/>
  </node>
  <node id="-1613" visible="true" lat="43.760805525419" lon="-72.350291242274">
    <!-- conflict: "1284 Beaver Meadow Road, Norwich, VT" Fuzzy match to "1284 Beaver Meadow Road, , VT" -->
    <tag k="addr:city" v="Norwich"/>
    <tag k="addr:housenumber" v="1284"/>
    <tag k="addr:street" v="Beaver Meadow Road"/>
    <tag k="addr:state" v="VT"/>
    <tag k="ref:vcgi:esiteid" v="340785"/>
  </node>
  <node id="-1617" visible="true" lat="43.786765019464" lon="-72.274601949721">
    <!-- conflict: "350 Kerwin Hill Road, Norwich, VT" Fuzzy match to "350 Kerwin Hill Road, , VT" -->
    <tag k="addr:city" v="Norwich"/>
    <tag k="addr:housenumber" v="350"/>
    <tag k="addr:street" v="Kerwin Hill Road"/>
    <tag k="addr:state" v="VT"/>
    <tag k="ref:vcgi:esiteid" v="446360"/>
  </node>
  <node id="-1625" visible="true" lat="43.726498324149" lon="-72.366672152364">
    <!-- conflict: "561 Burton Woods Road, Norwich, VT" Fuzzy match to "561 Burton Woods Road, , VT" -->
    <tag k="addr:city" v="Norwich"/>
    <tag k="addr:housenumber" v="561"/>
    <tag k="addr:street" v="Burton Woods Road"/>
    <tag k="addr:state" v="VT"/>
    <tag k="ref:vcgi:esiteid" v="450357"/>
  </node>
  <node id="-1627" visible="true" lat="43.718488774027" lon="-72.315355931304">
    <!-- conflict: "7 Bragg Hill Road, Norwich, VT" Fuzzy match to "7 Bragg Hill Road, , VT" -->
    <tag k="addr:city" v="Norwich"/>
    <tag k="addr:housenumber" v="7"/>
    <tag k="addr:street" v="Bragg Hill Road"/>
    <tag k="addr:state" v="VT"/>
    <tag k="ref:vcgi:esiteid" v="450717"/>
  </node>
  <node id="-1629" visible="true" lat="43.740741976805" lon="-72.325595063295">
    <!-- conflict: "332 Brigham Hill Road, Norwich, VT" Fuzzy match to "332 Brigham Hill Road, , VT" -->
    <tag k="addr:city" v="Norwich"/>
    <tag k="addr:housenumber" v="332"/>
    <tag k="addr:street" v="Brigham Hill Road"/>
    <tag k="addr:state" v="VT"/>
    <tag k="ref:vcgi:esiteid" v="450719"/>
  </node>
  <node id="-1631" visible="true" lat="43.764336628324" lon="-72.378045054144">
    <!-- conflict: "10 Ridgewood Hill, Norwich, VT" Fuzzy match to "10 Ridgewood Hill, , VT" -->
    <tag k="addr:city" v="Norwich"/>
    <tag k="addr:housenumber" v="10"/>
    <tag k="addr:street" v="Ridgewood Hill"/>
    <tag k="addr:state" v="VT"/>
    <tag k="ref:vcgi:esiteid" v="450735"/>
  </node>
  <node id="-1639" visible="true" lat="43.736040024368" lon="-72.321748209625">
    <!-- conflict: "213 Brigham Hill Road, Norwich, VT" Fuzzy match to "213 Brigham Hill Road, , VT" -->
    <tag k="addr:city" v="Norwich"/>
    <tag k="addr:housenumber" v="213"/>
    <tag k="addr:street" v="Brigham Hill Road"/>
    <tag k="addr:state" v="VT"/>
    <tag k="ref:vcgi:esiteid" v="455693"/>
  </node>
  <node id="-1642" visible="true" lat="43.755064484988" lon="-72.294224648252">
    <!-- conflict: "276 Bradley Hill Road, Norwich, VT" Fuzzy match to "276 Bradley Hill Road, , VT" -->
    <tag k="addr:city" v="Norwich"/>
    <tag k="addr:housenumber" v="276"/>
    <tag k="addr:street" v="Bradley Hill Road"/>
    <tag k="addr:state" v="VT"/>
    <tag k="ref:vcgi:esiteid" v="617619"/>
  </node>
  <node id="-1643" visible="true" lat="43.758940577894" lon="-72.307408245715">
    <!-- conflict: "633 New Boston Road, Norwich, VT" Fuzzy match to "633 New Boston Road, , VT" -->
    <tag k="addr:city" v="Norwich"/>
    <tag k="addr:housenumber" v="633"/>
    <tag k="addr:street" v="New Boston Road"/>
    <tag k="addr:state" v="VT"/>
    <tag k="ref:vcgi:esiteid" v="618472"/>
  </node>
  <node id="-1644" visible="true" lat="43.705784087702" lon="-72.321847463019">
    <!-- conflict: "278 Hopson Road, Norwich, VT" Fuzzy match to "278 Hopson Road, , VT" -->
    <tag k="addr:city" v="Norwich"/>
    <tag k="addr:housenumber" v="278"/>
    <tag k="addr:street" v="Hopson Road"/>
    <tag k="addr:state" v="VT"/>
    <tag k="ref:vcgi:esiteid" v="620163"/>
  </node>
  <node id="-1645" visible="true" lat="43.70722747648" lon="-72.321045800462">
    <!-- conflict: "258 Hopson Road, Norwich, VT" Fuzzy match to "258 Hopson Road, , VT" -->
    <tag k="addr:city" v="Norwich"/>
    <tag k="addr:housenumber" v="258"/>
    <tag k="addr:street" v="Hopson Road"/>
    <tag k="addr:state" v="VT"/>
    <tag k="ref:vcgi:esiteid" v="620164"/>
  </node>
  <node id="-1646" visible="true" lat="43.714810328131" lon="-72.307762828858">
    <!-- conflict: "4 Lary Lane, Norwich, VT" Fuzzy match to "4 Lary Lane, , VT" -->
    <tag k="addr:city" v="Norwich"/>
    <tag k="addr:housenumber" v="4"/>
    <tag k="addr:street" v="Lary Lane"/>
    <tag k="addr:state" v="VT"/>
    <tag k="ref:vcgi:esiteid" v="620530"/>
  </node>
  <node id="-1647" visible="true" lat="43.754007398156" lon="-72.293997094614">
    <!-- conflict: "228 Bradley Hill Road, Norwich, VT" Fuzzy match to "228 Bradley Hill Road, , VT" -->
    <tag k="addr:city" v="Norwich"/>
    <tag k="addr:housenumber" v="228"/>
    <tag k="addr:street" v="Bradley Hill Road"/>
    <tag k="addr:state" v="VT"/>
    <tag k="ref:vcgi:esiteid" v="620742"/>
  </node>
  <node id="-1648" visible="true" lat="43.765397870289" lon="-72.242750955254">
    <!-- conflict: "306 Route 132, Norwich, VT" Fuzzy match to "306 Route 132, , VT" -->
    <tag k="addr:city" v="Norwich"/>
    <tag k="addr:housenumber" v="306"/>
    <tag k="addr:street" v="Route 132"/>
    <tag k="addr:state" v="VT"/>
    <tag k="ref:vcgi:esiteid" v="646715"/>
  </node>
  <node id="-1649" visible="true" lat="43.742190070593" lon="-72.357362544319">
    <!-- conflict: "1060 Bragg Hill Road, Norwich, VT" Fuzzy match to "1060 Bragg Hill Road, , VT" -->
    <tag k="addr:city" v="Norwich"/>
    <tag k="addr:housenumber" v="1060"/>
    <tag k="addr:street" v="Bragg Hill Road"/>
    <tag k="addr:state" v="VT"/>
    <tag k="ref:vcgi:esiteid" v="646716"/>
  </node>
  <node id="-1651" visible="true" lat="43.718572705952" lon="-72.308555099812">
    <!-- conflict: "51 Hazen Street, Norwich, VT" Fuzzy match to "51 Hazen Street, , VT" -->
    <tag k="addr:city" v="Norwich"/>
    <tag k="addr:housenumber" v="51"/>
    <tag k="addr:street" v="Hazen Street"/>
    <tag k="addr:state" v="VT"/>
    <tag k="ref:vcgi:esiteid" v="646718"/>
  </node>
  <node id="-1652" visible="true" lat="43.718093990122" lon="-72.33893028334">
    <!-- conflict: "399 Bragg Hill Road, Norwich, VT" Fuzzy match to "399 Bragg Hill Road, , VT" -->
    <tag k="addr:city" v="Norwich"/>
    <tag k="addr:housenumber" v="399"/>
    <tag k="addr:street" v="Bragg Hill Road"/>
    <tag k="addr:state" v="VT"/>
    <tag k="ref:vcgi:esiteid" v="646719"/>
  </node>
  <node id="-1654" visible="true" lat="43.761001529969" lon="-72.362645197116">
    <!-- conflict: "1492 Beaver Meadow Road, Norwich, VT" Fuzzy match to "1492 Beaver Meadow Road, , VT" -->
    <tag k="addr:city" v="Norwich"/>
    <tag k="addr:housenumber" v="1492"/>
    <tag k="addr:street" v="Beaver Meadow Road"/>
    <tag k="addr:state" v="VT"/>
    <tag k="ref:vcgi:esiteid" v="646721"/>
  </node>
  <node id="-1655" visible="true" lat="43.724769726619" lon="-72.318252129082">
    <!-- conflict: "273 Beaver Meadow Road, Norwich, VT" Fuzzy match to "273 Beaver Meadow Road, , VT" -->
    <tag k="addr:city" v="Norwich"/>
    <tag k="addr:housenumber" v="273"/>
    <tag k="addr:street" v="Beaver Meadow Road"/>
    <tag k="addr:state" v="VT"/>
    <tag k="ref:vcgi:esiteid" v="646722"/>
  </node>
  <node id="-1659" visible="true" lat="43.710919784503" lon="-72.347120913961">
    <!-- conflict: "870 Newton Lane, White River Junction, VT" Fuzzy match to "870 Newton Lane, , VT" -->
    <tag k="addr:city" v="White River Junction"/>
    <tag k="addr:housenumber" v="870"/>
    <tag k="addr:street" v="Newton Lane"/>
    <tag k="addr:state" v="VT"/>
    <tag k="ref:vcgi:esiteid" v="656216"/>
  </node>
  <node id="-1660" visible="true" lat="43.727861933899" lon="-72.312800670263">
    <!-- conflict: "129 Union Village Road, Norwich, VT" Fuzzy match to "129 Union Village Road, , VT" -->
    <tag k="addr:city" v="Norwich"/>
    <tag k="addr:housenumber" v="129"/>
    <tag k="addr:street" v="Union Village Road"/>
    <tag k="addr:state" v="VT"/>
    <tag k="ref:vcgi:esiteid" v="656395"/>
  </node>
  <node id="-1666" visible="true" lat="43.774378810582" lon="-72.340159441491">
    <!-- conflict: "1329 Turnpike Road, Norwich, VT" Fuzzy match to "1329 Turnpike Road, , VT" -->
    <tag k="addr:city" v="Norwich"/>
    <tag k="addr:housenumber" v="1329"/>
    <tag k="addr:street" v="Turnpike Road"/>
    <tag k="addr:state" v="VT"/>
    <tag k="ref:vcgi:esiteid" v="750980"/>
  </node>
  <node id="-1668" visible="true" lat="43.764619043829" lon="-72.297809233679">
    <!-- conflict: "44 Barbara Lee Lane, Norwich, VT" Fuzzy match to "44 Barbara Lee Lane, , VT" -->
    <tag k="addr:city" v="Norwich"/>
    <tag k="addr:housenumber" v="44"/>
    <tag k="addr:street" v="Barbara Lee Lane"/>
    <tag k="addr:state" v="VT"/>
    <tag k="ref:vcgi:esiteid" v="752733"/>
  </node>
  <node id="-1676" visible="true" lat="43.716431684647" lon="-72.303470588038">
    <!-- conflict: "81 Cliff Street, Norwich, VT" Fuzzy match to "81 Cliff Street, , VT" -->
    <tag k="addr:city" v="Norwich"/>
    <tag k="addr:housenumber" v="81"/>
    <tag k="addr:street" v="Cliff Street"/>
    <tag k="addr:state" v="VT"/>
    <tag k="ref:vcgi:esiteid" v="753656"/>
  </node>
  <node id="-1679" visible="true" lat="43.789729415975" lon="-72.308976227743">
    <!-- conflict: "1506 New Boston Road, Norwich, VT" Fuzzy match to "1506 New Boston Road, , VT" -->
    <tag k="addr:city" v="Norwich"/>
    <tag k="addr:housenumber" v="1506"/>
    <tag k="addr:street" v="New Boston Road"/>
    <tag k="addr:state" v="VT"/>
    <tag k="ref:vcgi:esiteid" v="754338"/>
  </node>
  <node id="-1681" visible="true" lat="43.746920558538" lon="-72.325760748181">
    <!-- conflict: "650 Turnpike Road, Norwich, VT" Fuzzy match to "650 Turnpike Road, , VT" -->
    <tag k="addr:city" v="Norwich"/>
    <tag k="addr:housenumber" v="650"/>
    <tag k="addr:street" v="Turnpike Road"/>
    <tag k="addr:state" v="VT"/>
    <tag k="ref:vcgi:esiteid" v="755659"/>
  </node>
  <node id="-1682" visible="true" lat="43.714297363527" lon="-72.30904536191">
    <!-- conflict: "311 Main Street, Norwich, VT" Fuzzy match to "311 Main Street, , VT" -->
    <tag k="addr:city" v="Norwich"/>
    <tag k="addr:housenumber" v="311"/>
    <tag k="addr:street" v="Main Street"/>
    <tag k="addr:state" v="VT"/>
    <tag k="ref:vcgi:esiteid" v="755959"/>
  </node>
  <node id="-1683" visible="true" lat="43.717823721073" lon="-72.33909299291">
    <!-- conflict: "401 Bragg Hill Road, Norwich, VT" Fuzzy match to "401 Bragg Hill Road, , VT" -->
    <tag k="addr:city" v="Norwich"/>
    <tag k="addr:housenumber" v="401"/>
    <tag k="addr:street" v="Bragg Hill Road"/>
    <tag k="addr:state" v="VT"/>
    <tag k="ref:vcgi:esiteid" v="755972"/>
  </node>
  <node id="-1684" visible="true" lat="43.737992611014" lon="-72.316377390109">
    <!-- conflict: "25 New Boston Road, Norwich, VT" Fuzzy match to "25 New Boston Road, , VT" -->
    <tag k="addr:city" v="Norwich"/>
    <tag k="addr:housenumber" v="25"/>
    <tag k="addr:street" v="New Boston Road"/>
    <tag k="addr:state" v="VT"/>
    <tag k="ref:vcgi:esiteid" v="756849"/>
  </node>
  <node id="-1685" visible="true" lat="43.727552856011" lon="-72.278645860761">
    <!-- conflict: "253 United States Route 5 North, Norwich, VT" No match in OSM, but a different address exists <5m away: "253 U.S. Route 5 North, Norwich, VT" -->
    <tag k="addr:city" v="Norwich"/>
    <tag k="addr:housenumber" v="253"/>
    <tag k="addr:street" v="United States Route 5 North"/>
    <tag k="addr:state" v="VT"/>
    <tag k="ref:vcgi:esiteid" v="758766"/>
  </node>
  <node id="-1686" visible="true" lat="43.727226622611" lon="-72.325133553062">
    <!-- conflict: "440 Beaver Meadow Road, Norwich, VT" Fuzzy match to "440 Beaver Meadow Road, , VT" -->
    <tag k="addr:city" v="Norwich"/>
    <tag k="addr:housenumber" v="440"/>
    <tag k="addr:street" v="Beaver Meadow Road"/>
    <tag k="addr:state" v="VT"/>
    <tag k="ref:vcgi:esiteid" v="759006"/>
  </node>
  <node id="-1688" visible="true" lat="43.76258437926" lon="-72.37781950728">
    <!-- conflict: "33 Mitchell Brook Road, Norwich, VT" Fuzzy match to "33 Mitchell Brook Road, , VT" -->
    <tag k="addr:city" v="Norwich"/>
    <tag k="addr:housenumber" v="33"/>
    <tag k="addr:street" v="Mitchell Brook Road"/>
    <tag k="addr:state" v="VT"/>
    <tag k="ref:vcgi:esiteid" v="760473"/>
  </node>
  <node id="-1689" visible="true" lat="43.772787065374" lon="-72.211211979705">
    <!-- conflict: "31 Stevens Road, Norwich, VT" Fuzzy match to "31 Stevens Road, , VT" -->
    <tag k="addr:city" v="Norwich"/>
    <tag k="addr:housenumber" v="31"/>
    <tag k="addr:street" v="Stevens Road"/>
    <tag k="addr:state" v="VT"/>
    <tag k="ref:vcgi:esiteid" v="760739"/>
  </node>
  <node id="-1690" visible="true" lat="43.744979234537" lon="-72.325717430547">
    <!-- conflict: "599 Turnpike Road, Norwich, VT" Fuzzy match to "599 Turnpike Road, , VT" -->
    <tag k="addr:city" v="Norwich"/>
    <tag k="addr:housenumber" v="599"/>
    <tag k="addr:street" v="Turnpike Road"/>
    <tag k="addr:state" v="VT"/>
    <tag k="ref:vcgi:esiteid" v="760740"/>
  </node>
  <node id="-1691" visible="true" lat="43.747574256472" lon="-72.325030285891">
    <!-- conflict: "658 Turnpike Road, Norwich, VT" Fuzzy match to "658 Turnpike Road, , VT" -->
    <tag k="addr:city" v="Norwich"/>
    <tag k="addr:housenumber" v="658"/>
    <tag k="addr:street" v="Turnpike Road"/>
    <tag k="addr:state" v="VT"/>
    <tag k="ref:vcgi:esiteid" v="761278"/>
  </node>
  <node id="-1692" visible="true" lat="43.769316489144" lon="-72.365013592741">
    <!-- conflict: "165 Stagecoach Road, Norwich, VT" Fuzzy match to "165 Stagecoach Road, , VT" -->
    <tag k="addr:city" v="Norwich"/>
    <tag k="addr:housenumber" v="165"/>
    <tag k="addr:street" v="Stagecoach Road"/>
    <tag k="addr:state" v="VT"/>
    <tag k="ref:vcgi:esiteid" v="761279"/>
  </node>
  <node id="-1693" visible="true" lat="43.769604174604" lon="-72.256418845846">
    <!-- conflict: "1458 Union Village Road, Norwich, VT" Fuzzy match to "1458 Union Village Road, , VT" -->
    <tag k="addr:city" v="Norwich"/>
    <tag k="addr:housenumber" v="1458"/>
    <tag k="addr:street" v="Union Village Road"/>
    <tag k="addr:state" v="VT"/>
    <tag k="ref:vcgi:esiteid" v="762324"/>
  </node>
  <node id="-1694" visible="true" lat="43.723582966617" lon="-72.298439743864">
    <!-- conflict: "205 Hawk Pine Road, Norwich, VT" Fuzzy match to "205 Hawk Pine Road, , VT" -->
    <tag k="addr:city" v="Norwich"/>
    <tag k="addr:housenumber" v="205"/>
    <tag k="addr:street" v="Hawk Pine Road"/>
    <tag k="addr:state" v="VT"/>
    <tag k="ref:vcgi:esiteid" v="763077"/>
  </node>
  <node id="-1695" visible="true" lat="43.787059391927" lon="-72.293144003678">
    <!-- conflict: "132 Norford Lake Road, Norwich, VT" Fuzzy match to "132 Norford Lake Road, , VT" -->
    <tag k="addr:city" v="Norwich"/>
    <tag k="addr:housenumber" v="132"/>
    <tag k="addr:street" v="Norford Lake Road"/>
    <tag k="addr:state" v="VT"/>
    <tag k="ref:vcgi:esiteid" v="763425"/>
  </node>
  <node id="-1696" visible="true" lat="43.723960991169" lon="-72.304050442061">
    <!-- conflict: "68 Willey Hill Road, Norwich, VT" Fuzzy match to "68 Willey Hill Road, , VT" -->
    <tag k="addr:city" v="Norwich"/>
    <tag k="addr:housenumber" v="68"/>
    <tag k="addr:street" v="Willey Hill Road"/>
    <tag k="addr:state" v="VT"/>
    <tag k="ref:vcgi:esiteid" v="763856"/>
  </node>
  <node id="-1697" visible="true" lat="43.76046180285" lon="-72.278588727587">
    <!-- conflict: "110 Pattrell Road, Norwich, VT" Fuzzy match to "110 Pattrell Road, , VT" -->
    <tag k="addr:city" v="Norwich"/>
    <tag k="addr:housenumber" v="110"/>
    <tag k="addr:street" v="Pattrell Road"/>
    <tag k="addr:state" v="VT"/>
    <tag k="ref:vcgi:esiteid" v="765522"/>
  </node>
  <node id="-1698" visible="true" lat="43.729830897101" lon="-72.296377538325">
    <!-- conflict: "194 Maple Hill Road, Norwich, VT" Fuzzy match to "194 Maple Hill Road, , VT" -->
    <tag k="addr:city" v="Norwich"/>
    <tag k="addr:housenumber" v="194"/>
    <tag k="addr:street" v="Maple Hill Road"/>
    <tag k="addr:state" v="VT"/>
    <tag k="ref:vcgi:esiteid" v="765720"/>
  </node>
  <node id="-1699" visible="true" lat="43.747803338412" lon="-72.327123481652">
    <!-- conflict: "665 Turnpike Road, Norwich, VT" Fuzzy match to "665 Turnpike Road, , VT" -->
    <tag k="addr:city" v="Norwich"/>
    <tag k="addr:housenumber" v="665"/>
    <tag k="addr:street" v="Turnpike Road"/>
    <tag k="addr:state" v="VT"/>
    <tag k="ref:vcgi:esiteid" v="765749"/>
  </node>
  <node id="-1703" visible="true" lat="43.747478154845" lon="-72.290724244084">
    <!-- conflict: "42 Bradley Hill Road, Norwich, VT" Fuzzy match to "42 Bradley Hill Road, , VT" -->
    <tag k="addr:city" v="Norwich"/>
    <tag k="addr:housenumber" v="42"/>
    <tag k="addr:street" v="Bradley Hill Road"/>
    <tag k="addr:state" v="VT"/>
    <tag k="ref:vcgi:esiteid" v="765753"/>
  </node>
  <node id="-1704" visible="true" lat="43.743466814557" lon="-72.291204987536">
    <!-- conflict: "600 Union Village Road, Norwich, VT" Fuzzy match to "600 Union Village Road, , VT" -->
    <tag k="addr:city" v="Norwich"/>
    <tag k="addr:housenumber" v="600"/>
    <tag k="addr:street" v="Union Village Road"/>
    <tag k="addr:state" v="VT"/>
    <tag k="ref:vcgi:esiteid" v="765754"/>
  </node>
  <node id="-1705" visible="true" lat="43.720181792921" lon="-72.320799957471">
    <!-- conflict: "100 Dutton Hill, Norwich, VT" Fuzzy match to "100 Dutton Hill, , VT" -->
    <tag k="addr:city" v="Norwich"/>
    <tag k="addr:housenumber" v="100"/>
    <tag k="addr:street" v="Dutton Hill"/>
    <tag k="addr:state" v="VT"/>
    <tag k="ref:vcgi:esiteid" v="765755"/>
  </node>
  <node id="-1706" visible="true" lat="43.716859764363" lon="-72.307163670221">
    <!-- conflict: "18 Dorrance Drive, Norwich, VT" Fuzzy match to "18 Dorrance Drive, , VT" -->
    <tag k="addr:city" v="Norwich"/>
    <tag k="addr:housenumber" v="18"/>
    <tag k="addr:street" v="Dorrance Drive"/>
    <tag k="addr:state" v="VT"/>
    <tag k="ref:vcgi:esiteid" v="765756"/>
  </node>
  <node id="-1707" visible="true" lat="43.779464740305" lon="-72.259029649741">
    <!-- conflict: "737 Route 132, Norwich, VT" Fuzzy match to "737 Route 132, , VT" -->
    <tag k="addr:city" v="Norwich"/>
    <tag k="addr:housenumber" v="737"/>
    <tag k="addr:street" v="Route 132"/>
    <tag k="addr:state" v="VT"/>
    <tag k="ref:vcgi:esiteid" v="765867"/>
  </node>
  <node id="-1708" visible="true" lat="43.768657685385" lon="-72.29827347171">
    <!-- conflict: "119 Barbara Lee Lane, Norwich, VT" Fuzzy match to "119 Barbara Lee Lane, , VT" -->
    <tag k="addr:city" v="Norwich"/>
    <tag k="addr:housenumber" v="119"/>
    <tag k="addr:street" v="Barbara Lee Lane"/>
    <tag k="addr:state" v="VT"/>
    <tag k="ref:vcgi:esiteid" v="766416"/>
  </node>
  <node id="-1709" visible="true" lat="43.78798188597" lon="-72.2965523045">
    <!-- conflict: "145 Norford Lake Road, Norwich, VT" Fuzzy match to "145 Norford Lake Road, , VT" -->
    <tag k="addr:city" v="Norwich"/>
    <tag k="addr:housenumber" v="145"/>
    <tag k="addr:street" v="Norford Lake Road"/>
    <tag k="addr:state" v="VT"/>
    <tag k="ref:vcgi:esiteid" v="767123"/>
  </node>
  <node id="-1710" visible="true" lat="43.744719642808" lon="-72.324356815771">
    <!-- conflict: "595 Turnpike Road, Norwich, VT" Fuzzy match to "595 Turnpike Road, , VT" -->
    <tag k="addr:city" v="Norwich"/>
    <tag k="addr:housenumber" v="595"/>
    <tag k="addr:street" v="Turnpike Road"/>
    <tag k="addr:state" v="VT"/>
    <tag k="ref:vcgi:esiteid" v="767939"/>
  </node>
  <node id="-1711" visible="true" lat="43.787002293449" lon="-72.26650011085">
    <!-- conflict: "782 Pattrell Road, Norwich, VT" Fuzzy match to "782 Pattrell Road, , VT" -->
    <tag k="addr:city" v="Norwich"/>
    <tag k="addr:housenumber" v="782"/>
    <tag k="addr:street" v="Pattrell Road"/>
    <tag k="addr:state" v="VT"/>
    <tag k="ref:vcgi:esiteid" v="768408"/>
  </node>
  <node id="-1712" visible="true" lat="43.77306295332" lon="-72.294517151266">
    <!-- conflict: "99 Meetinghouse Road, Norwich, VT" Fuzzy match to "99 Meetinghouse Road, , VT" -->
    <tag k="addr:city" v="Norwich"/>
    <tag k="addr:housenumber" v="99"/>
    <tag k="addr:street" v="Meetinghouse Road"/>
    <tag k="addr:state" v="VT"/>
    <tag k="ref:vcgi:esiteid" v="768481"/>
  </node>
  <node id="-1714" visible="true" lat="43.746834778074" lon="-72.263635863466">
    <!-- conflict: "201 Town Farm Road, Norwich, VT" Fuzzy match to "201 Town Farm Road, , VT" -->
    <tag k="addr:city" v="Norwich"/>
    <tag k="addr:housenumber" v="201"/>
    <tag k="addr:street" v="Town Farm Road"/>
    <tag k="addr:state" v="VT"/>
    <tag k="ref:vcgi:esiteid" v="769093"/>
  </node>
  <node id="-1715" visible="true" lat="43.762367194916" lon="-72.246370618525">
    <!-- conflict: "225 Waterman Hill Road, Norwich, VT" Fuzzy match to "225 Waterman Hill Road, , VT" -->
    <tag k="addr:city" v="Norwich"/>
    <tag k="addr:housenumber" v="225"/>
    <tag k="addr:street" v="Waterman Hill Road"/>
    <tag k="addr:state" v="VT"/>
    <tag k="ref:vcgi:esiteid" v="769094"/>
  </node>
  <node id="-1717" visible="true" lat="43.750088560369" lon="-72.327279906937">
    <!-- conflict: "722 Turnpike Road, Norwich, VT" Fuzzy match to "722 Turnpike Road, , VT" -->
    <tag k="addr:city" v="Norwich"/>
    <tag k="addr:housenumber" v="722"/>
    <tag k="addr:street" v="Turnpike Road"/>
    <tag k="addr:state" v="VT"/>
    <tag k="ref:vcgi:esiteid" v="770086"/>
  </node>
  <node id="-1718" visible="true" lat="43.741185640621" lon="-72.324639581753">
    <!-- conflict: "334 Brigham Hill Road, Norwich, VT" Fuzzy match to "334 Brigham Hill Road, , VT" -->
    <tag k="addr:city" v="Norwich"/>
    <tag k="addr:housenumber" v="334"/>
    <tag k="addr:street" v="Brigham Hill Road"/>
    <tag k="addr:state" v="VT"/>
    <tag k="ref:vcgi:esiteid" v="771280"/>
  </node>
  <node id="-1719" visible="true" lat="43.723513119456" lon="-72.292496581162">
    <!-- conflict: "205 Upper Loveland Road, Norwich, VT" Fuzzy match to "205 Upper Loveland Road, , VT" -->
    <tag k="addr:city" v="Norwich"/>
    <tag k="addr:housenumber" v="205"/>
    <tag k="addr:street" v="Upper Loveland Road"/>
    <tag k="addr:state" v="VT"/>
    <tag k="ref:vcgi:esiteid" v="771356"/>
  </node>
  <node id="-1720" visible="true" lat="43.717988902666" lon="-72.299155795109">
    <!-- conflict: "50 Four Wheel Drive, Norwich, VT" Fuzzy match to "50 Four Wheel Drive, , VT" -->
    <tag k="addr:city" v="Norwich"/>
    <tag k="addr:housenumber" v="50"/>
    <tag k="addr:street" v="Four Wheel Drive"/>
    <tag k="addr:state" v="VT"/>
    <tag k="ref:vcgi:esiteid" v="771810"/>
  </node>
  <node id="-1723" visible="true" lat="43.766878842018" lon="-72.255210838916">
    <!-- conflict: "49 Waterman Hill Road, Norwich, VT" Fuzzy match to "49 Waterman Hill Road, , VT" -->
    <tag k="addr:city" v="Norwich"/>
    <tag k="addr:housenumber" v="49"/>
    <tag k="addr:street" v="Waterman Hill Road"/>
    <tag k="addr:state" v="VT"/>
    <tag k="ref:vcgi:esiteid" v="771916"/>
  </node>
  <node id="-1724" visible="true" lat="43.763922055825" lon="-72.233844718315">
    <!-- conflict: "80 Hogback Road, Norwich, VT" Fuzzy match to "80 Hogback Road, , VT" -->
    <tag k="addr:city" v="Norwich"/>
    <tag k="addr:housenumber" v="80"/>
    <tag k="addr:street" v="Hogback Road"/>
    <tag k="addr:state" v="VT"/>
    <tag k="ref:vcgi:esiteid" v="771917"/>
  </node>
  <node id="-1725" visible="true" lat="43.783860359044" lon="-72.302864765416">
    <!-- conflict: "1280 New Boston Road, Norwich, VT" Fuzzy match to "1280 New Boston Road, , VT" -->
    <tag k="addr:city" v="Norwich"/>
    <tag k="addr:housenumber" v="1280"/>
    <tag k="addr:street" v="New Boston Road"/>
    <tag k="addr:state" v="VT"/>
    <tag k="ref:vcgi:esiteid" v="772731"/>
  </node>
  <node id="-1726" visible="true" lat="43.725722721882" lon="-72.314446419952">
    <!-- conflict: "104 Turnpike Road, Norwich, VT" Fuzzy match to "104 Turnpike Road, , VT" -->
    <tag k="addr:city" v="Norwich"/>
    <tag k="addr:housenumber" v="104"/>
    <tag k="addr:street" v="Turnpike Road"/>
    <tag k="addr:state" v="VT"/>
    <tag k="ref:vcgi:esiteid" v="772772"/>
  </node>
  <node id="-1727" visible="true" lat="43.728785731859" lon="-72.329026784219">
    <!-- conflict: "444 Beaver Meadow Road, Norwich, VT" Fuzzy match to "444 Beaver Meadow Road, , VT" -->
    <tag k="addr:city" v="Norwich"/>
    <tag k="addr:housenumber" v="444"/>
    <tag k="addr:street" v="Beaver Meadow Road"/>
    <tag k="addr:state" v="VT"/>
    <tag k="ref:vcgi:esiteid" v="772791"/>
  </node>
  <node id="-1730" visible="true" lat="43.738972361236" lon="-72.272632817574">
    <!-- conflict: "64 Bullock Road, Norwich, VT" Fuzzy match to "64 Bullock Road, , VT" -->
    <tag k="addr:city" v="Norwich"/>
    <tag k="addr:housenumber" v="64"/>
    <tag k="addr:street" v="Bullock Road"/>
    <tag k="addr:state" v="VT"/>
    <tag k="ref:vcgi:esiteid" v="900047"/>
  </node>
  <node id="-1731" visible="true" lat="43.711444625642" lon="-72.316512838702">
    <!-- conflict: "137 Hopson Road, Norwich, VT" Fuzzy match to "137 Hopson Road, , VT" -->
    <tag k="addr:city" v="Norwich"/>
    <tag k="addr:housenumber" v="137"/>
    <tag k="addr:street" v="Hopson Road"/>
    <tag k="addr:state" v="VT"/>
    <tag k="ref:vcgi:esiteid" v="900207"/>
  </node>
  <node id="-1732" visible="true" lat="43.704844593324" lon="-72.305436838503">
    <!-- conflict: "2 Montshire Road, Norwich, VT" Fuzzy match to "2 Montshire Road, , VT" -->
    <tag k="addr:city" v="Norwich"/>
    <tag k="addr:housenumber" v="2"/>
    <tag k="addr:street" v="Montshire Road"/>
    <tag k="addr:state" v="VT"/>
    <tag k="ref:vcgi:esiteid" v="900487"/>
  </node>
  <node id="-1734" visible="true" lat="43.697678880693" lon="-72.315171087843">
    <!-- conflict: "225 United States Route 5 South, Norwich, VT" No match in OSM, but a different address exists <5m away: "225 U.S. Route 5 South, , VT" -->
    <tag k="addr:city" v="Norwich"/>
    <tag k="addr:housenumber" v="225"/>
    <tag k="addr:street" v="United States Route 5 South"/>
    <tag k="addr:state" v="VT"/>
    <tag k="ref:vcgi:esiteid" v="1050644"/>
  </node>
  <node id="-1735" visible="true" lat="43.703132334668" lon="-72.308413339963">
    <!-- conflict: "214 Interstate 91 North, Norwich, VT" Fuzzy match to "214 Interstate 91 North, , VT" -->
    <tag k="addr:city" v="Norwich"/>
    <tag k="addr:housenumber" v="214"/>
    <tag k="addr:street" v="Interstate 91 North"/>
    <tag k="addr:state" v="VT"/>
    <tag k="ref:vcgi:esiteid" v="1050646"/>
  </node>
  <node id="-1736" visible="true" lat="43.71808780365" lon="-72.292426288287">
    <!-- conflict: "636 Interstate 91 North, Norwich, VT" Fuzzy match to "636 Interstate 91 North, , VT" -->
    <tag k="addr:city" v="Norwich"/>
    <tag k="addr:housenumber" v="636"/>
    <tag k="addr:street" v="Interstate 91 North"/>
    <tag k="addr:state" v="VT"/>
    <tag k="ref:vcgi:esiteid" v="1050647"/>
  </node>
  <node id="-1737" visible="true" lat="43.729489915971" lon="-72.280796879381">
    <!-- conflict: "958 Interstate 91, Norwich, VT" No match in OSM, but a different address exists <5m away: "958 Interstate 91 North, , VT" -->
    <tag k="addr:city" v="Norwich"/>
    <tag k="addr:housenumber" v="958"/>
    <tag k="addr:street" v="Interstate 91"/>
    <tag k="addr:state" v="VT"/>
    <tag k="ref:vcgi:esiteid" v="1050648"/>
  </node>
  <node id="-1738" visible="true" lat="43.740774597592" lon="-72.266947294141">
    <!-- conflict: "1296 Interstate 91, Norwich, VT" No match in OSM, but a different address exists <5m away: "1296 Interstate 91 North, , VT" -->
    <tag k="addr:city" v="Norwich"/>
    <tag k="addr:housenumber" v="1296"/>
    <tag k="addr:street" v="Interstate 91"/>
    <tag k="addr:state" v="VT"/>
    <tag k="ref:vcgi:esiteid" v="1050649"/>
  </node>
  <node id="-1739" visible="true" lat="43.749177159244" lon="-72.250498958344">
    <!-- conflict: "812 Interstate 91, Norwich, VT" No match in OSM, but a different address exists <5m away: "812 Interstate 91 South, , VT" -->
    <tag k="addr:city" v="Norwich"/>
    <tag k="addr:housenumber" v="812"/>
    <tag k="addr:street" v="Interstate 91"/>
    <tag k="addr:state" v="VT"/>
    <tag k="ref:vcgi:esiteid" v="1050650"/>
  </node>
  <node id="-1740" visible="true" lat="43.753656635284" lon="-72.238778971284">
    <!-- conflict: "1837 Interstate 91, Norwich, VT" No match in OSM, but a different address exists <5m away: "1837 Interstate 91 North, , VT" -->
    <tag k="addr:city" v="Norwich"/>
    <tag k="addr:housenumber" v="1837"/>
    <tag k="addr:street" v="Interstate 91"/>
    <tag k="addr:state" v="VT"/>
    <tag k="ref:vcgi:esiteid" v="1050651"/>
  </node>
  <node id="-1741" visible="true" lat="43.766754722314" lon="-72.223511185982">
    <!-- conflict: "2226 Interstate 91, Norwich, VT" No match in OSM, but a different address exists <5m away: "2226 Interstate 91 North, , VT" -->
    <tag k="addr:city" v="Norwich"/>
    <tag k="addr:housenumber" v="2226"/>
    <tag k="addr:street" v="Interstate 91"/>
    <tag k="addr:state" v="VT"/>
    <tag k="ref:vcgi:esiteid" v="1050652"/>
  </node>
  <node id="-1742" visible="true" lat="43.721617194628" lon="-72.339058114288">
    <!-- conflict: "468 Bragg Hill Road, Norwich, VT" Fuzzy match to "468 Bragg Hill Road, , VT" -->
    <tag k="addr:city" v="Norwich"/>
    <tag k="addr:housenumber" v="468"/>
    <tag k="addr:street" v="Bragg Hill Road"/>
    <tag k="addr:state" v="VT"/>
    <tag k="ref:vcgi:esiteid" v="1050672"/>
  </node>
</osm>
