<?xml version="1.0" encoding="UTF-8"?>
<osm version="0.6" generator="JOSM" upload="false">
  <node id="-302" visible="true" lat="43.768562000502" lon="-72.213692936949">
    <tag k="addr:city" v="Norwich"/>
    <tag k="addr:housenumber" v="1769"/>
    <tag k="addr:street" v="United States Route 5 North"/>
    <tag k="addr:state" v="VT"/>
    <tag k="ref:vcgi:esiteid" v="182314"/>
  </node>
  <node id="-310" visible="true" lat="43.767690019301" lon="-72.216225730458">
    <tag k="addr:city" v="Norwich"/>
    <tag k="addr:housenumber" v="1729"/>
    <tag k="addr:street" v="United States Route 5 North"/>
    <tag k="addr:state" v="VT"/>
    <tag k="ref:vcgi:esiteid" v="182322"/>
  </node>
  <node id="-328" visible="true" lat="43.766369535423" lon="-72.21949185316">
    <tag k="addr:city" v="Norwich"/>
    <tag k="addr:housenumber" v="1649"/>
    <tag k="addr:street" v="United States Route 5 North"/>
    <tag k="addr:state" v="VT"/>
    <tag k="ref:vcgi:esiteid" v="182340"/>
  </node>
  <node id="-454" visible="true" lat="43.758458448592" lon="-72.227913966331">
    <tag k="addr:city" v="Norwich"/>
    <tag k="addr:housenumber" v="1440"/>
    <tag k="addr:street" v="United States Route 5 North"/>
    <tag k="addr:state" v="VT"/>
    <tag k="ref:vcgi:esiteid" v="182467"/>
  </node>
  <node id="-465" visible="true" lat="43.757462812441" lon="-72.228776086891">
    <tag k="addr:city" v="Norwich"/>
    <tag k="addr:housenumber" v="1408"/>
    <tag k="addr:street" v="United States Route 5 North"/>
    <tag k="addr:state" v="VT"/>
    <tag k="ref:vcgi:esiteid" v="182479"/>
  </node>
  <node id="-580" visible="true" lat="43.748883824194" lon="-72.232106539285">
    <tag k="addr:city" v="Norwich"/>
    <tag k="addr:housenumber" v="1224"/>
    <tag k="addr:street" v="United States Route 5 North"/>
    <tag k="addr:state" v="VT"/>
    <tag k="ref:vcgi:esiteid" v="182594"/>
  </node>
  <node id="-591" visible="true" lat="43.748753858351" lon="-72.234459986889">
    <tag k="addr:city" v="Norwich"/>
    <tag k="addr:housenumber" v="1190"/>
    <tag k="addr:street" v="United States Route 5 North"/>
    <tag k="addr:state" v="VT"/>
    <tag k="ref:vcgi:esiteid" v="182605"/>
  </node>
  <node id="-616" visible="true" lat="43.747536969084" lon="-72.238724821109">
    <tag k="addr:city" v="Norwich"/>
    <tag k="addr:housenumber" v="1111"/>
    <tag k="addr:street" v="United States Route 5 North"/>
    <tag k="addr:state" v="VT"/>
    <tag k="ref:vcgi:esiteid" v="182630"/>
  </node>
  <node id="-653" visible="true" lat="43.744675945357" lon="-72.244034880864">
    <tag k="addr:city" v="Norwich"/>
    <tag k="addr:housenumber" v="1011"/>
    <tag k="addr:street" v="United States Route 5 North"/>
    <tag k="addr:state" v="VT"/>
    <tag k="ref:vcgi:esiteid" v="182668"/>
  </node>
  <node id="-721" visible="true" lat="43.737450906141" lon="-72.259026646769">
    <tag k="addr:city" v="Norwich"/>
    <tag k="addr:housenumber" v="713"/>
    <tag k="addr:street" v="United States Route 5 North"/>
    <tag k="addr:state" v="VT"/>
    <tag k="ref:vcgi:esiteid" v="182738"/>
  </node>
  <node id="-741" visible="true" lat="43.736153908811" lon="-72.262719273386">
    <tag k="addr:city" v="Norwich"/>
    <tag k="addr:housenumber" v="635"/>
    <tag k="addr:street" v="United States Route 5 North"/>
    <tag k="addr:state" v="VT"/>
    <tag k="ref:vcgi:esiteid" v="182758"/>
  </node>
  <node id="-839" visible="true" lat="43.727521246944" lon="-72.27918351197">
    <tag k="addr:city" v="Norwich"/>
    <tag k="addr:housenumber" v="251"/>
    <tag k="addr:street" v="United States Route 5 North"/>
    <tag k="addr:state" v="VT"/>
    <tag k="ref:vcgi:esiteid" v="182861"/>
  </node>
  <node id="-866" visible="true" lat="43.725964850565" lon="-72.278580788745">
    <tag k="addr:city" v="Norwich"/>
    <tag k="addr:housenumber" v="288"/>
    <tag k="addr:street" v="United States Route 5 North"/>
    <tag k="addr:state" v="VT"/>
    <tag k="ref:vcgi:esiteid" v="182891"/>
  </node>
  <node id="-1092" visible="true" lat="43.71815616235" lon="-72.287354595236">
    <tag k="addr:city" v="Norwich"/>
    <tag k="addr:housenumber" v="34"/>
    <tag k="addr:street" v="United States Route 5 North"/>
    <tag k="addr:state" v="VT"/>
    <tag k="ref:vcgi:esiteid" v="183139"/>
  </node>
  <node id="-1101" visible="true" lat="43.717912021558" lon="-72.287705548898">
    <tag k="addr:city" v="Norwich"/>
    <tag k="addr:housenumber" v="28"/>
    <tag k="addr:street" v="United States Route 5 North"/>
    <tag k="addr:state" v="VT"/>
    <tag k="ref:vcgi:esiteid" v="183148"/>
  </node>
  <node id="-1110" visible="true" lat="43.717744175438" lon="-72.28806412828">
    <tag k="addr:city" v="Norwich"/>
    <tag k="addr:housenumber" v="22"/>
    <tag k="addr:street" v="United States Route 5 North"/>
    <tag k="addr:state" v="VT"/>
    <tag k="ref:vcgi:esiteid" v="183157"/>
  </node>
  <node id="-1423" visible="true" lat="43.702724236617" lon="-72.311445660745">
    <tag k="addr:city" v="Norwich"/>
    <tag k="addr:housenumber" v="135"/>
    <tag k="addr:street" v="United States Route 5 South"/>
    <tag k="addr:state" v="VT"/>
    <tag k="ref:vcgi:esiteid" v="183501"/>
  </node>
  <node id="-1438" visible="true" lat="43.698018425018" lon="-72.317005932813">
    <tag k="addr:city" v="Norwich"/>
    <tag k="addr:housenumber" v="287"/>
    <tag k="addr:street" v="United States Route 5 South"/>
    <tag k="addr:state" v="VT"/>
    <tag k="ref:vcgi:esiteid" v="183516"/>
  </node>
  <node id="-1439" visible="true" lat="43.697329667513" lon="-72.317129119171">
    <tag k="addr:city" v="Norwich"/>
    <tag k="addr:housenumber" v="301"/>
    <tag k="addr:street" v="United States Route 5 South"/>
    <tag k="addr:state" v="VT"/>
    <tag k="ref:vcgi:esiteid" v="183517"/>
  </node>
  <node id="-1442" visible="true" lat="43.696864441966" lon="-72.317551232255">
    <tag k="addr:city" v="Norwich"/>
    <tag k="addr:housenumber" v="303"/>
    <tag k="addr:street" v="United States Route 5 South"/>
    <tag k="addr:state" v="VT"/>
    <tag k="ref:vcgi:esiteid" v="183520"/>
  </node>
  <node id="-1721" visible="true" lat="43.737486899955" lon="-72.261000430527">
    <tag k="addr:city" v="Norwich"/>
    <tag k="addr:housenumber" v="643"/>
    <tag k="addr:street" v="United States Route 5 North"/>
    <tag k="addr:state" v="VT"/>
    <tag k="ref:vcgi:esiteid" v="771878"/>
  </node>
</osm>
