<?xml version="1.0" encoding="UTF-8"?>
<osm version="0.6" generator="JOSM" upload="false">
  <node id="-213" visible="true" lat="44.155621905193" lon="-72.40487022764">
    <tag k="addr:city" v="East Barre"/>
    <tag k="addr:housenumber" v="321"/>
    <tag k="addr:street" v="United States Route 302"/>
    <tag k="addr:state" v="VT"/>
    <tag k="ref:vcgi:esiteid" v="183652"/>
  </node>
  <node id="-229" visible="true" lat="44.150369065723" lon="-72.406892019228">
    <tag k="addr:city" v="East Barre"/>
    <tag k="addr:housenumber" v="313"/>
    <tag k="addr:street" v="United States Route 302"/>
    <tag k="addr:state" v="VT"/>
    <tag k="ref:vcgi:esiteid" v="183669"/>
  </node>
  <node id="-236" visible="true" lat="44.149041160601" lon="-72.403601682754">
    <tag k="addr:city" v="East Barre"/>
    <tag k="addr:housenumber" v="357"/>
    <tag k="addr:street" v="United States Route 302"/>
    <tag k="addr:state" v="VT"/>
    <tag k="ref:vcgi:esiteid" v="183676"/>
  </node>
  <node id="-242" visible="true" lat="44.148505752059" lon="-72.403845551279">
    <tag k="addr:city" v="East Barre"/>
    <tag k="addr:housenumber" v="356"/>
    <tag k="addr:street" v="United States Route 302"/>
    <tag k="addr:state" v="VT"/>
    <tag k="ref:vcgi:esiteid" v="183682"/>
  </node>
  <node id="-244" visible="true" lat="44.148488420105" lon="-72.403222276698">
    <tag k="addr:city" v="East Barre"/>
    <tag k="addr:housenumber" v="364"/>
    <tag k="addr:street" v="United States Route 302"/>
    <tag k="addr:state" v="VT"/>
    <tag k="ref:vcgi:esiteid" v="183684"/>
  </node>
  <node id="-253" visible="true" lat="44.147874186693" lon="-72.39043561327">
    <tag k="addr:city" v="East Barre"/>
    <tag k="addr:housenumber" v="485"/>
    <tag k="addr:street" v="United States Route 302"/>
    <tag k="addr:state" v="VT"/>
    <tag k="ref:vcgi:esiteid" v="183693"/>
  </node>
  <node id="-257" visible="true" lat="44.147626294091" lon="-72.388818990168">
    <tag k="addr:city" v="East Barre"/>
    <tag k="addr:housenumber" v="501"/>
    <tag k="addr:street" v="United States Route 302"/>
    <tag k="addr:state" v="VT"/>
    <tag k="ref:vcgi:esiteid" v="183697"/>
  </node>
  <node id="-259" visible="true" lat="44.147237194079" lon="-72.386904010837">
    <tag k="addr:city" v="East Barre"/>
    <tag k="addr:housenumber" v="517"/>
    <tag k="addr:street" v="United States Route 302"/>
    <tag k="addr:state" v="VT"/>
    <tag k="ref:vcgi:esiteid" v="183699"/>
  </node>
  <node id="-260" visible="true" lat="44.147237132655" lon="-72.394441047068">
    <tag k="addr:city" v="East Barre"/>
    <tag k="addr:housenumber" v="452"/>
    <tag k="addr:street" v="United States Route 302"/>
    <tag k="addr:state" v="VT"/>
    <tag k="ref:vcgi:esiteid" v="183700"/>
  </node>
  <node id="-261" visible="true" lat="44.147130320519" lon="-72.392213261391">
    <tag k="addr:city" v="East Barre"/>
    <tag k="addr:housenumber" v="472"/>
    <tag k="addr:street" v="United States Route 302"/>
    <tag k="addr:state" v="VT"/>
    <tag k="ref:vcgi:esiteid" v="183701"/>
  </node>
  <node id="-267" visible="true" lat="44.14660776796" lon="-72.390108358656">
    <tag k="addr:city" v="East Barre"/>
    <tag k="addr:housenumber" v="496"/>
    <tag k="addr:street" v="United States Route 302"/>
    <tag k="addr:state" v="VT"/>
    <tag k="ref:vcgi:esiteid" v="183707"/>
  </node>
  <node id="-279" visible="true" lat="44.14511622054" lon="-72.378450640004">
    <tag k="addr:city" v="East Barre"/>
    <tag k="addr:housenumber" v="612"/>
    <tag k="addr:street" v="United States Route 302"/>
    <tag k="addr:state" v="VT"/>
    <tag k="ref:vcgi:esiteid" v="183719"/>
  </node>
  <node id="-302" visible="true" lat="44.1431321802" lon="-72.342257966285">
    <tag k="addr:city" v="East Barre"/>
    <tag k="addr:housenumber" v="985"/>
    <tag k="addr:street" v="United States Route 302"/>
    <tag k="addr:state" v="VT"/>
    <tag k="ref:vcgi:esiteid" v="183743"/>
  </node>
  <node id="-311" visible="true" lat="44.141968047611" lon="-72.324893040141">
    <tag k="addr:city" v="East Barre"/>
    <tag k="addr:housenumber" v="1168"/>
    <tag k="addr:street" v="United States Route 302"/>
    <tag k="addr:state" v="VT"/>
    <tag k="ref:vcgi:esiteid" v="183753"/>
  </node>
  <node id="-312" visible="true" lat="44.142094504481" lon="-72.328171878246">
    <tag k="addr:city" v="East Barre"/>
    <tag k="addr:housenumber" v="1136"/>
    <tag k="addr:street" v="United States Route 302"/>
    <tag k="addr:state" v="VT"/>
    <tag k="ref:vcgi:esiteid" v="183754"/>
  </node>
  <node id="-317" visible="true" lat="44.141968620046" lon="-72.333611638746">
    <tag k="addr:city" v="East Barre"/>
    <tag k="addr:housenumber" v="1081"/>
    <tag k="addr:street" v="United States Route 302"/>
    <tag k="addr:state" v="VT"/>
    <tag k="ref:vcgi:esiteid" v="183760"/>
  </node>
  <node id="-320" visible="true" lat="44.141911399231" lon="-72.337586553937">
    <tag k="addr:city" v="East Barre"/>
    <tag k="addr:housenumber" v="1037"/>
    <tag k="addr:street" v="United States Route 302"/>
    <tag k="addr:state" v="VT"/>
    <tag k="ref:vcgi:esiteid" v="183763"/>
  </node>
  <node id="-321" visible="true" lat="44.141781699407" lon="-72.335030706914">
    <tag k="addr:city" v="East Barre"/>
    <tag k="addr:housenumber" v="1065"/>
    <tag k="addr:street" v="United States Route 302"/>
    <tag k="addr:state" v="VT"/>
    <tag k="ref:vcgi:esiteid" v="183764"/>
  </node>
  <node id="-335" visible="true" lat="44.14068736683" lon="-72.321122335352">
    <tag k="addr:city" v="West Topsham"/>
    <tag k="addr:housenumber" v="1213"/>
    <tag k="addr:street" v="United States Route 302"/>
    <tag k="addr:state" v="VT"/>
    <tag k="ref:vcgi:esiteid" v="183778"/>
  </node>
  <node id="-606" visible="true" lat="44.145093399447" lon="-72.377336759017">
    <tag k="addr:city" v="East Barre"/>
    <tag k="addr:housenumber" v="636"/>
    <tag k="addr:street" v="United States Route 302"/>
    <tag k="addr:state" v="VT"/>
    <tag k="ref:vcgi:esiteid" v="331837"/>
  </node>
  <node id="-710" visible="true" lat="44.142858680853" lon="-72.395219690302">
    <tag k="addr:city" v="East Barre"/>
    <tag k="addr:housenumber" v="73"/>
    <tag k="addr:street" v="Manning Road"/>
    <tag k="addr:state" v="VT"/>
    <tag k="ref:vcgi:esiteid" v="773990"/>
  </node>
</osm>
