<?xml version="1.0" encoding="UTF-8"?>
<osm version="0.6" generator="JOSM" upload="false">
  <node id="-439" visible="true" lat="44.811008477058" lon="-72.204141134737">
    <!-- conflict: "12 South Avenue, Orleans, VT" No match in OSM, but a different address exists <5m away: "14 South Avenue, Orleans, VT" -->
    <tag k="addr:city" v="Orleans"/>
    <tag k="addr:housenumber" v="12"/>
    <tag k="addr:street" v="South Avenue"/>
    <tag k="addr:state" v="VT"/>
    <tag k="ref:vcgi:esiteid" v="334975"/>
  </node>
</osm>
