<?xml version="1.0" encoding="UTF-8"?>
<osm version="0.6" generator="JOSM" upload="false">
  <node id="-104" visible="true" lat="43.754911612788" lon="-73.048784006644">
    <tag k="addr:city" v="Brandon"/>
    <tag k="addr:housenumber" v="7551"/>
    <tag k="addr:street" v="United States Route 7"/>
    <tag k="addr:state" v="VT"/>
    <tag k="ref:vcgi:esiteid" v="187421"/>
  </node>
  <node id="-591" visible="true" lat="43.707049970991" lon="-73.024065194555">
    <tag k="addr:city" v="Pittsford"/>
    <tag k="addr:housenumber" v="3692"/>
    <tag k="addr:street" v="United States Route 7"/>
    <tag k="addr:state" v="VT"/>
    <tag k="ref:vcgi:esiteid" v="187954"/>
  </node>
  <node id="-600" visible="true" lat="43.706727428654" lon="-73.025192651822">
    <tag k="addr:city" v="Pittsford"/>
    <tag k="addr:housenumber" v="3748"/>
    <tag k="addr:street" v="United States Route 7"/>
    <tag k="addr:state" v="VT"/>
    <tag k="ref:vcgi:esiteid" v="187966"/>
  </node>
  <node id="-604" visible="true" lat="43.706836996257" lon="-73.027608360896">
    <tag k="addr:city" v="Pittsford"/>
    <tag k="addr:housenumber" v="3892"/>
    <tag k="addr:street" v="United States Route 7"/>
    <tag k="addr:state" v="VT"/>
    <tag k="ref:vcgi:esiteid" v="187971"/>
  </node>
  <node id="-622" visible="true" lat="43.706563269625" lon="-73.015488989347">
    <tag k="addr:city" v="Pittsford"/>
    <tag k="addr:housenumber" v="3258"/>
    <tag k="addr:street" v="United States Route 7"/>
    <tag k="addr:state" v="VT"/>
    <tag k="ref:vcgi:esiteid" v="187995"/>
  </node>
  <node id="-632" visible="true" lat="43.706336233929" lon="-73.024317879679">
    <tag k="addr:city" v="Pittsford"/>
    <tag k="addr:housenumber" v="3705"/>
    <tag k="addr:street" v="United States Route 7"/>
    <tag k="addr:state" v="VT"/>
    <tag k="ref:vcgi:esiteid" v="188007"/>
  </node>
  <node id="-638" visible="true" lat="43.70624756419" lon="-73.017505636288">
    <tag k="addr:city" v="Pittsford"/>
    <tag k="addr:housenumber" v="3357"/>
    <tag k="addr:street" v="United States Route 7"/>
    <tag k="addr:state" v="VT"/>
    <tag k="ref:vcgi:esiteid" v="188014"/>
  </node>
  <node id="-722" visible="true" lat="43.704467361959" lon="-73.012979649752">
    <tag k="addr:city" v="Pittsford"/>
    <tag k="addr:housenumber" v="3066"/>
    <tag k="addr:street" v="United States Route 7"/>
    <tag k="addr:state" v="VT"/>
    <tag k="ref:vcgi:esiteid" v="188107"/>
  </node>
  <node id="-1622" visible="true" lat="43.754976705782" lon="-73.046778391842">
    <tag k="addr:city" v="Brandon"/>
    <tag k="addr:housenumber" v="7590"/>
    <tag k="addr:street" v="United States Route 7"/>
    <tag k="addr:state" v="VT"/>
    <tag k="ref:vcgi:esiteid" v="772571"/>
  </node>
  <node id="-1625" visible="true" lat="43.72331994879" lon="-73.047365905451">
    <tag k="addr:city" v="Brandon"/>
    <tag k="addr:housenumber" v="492"/>
    <tag k="addr:street" v="Kendall Hill Road"/>
    <tag k="addr:state" v="VT"/>
    <tag k="ref:vcgi:esiteid" v="773336"/>
  </node>
  <node id="-1626" visible="true" lat="43.712352354802" lon="-73.022909205655">
    <tag k="addr:city" v="Pittsford"/>
    <tag k="addr:housenumber" v="366"/>
    <tag k="addr:street" v="Caverly Road"/>
    <tag k="addr:state" v="VT"/>
    <tag k="ref:vcgi:esiteid" v="773403"/>
  </node>
</osm>
