<?xml version="1.0" encoding="UTF-8"?>
<osm version="0.6" generator="JOSM" upload="false">
  <node id="-101" visible="true" lat="43.7354333" lon="-72.80807925">
    <!-- conflict: "23 South Hill Road Pittsfield, Pittsfield, VT" No match in OSM, but a different address exists <5m away: "4080 South Hill Road, Pittsfield, VT" -->
    <tag k="addr:city" v="Pittsfield"/>
    <tag k="addr:housenumber" v="23"/>
    <tag k="addr:street" v="South Hill Road Pittsfield"/>
    <tag k="addr:state" v="VT"/>
    <tag k="ref:vcgi:esiteid" v="187027"/>
  </node>
  <node id="-536" visible="true" lat="43.73620492" lon="-72.80763274">
    <!-- conflict: "69 South Hill Road Pittsfield, Pittsfield, VT" No match in OSM, but a different address exists <5m away: "4034 South Hill Road, Pittsfield, VT" -->
    <tag k="addr:city" v="Pittsfield"/>
    <tag k="addr:housenumber" v="69"/>
    <tag k="addr:street" v="South Hill Road Pittsfield"/>
    <tag k="addr:state" v="VT"/>
    <tag k="ref:vcgi:esiteid" v="764374"/>
  </node>
</osm>
