<?xml version="1.0" encoding="UTF-8"?>
<osm version="0.6" generator="JOSM" upload="false">
  <node id="-690" visible="true" lat="44.247207067799" lon="-72.43491442995">
    <tag k="addr:city" v="Plainfield"/>
    <tag k="addr:housenumber" v="1621"/>
    <tag k="addr:street" v="Middle Road"/>
    <tag k="addr:state" v="VT"/>
    <tag k="ref:vcgi:esiteid" v="500082"/>
  </node>
  <node id="-702" visible="true" lat="44.278479154452" lon="-72.432664520873">
    <tag k="addr:city" v="Plainfield"/>
    <tag k="addr:housenumber" v="348"/>
    <tag k="addr:street" v="High Street"/>
    <tag k="addr:state" v="VT"/>
    <tag k="ref:vcgi:esiteid" v="656808"/>
  </node>
</osm>
