<?xml version="1.0" encoding="UTF-8"?>
<osm version="0.6" generator="JOSM" upload="false">
  <node id="-111" visible="true" lat="43.585812812704" lon="-73.208894196164">
    <!-- conflict: "86 Elrena Road, Castleton, VT" Fuzzy match to "86 Elrena Road, Poultney, VT" -->
    <tag k="addr:city" v="Castleton"/>
    <tag k="addr:housenumber" v="86"/>
    <tag k="addr:street" v="Elrena Road"/>
    <tag k="addr:state" v="VT"/>
    <tag k="ref:vcgi:esiteid" v="190768"/>
  </node>
  <node id="-160" visible="true" lat="43.575374087295" lon="-73.121314218117">
    <!-- conflict: "879 Birdseye Road, Castleton, VT" Fuzzy match to "879 Birdseye Road, Poultney, VT" -->
    <tag k="addr:city" v="Castleton"/>
    <tag k="addr:housenumber" v="879"/>
    <tag k="addr:street" v="Birdseye Road"/>
    <tag k="addr:state" v="VT"/>
    <tag k="ref:vcgi:esiteid" v="190817"/>
  </node>
  <node id="-165" visible="true" lat="43.57470060171" lon="-73.120736513895">
    <!-- conflict: "935 Birdseye Road, Castleton, VT" Fuzzy match to "935 Birdseye Road, Poultney, VT" -->
    <tag k="addr:city" v="Castleton"/>
    <tag k="addr:housenumber" v="935"/>
    <tag k="addr:street" v="Birdseye Road"/>
    <tag k="addr:state" v="VT"/>
    <tag k="ref:vcgi:esiteid" v="190822"/>
  </node>
  <node id="-169" visible="true" lat="43.574498437911" lon="-73.118266138915">
    <!-- conflict: "981 Birdseye Road, Castleton, VT" Fuzzy match to "981 Birdseye Road, Poultney, VT" -->
    <tag k="addr:city" v="Castleton"/>
    <tag k="addr:housenumber" v="981"/>
    <tag k="addr:street" v="Birdseye Road"/>
    <tag k="addr:state" v="VT"/>
    <tag k="ref:vcgi:esiteid" v="190826"/>
  </node>
  <node id="-178" visible="true" lat="43.572718883641" lon="-73.122672740566">
    <!-- conflict: "1050 Birdseye Road, Castleton, VT" Fuzzy match to "1050 Birdseye Road, Poultney, VT" -->
    <tag k="addr:city" v="Castleton"/>
    <tag k="addr:housenumber" v="1050"/>
    <tag k="addr:street" v="Birdseye Road"/>
    <tag k="addr:state" v="VT"/>
    <tag k="ref:vcgi:esiteid" v="190835"/>
  </node>
  <node id="-184" visible="true" lat="43.571572548936" lon="-73.119302187774">
    <!-- conflict: "1161 Birdseye Road, Castleton, VT" Fuzzy match to "1161 Birdseye Road, Poultney, VT" -->
    <tag k="addr:city" v="Castleton"/>
    <tag k="addr:housenumber" v="1161"/>
    <tag k="addr:street" v="Birdseye Road"/>
    <tag k="addr:state" v="VT"/>
    <tag k="ref:vcgi:esiteid" v="190841"/>
  </node>
  <node id="-194" visible="true" lat="43.5680553976" lon="-73.118501100762">
    <!-- conflict: "1416 Birdseye Road, Castleton, VT" Fuzzy match to "1416 Birdseye Road, Poultney, VT" -->
    <tag k="addr:city" v="Castleton"/>
    <tag k="addr:housenumber" v="1416"/>
    <tag k="addr:street" v="Birdseye Road"/>
    <tag k="addr:state" v="VT"/>
    <tag k="ref:vcgi:esiteid" v="190852"/>
  </node>
  <node id="-1438" visible="true" lat="43.4779846566" lon="-73.218070219028">
    <!-- conflict: "3184 West Lake Road, Wells, VT" Fuzzy match to "3184 West Lake Road, Poultney, VT" -->
    <tag k="addr:city" v="Wells"/>
    <tag k="addr:housenumber" v="3184"/>
    <tag k="addr:street" v="West Lake Road"/>
    <tag k="addr:state" v="VT"/>
    <tag k="ref:vcgi:esiteid" v="192172"/>
  </node>
  <node id="-1440" visible="true" lat="43.477823071184" lon="-73.218503515357">
    <!-- conflict: "3197 West Lake Road, Wells, VT" Fuzzy match to "3197 West Lake Road, Poultney, VT" -->
    <tag k="addr:city" v="Wells"/>
    <tag k="addr:housenumber" v="3197"/>
    <tag k="addr:street" v="West Lake Road"/>
    <tag k="addr:state" v="VT"/>
    <tag k="ref:vcgi:esiteid" v="192174"/>
  </node>
  <node id="-1442" visible="true" lat="43.477701904362" lon="-73.218075037019">
    <!-- conflict: "3142 West Lake Road, Wells, VT" Fuzzy match to "3142 West Lake Road, Poultney, VT" -->
    <tag k="addr:city" v="Wells"/>
    <tag k="addr:housenumber" v="3142"/>
    <tag k="addr:street" v="West Lake Road"/>
    <tag k="addr:state" v="VT"/>
    <tag k="ref:vcgi:esiteid" v="192176"/>
  </node>
  <node id="-1444" visible="true" lat="43.477605236094" lon="-73.218542562446">
    <!-- conflict: "3241 West Lake Road, Wells, VT" Fuzzy match to "3241 West Lake Road, Poultney, VT" -->
    <tag k="addr:city" v="Wells"/>
    <tag k="addr:housenumber" v="3241"/>
    <tag k="addr:street" v="West Lake Road"/>
    <tag k="addr:state" v="VT"/>
    <tag k="ref:vcgi:esiteid" v="192178"/>
  </node>
  <node id="-1446" visible="true" lat="43.477432347587" lon="-73.21786010683">
    <!-- conflict: "3140 West Lake Road, Wells, VT" Fuzzy match to "3140 West Lake Road, Poultney, VT" -->
    <tag k="addr:city" v="Wells"/>
    <tag k="addr:housenumber" v="3140"/>
    <tag k="addr:street" v="West Lake Road"/>
    <tag k="addr:state" v="VT"/>
    <tag k="ref:vcgi:esiteid" v="192180"/>
  </node>
  <node id="-1447" visible="true" lat="43.477101653663" lon="-73.21783990475">
    <!-- conflict: "3114 West Lake Road, Wells, VT" Fuzzy match to "3114 West Lake Road, Poultney, VT" -->
    <tag k="addr:city" v="Wells"/>
    <tag k="addr:housenumber" v="3114"/>
    <tag k="addr:street" v="West Lake Road"/>
    <tag k="addr:state" v="VT"/>
    <tag k="ref:vcgi:esiteid" v="192181"/>
  </node>
  <node id="-1450" visible="true" lat="43.476933704347" lon="-73.218720853079">
    <!-- conflict: "3289 West Lake Road, Wells, VT" Fuzzy match to "3289 West Lake Road, Poultney, VT" -->
    <tag k="addr:city" v="Wells"/>
    <tag k="addr:housenumber" v="3289"/>
    <tag k="addr:street" v="West Lake Road"/>
    <tag k="addr:state" v="VT"/>
    <tag k="ref:vcgi:esiteid" v="192184"/>
  </node>
  <node id="-1452" visible="true" lat="43.476735738594" lon="-73.217826462273">
    <!-- conflict: "3086 West Lake Road, Wells, VT" Fuzzy match to "3086 West Lake Road, Poultney, VT" -->
    <tag k="addr:city" v="Wells"/>
    <tag k="addr:housenumber" v="3086"/>
    <tag k="addr:street" v="West Lake Road"/>
    <tag k="addr:state" v="VT"/>
    <tag k="ref:vcgi:esiteid" v="192186"/>
  </node>
  <node id="-1457" visible="true" lat="43.476454563096" lon="-73.218702787903">
    <!-- conflict: "3321 West Lake Road, Wells, VT" Fuzzy match to "3321 West Lake Road, Poultney, VT" -->
    <tag k="addr:city" v="Wells"/>
    <tag k="addr:housenumber" v="3321"/>
    <tag k="addr:street" v="West Lake Road"/>
    <tag k="addr:state" v="VT"/>
    <tag k="ref:vcgi:esiteid" v="192191"/>
  </node>
  <node id="-1459" visible="true" lat="43.476330981695" lon="-73.217744290596">
    <!-- conflict: "3064 West Lake Road, Wells, VT" Fuzzy match to "3064 West Lake Road, Poultney, VT" -->
    <tag k="addr:city" v="Wells"/>
    <tag k="addr:housenumber" v="3064"/>
    <tag k="addr:street" v="West Lake Road"/>
    <tag k="addr:state" v="VT"/>
    <tag k="ref:vcgi:esiteid" v="192193"/>
  </node>
  <node id="-1462" visible="true" lat="43.476269377048" lon="-73.218764068079">
    <!-- conflict: "3335 West Lake Road, Wells, VT" Fuzzy match to "3335 West Lake Road, Poultney, VT" -->
    <tag k="addr:city" v="Wells"/>
    <tag k="addr:housenumber" v="3335"/>
    <tag k="addr:street" v="West Lake Road"/>
    <tag k="addr:state" v="VT"/>
    <tag k="ref:vcgi:esiteid" v="192196"/>
  </node>
  <node id="-1463" visible="true" lat="43.476028593888" lon="-73.218206059434">
    <!-- conflict: "3054 West Lake Road, Wells, VT" Fuzzy match to "3054 West Lake Road, Poultney, VT" -->
    <tag k="addr:city" v="Wells"/>
    <tag k="addr:housenumber" v="3054"/>
    <tag k="addr:street" v="West Lake Road"/>
    <tag k="addr:state" v="VT"/>
    <tag k="ref:vcgi:esiteid" v="192197"/>
  </node>
  <node id="-1467" visible="true" lat="43.475838479528" lon="-73.21831241105">
    <!-- conflict: "3036 West Lake Road, Wells, VT" Fuzzy match to "3036 West Lake Road, Poultney, VT" -->
    <tag k="addr:city" v="Wells"/>
    <tag k="addr:housenumber" v="3036"/>
    <tag k="addr:street" v="West Lake Road"/>
    <tag k="addr:state" v="VT"/>
    <tag k="ref:vcgi:esiteid" v="192201"/>
  </node>
  <node id="-1472" visible="true" lat="43.475503401377" lon="-73.218642422378">
    <!-- conflict: "3010 West Lake Road, Wells, VT" Fuzzy match to "3010 West Lake Road, Poultney, VT" -->
    <tag k="addr:city" v="Wells"/>
    <tag k="addr:housenumber" v="3010"/>
    <tag k="addr:street" v="West Lake Road"/>
    <tag k="addr:state" v="VT"/>
    <tag k="ref:vcgi:esiteid" v="192206"/>
  </node>
  <node id="-1473" visible="true" lat="43.475651105334" lon="-73.21836799022">
    <!-- conflict: "3026 West Lake Road, Wells, VT" Fuzzy match to "3026 West Lake Road, Poultney, VT" -->
    <tag k="addr:city" v="Wells"/>
    <tag k="addr:housenumber" v="3026"/>
    <tag k="addr:street" v="West Lake Road"/>
    <tag k="addr:state" v="VT"/>
    <tag k="ref:vcgi:esiteid" v="192207"/>
  </node>
  <node id="-1477" visible="true" lat="43.475279935884" lon="-73.218475101317">
    <!-- conflict: "2984 West Lake Road, Wells, VT" Fuzzy match to "2984 West Lake Road, Poultney, VT" -->
    <tag k="addr:city" v="Wells"/>
    <tag k="addr:housenumber" v="2984"/>
    <tag k="addr:street" v="West Lake Road"/>
    <tag k="addr:state" v="VT"/>
    <tag k="ref:vcgi:esiteid" v="192211"/>
  </node>
  <node id="-1478" visible="true" lat="43.475426898541" lon="-73.219300688065">
    <!-- conflict: "3300 West Lake Road, Wells, VT" Fuzzy match to "3300 West Lake Road, Poultney, VT" -->
    <tag k="addr:city" v="Wells"/>
    <tag k="addr:housenumber" v="3300"/>
    <tag k="addr:street" v="West Lake Road"/>
    <tag k="addr:state" v="VT"/>
    <tag k="ref:vcgi:esiteid" v="192212"/>
  </node>
  <node id="-1479" visible="true" lat="43.475040186463" lon="-73.218401180757">
    <!-- conflict: "2972 West Lake Road, Wells, VT" Fuzzy match to "2972 West Lake Road, Poultney, VT" -->
    <tag k="addr:city" v="Wells"/>
    <tag k="addr:housenumber" v="2972"/>
    <tag k="addr:street" v="West Lake Road"/>
    <tag k="addr:state" v="VT"/>
    <tag k="ref:vcgi:esiteid" v="192213"/>
  </node>
  <node id="-1492" visible="true" lat="43.474675736998" lon="-73.218697361633">
    <!-- conflict: "2950 West Lake Road, Wells, VT" Fuzzy match to "2950 West Lake Road, Poultney, VT" -->
    <tag k="addr:city" v="Wells"/>
    <tag k="addr:housenumber" v="2950"/>
    <tag k="addr:street" v="West Lake Road"/>
    <tag k="addr:state" v="VT"/>
    <tag k="ref:vcgi:esiteid" v="192226"/>
  </node>
  <node id="-1494" visible="true" lat="43.474338891165" lon="-73.218629136367">
    <!-- conflict: "2922 West Lake Road, Wells, VT" Fuzzy match to "2922 West Lake Road, Poultney, VT" -->
    <tag k="addr:city" v="Wells"/>
    <tag k="addr:housenumber" v="2922"/>
    <tag k="addr:street" v="West Lake Road"/>
    <tag k="addr:state" v="VT"/>
    <tag k="ref:vcgi:esiteid" v="192228"/>
  </node>
  <node id="-1496" visible="true" lat="43.47410622484" lon="-73.218548749726">
    <!-- conflict: "2904 West Lake Road, Wells, VT" Fuzzy match to "2904 West Lake Road, Poultney, VT" -->
    <tag k="addr:city" v="Wells"/>
    <tag k="addr:housenumber" v="2904"/>
    <tag k="addr:street" v="West Lake Road"/>
    <tag k="addr:state" v="VT"/>
    <tag k="ref:vcgi:esiteid" v="192230"/>
  </node>
  <node id="-1500" visible="true" lat="43.473908351446" lon="-73.218636590499">
    <!-- conflict: "2880 West Lake Road, Wells, VT" Fuzzy match to "2880 West Lake Road, Poultney, VT" -->
    <tag k="addr:city" v="Wells"/>
    <tag k="addr:housenumber" v="2880"/>
    <tag k="addr:street" v="West Lake Road"/>
    <tag k="addr:state" v="VT"/>
    <tag k="ref:vcgi:esiteid" v="192234"/>
  </node>
  <node id="-1502" visible="true" lat="43.473684102697" lon="-73.218854233043">
    <!-- conflict: "2876 West Lake Road, Wells, VT" Fuzzy match to "2876 West Lake Road, Poultney, VT" -->
    <tag k="addr:city" v="Wells"/>
    <tag k="addr:housenumber" v="2876"/>
    <tag k="addr:street" v="West Lake Road"/>
    <tag k="addr:state" v="VT"/>
    <tag k="ref:vcgi:esiteid" v="192236"/>
  </node>
  <node id="-1505" visible="true" lat="43.473518180941" lon="-73.219178375208">
    <!-- conflict: "2852 West Lake Road, Wells, VT" Fuzzy match to "2852 West Lake Road, Poultney, VT" -->
    <tag k="addr:city" v="Wells"/>
    <tag k="addr:housenumber" v="2852"/>
    <tag k="addr:street" v="West Lake Road"/>
    <tag k="addr:state" v="VT"/>
    <tag k="ref:vcgi:esiteid" v="192239"/>
  </node>
  <node id="-1508" visible="true" lat="43.473406665029" lon="-73.219014994128">
    <!-- conflict: "2850 West Lake Road, Wells, VT" Fuzzy match to "2850 West Lake Road, Poultney, VT" -->
    <tag k="addr:city" v="Wells"/>
    <tag k="addr:housenumber" v="2850"/>
    <tag k="addr:street" v="West Lake Road"/>
    <tag k="addr:state" v="VT"/>
    <tag k="ref:vcgi:esiteid" v="192242"/>
  </node>
  <node id="-1511" visible="true" lat="43.473115191598" lon="-73.219209134462">
    <!-- conflict: "2848 West Lake Road, Wells, VT" Fuzzy match to "2848 West Lake Road, Poultney, VT" -->
    <tag k="addr:city" v="Wells"/>
    <tag k="addr:housenumber" v="2848"/>
    <tag k="addr:street" v="West Lake Road"/>
    <tag k="addr:state" v="VT"/>
    <tag k="ref:vcgi:esiteid" v="192245"/>
  </node>
  <node id="-1512" visible="true" lat="43.472928746463" lon="-73.21932770657">
    <!-- conflict: "2828 West Lake Road, Wells, VT" Fuzzy match to "2828 West Lake Road, Poultney, VT" -->
    <tag k="addr:city" v="Wells"/>
    <tag k="addr:housenumber" v="2828"/>
    <tag k="addr:street" v="West Lake Road"/>
    <tag k="addr:state" v="VT"/>
    <tag k="ref:vcgi:esiteid" v="192246"/>
  </node>
  <node id="-1514" visible="true" lat="43.472765214962" lon="-73.219380780791">
    <!-- conflict: "2812 West Lake Road, Wells, VT" Fuzzy match to "2812 West Lake Road, Poultney, VT" -->
    <tag k="addr:city" v="Wells"/>
    <tag k="addr:housenumber" v="2812"/>
    <tag k="addr:street" v="West Lake Road"/>
    <tag k="addr:state" v="VT"/>
    <tag k="ref:vcgi:esiteid" v="192248"/>
  </node>
  <node id="-1516" visible="true" lat="43.472638354055" lon="-73.219331205653">
    <!-- conflict: "2804 West Lake Road, Wells, VT" Fuzzy match to "2804 West Lake Road, Poultney, VT" -->
    <tag k="addr:city" v="Wells"/>
    <tag k="addr:housenumber" v="2804"/>
    <tag k="addr:street" v="West Lake Road"/>
    <tag k="addr:state" v="VT"/>
    <tag k="ref:vcgi:esiteid" v="192251"/>
  </node>
  <node id="-1520" visible="true" lat="43.472411636093" lon="-73.219504898119">
    <!-- conflict: "2792 West Lake Road, Wells, VT" Fuzzy match to "2792 West Lake Road, Poultney, VT" -->
    <tag k="addr:city" v="Wells"/>
    <tag k="addr:housenumber" v="2792"/>
    <tag k="addr:street" v="West Lake Road"/>
    <tag k="addr:state" v="VT"/>
    <tag k="ref:vcgi:esiteid" v="192255"/>
  </node>
  <node id="-1521" visible="true" lat="43.472090864983" lon="-73.219522876879">
    <!-- conflict: "2768 West Lake Road, Wells, VT" Fuzzy match to "2768 West Lake Road, Poultney, VT" -->
    <tag k="addr:city" v="Wells"/>
    <tag k="addr:housenumber" v="2768"/>
    <tag k="addr:street" v="West Lake Road"/>
    <tag k="addr:state" v="VT"/>
    <tag k="ref:vcgi:esiteid" v="192256"/>
  </node>
  <node id="-1525" visible="true" lat="43.471959694342" lon="-73.21953596876">
    <!-- conflict: "2754 West Lake Road, Wells, VT" Fuzzy match to "2754 West Lake Road, Poultney, VT" -->
    <tag k="addr:city" v="Wells"/>
    <tag k="addr:housenumber" v="2754"/>
    <tag k="addr:street" v="West Lake Road"/>
    <tag k="addr:state" v="VT"/>
    <tag k="ref:vcgi:esiteid" v="192260"/>
  </node>
  <node id="-1528" visible="true" lat="43.471707568633" lon="-73.219628750827">
    <!-- conflict: "2746 West Lake Road, Wells, VT" Fuzzy match to "2746 West Lake Road, Poultney, VT" -->
    <tag k="addr:city" v="Wells"/>
    <tag k="addr:housenumber" v="2746"/>
    <tag k="addr:street" v="West Lake Road"/>
    <tag k="addr:state" v="VT"/>
    <tag k="ref:vcgi:esiteid" v="192263"/>
  </node>
  <node id="-1529" visible="true" lat="43.471539935624" lon="-73.219676893936">
    <!-- conflict: "2744 West Lake Road, Wells, VT" Fuzzy match to "2744 West Lake Road, Poultney, VT" -->
    <tag k="addr:city" v="Wells"/>
    <tag k="addr:housenumber" v="2744"/>
    <tag k="addr:street" v="West Lake Road"/>
    <tag k="addr:state" v="VT"/>
    <tag k="ref:vcgi:esiteid" v="192264"/>
  </node>
  <node id="-1535" visible="true" lat="43.471322282562" lon="-73.21979659901">
    <!-- conflict: "2718 West Lake Road, Wells, VT" Fuzzy match to "2718 West Lake Road, Poultney, VT" -->
    <tag k="addr:city" v="Wells"/>
    <tag k="addr:housenumber" v="2718"/>
    <tag k="addr:street" v="West Lake Road"/>
    <tag k="addr:state" v="VT"/>
    <tag k="ref:vcgi:esiteid" v="192271"/>
  </node>
  <node id="-1538" visible="true" lat="43.471148307042" lon="-73.219716959193">
    <!-- conflict: "114 Pine Shadows Lane, Wells, VT" Fuzzy match to "114 Pine Shadows Lane, Poultney, VT" -->
    <tag k="addr:city" v="Wells"/>
    <tag k="addr:housenumber" v="114"/>
    <tag k="addr:street" v="Pine Shadows Lane"/>
    <tag k="addr:state" v="VT"/>
    <tag k="ref:vcgi:esiteid" v="192274"/>
  </node>
  <node id="-1540" visible="true" lat="43.470868333763" lon="-73.219777427544">
    <!-- conflict: "102 Pine Shadows Lane, Wells, VT" Fuzzy match to "102 Pine Shadows Lane, Poultney, VT" -->
    <tag k="addr:city" v="Wells"/>
    <tag k="addr:housenumber" v="102"/>
    <tag k="addr:street" v="Pine Shadows Lane"/>
    <tag k="addr:state" v="VT"/>
    <tag k="ref:vcgi:esiteid" v="192276"/>
  </node>
  <node id="-1544" visible="true" lat="43.470592278359" lon="-73.219897980139">
    <!-- conflict: "70 Pine Shadows Lane, Wells, VT" Fuzzy match to "70 Pine Shadows Lane, Poultney, VT" -->
    <tag k="addr:city" v="Wells"/>
    <tag k="addr:housenumber" v="70"/>
    <tag k="addr:street" v="Pine Shadows Lane"/>
    <tag k="addr:state" v="VT"/>
    <tag k="ref:vcgi:esiteid" v="192280"/>
  </node>
  <node id="-1547" visible="true" lat="43.470308705263" lon="-73.219975345899">
    <!-- conflict: "54 Pine Shadows Lane, Wells, VT" Fuzzy match to "54 Pine Shadows Lane, Poultney, VT" -->
    <tag k="addr:city" v="Wells"/>
    <tag k="addr:housenumber" v="54"/>
    <tag k="addr:street" v="Pine Shadows Lane"/>
    <tag k="addr:state" v="VT"/>
    <tag k="ref:vcgi:esiteid" v="192283"/>
  </node>
  <node id="-1555" visible="true" lat="43.469794531181" lon="-73.219918185918">
    <!-- conflict: "30 Pine Shadows Lane, Wells, VT" Fuzzy match to "30 Pine Shadows Lane, Poultney, VT" -->
    <tag k="addr:city" v="Wells"/>
    <tag k="addr:housenumber" v="30"/>
    <tag k="addr:street" v="Pine Shadows Lane"/>
    <tag k="addr:state" v="VT"/>
    <tag k="ref:vcgi:esiteid" v="192291"/>
  </node>
  <node id="-1556" visible="true" lat="43.469489617478" lon="-73.219951381978">
    <!-- conflict: "18 Pine Shadows Lane, Wells, VT" Fuzzy match to "18 Pine Shadows Lane, Poultney, VT" -->
    <tag k="addr:city" v="Wells"/>
    <tag k="addr:housenumber" v="18"/>
    <tag k="addr:street" v="Pine Shadows Lane"/>
    <tag k="addr:state" v="VT"/>
    <tag k="ref:vcgi:esiteid" v="192292"/>
  </node>
  <node id="-1560" visible="true" lat="43.469225444117" lon="-73.220413596432">
    <!-- conflict: "2522 West Lake Road, Wells, VT" Fuzzy match to "2522 West Lake Road, Poultney, VT" -->
    <tag k="addr:city" v="Wells"/>
    <tag k="addr:housenumber" v="2522"/>
    <tag k="addr:street" v="West Lake Road"/>
    <tag k="addr:state" v="VT"/>
    <tag k="ref:vcgi:esiteid" v="192296"/>
  </node>
  <node id="-1570" visible="true" lat="43.468431241544" lon="-73.220971566122">
    <!-- conflict: "2508 West Lake Road, Wells, VT" Fuzzy match to "2508 West Lake Road, Poultney, VT" -->
    <tag k="addr:city" v="Wells"/>
    <tag k="addr:housenumber" v="2508"/>
    <tag k="addr:street" v="West Lake Road"/>
    <tag k="addr:state" v="VT"/>
    <tag k="ref:vcgi:esiteid" v="192307"/>
  </node>
  <node id="-1572" visible="true" lat="43.468331240946" lon="-73.221222200385">
    <!-- conflict: "2494 West Lake Road, Wells, VT" Fuzzy match to "2494 West Lake Road, Poultney, VT" -->
    <tag k="addr:city" v="Wells"/>
    <tag k="addr:housenumber" v="2494"/>
    <tag k="addr:street" v="West Lake Road"/>
    <tag k="addr:state" v="VT"/>
    <tag k="ref:vcgi:esiteid" v="192309"/>
  </node>
  <node id="-1578" visible="true" lat="43.468344686159" lon="-73.236270570011">
    <!-- conflict: "1660 High Road, Poultney, VT" No match in OSM, but a different address exists <5m away: "1702 High Road, Poultney, VT" -->
    <tag k="addr:city" v="Poultney"/>
    <tag k="addr:housenumber" v="1660"/>
    <tag k="addr:street" v="High Road"/>
    <tag k="addr:state" v="VT"/>
    <tag k="ref:vcgi:esiteid" v="192315"/>
  </node>
  <node id="-1579" visible="true" lat="43.467900498884" lon="-73.222138823627">
    <!-- conflict: "2432 West Lake Road, Wells, VT" Fuzzy match to "2432 West Lake Road, Poultney, VT" -->
    <tag k="addr:city" v="Wells"/>
    <tag k="addr:housenumber" v="2432"/>
    <tag k="addr:street" v="West Lake Road"/>
    <tag k="addr:state" v="VT"/>
    <tag k="ref:vcgi:esiteid" v="192316"/>
  </node>
  <node id="-1588" visible="true" lat="43.467568602732" lon="-73.222509024171">
    <!-- conflict: "2420 West Lake Road, Wells, VT" Fuzzy match to "2420 West Lake Road, Poultney, VT" -->
    <tag k="addr:city" v="Wells"/>
    <tag k="addr:housenumber" v="2420"/>
    <tag k="addr:street" v="West Lake Road"/>
    <tag k="addr:state" v="VT"/>
    <tag k="ref:vcgi:esiteid" v="192325"/>
  </node>
  <node id="-1593" visible="true" lat="43.467286170885" lon="-73.22253282958">
    <!-- conflict: "2416 West Lake Road, Wells, VT" Fuzzy match to "2416 West Lake Road, Poultney, VT" -->
    <tag k="addr:city" v="Wells"/>
    <tag k="addr:housenumber" v="2416"/>
    <tag k="addr:street" v="West Lake Road"/>
    <tag k="addr:state" v="VT"/>
    <tag k="ref:vcgi:esiteid" v="192330"/>
  </node>
  <node id="-1603" visible="true" lat="43.467070733809" lon="-73.222657461165">
    <!-- conflict: "2350 West Lake Road, Wells, VT" Fuzzy match to "2350 West Lake Road, Poultney, VT" -->
    <tag k="addr:city" v="Wells"/>
    <tag k="addr:housenumber" v="2350"/>
    <tag k="addr:street" v="West Lake Road"/>
    <tag k="addr:state" v="VT"/>
    <tag k="ref:vcgi:esiteid" v="192340"/>
  </node>
  <node id="-1610" visible="true" lat="43.466653514067" lon="-73.223004341603">
    <!-- conflict: "2316 West Lake Road, Wells, VT" Fuzzy match to "2316 West Lake Road, Poultney, VT" -->
    <tag k="addr:city" v="Wells"/>
    <tag k="addr:housenumber" v="2316"/>
    <tag k="addr:street" v="West Lake Road"/>
    <tag k="addr:state" v="VT"/>
    <tag k="ref:vcgi:esiteid" v="192347"/>
  </node>
  <node id="-1613" visible="true" lat="43.466343553283" lon="-73.223161517809">
    <!-- conflict: "2314 West Lake Road, Wells, VT" Fuzzy match to "2314 West Lake Road, Poultney, VT" -->
    <tag k="addr:city" v="Wells"/>
    <tag k="addr:housenumber" v="2314"/>
    <tag k="addr:street" v="West Lake Road"/>
    <tag k="addr:state" v="VT"/>
    <tag k="ref:vcgi:esiteid" v="192350"/>
  </node>
  <node id="-1624" visible="true" lat="43.465944191657" lon="-73.22283497062">
    <!-- conflict: "94 Oxbow Bay Drive, Wells, VT" Fuzzy match to "94 Oxbow Bay Drive, Poultney, VT" -->
    <tag k="addr:city" v="Wells"/>
    <tag k="addr:housenumber" v="94"/>
    <tag k="addr:street" v="Oxbow Bay Drive"/>
    <tag k="addr:state" v="VT"/>
    <tag k="ref:vcgi:esiteid" v="192361"/>
  </node>
  <node id="-1631" visible="true" lat="43.4654705524" lon="-73.222742020982">
    <!-- conflict: "82 Oxbow Bay Drive, Wells, VT" Fuzzy match to "82 Oxbow Bay Drive, Poultney, VT" -->
    <tag k="addr:city" v="Wells"/>
    <tag k="addr:housenumber" v="82"/>
    <tag k="addr:street" v="Oxbow Bay Drive"/>
    <tag k="addr:state" v="VT"/>
    <tag k="ref:vcgi:esiteid" v="192368"/>
  </node>
  <node id="-1637" visible="true" lat="43.465238178199" lon="-73.222523655649">
    <!-- conflict: "68 Oxbow Bay Drive, Wells, VT" Fuzzy match to "68 Oxbow Bay Drive, Poultney, VT" -->
    <tag k="addr:city" v="Wells"/>
    <tag k="addr:housenumber" v="68"/>
    <tag k="addr:street" v="Oxbow Bay Drive"/>
    <tag k="addr:state" v="VT"/>
    <tag k="ref:vcgi:esiteid" v="192374"/>
  </node>
  <node id="-1638" visible="true" lat="43.465672444409" lon="-73.220571146104">
    <!-- conflict: "178 Peninsula Drive, Wells, VT" Fuzzy match to "178 Peninsula Drive, Poultney, VT" -->
    <tag k="addr:city" v="Wells"/>
    <tag k="addr:housenumber" v="178"/>
    <tag k="addr:street" v="Peninsula Drive"/>
    <tag k="addr:state" v="VT"/>
    <tag k="ref:vcgi:esiteid" v="192375"/>
  </node>
  <node id="-1641" visible="true" lat="43.464968722664" lon="-73.222410049535">
    <!-- conflict: "44 Oxbow Bay Drive, Wells, VT" Fuzzy match to "44 Oxbow Bay Drive, Poultney, VT" -->
    <tag k="addr:city" v="Wells"/>
    <tag k="addr:housenumber" v="44"/>
    <tag k="addr:street" v="Oxbow Bay Drive"/>
    <tag k="addr:state" v="VT"/>
    <tag k="ref:vcgi:esiteid" v="192378"/>
  </node>
  <node id="-1650" visible="true" lat="43.464467381967" lon="-73.222295063818">
    <!-- conflict: "20 Oxbow Bay Drive, Wells, VT" Fuzzy match to "20 Oxbow Bay Drive, Poultney, VT" -->
    <tag k="addr:city" v="Wells"/>
    <tag k="addr:housenumber" v="20"/>
    <tag k="addr:street" v="Oxbow Bay Drive"/>
    <tag k="addr:state" v="VT"/>
    <tag k="ref:vcgi:esiteid" v="192387"/>
  </node>
  <node id="-1655" visible="true" lat="43.464135034075" lon="-73.220451400238">
    <!-- conflict: "132 Peninsula Drive, Wells, VT" Fuzzy match to "132 Peninsula Drive, Poultney, VT" -->
    <tag k="addr:city" v="Wells"/>
    <tag k="addr:housenumber" v="132"/>
    <tag k="addr:street" v="Peninsula Drive"/>
    <tag k="addr:state" v="VT"/>
    <tag k="ref:vcgi:esiteid" v="192393"/>
  </node>
  <node id="-1660" visible="true" lat="43.46410868952" lon="-73.220620572758">
    <!-- conflict: "123 Peninsula Drive, Wells, VT" Fuzzy match to "123 Peninsula Drive, Poultney, VT" -->
    <tag k="addr:city" v="Wells"/>
    <tag k="addr:housenumber" v="123"/>
    <tag k="addr:street" v="Peninsula Drive"/>
    <tag k="addr:state" v="VT"/>
    <tag k="ref:vcgi:esiteid" v="192398"/>
  </node>
  <node id="-1663" visible="true" lat="43.463792062261" lon="-73.222174022399">
    <!-- conflict: "2092 West Lake Road, Wells, VT" Fuzzy match to "2092 West Lake Road, Poultney, VT" -->
    <tag k="addr:city" v="Wells"/>
    <tag k="addr:housenumber" v="2092"/>
    <tag k="addr:street" v="West Lake Road"/>
    <tag k="addr:state" v="VT"/>
    <tag k="ref:vcgi:esiteid" v="192401"/>
  </node>
  <node id="-1665" visible="true" lat="43.463686013016" lon="-73.221760305261">
    <!-- conflict: "63 Peninsula Drive, Wells, VT" Fuzzy match to "63 Peninsula Drive, Poultney, VT" -->
    <tag k="addr:city" v="Wells"/>
    <tag k="addr:housenumber" v="63"/>
    <tag k="addr:street" v="Peninsula Drive"/>
    <tag k="addr:state" v="VT"/>
    <tag k="ref:vcgi:esiteid" v="192403"/>
  </node>
  <node id="-1666" visible="true" lat="43.463429053908" lon="-73.222010397636">
    <!-- conflict: "61 Peninsula Drive, Wells, VT" Fuzzy match to "61 Peninsula Drive, Poultney, VT" -->
    <tag k="addr:city" v="Wells"/>
    <tag k="addr:housenumber" v="61"/>
    <tag k="addr:street" v="Peninsula Drive"/>
    <tag k="addr:state" v="VT"/>
    <tag k="ref:vcgi:esiteid" v="192404"/>
  </node>
  <node id="-1667" visible="true" lat="43.463547928489" lon="-73.221124112938">
    <!-- conflict: "88 Peninsula Drive, Wells, VT" Fuzzy match to "88 Peninsula Drive, Poultney, VT" -->
    <tag k="addr:city" v="Wells"/>
    <tag k="addr:housenumber" v="88"/>
    <tag k="addr:street" v="Peninsula Drive"/>
    <tag k="addr:state" v="VT"/>
    <tag k="ref:vcgi:esiteid" v="192405"/>
  </node>
  <node id="-1668" visible="true" lat="43.463547928221" lon="-73.221261442642">
    <!-- conflict: "80 Peninsula Drive, Wells, VT" Fuzzy match to "80 Peninsula Drive, Poultney, VT" -->
    <tag k="addr:city" v="Wells"/>
    <tag k="addr:housenumber" v="80"/>
    <tag k="addr:street" v="Peninsula Drive"/>
    <tag k="addr:state" v="VT"/>
    <tag k="ref:vcgi:esiteid" v="192406"/>
  </node>
  <node id="-1669" visible="true" lat="43.463759047498" lon="-73.222461681574">
    <!-- conflict: "2090 West Lake Road, Wells, VT" Fuzzy match to "2090 West Lake Road, Poultney, VT" -->
    <tag k="addr:city" v="Wells"/>
    <tag k="addr:housenumber" v="2090"/>
    <tag k="addr:street" v="West Lake Road"/>
    <tag k="addr:state" v="VT"/>
    <tag k="ref:vcgi:esiteid" v="192407"/>
  </node>
  <node id="-1670" visible="true" lat="43.463482154693" lon="-73.221492182384">
    <!-- conflict: "60 Peninsula Drive, Wells, VT" Fuzzy match to "60 Peninsula Drive, Poultney, VT" -->
    <tag k="addr:city" v="Wells"/>
    <tag k="addr:housenumber" v="60"/>
    <tag k="addr:street" v="Peninsula Drive"/>
    <tag k="addr:state" v="VT"/>
    <tag k="ref:vcgi:esiteid" v="192408"/>
  </node>
  <node id="-1671" visible="true" lat="43.463490708228" lon="-73.220483243947">
    <!-- conflict: "96 Peninsula Drive, Wells, VT" Fuzzy match to "96 Peninsula Drive, Poultney, VT" -->
    <tag k="addr:city" v="Wells"/>
    <tag k="addr:housenumber" v="96"/>
    <tag k="addr:street" v="Peninsula Drive"/>
    <tag k="addr:state" v="VT"/>
    <tag k="ref:vcgi:esiteid" v="192409"/>
  </node>
  <node id="-1672" visible="true" lat="43.463495876423" lon="-73.223007597662">
    <!-- conflict: "2093 West Lake Road, Wells, VT" Fuzzy match to "2093 West Lake Road, Poultney, VT" -->
    <tag k="addr:city" v="Wells"/>
    <tag k="addr:housenumber" v="2093"/>
    <tag k="addr:street" v="West Lake Road"/>
    <tag k="addr:state" v="VT"/>
    <tag k="ref:vcgi:esiteid" v="192410"/>
  </node>
  <node id="-1708" visible="true" lat="43.464112917513" lon="-73.220274824617">
    <!-- conflict: "122 Peninsula Drive, Wells, VT" Fuzzy match to "122 Peninsula Drive, Poultney, VT" -->
    <tag k="addr:city" v="Wells"/>
    <tag k="addr:housenumber" v="122"/>
    <tag k="addr:street" v="Peninsula Drive"/>
    <tag k="addr:state" v="VT"/>
    <tag k="ref:vcgi:esiteid" v="192450"/>
  </node>
  <node id="-1754" visible="true" lat="43.46412055739" lon="-73.222356784176">
    <!-- conflict: "10 Oxbow Bay Drive, Wells, VT" Fuzzy match to "10 Oxbow Bay Drive, Poultney, VT" -->
    <tag k="addr:city" v="Wells"/>
    <tag k="addr:housenumber" v="10"/>
    <tag k="addr:street" v="Oxbow Bay Drive"/>
    <tag k="addr:state" v="VT"/>
    <tag k="ref:vcgi:esiteid" v="311169"/>
  </node>
  <node id="-1806" visible="true" lat="43.465747473772" lon="-73.223227600132">
    <!-- conflict: "2260 West Lake Road, Wells, VT" Fuzzy match to "2260 West Lake Road, Poultney, VT" -->
    <tag k="addr:city" v="Wells"/>
    <tag k="addr:housenumber" v="2260"/>
    <tag k="addr:street" v="West Lake Road"/>
    <tag k="addr:state" v="VT"/>
    <tag k="ref:vcgi:esiteid" v="453520"/>
  </node>
  <node id="-1810" visible="true" lat="43.467262535913" lon="-73.222977840601">
    <!-- conflict: "2348 West Lake Road, Wells, VT" Fuzzy match to "2348 West Lake Road, Poultney, VT" -->
    <tag k="addr:city" v="Wells"/>
    <tag k="addr:housenumber" v="2348"/>
    <tag k="addr:street" v="West Lake Road"/>
    <tag k="addr:state" v="VT"/>
    <tag k="ref:vcgi:esiteid" v="454340"/>
  </node>
  <node id="-1813" visible="true" lat="43.469596986323" lon="-73.226119034166">
    <!-- conflict: "2495 West Lake Road, Wells, VT" Fuzzy match to "2495 West Lake Road, Poultney, VT" -->
    <tag k="addr:city" v="Wells"/>
    <tag k="addr:housenumber" v="2495"/>
    <tag k="addr:street" v="West Lake Road"/>
    <tag k="addr:state" v="VT"/>
    <tag k="ref:vcgi:esiteid" v="454343"/>
  </node>
  <node id="-1837" visible="true" lat="43.479070291083" lon="-73.218087241625">
    <!-- conflict: "3200 West Lake Road, Wells, VT" Fuzzy match to "3200 West Lake Road, Poultney, VT" -->
    <tag k="addr:city" v="Wells"/>
    <tag k="addr:housenumber" v="3200"/>
    <tag k="addr:street" v="West Lake Road"/>
    <tag k="addr:state" v="VT"/>
    <tag k="ref:vcgi:esiteid" v="753915"/>
  </node>
  <node id="-1864" visible="true" lat="43.466348983727" lon="-73.224936197159">
    <!-- conflict: "2245 West Lake Road, Wells, VT" Fuzzy match to "2245 West Lake Road, Poultney, VT" -->
    <tag k="addr:city" v="Wells"/>
    <tag k="addr:housenumber" v="2245"/>
    <tag k="addr:street" v="West Lake Road"/>
    <tag k="addr:state" v="VT"/>
    <tag k="ref:vcgi:esiteid" v="766517"/>
  </node>
  <node id="-1865" visible="true" lat="43.464253743601" lon="-73.223968060613">
    <!-- conflict: "2243 West Lake Road, Wells, VT" Fuzzy match to "2243 West Lake Road, Poultney, VT" -->
    <tag k="addr:city" v="Wells"/>
    <tag k="addr:housenumber" v="2243"/>
    <tag k="addr:street" v="West Lake Road"/>
    <tag k="addr:state" v="VT"/>
    <tag k="ref:vcgi:esiteid" v="766518"/>
  </node>
  <node id="-1881" visible="true" lat="43.467957347088" lon="-73.224144540485">
    <!-- conflict: "2371 West Lake Road, Wells, VT" Fuzzy match to "2371 West Lake Road, Poultney, VT" -->
    <tag k="addr:city" v="Wells"/>
    <tag k="addr:housenumber" v="2371"/>
    <tag k="addr:street" v="West Lake Road"/>
    <tag k="addr:state" v="VT"/>
    <tag k="ref:vcgi:esiteid" v="772690"/>
  </node>
  <node id="-1885" visible="true" lat="43.584154016631" lon="-73.158377107856">
    <!-- conflict: "1700 Pond Hill Road, Castleton, VT" Fuzzy match to "1700 Pond Hill Road, Poultney, VT" -->
    <tag k="addr:city" v="Castleton"/>
    <tag k="addr:housenumber" v="1700"/>
    <tag k="addr:street" v="Pond Hill Road"/>
    <tag k="addr:state" v="VT"/>
    <tag k="ref:vcgi:esiteid" v="1050948"/>
  </node>
</osm>
