<?xml version="1.0" encoding="UTF-8"?>
<osm version="0.6" generator="JOSM" upload="false">
  <node id="-1271" visible="true" lat="42.967630061853" lon="-72.524094658309">
    <!-- conflict: "109 Alice Holway Drive, Putney, VT" No match in OSM, but a different address exists <5m away: "23 Alice Holway Drive, Putney, VT" -->
    <tag k="addr:city" v="Putney"/>
    <tag k="addr:housenumber" v="109"/>
    <tag k="addr:street" v="Alice Holway Drive"/>
    <tag k="addr:state" v="VT"/>
    <tag k="ref:vcgi:esiteid" v="445955"/>
  </node>
  <node id="-1413" visible="true" lat="42.967021410569" lon="-72.524069928697">
    <!-- conflict: "50 Alice Holway Drive, Putney, VT" No match in OSM, but a different address exists <5m away: "14 Alice Holway Drive, Putney, VT" -->
    <tag k="addr:city" v="Putney"/>
    <tag k="addr:housenumber" v="50"/>
    <tag k="addr:street" v="Alice Holway Drive"/>
    <tag k="addr:state" v="VT"/>
    <tag k="ref:vcgi:esiteid" v="768843"/>
  </node>
</osm>
