<?xml version="1.0" encoding="UTF-8"?>
<osm version="0.6" generator="JOSM" upload="false">
  <node id="-299" visible="true" lat="43.959646283554" lon="-72.548650740744">
    <tag k="addr:city" v="East Randolph"/>
    <tag k="addr:housenumber" v="1334"/>
    <tag k="addr:street" v="Vermont Route 14 North"/>
    <tag k="addr:state" v="VT"/>
    <tag k="ref:vcgi:esiteid" v="196218"/>
  </node>
  <node id="-2144" visible="true" lat="43.926722505834" lon="-72.552562186929">
    <tag k="addr:city" v="Randolph Center"/>
    <tag k="addr:housenumber" v="12"/>
    <tag k="addr:street" v="Cemetery Hill Road"/>
    <tag k="addr:state" v="VT"/>
    <tag k="ref:vcgi:esiteid" v="500033"/>
  </node>
  <node id="-2175" visible="true" lat="43.927562611395" lon="-72.667227775345">
    <tag k="addr:city" v="Randolph"/>
    <tag k="addr:housenumber" v="136"/>
    <tag k="addr:street" v="North Main Street"/>
    <tag k="addr:state" v="VT"/>
    <tag k="ref:vcgi:esiteid" v="656610"/>
  </node>
  <node id="-2176" visible="true" lat="43.983830863908" lon="-72.61883915904">
    <tag k="addr:city" v="Randolph Center"/>
    <tag k="addr:housenumber" v="2515"/>
    <tag k="addr:street" v="Ridge Road"/>
    <tag k="addr:state" v="VT"/>
    <tag k="ref:vcgi:esiteid" v="656753"/>
  </node>
  <node id="-2298" visible="true" lat="43.922455435614" lon="-72.608147514773">
    <tag k="addr:city" v="Randolph Center"/>
    <tag k="addr:housenumber" v="1186"/>
    <tag k="addr:street" v="East Bethel Road"/>
    <tag k="addr:state" v="VT"/>
    <tag k="ref:vcgi:esiteid" v="773176"/>
  </node>
  <node id="-2299" visible="true" lat="43.905965576525" lon="-72.567443500891">
    <tag k="addr:city" v="Randolph Center"/>
    <tag k="addr:housenumber" v="2467"/>
    <tag k="addr:street" v="Davis Road"/>
    <tag k="addr:state" v="VT"/>
    <tag k="ref:vcgi:esiteid" v="773177"/>
  </node>
  <node id="-2301" visible="true" lat="43.929527456917" lon="-72.578272894989">
    <tag k="addr:city" v="Randolph Center"/>
    <tag k="addr:housenumber" v="862"/>
    <tag k="addr:street" v="Silloway Road"/>
    <tag k="addr:state" v="VT"/>
    <tag k="ref:vcgi:esiteid" v="773811"/>
  </node>
</osm>
