<?xml version="1.0" encoding="UTF-8"?>
<osm version="0.6" generator="JOSM" upload="false">
  <node id="-100" visible="true" lat="43.890616034066" lon="-72.634710286304">
    <!-- conflict: "117 Tyler William Road, Bethel, VT" Fuzzy match to "117 Tyler William Road, Randolph, VT" -->
    <tag k="addr:city" v="Bethel"/>
    <tag k="addr:housenumber" v="117"/>
    <tag k="addr:street" v="Tyler William Road"/>
    <tag k="addr:state" v="VT"/>
    <tag k="ref:vcgi:esiteid" v="24009"/>
  </node>
  <node id="-135" visible="true" lat="43.980063116595" lon="-72.623315581151">
    <!-- conflict: "3259 Hebard Hill Road, Randolph Center, VT" Fuzzy match to "3259 Hebard Hill Road, Randolph, VT" -->
    <tag k="addr:city" v="Randolph Center"/>
    <tag k="addr:housenumber" v="3259"/>
    <tag k="addr:street" v="Hebard Hill Road"/>
    <tag k="addr:state" v="VT"/>
    <tag k="ref:vcgi:esiteid" v="196051"/>
  </node>
  <node id="-150" visible="true" lat="43.977558834092" lon="-72.623928212038">
    <!-- conflict: "3133 Hebard Hill Road, Randolph Center, VT" Fuzzy match to "3133 Hebard Hill Road, Randolph, VT" -->
    <tag k="addr:city" v="Randolph Center"/>
    <tag k="addr:housenumber" v="3133"/>
    <tag k="addr:street" v="Hebard Hill Road"/>
    <tag k="addr:state" v="VT"/>
    <tag k="ref:vcgi:esiteid" v="196066"/>
  </node>
  <node id="-153" visible="true" lat="43.977182021867" lon="-72.62299850976">
    <!-- conflict: "3126 Hebard Hill Road, Randolph Center, VT" Fuzzy match to "3126 Hebard Hill Road, Randolph, VT" -->
    <tag k="addr:city" v="Randolph Center"/>
    <tag k="addr:housenumber" v="3126"/>
    <tag k="addr:street" v="Hebard Hill Road"/>
    <tag k="addr:state" v="VT"/>
    <tag k="ref:vcgi:esiteid" v="196069"/>
  </node>
  <node id="-160" visible="true" lat="43.976548357322" lon="-72.55631789839">
    <!-- conflict: "2631 Vermont Route 14 North, East Randolph, VT" Fuzzy match to "2631 Vermont Route 14 North, Randolph Center, VT" -->
    <tag k="addr:city" v="East Randolph"/>
    <tag k="addr:housenumber" v="2631"/>
    <tag k="addr:street" v="Vermont Route 14 North"/>
    <tag k="addr:state" v="VT"/>
    <tag k="ref:vcgi:esiteid" v="196076"/>
  </node>
  <node id="-162" visible="true" lat="43.976331508891" lon="-72.556245744952">
    <!-- conflict: "2611 Vermont Route 14 North, East Randolph, VT" Fuzzy match to "2611 Vermont Route 14 North, Randolph Center, VT" -->
    <tag k="addr:city" v="East Randolph"/>
    <tag k="addr:housenumber" v="2611"/>
    <tag k="addr:street" v="Vermont Route 14 North"/>
    <tag k="addr:state" v="VT"/>
    <tag k="ref:vcgi:esiteid" v="196078"/>
  </node>
  <node id="-164" visible="true" lat="43.975972468996" lon="-72.555672915061">
    <!-- conflict: "2582 Vermont Route 14 North, East Randolph, VT" Fuzzy match to "2582 Vermont Route 14 North, Randolph Center, VT" -->
    <tag k="addr:city" v="East Randolph"/>
    <tag k="addr:housenumber" v="2582"/>
    <tag k="addr:street" v="Vermont Route 14 North"/>
    <tag k="addr:state" v="VT"/>
    <tag k="ref:vcgi:esiteid" v="196080"/>
  </node>
  <node id="-167" visible="true" lat="43.97567488815" lon="-72.555516577547">
    <!-- conflict: "2558 Vermont Route 14 North, East Randolph, VT" Fuzzy match to "2558 Vermont Route 14 North, Randolph Center, VT" -->
    <tag k="addr:city" v="East Randolph"/>
    <tag k="addr:housenumber" v="2558"/>
    <tag k="addr:street" v="Vermont Route 14 North"/>
    <tag k="addr:state" v="VT"/>
    <tag k="ref:vcgi:esiteid" v="196083"/>
  </node>
  <node id="-169" visible="true" lat="43.975550826324" lon="-72.556011436528">
    <!-- conflict: "2561 Vermont Route 14 North, East Randolph, VT" Fuzzy match to "2561 Vermont Route 14 North, Randolph Center, VT" -->
    <tag k="addr:city" v="East Randolph"/>
    <tag k="addr:housenumber" v="2561"/>
    <tag k="addr:street" v="Vermont Route 14 North"/>
    <tag k="addr:state" v="VT"/>
    <tag k="ref:vcgi:esiteid" v="196085"/>
  </node>
  <node id="-171" visible="true" lat="43.97532020215" lon="-72.555436367037">
    <!-- conflict: "2536 Vermont Route 14 North, East Randolph, VT" Fuzzy match to "2536 Vermont Route 14 North, Randolph Center, VT" -->
    <tag k="addr:city" v="East Randolph"/>
    <tag k="addr:housenumber" v="2536"/>
    <tag k="addr:street" v="Vermont Route 14 North"/>
    <tag k="addr:state" v="VT"/>
    <tag k="ref:vcgi:esiteid" v="196087"/>
  </node>
  <node id="-174" visible="true" lat="43.974927287362" lon="-72.555283780107">
    <!-- conflict: "2508 Vermont Route 14 North, East Randolph, VT" Fuzzy match to "2508 Vermont Route 14 North, Randolph Center, VT" -->
    <tag k="addr:city" v="East Randolph"/>
    <tag k="addr:housenumber" v="2508"/>
    <tag k="addr:street" v="Vermont Route 14 North"/>
    <tag k="addr:state" v="VT"/>
    <tag k="ref:vcgi:esiteid" v="196090"/>
  </node>
  <node id="-175" visible="true" lat="43.974862181424" lon="-72.555851477761">
    <!-- conflict: "2509 Vermont Route 14 North, East Randolph, VT" Fuzzy match to "2509 Vermont Route 14 North, Randolph Center, VT" -->
    <tag k="addr:city" v="East Randolph"/>
    <tag k="addr:housenumber" v="2509"/>
    <tag k="addr:street" v="Vermont Route 14 North"/>
    <tag k="addr:state" v="VT"/>
    <tag k="ref:vcgi:esiteid" v="196091"/>
  </node>
  <node id="-180" visible="true" lat="43.974687862581" lon="-72.555187934247">
    <!-- conflict: "2488 Vermont Route 14 North, East Randolph, VT" Fuzzy match to "2488 Vermont Route 14 North, Randolph Center, VT" -->
    <tag k="addr:city" v="East Randolph"/>
    <tag k="addr:housenumber" v="2488"/>
    <tag k="addr:street" v="Vermont Route 14 North"/>
    <tag k="addr:state" v="VT"/>
    <tag k="ref:vcgi:esiteid" v="196096"/>
  </node>
  <node id="-181" visible="true" lat="43.974618296665" lon="-72.555772059264">
    <!-- conflict: "2491 Vermont Route 14 North, East Randolph, VT" Fuzzy match to "2491 Vermont Route 14 North, Randolph Center, VT" -->
    <tag k="addr:city" v="East Randolph"/>
    <tag k="addr:housenumber" v="2491"/>
    <tag k="addr:street" v="Vermont Route 14 North"/>
    <tag k="addr:state" v="VT"/>
    <tag k="ref:vcgi:esiteid" v="196097"/>
  </node>
  <node id="-183" visible="true" lat="43.974247007988" lon="-72.555140676577">
    <!-- conflict: "2460 Vermont Route 14 North, East Randolph, VT" Fuzzy match to "2460 Vermont Route 14 North, Randolph Center, VT" -->
    <tag k="addr:city" v="East Randolph"/>
    <tag k="addr:housenumber" v="2460"/>
    <tag k="addr:street" v="Vermont Route 14 North"/>
    <tag k="addr:state" v="VT"/>
    <tag k="ref:vcgi:esiteid" v="196100"/>
  </node>
  <node id="-184" visible="true" lat="43.97432447735" lon="-72.555720500516">
    <!-- conflict: "2469 Vermont Route 14 North, East Randolph, VT" Fuzzy match to "2469 Vermont Route 14 North, Randolph Center, VT" -->
    <tag k="addr:city" v="East Randolph"/>
    <tag k="addr:housenumber" v="2469"/>
    <tag k="addr:street" v="Vermont Route 14 North"/>
    <tag k="addr:state" v="VT"/>
    <tag k="ref:vcgi:esiteid" v="196101"/>
  </node>
  <node id="-187" visible="true" lat="43.974115896786" lon="-72.55559888447">
    <!-- conflict: "2453 Vermont Route 14 North, East Randolph, VT" Fuzzy match to "2453 Vermont Route 14 North, Randolph Center, VT" -->
    <tag k="addr:city" v="East Randolph"/>
    <tag k="addr:housenumber" v="2453"/>
    <tag k="addr:street" v="Vermont Route 14 North"/>
    <tag k="addr:state" v="VT"/>
    <tag k="ref:vcgi:esiteid" v="196104"/>
  </node>
  <node id="-193" visible="true" lat="43.973247083271" lon="-72.5465129598">
    <!-- conflict: "861 Ferris Road, Brookfield, VT" Fuzzy match to "861 Ferris Road, Randolph Center, VT" -->
    <tag k="addr:city" v="Brookfield"/>
    <tag k="addr:housenumber" v="861"/>
    <tag k="addr:street" v="Ferris Road"/>
    <tag k="addr:state" v="VT"/>
    <tag k="ref:vcgi:esiteid" v="196110"/>
  </node>
  <node id="-206" visible="true" lat="43.972309740012" lon="-72.61870083402">
    <!-- conflict: "1693 Ridge Road, Randolph Center, VT" Fuzzy match to "1693 Ridge Road, Randolph, VT" -->
    <tag k="addr:city" v="Randolph Center"/>
    <tag k="addr:housenumber" v="1693"/>
    <tag k="addr:street" v="Ridge Road"/>
    <tag k="addr:state" v="VT"/>
    <tag k="ref:vcgi:esiteid" v="196123"/>
  </node>
  <node id="-211" visible="true" lat="43.971799124625" lon="-72.555413424585">
    <!-- conflict: "2305 Vermont Route 14 North, East Randolph, VT" Fuzzy match to "2305 Vermont Route 14 North, Randolph Center, VT" -->
    <tag k="addr:city" v="East Randolph"/>
    <tag k="addr:housenumber" v="2305"/>
    <tag k="addr:street" v="Vermont Route 14 North"/>
    <tag k="addr:state" v="VT"/>
    <tag k="ref:vcgi:esiteid" v="196128"/>
  </node>
  <node id="-216" visible="true" lat="43.97125657916" lon="-72.554162935454">
    <!-- conflict: "2248 Vermont Route 14 North, East Randolph, VT" Fuzzy match to "2248 Vermont Route 14 North, Randolph Center, VT" -->
    <tag k="addr:city" v="East Randolph"/>
    <tag k="addr:housenumber" v="2248"/>
    <tag k="addr:street" v="Vermont Route 14 North"/>
    <tag k="addr:state" v="VT"/>
    <tag k="ref:vcgi:esiteid" v="196133"/>
  </node>
  <node id="-220" visible="true" lat="43.971013407556" lon="-72.553956262377">
    <!-- conflict: "2232 Vermont Route 14 North, East Randolph, VT" Fuzzy match to "2232 Vermont Route 14 North, Randolph Center, VT" -->
    <tag k="addr:city" v="East Randolph"/>
    <tag k="addr:housenumber" v="2232"/>
    <tag k="addr:street" v="Vermont Route 14 North"/>
    <tag k="addr:state" v="VT"/>
    <tag k="ref:vcgi:esiteid" v="196137"/>
  </node>
  <node id="-232" visible="true" lat="43.969857554801" lon="-72.554406397843">
    <!-- conflict: "2156 Vermont Route 14 North, East Randolph, VT" Fuzzy match to "2156 Vermont Route 14 North, Randolph Center, VT" -->
    <tag k="addr:city" v="East Randolph"/>
    <tag k="addr:housenumber" v="2156"/>
    <tag k="addr:street" v="Vermont Route 14 North"/>
    <tag k="addr:state" v="VT"/>
    <tag k="ref:vcgi:esiteid" v="196149"/>
  </node>
  <node id="-240" visible="true" lat="43.968560557851" lon="-72.546113243384">
    <!-- conflict: "35 Ferris Drive, Brookfield, VT" Fuzzy match to "35 Ferris Drive, Randolph Center, VT" -->
    <tag k="addr:city" v="Brookfield"/>
    <tag k="addr:housenumber" v="35"/>
    <tag k="addr:street" v="Ferris Drive"/>
    <tag k="addr:state" v="VT"/>
    <tag k="ref:vcgi:esiteid" v="196158"/>
  </node>
  <node id="-242" visible="true" lat="43.968372380851" lon="-72.545059805451">
    <!-- conflict: "95 Ferris Drive, Brookfield, VT" Fuzzy match to "95 Ferris Drive, Randolph Center, VT" -->
    <tag k="addr:city" v="Brookfield"/>
    <tag k="addr:housenumber" v="95"/>
    <tag k="addr:street" v="Ferris Drive"/>
    <tag k="addr:state" v="VT"/>
    <tag k="ref:vcgi:esiteid" v="196160"/>
  </node>
  <node id="-265" visible="true" lat="43.964501207557" lon="-72.513799370894">
    <!-- conflict: "3330 Chelsea Mountain Road, Chelsea, VT" Fuzzy match to "3330 Chelsea Mountain Road, Randolph, VT" -->
    <tag k="addr:city" v="Chelsea"/>
    <tag k="addr:housenumber" v="3330"/>
    <tag k="addr:street" v="Chelsea Mountain Road"/>
    <tag k="addr:state" v="VT"/>
    <tag k="ref:vcgi:esiteid" v="196183"/>
  </node>
  <node id="-272" visible="true" lat="43.965048657244" lon="-72.517586474036">
    <!-- conflict: "2883 Chelsea Mountain Road, Randolph Center, VT" Fuzzy match to "2883 Chelsea Mountain Road, Randolph, VT" -->
    <tag k="addr:city" v="Randolph Center"/>
    <tag k="addr:housenumber" v="2883"/>
    <tag k="addr:street" v="Chelsea Mountain Road"/>
    <tag k="addr:state" v="VT"/>
    <tag k="ref:vcgi:esiteid" v="196190"/>
  </node>
  <node id="-276" visible="true" lat="43.963147001003" lon="-72.515058494064">
    <!-- conflict: "3222 Chelsea Mountain Road, Chelsea, VT" Fuzzy match to "3222 Chelsea Mountain Road, Randolph, VT" -->
    <tag k="addr:city" v="Chelsea"/>
    <tag k="addr:housenumber" v="3222"/>
    <tag k="addr:street" v="Chelsea Mountain Road"/>
    <tag k="addr:state" v="VT"/>
    <tag k="ref:vcgi:esiteid" v="196194"/>
  </node>
  <node id="-286" visible="true" lat="43.961995462561" lon="-72.552026024133">
    <!-- conflict: "1568 Vermont Route 14 North, East Randolph, VT" Fuzzy match to "1568 Vermont Route 14 North, Randolph Center, VT" -->
    <tag k="addr:city" v="East Randolph"/>
    <tag k="addr:housenumber" v="1568"/>
    <tag k="addr:street" v="Vermont Route 14 North"/>
    <tag k="addr:state" v="VT"/>
    <tag k="ref:vcgi:esiteid" v="196205"/>
  </node>
  <node id="-288" visible="true" lat="43.961648794974" lon="-72.519112242647">
    <!-- conflict: "3032 Chelsea Mountain Road, Chelsea, VT" Fuzzy match to "3032 Chelsea Mountain Road, Randolph, VT" -->
    <tag k="addr:city" v="Chelsea"/>
    <tag k="addr:housenumber" v="3032"/>
    <tag k="addr:street" v="Chelsea Mountain Road"/>
    <tag k="addr:state" v="VT"/>
    <tag k="ref:vcgi:esiteid" v="196207"/>
  </node>
  <node id="-291" visible="true" lat="43.961009699809" lon="-72.552139333785">
    <!-- conflict: "1511 Vermont Route 14 North, East Randolph, VT" Fuzzy match to "1511 Vermont Route 14 North, Randolph Center, VT" -->
    <tag k="addr:city" v="East Randolph"/>
    <tag k="addr:housenumber" v="1511"/>
    <tag k="addr:street" v="Vermont Route 14 North"/>
    <tag k="addr:state" v="VT"/>
    <tag k="ref:vcgi:esiteid" v="196210"/>
  </node>
  <node id="-294" visible="true" lat="43.960542120237" lon="-72.551921767229">
    <!-- conflict: "1475 Vermont Route 14 North, East Randolph, VT" Fuzzy match to "1475 Vermont Route 14 North, Randolph Center, VT" -->
    <tag k="addr:city" v="East Randolph"/>
    <tag k="addr:housenumber" v="1475"/>
    <tag k="addr:street" v="Vermont Route 14 North"/>
    <tag k="addr:state" v="VT"/>
    <tag k="ref:vcgi:esiteid" v="196213"/>
  </node>
  <node id="-298" visible="true" lat="43.959334845522" lon="-72.551757963357">
    <!-- conflict: "1309 Vermont Route 14 North, East Randolph, VT" Fuzzy match to "1309 Vermont Route 14 North, Randolph Center, VT" -->
    <tag k="addr:city" v="East Randolph"/>
    <tag k="addr:housenumber" v="1309"/>
    <tag k="addr:street" v="Vermont Route 14 North"/>
    <tag k="addr:state" v="VT"/>
    <tag k="ref:vcgi:esiteid" v="196217"/>
  </node>
  <node id="-314" visible="true" lat="43.95841923778" lon="-72.530141726282">
    <!-- conflict: "2179 Chelsea Mountain Road, Randolph Center, VT" Fuzzy match to "2179 Chelsea Mountain Road, Randolph, VT" -->
    <tag k="addr:city" v="Randolph Center"/>
    <tag k="addr:housenumber" v="2179"/>
    <tag k="addr:street" v="Chelsea Mountain Road"/>
    <tag k="addr:state" v="VT"/>
    <tag k="ref:vcgi:esiteid" v="196233"/>
  </node>
  <node id="-318" visible="true" lat="43.958148962087" lon="-72.585646185424">
    <!-- conflict: "37 Armstrongs Trailer Park Drive C, Randolph Center, VT" No match in OSM, but a different address exists <5m away: "37 Armstrongs Trailer Park Dr C, Randolph Center, VT" -->
    <tag k="addr:city" v="Randolph Center"/>
    <tag k="addr:housenumber" v="37"/>
    <tag k="addr:street" v="Armstrongs Trailer Park Drive C"/>
    <tag k="addr:state" v="VT"/>
    <tag k="ref:vcgi:esiteid" v="196237"/>
  </node>
  <node id="-319" visible="true" lat="43.957949001504" lon="-72.586433971277">
    <!-- conflict: "59 Armstrongs Trailer Park Drive B, Randolph Center, VT" No match in OSM, but a different address exists <5m away: "59 Armstrongs Trailer Park Dr B, Randolph Center, VT" -->
    <tag k="addr:city" v="Randolph Center"/>
    <tag k="addr:housenumber" v="59"/>
    <tag k="addr:street" v="Armstrongs Trailer Park Drive B"/>
    <tag k="addr:state" v="VT"/>
    <tag k="ref:vcgi:esiteid" v="196238"/>
  </node>
  <node id="-321" visible="true" lat="43.957976580092" lon="-72.585683666485">
    <!-- conflict: "29 Armstrongs Trailer Park Drive C, Randolph Center, VT" No match in OSM, but a different address exists <5m away: "29 Armstrongs Trailer Park Dr C, Randolph Center, VT" -->
    <tag k="addr:city" v="Randolph Center"/>
    <tag k="addr:housenumber" v="29"/>
    <tag k="addr:street" v="Armstrongs Trailer Park Drive C"/>
    <tag k="addr:state" v="VT"/>
    <tag k="ref:vcgi:esiteid" v="196240"/>
  </node>
  <node id="-323" visible="true" lat="43.957827420663" lon="-72.585657518951">
    <!-- conflict: "19 Armstrongs Trailer Park Drive C, Randolph Center, VT" No match in OSM, but a different address exists <5m away: "19 Armstrongs Trailer Park Dr C, Randolph Center, VT" -->
    <tag k="addr:city" v="Randolph Center"/>
    <tag k="addr:housenumber" v="19"/>
    <tag k="addr:street" v="Armstrongs Trailer Park Drive C"/>
    <tag k="addr:state" v="VT"/>
    <tag k="ref:vcgi:esiteid" v="196242"/>
  </node>
  <node id="-324" visible="true" lat="43.957715814929" lon="-72.586390676737">
    <!-- conflict: "37 Armstrongs Trailer Park Drive B, Randolph Center, VT" No match in OSM, but a different address exists <5m away: "37 Armstrongs Trailer Park Dr B, Randolph Center, VT" -->
    <tag k="addr:city" v="Randolph Center"/>
    <tag k="addr:housenumber" v="37"/>
    <tag k="addr:street" v="Armstrongs Trailer Park Drive B"/>
    <tag k="addr:state" v="VT"/>
    <tag k="ref:vcgi:esiteid" v="196243"/>
  </node>
  <node id="-325" visible="true" lat="43.957706750487" lon="-72.587138914281">
    <!-- conflict: "67 Armstrongs Trailer Park Drive A, Randolph Center, VT" No match in OSM, but a different address exists <5m away: "67 Armstrongs Trailer Park Dr A, Randolph Center, VT" -->
    <tag k="addr:city" v="Randolph Center"/>
    <tag k="addr:housenumber" v="67"/>
    <tag k="addr:street" v="Armstrongs Trailer Park Drive A"/>
    <tag k="addr:state" v="VT"/>
    <tag k="ref:vcgi:esiteid" v="196244"/>
  </node>
  <node id="-326" visible="true" lat="43.957663826042" lon="-72.585579184321">
    <!-- conflict: "9 Armstrongs Trailer Park Drive C, Randolph Center, VT" No match in OSM, but a different address exists <5m away: "9 Armstrongs Trailer Park Dr C, Randolph Center, VT" -->
    <tag k="addr:city" v="Randolph Center"/>
    <tag k="addr:housenumber" v="9"/>
    <tag k="addr:street" v="Armstrongs Trailer Park Drive C"/>
    <tag k="addr:state" v="VT"/>
    <tag k="ref:vcgi:esiteid" v="196245"/>
  </node>
  <node id="-328" visible="true" lat="43.957660682829" lon="-72.551231519648">
    <!-- conflict: "1267 Vermont Route 14 North, East Randolph, VT" Fuzzy match to "1267 Vermont Route 14 North, Randolph Center, VT" -->
    <tag k="addr:city" v="East Randolph"/>
    <tag k="addr:housenumber" v="1267"/>
    <tag k="addr:street" v="Vermont Route 14 North"/>
    <tag k="addr:state" v="VT"/>
    <tag k="ref:vcgi:esiteid" v="196247"/>
  </node>
  <node id="-330" visible="true" lat="43.957519803846" lon="-72.586314311745">
    <!-- conflict: "23 Armstrongs Trailer Park Drive B, Randolph Center, VT" No match in OSM, but a different address exists <5m away: "23 Armstrongs Trailer Park Dr B, Randolph Center, VT" -->
    <tag k="addr:city" v="Randolph Center"/>
    <tag k="addr:housenumber" v="23"/>
    <tag k="addr:street" v="Armstrongs Trailer Park Drive B"/>
    <tag k="addr:state" v="VT"/>
    <tag k="ref:vcgi:esiteid" v="196249"/>
  </node>
  <node id="-331" visible="true" lat="43.95749024641" lon="-72.587172091284">
    <!-- conflict: "53 Armstrongs Trailer Park Drive A, Randolph Center, VT" No match in OSM, but a different address exists <5m away: "53 Armstrongs Trailer Park Dr A, Randolph Center, VT" -->
    <tag k="addr:city" v="Randolph Center"/>
    <tag k="addr:housenumber" v="53"/>
    <tag k="addr:street" v="Armstrongs Trailer Park Drive A"/>
    <tag k="addr:state" v="VT"/>
    <tag k="ref:vcgi:esiteid" v="196250"/>
  </node>
  <node id="-334" visible="true" lat="43.957295765589" lon="-72.587216480058">
    <!-- conflict: "39 Armstrongs Trailer Park Drive A, Randolph Center, VT" No match in OSM, but a different address exists <5m away: "39 Armstrongs Trailer Park Dr A, Randolph Center, VT" -->
    <tag k="addr:city" v="Randolph Center"/>
    <tag k="addr:housenumber" v="39"/>
    <tag k="addr:street" v="Armstrongs Trailer Park Drive A"/>
    <tag k="addr:state" v="VT"/>
    <tag k="ref:vcgi:esiteid" v="196253"/>
  </node>
  <node id="-336" visible="true" lat="43.957227550918" lon="-72.586322301241">
    <!-- conflict: "3 Armstrongs Trailer Park Drive B, Randolph Center, VT" No match in OSM, but a different address exists <5m away: "3 Armstrongs Trailer Park Dr B, Randolph Center, VT" -->
    <tag k="addr:city" v="Randolph Center"/>
    <tag k="addr:housenumber" v="3"/>
    <tag k="addr:street" v="Armstrongs Trailer Park Drive B"/>
    <tag k="addr:state" v="VT"/>
    <tag k="ref:vcgi:esiteid" v="196255"/>
  </node>
  <node id="-337" visible="true" lat="43.957057325366" lon="-72.587255131478">
    <!-- conflict: "25 Armstrongs Trailer Park Drive A, Randolph Center, VT" No match in OSM, but a different address exists <5m away: "25 Armstrongs Trailer Park Dr A, Randolph Center, VT" -->
    <tag k="addr:city" v="Randolph Center"/>
    <tag k="addr:housenumber" v="25"/>
    <tag k="addr:street" v="Armstrongs Trailer Park Drive A"/>
    <tag k="addr:state" v="VT"/>
    <tag k="ref:vcgi:esiteid" v="196256"/>
  </node>
  <node id="-338" visible="true" lat="43.956677842674" lon="-72.528716980359">
    <!-- conflict: "90 Moxley Drive, Randolph Center, VT" Fuzzy match to "90 Moxley Drive, Randolph, VT" -->
    <tag k="addr:city" v="Randolph Center"/>
    <tag k="addr:housenumber" v="90"/>
    <tag k="addr:street" v="Moxley Drive"/>
    <tag k="addr:state" v="VT"/>
    <tag k="ref:vcgi:esiteid" v="196257"/>
  </node>
  <node id="-357" visible="true" lat="43.954914282433" lon="-72.532442287319">
    <!-- conflict: "1915 Chelsea Mountain Road, Randolph Center, VT" Fuzzy match to "1915 Chelsea Mountain Road, Randolph, VT" -->
    <tag k="addr:city" v="Randolph Center"/>
    <tag k="addr:housenumber" v="1915"/>
    <tag k="addr:street" v="Chelsea Mountain Road"/>
    <tag k="addr:state" v="VT"/>
    <tag k="ref:vcgi:esiteid" v="196277"/>
  </node>
  <node id="-359" visible="true" lat="43.954648354056" lon="-72.546525229952">
    <!-- conflict: "1114 Vermont Route 14 North, East Randolph, VT" Fuzzy match to "1114 Vermont Route 14 North, Randolph Center, VT" -->
    <tag k="addr:city" v="East Randolph"/>
    <tag k="addr:housenumber" v="1114"/>
    <tag k="addr:street" v="Vermont Route 14 North"/>
    <tag k="addr:state" v="VT"/>
    <tag k="ref:vcgi:esiteid" v="196279"/>
  </node>
  <node id="-369" visible="true" lat="43.953873924949" lon="-72.530782507483">
    <!-- conflict: "1926 Chelsea Mountain Road, Randolph Center, VT" Fuzzy match to "1926 Chelsea Mountain Road, Randolph, VT" -->
    <tag k="addr:city" v="Randolph Center"/>
    <tag k="addr:housenumber" v="1926"/>
    <tag k="addr:street" v="Chelsea Mountain Road"/>
    <tag k="addr:state" v="VT"/>
    <tag k="ref:vcgi:esiteid" v="196289"/>
  </node>
  <node id="-370" visible="true" lat="43.953761062" lon="-72.53296368567">
    <!-- conflict: "1835 Chelsea Mountain Road, Randolph Center, VT" Fuzzy match to "1835 Chelsea Mountain Road, Randolph, VT" -->
    <tag k="addr:city" v="Randolph Center"/>
    <tag k="addr:housenumber" v="1835"/>
    <tag k="addr:street" v="Chelsea Mountain Road"/>
    <tag k="addr:state" v="VT"/>
    <tag k="ref:vcgi:esiteid" v="196290"/>
  </node>
  <node id="-378" visible="true" lat="43.952985800838" lon="-72.550731325627">
    <!-- conflict: "941 Vermont Route 14 North, East Randolph, VT" Fuzzy match to "941 Vermont Route 14 North, Randolph Center, VT" -->
    <tag k="addr:city" v="East Randolph"/>
    <tag k="addr:housenumber" v="941"/>
    <tag k="addr:street" v="Vermont Route 14 North"/>
    <tag k="addr:state" v="VT"/>
    <tag k="ref:vcgi:esiteid" v="196298"/>
  </node>
  <node id="-381" visible="true" lat="43.952612353594" lon="-72.535203522182">
    <!-- conflict: "1693 Chelsea Mountain Road, Randolph Center, VT" Fuzzy match to "1693 Chelsea Mountain Road, Randolph, VT" -->
    <tag k="addr:city" v="Randolph Center"/>
    <tag k="addr:housenumber" v="1693"/>
    <tag k="addr:street" v="Chelsea Mountain Road"/>
    <tag k="addr:state" v="VT"/>
    <tag k="ref:vcgi:esiteid" v="196301"/>
  </node>
  <node id="-383" visible="true" lat="43.952642349119" lon="-72.54986450762">
    <!-- conflict: "916 Vermont Route 14 North, East Randolph, VT" Fuzzy match to "916 Vermont Route 14 North, Randolph Center, VT" -->
    <tag k="addr:city" v="East Randolph"/>
    <tag k="addr:housenumber" v="916"/>
    <tag k="addr:street" v="Vermont Route 14 North"/>
    <tag k="addr:state" v="VT"/>
    <tag k="ref:vcgi:esiteid" v="196303"/>
  </node>
  <node id="-400" visible="true" lat="43.951510535745" lon="-72.551033586557">
    <!-- conflict: "849 Vermont Route 14 North, East Randolph, VT" Fuzzy match to "849 Vermont Route 14 North, Randolph Center, VT" -->
    <tag k="addr:city" v="East Randolph"/>
    <tag k="addr:housenumber" v="849"/>
    <tag k="addr:street" v="Vermont Route 14 North"/>
    <tag k="addr:state" v="VT"/>
    <tag k="ref:vcgi:esiteid" v="196320"/>
  </node>
  <node id="-407" visible="true" lat="43.951378014527" lon="-72.534836517885">
    <!-- conflict: "1639 Chelsea Mountain Road, Randolph Center, VT" Fuzzy match to "1639 Chelsea Mountain Road, Randolph, VT" -->
    <tag k="addr:city" v="Randolph Center"/>
    <tag k="addr:housenumber" v="1639"/>
    <tag k="addr:street" v="Chelsea Mountain Road"/>
    <tag k="addr:state" v="VT"/>
    <tag k="ref:vcgi:esiteid" v="196327"/>
  </node>
  <node id="-428" visible="true" lat="43.950003846519" lon="-72.536769184421">
    <!-- conflict: "1471 Chelsea Mountain Road, Randolph Center, VT" Fuzzy match to "1471 Chelsea Mountain Road, Randolph, VT" -->
    <tag k="addr:city" v="Randolph Center"/>
    <tag k="addr:housenumber" v="1471"/>
    <tag k="addr:street" v="Chelsea Mountain Road"/>
    <tag k="addr:state" v="VT"/>
    <tag k="ref:vcgi:esiteid" v="196348"/>
  </node>
  <node id="-435" visible="true" lat="43.949516213268" lon="-72.535398375084">
    <!-- conflict: "1526 Chelsea Mountain Road, Randolph Center, VT" Fuzzy match to "1526 Chelsea Mountain Road, Randolph, VT" -->
    <tag k="addr:city" v="Randolph Center"/>
    <tag k="addr:housenumber" v="1526"/>
    <tag k="addr:street" v="Chelsea Mountain Road"/>
    <tag k="addr:state" v="VT"/>
    <tag k="ref:vcgi:esiteid" v="196355"/>
  </node>
  <node id="-438" visible="true" lat="43.949255727407" lon="-72.536991502988">
    <!-- conflict: "1446 Chelsea Mountain Road, Randolph Center, VT" Fuzzy match to "1446 Chelsea Mountain Road, Randolph, VT" -->
    <tag k="addr:city" v="Randolph Center"/>
    <tag k="addr:housenumber" v="1446"/>
    <tag k="addr:street" v="Chelsea Mountain Road"/>
    <tag k="addr:state" v="VT"/>
    <tag k="ref:vcgi:esiteid" v="196358"/>
  </node>
  <node id="-439" visible="true" lat="43.949160446125" lon="-72.553440905841">
    <!-- conflict: "505 Vermont Route 14 North, East Randolph, VT" Fuzzy match to "505 Vermont Route 14 North, Randolph Center, VT" -->
    <tag k="addr:city" v="East Randolph"/>
    <tag k="addr:housenumber" v="505"/>
    <tag k="addr:street" v="Vermont Route 14 North"/>
    <tag k="addr:state" v="VT"/>
    <tag k="ref:vcgi:esiteid" v="196359"/>
  </node>
  <node id="-440" visible="true" lat="43.94883721065" lon="-72.553198032864">
    <!-- conflict: "507 Vermont Route 14 North, East Randolph, VT" Fuzzy match to "507 Vermont Route 14 North, Randolph Center, VT" -->
    <tag k="addr:city" v="East Randolph"/>
    <tag k="addr:housenumber" v="507"/>
    <tag k="addr:street" v="Vermont Route 14 North"/>
    <tag k="addr:state" v="VT"/>
    <tag k="ref:vcgi:esiteid" v="196360"/>
  </node>
  <node id="-464" visible="true" lat="43.946591002041" lon="-72.536636021346">
    <!-- conflict: "96 Osgood Drive, Randolph Center, VT" Fuzzy match to "96 Osgood Drive, Randolph, VT" -->
    <tag k="addr:city" v="Randolph Center"/>
    <tag k="addr:housenumber" v="96"/>
    <tag k="addr:street" v="Osgood Drive"/>
    <tag k="addr:state" v="VT"/>
    <tag k="ref:vcgi:esiteid" v="196384"/>
  </node>
  <node id="-471" visible="true" lat="43.945821142725" lon="-72.554215660679">
    <!-- conflict: "415 Vermont Route 14 North, East Randolph, VT" Fuzzy match to "415 Vermont Route 14 North, Randolph Center, VT" -->
    <tag k="addr:city" v="East Randolph"/>
    <tag k="addr:housenumber" v="415"/>
    <tag k="addr:street" v="Vermont Route 14 North"/>
    <tag k="addr:state" v="VT"/>
    <tag k="ref:vcgi:esiteid" v="196394"/>
  </node>
  <node id="-481" visible="true" lat="43.945020056768" lon="-72.553590050139">
    <!-- conflict: "348 Vermont Route 14 North, East Randolph, VT" Fuzzy match to "348 Vermont Route 14 North, Randolph Center, VT" -->
    <tag k="addr:city" v="East Randolph"/>
    <tag k="addr:housenumber" v="348"/>
    <tag k="addr:street" v="Vermont Route 14 North"/>
    <tag k="addr:state" v="VT"/>
    <tag k="ref:vcgi:esiteid" v="196405"/>
  </node>
  <node id="-482" visible="true" lat="43.944928503334" lon="-72.539605366881">
    <!-- conflict: "58 Blaisdell Drive, Randolph Center, VT" Fuzzy match to "58 Blaisdell Drive, Randolph, VT" -->
    <tag k="addr:city" v="Randolph Center"/>
    <tag k="addr:housenumber" v="58"/>
    <tag k="addr:street" v="Blaisdell Drive"/>
    <tag k="addr:state" v="VT"/>
    <tag k="ref:vcgi:esiteid" v="196406"/>
  </node>
  <node id="-485" visible="true" lat="43.94464171334" lon="-72.554162144599">
    <!-- conflict: "313 Vermont Route 14 North, East Randolph, VT" Fuzzy match to "313 Vermont Route 14 North, Randolph Center, VT" -->
    <tag k="addr:city" v="East Randolph"/>
    <tag k="addr:housenumber" v="313"/>
    <tag k="addr:street" v="Vermont Route 14 North"/>
    <tag k="addr:state" v="VT"/>
    <tag k="ref:vcgi:esiteid" v="196409"/>
  </node>
  <node id="-489" visible="true" lat="43.944402075311" lon="-72.554429284868">
    <!-- conflict: "293 Vermont Route 14 North, East Randolph, VT" Fuzzy match to "293 Vermont Route 14 North, Randolph Center, VT" -->
    <tag k="addr:city" v="East Randolph"/>
    <tag k="addr:housenumber" v="293"/>
    <tag k="addr:street" v="Vermont Route 14 North"/>
    <tag k="addr:state" v="VT"/>
    <tag k="ref:vcgi:esiteid" v="196414"/>
  </node>
  <node id="-491" visible="true" lat="43.944327459021" lon="-72.55393206857">
    <!-- conflict: "302 Vermont Route 14 North, East Randolph, VT" Fuzzy match to "302 Vermont Route 14 North, Randolph Center, VT" -->
    <tag k="addr:city" v="East Randolph"/>
    <tag k="addr:housenumber" v="302"/>
    <tag k="addr:street" v="Vermont Route 14 North"/>
    <tag k="addr:state" v="VT"/>
    <tag k="ref:vcgi:esiteid" v="196416"/>
  </node>
  <node id="-505" visible="true" lat="43.943352464205" lon="-72.555008322694">
    <!-- conflict: "215 Vermont Route 14 North, East Randolph, VT" Fuzzy match to "215 Vermont Route 14 North, Randolph Center, VT" -->
    <tag k="addr:city" v="East Randolph"/>
    <tag k="addr:housenumber" v="215"/>
    <tag k="addr:street" v="Vermont Route 14 North"/>
    <tag k="addr:state" v="VT"/>
    <tag k="ref:vcgi:esiteid" v="196431"/>
  </node>
  <node id="-513" visible="true" lat="43.942658684616" lon="-72.554530777711">
    <!-- conflict: "168 Vermont Route 14 North, East Randolph, VT" Fuzzy match to "168 Vermont Route 14 North, Randolph Center, VT" -->
    <tag k="addr:city" v="East Randolph"/>
    <tag k="addr:housenumber" v="168"/>
    <tag k="addr:street" v="Vermont Route 14 North"/>
    <tag k="addr:state" v="VT"/>
    <tag k="ref:vcgi:esiteid" v="196439"/>
  </node>
  <node id="-517" visible="true" lat="43.942386771533" lon="-72.554975613939">
    <!-- conflict: "153 Vermont Route 14 North, East Randolph, VT" Fuzzy match to "153 Vermont Route 14 North, Randolph Center, VT" -->
    <tag k="addr:city" v="East Randolph"/>
    <tag k="addr:housenumber" v="153"/>
    <tag k="addr:street" v="Vermont Route 14 North"/>
    <tag k="addr:state" v="VT"/>
    <tag k="ref:vcgi:esiteid" v="196443"/>
  </node>
  <node id="-528" visible="true" lat="43.941670108538" lon="-72.554961843449">
    <!-- conflict: "103 Vermont Route 14 North, East Randolph, VT" Fuzzy match to "103 Vermont Route 14 North, Randolph Center, VT" -->
    <tag k="addr:city" v="East Randolph"/>
    <tag k="addr:housenumber" v="103"/>
    <tag k="addr:street" v="Vermont Route 14 North"/>
    <tag k="addr:state" v="VT"/>
    <tag k="ref:vcgi:esiteid" v="196457"/>
  </node>
  <node id="-537" visible="true" lat="43.941209573594" lon="-72.528398350644">
    <!-- conflict: "634 Edson Road, Randolph Center, VT" Fuzzy match to "634 Edson Road, Randolph, VT" -->
    <tag k="addr:city" v="Randolph Center"/>
    <tag k="addr:housenumber" v="634"/>
    <tag k="addr:street" v="Edson Road"/>
    <tag k="addr:state" v="VT"/>
    <tag k="ref:vcgi:esiteid" v="196466"/>
  </node>
  <node id="-541" visible="true" lat="43.941079473254" lon="-72.554963342091">
    <!-- conflict: "67 Vermont Route 14 North, East Randolph, VT" Fuzzy match to "67 Vermont Route 14 North, Randolph Center, VT" -->
    <tag k="addr:city" v="East Randolph"/>
    <tag k="addr:housenumber" v="67"/>
    <tag k="addr:street" v="Vermont Route 14 North"/>
    <tag k="addr:state" v="VT"/>
    <tag k="ref:vcgi:esiteid" v="196470"/>
  </node>
  <node id="-542" visible="true" lat="43.941020823115" lon="-72.531088914467">
    <!-- conflict: "527 Edson Road, Randolph Center, VT" Fuzzy match to "527 Edson Road, Randolph, VT" -->
    <tag k="addr:city" v="Randolph Center"/>
    <tag k="addr:housenumber" v="527"/>
    <tag k="addr:street" v="Edson Road"/>
    <tag k="addr:state" v="VT"/>
    <tag k="ref:vcgi:esiteid" v="196471"/>
  </node>
  <node id="-543" visible="true" lat="43.940983171916" lon="-72.554432430899">
    <!-- conflict: "52 Vermont Route 14 North, East Randolph, VT" Fuzzy match to "52 Vermont Route 14 North, Randolph Center, VT" -->
    <tag k="addr:city" v="East Randolph"/>
    <tag k="addr:housenumber" v="52"/>
    <tag k="addr:street" v="Vermont Route 14 North"/>
    <tag k="addr:state" v="VT"/>
    <tag k="ref:vcgi:esiteid" v="196472"/>
  </node>
  <node id="-545" visible="true" lat="43.94068596366" lon="-72.55483615223">
    <!-- conflict: "47 Vermont Route 14 North, East Randolph, VT" Fuzzy match to "47 Vermont Route 14 North, Randolph Center, VT" -->
    <tag k="addr:city" v="East Randolph"/>
    <tag k="addr:housenumber" v="47"/>
    <tag k="addr:street" v="Vermont Route 14 North"/>
    <tag k="addr:state" v="VT"/>
    <tag k="ref:vcgi:esiteid" v="196475"/>
  </node>
  <node id="-551" visible="true" lat="43.940457678328" lon="-72.554780237292">
    <!-- conflict: "25 Vermont Route 14 North, East Randolph, VT" Fuzzy match to "25 Vermont Route 14 North, Randolph Center, VT" -->
    <tag k="addr:city" v="East Randolph"/>
    <tag k="addr:housenumber" v="25"/>
    <tag k="addr:street" v="Vermont Route 14 North"/>
    <tag k="addr:state" v="VT"/>
    <tag k="ref:vcgi:esiteid" v="196481"/>
  </node>
  <node id="-552" visible="true" lat="43.940457677865" lon="-72.554078330751">
    <!-- conflict: "14 Vermont Route 14 North, East Randolph, VT" Fuzzy match to "14 Vermont Route 14 North, Randolph Center, VT" -->
    <tag k="addr:city" v="East Randolph"/>
    <tag k="addr:housenumber" v="14"/>
    <tag k="addr:street" v="Vermont Route 14 North"/>
    <tag k="addr:state" v="VT"/>
    <tag k="ref:vcgi:esiteid" v="196482"/>
  </node>
  <node id="-558" visible="true" lat="43.939904569182" lon="-72.553702287373">
    <!-- conflict: "29 Vermont Route 14 South, East Randolph, VT" Fuzzy match to "29 Vermont Route 14 South, Randolph Center, VT" -->
    <tag k="addr:city" v="East Randolph"/>
    <tag k="addr:housenumber" v="29"/>
    <tag k="addr:street" v="Vermont Route 14 South"/>
    <tag k="addr:state" v="VT"/>
    <tag k="ref:vcgi:esiteid" v="196488"/>
  </node>
  <node id="-563" visible="true" lat="43.939577221862" lon="-72.553495149982">
    <!-- conflict: "51 Vermont Route 14 South, East Randolph, VT" Fuzzy match to "51 Vermont Route 14 South, Randolph Center, VT" -->
    <tag k="addr:city" v="East Randolph"/>
    <tag k="addr:housenumber" v="51"/>
    <tag k="addr:street" v="Vermont Route 14 South"/>
    <tag k="addr:state" v="VT"/>
    <tag k="ref:vcgi:esiteid" v="196494"/>
  </node>
  <node id="-565" visible="true" lat="43.939542150947" lon="-72.554200401004">
    <!-- conflict: "40 Vermont Route 14 South, East Randolph, VT" Fuzzy match to "40 Vermont Route 14 South, Randolph Center, VT" -->
    <tag k="addr:city" v="East Randolph"/>
    <tag k="addr:housenumber" v="40"/>
    <tag k="addr:street" v="Vermont Route 14 South"/>
    <tag k="addr:state" v="VT"/>
    <tag k="ref:vcgi:esiteid" v="196496"/>
  </node>
  <node id="-568" visible="true" lat="43.939127056561" lon="-72.553947860595">
    <!-- conflict: "64 Vermont Route 14 South, East Randolph, VT" Fuzzy match to "64 Vermont Route 14 South, Randolph Center, VT" -->
    <tag k="addr:city" v="East Randolph"/>
    <tag k="addr:housenumber" v="64"/>
    <tag k="addr:street" v="Vermont Route 14 South"/>
    <tag k="addr:state" v="VT"/>
    <tag k="ref:vcgi:esiteid" v="196499"/>
  </node>
  <node id="-571" visible="true" lat="43.939204015488" lon="-72.5533636367">
    <!-- conflict: "83 Vermont Route 14 South, East Randolph, VT" Fuzzy match to "83 Vermont Route 14 South, Randolph Center, VT" -->
    <tag k="addr:city" v="East Randolph"/>
    <tag k="addr:housenumber" v="83"/>
    <tag k="addr:street" v="Vermont Route 14 South"/>
    <tag k="addr:state" v="VT"/>
    <tag k="ref:vcgi:esiteid" v="196502"/>
  </node>
  <node id="-573" visible="true" lat="43.939042937208" lon="-72.554598840769">
    <!-- conflict: "70 Vermont Route 14 South, East Randolph, VT" Fuzzy match to "70 Vermont Route 14 South, Randolph Center, VT" -->
    <tag k="addr:city" v="East Randolph"/>
    <tag k="addr:housenumber" v="70"/>
    <tag k="addr:street" v="Vermont Route 14 South"/>
    <tag k="addr:state" v="VT"/>
    <tag k="ref:vcgi:esiteid" v="196504"/>
  </node>
  <node id="-575" visible="true" lat="43.938842755614" lon="-72.553217438204">
    <!-- conflict: "97 Vermont Route 14 South, East Randolph, VT" Fuzzy match to "97 Vermont Route 14 South, Randolph Center, VT" -->
    <tag k="addr:city" v="East Randolph"/>
    <tag k="addr:housenumber" v="97"/>
    <tag k="addr:street" v="Vermont Route 14 South"/>
    <tag k="addr:state" v="VT"/>
    <tag k="ref:vcgi:esiteid" v="196506"/>
  </node>
  <node id="-576" visible="true" lat="43.938923220476" lon="-72.553795695002">
    <!-- conflict: "90 Vermont Route 14 South, East Randolph, VT" Fuzzy match to "90 Vermont Route 14 South, Randolph Center, VT" -->
    <tag k="addr:city" v="East Randolph"/>
    <tag k="addr:housenumber" v="90"/>
    <tag k="addr:street" v="Vermont Route 14 South"/>
    <tag k="addr:state" v="VT"/>
    <tag k="ref:vcgi:esiteid" v="196507"/>
  </node>
  <node id="-579" visible="true" lat="43.938789861474" lon="-72.553721600212">
    <!-- conflict: "100 Vermont Route 14 South, East Randolph, VT" Fuzzy match to "100 Vermont Route 14 South, Randolph Center, VT" -->
    <tag k="addr:city" v="East Randolph"/>
    <tag k="addr:housenumber" v="100"/>
    <tag k="addr:street" v="Vermont Route 14 South"/>
    <tag k="addr:state" v="VT"/>
    <tag k="ref:vcgi:esiteid" v="196511"/>
  </node>
  <node id="-581" visible="true" lat="43.938637611075" lon="-72.553142141189">
    <!-- conflict: "117 Vermont Route 14 South, East Randolph, VT" Fuzzy match to "117 Vermont Route 14 South, Randolph Center, VT" -->
    <tag k="addr:city" v="East Randolph"/>
    <tag k="addr:housenumber" v="117"/>
    <tag k="addr:street" v="Vermont Route 14 South"/>
    <tag k="addr:state" v="VT"/>
    <tag k="ref:vcgi:esiteid" v="196513"/>
  </node>
  <node id="-583" visible="true" lat="43.938639389149" lon="-72.553626516578">
    <!-- conflict: "112 Vermont Route 14 South, East Randolph, VT" Fuzzy match to "112 Vermont Route 14 South, Randolph Center, VT" -->
    <tag k="addr:city" v="East Randolph"/>
    <tag k="addr:housenumber" v="112"/>
    <tag k="addr:street" v="Vermont Route 14 South"/>
    <tag k="addr:state" v="VT"/>
    <tag k="ref:vcgi:esiteid" v="196515"/>
  </node>
  <node id="-590" visible="true" lat="43.938243510633" lon="-72.552915992442">
    <!-- conflict: "147 Vermont Route 14 South, East Randolph, VT" Fuzzy match to "147 Vermont Route 14 South, Randolph Center, VT" -->
    <tag k="addr:city" v="East Randolph"/>
    <tag k="addr:housenumber" v="147"/>
    <tag k="addr:street" v="Vermont Route 14 South"/>
    <tag k="addr:state" v="VT"/>
    <tag k="ref:vcgi:esiteid" v="196525"/>
  </node>
  <node id="-597" visible="true" lat="43.938143248287" lon="-72.553529561382">
    <!-- conflict: "152 Vermont Route 14 South, East Randolph, VT" Fuzzy match to "152 Vermont Route 14 South, Randolph Center, VT" -->
    <tag k="addr:city" v="East Randolph"/>
    <tag k="addr:housenumber" v="152"/>
    <tag k="addr:street" v="Vermont Route 14 South"/>
    <tag k="addr:state" v="VT"/>
    <tag k="ref:vcgi:esiteid" v="196533"/>
  </node>
  <node id="-604" visible="true" lat="43.937772503604" lon="-72.552713465016">
    <!-- conflict: "177 Vermont Route 14 South, East Randolph, VT" Fuzzy match to "177 Vermont Route 14 South, Randolph Center, VT" -->
    <tag k="addr:city" v="East Randolph"/>
    <tag k="addr:housenumber" v="177"/>
    <tag k="addr:street" v="Vermont Route 14 South"/>
    <tag k="addr:state" v="VT"/>
    <tag k="ref:vcgi:esiteid" v="196541"/>
  </node>
  <node id="-605" visible="true" lat="43.937941169946" lon="-72.553339550778">
    <!-- conflict: "168 Vermont Route 14 South, East Randolph, VT" Fuzzy match to "168 Vermont Route 14 South, Randolph Center, VT" -->
    <tag k="addr:city" v="East Randolph"/>
    <tag k="addr:housenumber" v="168"/>
    <tag k="addr:street" v="Vermont Route 14 South"/>
    <tag k="addr:state" v="VT"/>
    <tag k="ref:vcgi:esiteid" v="196542"/>
  </node>
  <node id="-611" visible="true" lat="43.937659167608" lon="-72.553199491911">
    <!-- conflict: "180 Vermont Route 14 South, East Randolph, VT" Fuzzy match to "180 Vermont Route 14 South, Randolph Center, VT" -->
    <tag k="addr:city" v="East Randolph"/>
    <tag k="addr:housenumber" v="180"/>
    <tag k="addr:street" v="Vermont Route 14 South"/>
    <tag k="addr:state" v="VT"/>
    <tag k="ref:vcgi:esiteid" v="196548"/>
  </node>
  <node id="-620" visible="true" lat="43.937568945085" lon="-72.552678026827">
    <!-- conflict: "199 Vermont Route 14 South, East Randolph, VT" Fuzzy match to "199 Vermont Route 14 South, Randolph Center, VT" -->
    <tag k="addr:city" v="East Randolph"/>
    <tag k="addr:housenumber" v="199"/>
    <tag k="addr:street" v="Vermont Route 14 South"/>
    <tag k="addr:state" v="VT"/>
    <tag k="ref:vcgi:esiteid" v="196557"/>
  </node>
  <node id="-622" visible="true" lat="43.937439293829" lon="-72.553085776386">
    <!-- conflict: "202 Vermont Route 14 South, East Randolph, VT" Fuzzy match to "202 Vermont Route 14 South, Randolph Center, VT" -->
    <tag k="addr:city" v="East Randolph"/>
    <tag k="addr:housenumber" v="202"/>
    <tag k="addr:street" v="Vermont Route 14 South"/>
    <tag k="addr:state" v="VT"/>
    <tag k="ref:vcgi:esiteid" v="196559"/>
  </node>
  <node id="-627" visible="true" lat="43.937262855775" lon="-72.552585706463">
    <!-- conflict: "219 Vermont Route 14 South, East Randolph, VT" Fuzzy match to "219 Vermont Route 14 South, Randolph Center, VT" -->
    <tag k="addr:city" v="East Randolph"/>
    <tag k="addr:housenumber" v="219"/>
    <tag k="addr:street" v="Vermont Route 14 South"/>
    <tag k="addr:state" v="VT"/>
    <tag k="ref:vcgi:esiteid" v="196565"/>
  </node>
  <node id="-638" visible="true" lat="43.936822270357" lon="-72.553078881542">
    <!-- conflict: "244 Vermont Route 14 South, East Randolph, VT" Fuzzy match to "244 Vermont Route 14 South, Randolph Center, VT" -->
    <tag k="addr:city" v="East Randolph"/>
    <tag k="addr:housenumber" v="244"/>
    <tag k="addr:street" v="Vermont Route 14 South"/>
    <tag k="addr:state" v="VT"/>
    <tag k="ref:vcgi:esiteid" v="196578"/>
  </node>
  <node id="-649" visible="true" lat="43.936414119825" lon="-72.553047648699">
    <!-- conflict: "272 Vermont Route 14 South, East Randolph, VT" Fuzzy match to "272 Vermont Route 14 South, Randolph Center, VT" -->
    <tag k="addr:city" v="East Randolph"/>
    <tag k="addr:housenumber" v="272"/>
    <tag k="addr:street" v="Vermont Route 14 South"/>
    <tag k="addr:state" v="VT"/>
    <tag k="ref:vcgi:esiteid" v="196589"/>
  </node>
  <node id="-660" visible="true" lat="43.936040731369" lon="-72.552827637746">
    <!-- conflict: "304 Vermont Route 14 South, East Randolph, VT" Fuzzy match to "304 Vermont Route 14 South, Randolph Center, VT" -->
    <tag k="addr:city" v="East Randolph"/>
    <tag k="addr:housenumber" v="304"/>
    <tag k="addr:street" v="Vermont Route 14 South"/>
    <tag k="addr:state" v="VT"/>
    <tag k="ref:vcgi:esiteid" v="196602"/>
  </node>
  <node id="-706" visible="true" lat="43.934115754762" lon="-72.536771090148">
    <!-- conflict: "803 Tunbridge Road, Randolph Center, VT" Fuzzy match to "803 Tunbridge Road, Randolph, VT" -->
    <tag k="addr:city" v="Randolph Center"/>
    <tag k="addr:housenumber" v="803"/>
    <tag k="addr:street" v="Tunbridge Road"/>
    <tag k="addr:state" v="VT"/>
    <tag k="ref:vcgi:esiteid" v="196650"/>
  </node>
  <node id="-737" visible="true" lat="43.933514163257" lon="-72.540158693503">
    <!-- conflict: "715 Tunbridge Road, Randolph Center, VT" Fuzzy match to "715 Tunbridge Road, Randolph, VT" -->
    <tag k="addr:city" v="Randolph Center"/>
    <tag k="addr:housenumber" v="715"/>
    <tag k="addr:street" v="Tunbridge Road"/>
    <tag k="addr:state" v="VT"/>
    <tag k="ref:vcgi:esiteid" v="196683"/>
  </node>
  <node id="-742" visible="true" lat="43.933369227353" lon="-72.539031118098">
    <!-- conflict: "777 Tunbridge Road, Randolph Center, VT" Fuzzy match to "777 Tunbridge Road, Randolph, VT" -->
    <tag k="addr:city" v="Randolph Center"/>
    <tag k="addr:housenumber" v="777"/>
    <tag k="addr:street" v="Tunbridge Road"/>
    <tag k="addr:state" v="VT"/>
    <tag k="ref:vcgi:esiteid" v="196689"/>
  </node>
  <node id="-745" visible="true" lat="43.933332994574" lon="-72.541538365692">
    <!-- conflict: "635 Tunbridge Road, Randolph Center, VT" Fuzzy match to "635 Tunbridge Road, Randolph, VT" -->
    <tag k="addr:city" v="Randolph Center"/>
    <tag k="addr:housenumber" v="635"/>
    <tag k="addr:street" v="Tunbridge Road"/>
    <tag k="addr:state" v="VT"/>
    <tag k="ref:vcgi:esiteid" v="196692"/>
  </node>
  <node id="-790" visible="true" lat="43.93224872997" lon="-72.536668306363">
    <!-- conflict: "864 Tunbridge Road, Randolph Center, VT" Fuzzy match to "864 Tunbridge Road, Randolph, VT" -->
    <tag k="addr:city" v="Randolph Center"/>
    <tag k="addr:housenumber" v="864"/>
    <tag k="addr:street" v="Tunbridge Road"/>
    <tag k="addr:state" v="VT"/>
    <tag k="ref:vcgi:esiteid" v="196740"/>
  </node>
  <node id="-1665" visible="true" lat="43.89703253086" lon="-72.605754418318">
    <!-- conflict: "3135 East Bethel Road, Randolph Center, VT" Fuzzy match to "3135 East Bethel Road, Randolph, VT" -->
    <tag k="addr:city" v="Randolph Center"/>
    <tag k="addr:housenumber" v="3135"/>
    <tag k="addr:street" v="East Bethel Road"/>
    <tag k="addr:state" v="VT"/>
    <tag k="ref:vcgi:esiteid" v="197723"/>
  </node>
  <node id="-1666" visible="true" lat="43.896592475458" lon="-72.607915729635">
    <!-- conflict: "3163 East Bethel Road, Randolph Center, VT" Fuzzy match to "3163 East Bethel Road, Randolph, VT" -->
    <tag k="addr:city" v="Randolph Center"/>
    <tag k="addr:housenumber" v="3163"/>
    <tag k="addr:street" v="East Bethel Road"/>
    <tag k="addr:state" v="VT"/>
    <tag k="ref:vcgi:esiteid" v="197724"/>
  </node>
  <node id="-1667" visible="true" lat="43.896795549289" lon="-72.610075018727">
    <!-- conflict: "3152 East Bethel Road, Randolph Center, VT" Fuzzy match to "3152 East Bethel Road, Randolph, VT" -->
    <tag k="addr:city" v="Randolph Center"/>
    <tag k="addr:housenumber" v="3152"/>
    <tag k="addr:street" v="East Bethel Road"/>
    <tag k="addr:state" v="VT"/>
    <tag k="ref:vcgi:esiteid" v="197725"/>
  </node>
  <node id="-1681" visible="true" lat="43.894875287946" lon="-72.608966834903">
    <!-- conflict: "3302 East Bethel Road, Randolph Center, VT" Fuzzy match to "3302 East Bethel Road, Randolph, VT" -->
    <tag k="addr:city" v="Randolph Center"/>
    <tag k="addr:housenumber" v="3302"/>
    <tag k="addr:street" v="East Bethel Road"/>
    <tag k="addr:state" v="VT"/>
    <tag k="ref:vcgi:esiteid" v="197739"/>
  </node>
  <node id="-1686" visible="true" lat="43.894330348087" lon="-72.608262306106">
    <!-- conflict: "3341 East Bethel Road, Randolph Center, VT" Fuzzy match to "3341 East Bethel Road, Randolph, VT" -->
    <tag k="addr:city" v="Randolph Center"/>
    <tag k="addr:housenumber" v="3341"/>
    <tag k="addr:street" v="East Bethel Road"/>
    <tag k="addr:state" v="VT"/>
    <tag k="ref:vcgi:esiteid" v="197744"/>
  </node>
  <node id="-1689" visible="true" lat="43.893602081136" lon="-72.608749209576">
    <!-- conflict: "3392 East Bethel Road, Randolph Center, VT" Fuzzy match to "3392 East Bethel Road, Randolph, VT" -->
    <tag k="addr:city" v="Randolph Center"/>
    <tag k="addr:housenumber" v="3392"/>
    <tag k="addr:street" v="East Bethel Road"/>
    <tag k="addr:state" v="VT"/>
    <tag k="ref:vcgi:esiteid" v="197747"/>
  </node>
  <node id="-1691" visible="true" lat="43.893466181578" lon="-72.593694563558">
    <!-- conflict: "1252 Crocker Road, Randolph Center, VT" Fuzzy match to "1252 Crocker Road, Randolph, VT" -->
    <tag k="addr:city" v="Randolph Center"/>
    <tag k="addr:housenumber" v="1252"/>
    <tag k="addr:street" v="Crocker Road"/>
    <tag k="addr:state" v="VT"/>
    <tag k="ref:vcgi:esiteid" v="197749"/>
  </node>
  <node id="-1694" visible="true" lat="43.892252301609" lon="-72.608001709788">
    <!-- conflict: "3486 East Bethel Road, Randolph Center, VT" Fuzzy match to "3486 East Bethel Road, Randolph, VT" -->
    <tag k="addr:city" v="Randolph Center"/>
    <tag k="addr:housenumber" v="3486"/>
    <tag k="addr:street" v="East Bethel Road"/>
    <tag k="addr:state" v="VT"/>
    <tag k="ref:vcgi:esiteid" v="197752"/>
  </node>
  <node id="-1699" visible="true" lat="43.889635832567" lon="-72.606711770243">
    <!-- conflict: "3674 East Bethel Road, Randolph Center, VT" Fuzzy match to "3674 East Bethel Road, Randolph, VT" -->
    <tag k="addr:city" v="Randolph Center"/>
    <tag k="addr:housenumber" v="3674"/>
    <tag k="addr:street" v="East Bethel Road"/>
    <tag k="addr:state" v="VT"/>
    <tag k="ref:vcgi:esiteid" v="197757"/>
  </node>
  <node id="-1700" visible="true" lat="43.88887533088" lon="-72.579461332836">
    <!-- conflict: "4013 Vermont Route 14 South, Randolph Center, VT" Fuzzy match to "4013 Vermont Route 14 South, Randolph, VT" -->
    <tag k="addr:city" v="Randolph Center"/>
    <tag k="addr:housenumber" v="4013"/>
    <tag k="addr:street" v="Vermont Route 14 South"/>
    <tag k="addr:state" v="VT"/>
    <tag k="ref:vcgi:esiteid" v="197758"/>
  </node>
  <node id="-1702" visible="true" lat="43.887876226125" lon="-72.581120350836">
    <!-- conflict: "4106 Vermont Route 14 South, Randolph Center, VT" Fuzzy match to "4106 Vermont Route 14 South, Randolph, VT" -->
    <tag k="addr:city" v="Randolph Center"/>
    <tag k="addr:housenumber" v="4106"/>
    <tag k="addr:street" v="Vermont Route 14 South"/>
    <tag k="addr:state" v="VT"/>
    <tag k="ref:vcgi:esiteid" v="197761"/>
  </node>
  <node id="-1703" visible="true" lat="43.887401713204" lon="-72.593141363338">
    <!-- conflict: "1681 Crocker Road, Randolph Center, VT" Fuzzy match to "1681 Crocker Road, Randolph, VT" -->
    <tag k="addr:city" v="Randolph Center"/>
    <tag k="addr:housenumber" v="1681"/>
    <tag k="addr:street" v="Crocker Road"/>
    <tag k="addr:state" v="VT"/>
    <tag k="ref:vcgi:esiteid" v="197762"/>
  </node>
  <node id="-1704" visible="true" lat="43.887031889779" lon="-72.580499059449">
    <!-- conflict: "4147 Vermont Route 14 South, Randolph Center, VT" Fuzzy match to "4147 Vermont Route 14 South, Randolph, VT" -->
    <tag k="addr:city" v="Randolph Center"/>
    <tag k="addr:housenumber" v="4147"/>
    <tag k="addr:street" v="Vermont Route 14 South"/>
    <tag k="addr:state" v="VT"/>
    <tag k="ref:vcgi:esiteid" v="197763"/>
  </node>
  <node id="-1705" visible="true" lat="43.886353959362" lon="-72.578095236887">
    <!-- conflict: "4125 Vermont Route 14 South, Randolph Center, VT" Fuzzy match to "4125 Vermont Route 14 South, Randolph, VT" -->
    <tag k="addr:city" v="Randolph Center"/>
    <tag k="addr:housenumber" v="4125"/>
    <tag k="addr:street" v="Vermont Route 14 South"/>
    <tag k="addr:state" v="VT"/>
    <tag k="ref:vcgi:esiteid" v="197764"/>
  </node>
  <node id="-1706" visible="true" lat="43.886220299226" lon="-72.603806738407">
    <!-- conflict: "3958 East Bethel Road, Randolph Center, VT" Fuzzy match to "3958 East Bethel Road, Randolph, VT" -->
    <tag k="addr:city" v="Randolph Center"/>
    <tag k="addr:housenumber" v="3958"/>
    <tag k="addr:street" v="East Bethel Road"/>
    <tag k="addr:state" v="VT"/>
    <tag k="ref:vcgi:esiteid" v="197765"/>
  </node>
  <node id="-1707" visible="true" lat="43.885611063821" lon="-72.581583447523">
    <!-- conflict: "4252 Vermont Route 14 South, Randolph Center, VT" Fuzzy match to "4252 Vermont Route 14 South, Randolph, VT" -->
    <tag k="addr:city" v="Randolph Center"/>
    <tag k="addr:housenumber" v="4252"/>
    <tag k="addr:street" v="Vermont Route 14 South"/>
    <tag k="addr:state" v="VT"/>
    <tag k="ref:vcgi:esiteid" v="197766"/>
  </node>
  <node id="-1708" visible="true" lat="43.885516418335" lon="-72.602641084063">
    <!-- conflict: "4025 East Bethel Road, Randolph Center, VT" Fuzzy match to "4025 East Bethel Road, Randolph, VT" -->
    <tag k="addr:city" v="Randolph Center"/>
    <tag k="addr:housenumber" v="4025"/>
    <tag k="addr:street" v="East Bethel Road"/>
    <tag k="addr:state" v="VT"/>
    <tag k="ref:vcgi:esiteid" v="197767"/>
  </node>
  <node id="-1709" visible="true" lat="43.88342648411" lon="-72.581593799826">
    <!-- conflict: "4402 Vermont Route 14 South, Randolph Center, VT" Fuzzy match to "4402 Vermont Route 14 South, Randolph, VT" -->
    <tag k="addr:city" v="Randolph Center"/>
    <tag k="addr:housenumber" v="4402"/>
    <tag k="addr:street" v="Vermont Route 14 South"/>
    <tag k="addr:state" v="VT"/>
    <tag k="ref:vcgi:esiteid" v="197768"/>
  </node>
  <node id="-1710" visible="true" lat="43.883405054328" lon="-72.579583402593">
    <!-- conflict: "4399 Vermont Route 14 South, Randolph Center, VT" Fuzzy match to "4399 Vermont Route 14 South, Randolph, VT" -->
    <tag k="addr:city" v="Randolph Center"/>
    <tag k="addr:housenumber" v="4399"/>
    <tag k="addr:street" v="Vermont Route 14 South"/>
    <tag k="addr:state" v="VT"/>
    <tag k="ref:vcgi:esiteid" v="197769"/>
  </node>
  <node id="-1711" visible="true" lat="43.883342349997" lon="-72.592338376338">
    <!-- conflict: "1958 Crocker Road, Randolph Center, VT" Fuzzy match to "1958 Crocker Road, Randolph, VT" -->
    <tag k="addr:city" v="Randolph Center"/>
    <tag k="addr:housenumber" v="1958"/>
    <tag k="addr:street" v="Crocker Road"/>
    <tag k="addr:state" v="VT"/>
    <tag k="ref:vcgi:esiteid" v="197770"/>
  </node>
  <node id="-1712" visible="true" lat="43.882427347145" lon="-72.600901088293">
    <!-- conflict: "92 Simpson Road, Randolph Center, VT" Fuzzy match to "92 Simpson Road, Randolph, VT" -->
    <tag k="addr:city" v="Randolph Center"/>
    <tag k="addr:housenumber" v="92"/>
    <tag k="addr:street" v="Simpson Road"/>
    <tag k="addr:state" v="VT"/>
    <tag k="ref:vcgi:esiteid" v="197771"/>
  </node>
  <node id="-1713" visible="true" lat="43.881792812033" lon="-72.587877812449">
    <!-- conflict: "221 Kingsbury Road, Randolph Center, VT" Fuzzy match to "221 Kingsbury Road, Randolph, VT" -->
    <tag k="addr:city" v="Randolph Center"/>
    <tag k="addr:housenumber" v="221"/>
    <tag k="addr:street" v="Kingsbury Road"/>
    <tag k="addr:state" v="VT"/>
    <tag k="ref:vcgi:esiteid" v="197772"/>
  </node>
  <node id="-1714" visible="true" lat="43.881592073843" lon="-72.592409869099">
    <!-- conflict: "2096 Crocker Road, Randolph Center, VT" Fuzzy match to "2096 Crocker Road, Randolph, VT" -->
    <tag k="addr:city" v="Randolph Center"/>
    <tag k="addr:housenumber" v="2096"/>
    <tag k="addr:street" v="Crocker Road"/>
    <tag k="addr:state" v="VT"/>
    <tag k="ref:vcgi:esiteid" v="197773"/>
  </node>
  <node id="-1715" visible="true" lat="43.881345047953" lon="-72.5743391811">
    <!-- conflict: "567 Clay Wight Road, Randolph Center, VT" Fuzzy match to "567 Clay Wight Road, Randolph, VT" -->
    <tag k="addr:city" v="Randolph Center"/>
    <tag k="addr:housenumber" v="567"/>
    <tag k="addr:street" v="Clay Wight Road"/>
    <tag k="addr:state" v="VT"/>
    <tag k="ref:vcgi:esiteid" v="197774"/>
  </node>
  <node id="-1716" visible="true" lat="43.880637602338" lon="-72.574692609633">
    <!-- conflict: "523 Clay Wight Road, Randolph Center, VT" Fuzzy match to "523 Clay Wight Road, Randolph, VT" -->
    <tag k="addr:city" v="Randolph Center"/>
    <tag k="addr:housenumber" v="523"/>
    <tag k="addr:street" v="Clay Wight Road"/>
    <tag k="addr:state" v="VT"/>
    <tag k="ref:vcgi:esiteid" v="197775"/>
  </node>
  <node id="-1717" visible="true" lat="43.87869636118" lon="-72.591367986641">
    <!-- conflict: "4884 East Bethel Road, Randolph Center, VT" Fuzzy match to "4884 East Bethel Road, Randolph, VT" -->
    <tag k="addr:city" v="Randolph Center"/>
    <tag k="addr:housenumber" v="4884"/>
    <tag k="addr:street" v="East Bethel Road"/>
    <tag k="addr:state" v="VT"/>
    <tag k="ref:vcgi:esiteid" v="197776"/>
  </node>
  <node id="-1721" visible="true" lat="43.963752152578" lon="-72.519582153231">
    <!-- conflict: "2909 Chelsea Mountain Road, Randolph Center, VT" Fuzzy match to "2909 Chelsea Mountain Road, Randolph, VT" -->
    <tag k="addr:city" v="Randolph Center"/>
    <tag k="addr:housenumber" v="2909"/>
    <tag k="addr:street" v="Chelsea Mountain Road"/>
    <tag k="addr:state" v="VT"/>
    <tag k="ref:vcgi:esiteid" v="197781"/>
  </node>
  <node id="-1722" visible="true" lat="43.958365727411" lon="-72.585217145118">
    <!-- conflict: "53 Armstrongs Trailer Park Drive D, Randolph Center, VT" No match in OSM, but a different address exists <5m away: "53 Armstrongs Trailer Park Dr D, Randolph Center, VT" -->
    <tag k="addr:city" v="Randolph Center"/>
    <tag k="addr:housenumber" v="53"/>
    <tag k="addr:street" v="Armstrongs Trailer Park Drive D"/>
    <tag k="addr:state" v="VT"/>
    <tag k="ref:vcgi:esiteid" v="197782"/>
  </node>
  <node id="-1723" visible="true" lat="43.958210708705" lon="-72.585157172441">
    <!-- conflict: "39 Armstrongs Trailer Park Drive D, Randolph Center, VT" No match in OSM, but a different address exists <5m away: "39 Armstrongs Trailer Park Dr D, Randolph Center, VT" -->
    <tag k="addr:city" v="Randolph Center"/>
    <tag k="addr:housenumber" v="39"/>
    <tag k="addr:street" v="Armstrongs Trailer Park Drive D"/>
    <tag k="addr:state" v="VT"/>
    <tag k="ref:vcgi:esiteid" v="197783"/>
  </node>
  <node id="-1724" visible="true" lat="43.957928426829" lon="-72.585080046098">
    <!-- conflict: "17 Armstrongs Trailer Park Drive D, Randolph Center, VT" No match in OSM, but a different address exists <5m away: "17 Armstrongs Trailer Park Dr D, Randolph Center, VT" -->
    <tag k="addr:city" v="Randolph Center"/>
    <tag k="addr:housenumber" v="17"/>
    <tag k="addr:street" v="Armstrongs Trailer Park Drive D"/>
    <tag k="addr:state" v="VT"/>
    <tag k="ref:vcgi:esiteid" v="197784"/>
  </node>
  <node id="-1725" visible="true" lat="43.958071519743" lon="-72.585094704597">
    <!-- conflict: "29 Armstrongs Trailer Park Drive D, Randolph Center, VT" No match in OSM, but a different address exists <5m away: "29 Armstrongs Trailer Park Dr D, Randolph Center, VT" -->
    <tag k="addr:city" v="Randolph Center"/>
    <tag k="addr:housenumber" v="29"/>
    <tag k="addr:street" v="Armstrongs Trailer Park Drive D"/>
    <tag k="addr:state" v="VT"/>
    <tag k="ref:vcgi:esiteid" v="197785"/>
  </node>
  <node id="-1776" visible="true" lat="43.936833838537" lon="-72.552431557621">
    <!-- conflict: "21 Chelsea Mountain Road, East Randolph, VT" Fuzzy match to "21 Chelsea Mountain Road, Randolph Center, VT" -->
    <tag k="addr:city" v="East Randolph"/>
    <tag k="addr:housenumber" v="21"/>
    <tag k="addr:street" v="Chelsea Mountain Road"/>
    <tag k="addr:state" v="VT"/>
    <tag k="ref:vcgi:esiteid" v="197847"/>
  </node>
  <node id="-1854" visible="true" lat="43.883344629297" lon="-72.596633305565">
    <!-- conflict: "4402 East Bethel Road, Randolph Center, VT" Fuzzy match to "4402 East Bethel Road, Randolph, VT" -->
    <tag k="addr:city" v="Randolph Center"/>
    <tag k="addr:housenumber" v="4402"/>
    <tag k="addr:street" v="East Bethel Road"/>
    <tag k="addr:state" v="VT"/>
    <tag k="ref:vcgi:esiteid" v="197941"/>
  </node>
  <node id="-1867" visible="true" lat="43.880654387654" lon="-72.57246942992">
    <!-- conflict: "28 Gifford Hill Road, Randolph Center, VT" Fuzzy match to "28 Gifford Hill Road, Randolph, VT" -->
    <tag k="addr:city" v="Randolph Center"/>
    <tag k="addr:housenumber" v="28"/>
    <tag k="addr:street" v="Gifford Hill Road"/>
    <tag k="addr:state" v="VT"/>
    <tag k="ref:vcgi:esiteid" v="197957"/>
  </node>
  <node id="-1875" visible="true" lat="43.983071215167" lon="-72.629193883951">
    <!-- conflict: "112 South Interstate 89 Rest Access, Randolph, VT" No match in OSM, but a different address exists <5m away: "112 South 89 Rest Access, Randolph, VT" -->
    <tag k="addr:city" v="Randolph"/>
    <tag k="addr:housenumber" v="112"/>
    <tag k="addr:street" v="South Interstate 89 Rest Access"/>
    <tag k="addr:state" v="VT"/>
    <tag k="ref:vcgi:esiteid" v="197966"/>
  </node>
  <node id="-1930" visible="true" lat="43.889927250972" lon="-72.605388274592">
    <!-- conflict: "3685 East Bethel Road, Randolph Center, VT" Fuzzy match to "3685 East Bethel Road, Randolph, VT" -->
    <tag k="addr:city" v="Randolph Center"/>
    <tag k="addr:housenumber" v="3685"/>
    <tag k="addr:street" v="East Bethel Road"/>
    <tag k="addr:state" v="VT"/>
    <tag k="ref:vcgi:esiteid" v="198029"/>
  </node>
  <node id="-1941" visible="true" lat="43.953077599473" lon="-72.529230364279">
    <!-- conflict: "1800 Chelsea Mountain Road, Randolph Center, VT" Fuzzy match to "1800 Chelsea Mountain Road, Randolph, VT" -->
    <tag k="addr:city" v="Randolph Center"/>
    <tag k="addr:housenumber" v="1800"/>
    <tag k="addr:street" v="Chelsea Mountain Road"/>
    <tag k="addr:state" v="VT"/>
    <tag k="ref:vcgi:esiteid" v="198042"/>
  </node>
  <node id="-1959" visible="true" lat="43.943198416984" lon="-72.537568816806">
    <!-- conflict: "35 Edson Road, Randolph Center, VT" Fuzzy match to "35 Edson Road, Randolph, VT" -->
    <tag k="addr:city" v="Randolph Center"/>
    <tag k="addr:housenumber" v="35"/>
    <tag k="addr:street" v="Edson Road"/>
    <tag k="addr:state" v="VT"/>
    <tag k="ref:vcgi:esiteid" v="198060"/>
  </node>
  <node id="-1963" visible="true" lat="43.894886219534" lon="-72.608376566342">
    <!-- conflict: "3205 East Bethel Road, Randolph Center, VT" Fuzzy match to "3205 East Bethel Road, Randolph, VT" -->
    <tag k="addr:city" v="Randolph Center"/>
    <tag k="addr:housenumber" v="3205"/>
    <tag k="addr:street" v="East Bethel Road"/>
    <tag k="addr:state" v="VT"/>
    <tag k="ref:vcgi:esiteid" v="198064"/>
  </node>
  <node id="-1966" visible="true" lat="43.95234474553" lon="-72.538239693395">
    <!-- conflict: "1601 Chelsea Mountain Road, Randolph Center, VT" Fuzzy match to "1601 Chelsea Mountain Road, Randolph, VT" -->
    <tag k="addr:city" v="Randolph Center"/>
    <tag k="addr:housenumber" v="1601"/>
    <tag k="addr:street" v="Chelsea Mountain Road"/>
    <tag k="addr:state" v="VT"/>
    <tag k="ref:vcgi:esiteid" v="198067"/>
  </node>
  <node id="-1968" visible="true" lat="43.885324373561" lon="-72.578424974181">
    <!-- conflict: "4129 Vermont Route 14 South, Randolph Center, VT" Fuzzy match to "4129 Vermont Route 14 South, Randolph, VT" -->
    <tag k="addr:city" v="Randolph Center"/>
    <tag k="addr:housenumber" v="4129"/>
    <tag k="addr:street" v="Vermont Route 14 South"/>
    <tag k="addr:state" v="VT"/>
    <tag k="ref:vcgi:esiteid" v="198069"/>
  </node>
  <node id="-1998" visible="true" lat="43.954625836418" lon="-72.524245608608">
    <!-- conflict: "401 Danoli Farm Drive, Randolph Center, VT" Fuzzy match to "401 Danoli Farm Drive, Randolph, VT" -->
    <tag k="addr:city" v="Randolph Center"/>
    <tag k="addr:housenumber" v="401"/>
    <tag k="addr:street" v="Danoli Farm Drive"/>
    <tag k="addr:state" v="VT"/>
    <tag k="ref:vcgi:esiteid" v="307816"/>
  </node>
  <node id="-2057" visible="true" lat="43.965315716973" lon="-72.512893314249">
    <!-- conflict: "3400 Chelsea Mountain Road, Chelsea, VT" Fuzzy match to "3400 Chelsea Mountain Road, Randolph, VT" -->
    <tag k="addr:city" v="Chelsea"/>
    <tag k="addr:housenumber" v="3400"/>
    <tag k="addr:street" v="Chelsea Mountain Road"/>
    <tag k="addr:state" v="VT"/>
    <tag k="ref:vcgi:esiteid" v="342578"/>
  </node>
  <node id="-2064" visible="true" lat="43.941737064932" lon="-72.550736580411">
    <!-- conflict: "31 Vermont Route 14 South, East Randolph, VT" Fuzzy match to "31 Vermont Route 14 South, Randolph Center, VT" -->
    <tag k="addr:city" v="East Randolph"/>
    <tag k="addr:housenumber" v="31"/>
    <tag k="addr:street" v="Vermont Route 14 South"/>
    <tag k="addr:state" v="VT"/>
    <tag k="ref:vcgi:esiteid" v="344968"/>
  </node>
  <node id="-2097" visible="true" lat="43.8813390232" lon="-72.591270147544">
    <!-- conflict: "2099 Crocker Road, Randolph Center, VT" Fuzzy match to "2099 Crocker Road, Randolph, VT" -->
    <tag k="addr:city" v="Randolph Center"/>
    <tag k="addr:housenumber" v="2099"/>
    <tag k="addr:street" v="Crocker Road"/>
    <tag k="addr:state" v="VT"/>
    <tag k="ref:vcgi:esiteid" v="446445"/>
  </node>
  <node id="-2123" visible="true" lat="43.941627036052" lon="-72.534857515366">
    <!-- conflict: "253 Edson Road, Randolph Center, VT" Fuzzy match to "253 Edson Road, Randolph, VT" -->
    <tag k="addr:city" v="Randolph Center"/>
    <tag k="addr:housenumber" v="253"/>
    <tag k="addr:street" v="Edson Road"/>
    <tag k="addr:state" v="VT"/>
    <tag k="ref:vcgi:esiteid" v="451668"/>
  </node>
  <node id="-2171" visible="true" lat="43.959003117512" lon="-72.52842495767">
    <!-- conflict: "2204 Chelsea Mountain Road, Randolph Center, VT" Fuzzy match to "2204 Chelsea Mountain Road, Randolph, VT" -->
    <tag k="addr:city" v="Randolph Center"/>
    <tag k="addr:housenumber" v="2204"/>
    <tag k="addr:street" v="Chelsea Mountain Road"/>
    <tag k="addr:state" v="VT"/>
    <tag k="ref:vcgi:esiteid" v="655952"/>
  </node>
  <node id="-2172" visible="true" lat="43.960720016946" lon="-72.528444738071">
    <!-- conflict: "2364 Chelsea Mountain Road, Randolph Center, VT" Fuzzy match to "2364 Chelsea Mountain Road, Randolph, VT" -->
    <tag k="addr:city" v="Randolph Center"/>
    <tag k="addr:housenumber" v="2364"/>
    <tag k="addr:street" v="Chelsea Mountain Road"/>
    <tag k="addr:state" v="VT"/>
    <tag k="ref:vcgi:esiteid" v="655953"/>
  </node>
  <node id="-2173" visible="true" lat="43.963167870624" lon="-72.527088157292">
    <!-- conflict: "2501 Chelsea Mountain Road, Randolph Center, VT" Fuzzy match to "2501 Chelsea Mountain Road, Randolph, VT" -->
    <tag k="addr:city" v="Randolph Center"/>
    <tag k="addr:housenumber" v="2501"/>
    <tag k="addr:street" v="Chelsea Mountain Road"/>
    <tag k="addr:state" v="VT"/>
    <tag k="ref:vcgi:esiteid" v="655954"/>
  </node>
  <node id="-2197" visible="true" lat="43.970328575023" lon="-72.55547407865">
    <!-- conflict: "2149 Vermont Route 14 North, East Randolph, VT" Fuzzy match to "2149 Vermont Route 14 North, Randolph Center, VT" -->
    <tag k="addr:city" v="East Randolph"/>
    <tag k="addr:housenumber" v="2149"/>
    <tag k="addr:street" v="Vermont Route 14 North"/>
    <tag k="addr:state" v="VT"/>
    <tag k="ref:vcgi:esiteid" v="754260"/>
  </node>
  <node id="-2201" visible="true" lat="43.966265026108" lon="-72.555555876788">
    <!-- conflict: "1899 Vermont Route 14 North, East Randolph, VT" Fuzzy match to "1899 Vermont Route 14 North, Randolph Center, VT" -->
    <tag k="addr:city" v="East Randolph"/>
    <tag k="addr:housenumber" v="1899"/>
    <tag k="addr:street" v="Vermont Route 14 North"/>
    <tag k="addr:state" v="VT"/>
    <tag k="ref:vcgi:esiteid" v="754264"/>
  </node>
  <node id="-2202" visible="true" lat="43.968844151775" lon="-72.521182026408">
    <!-- conflict: "615 Rabbit Track, Chelsea, VT" Fuzzy match to "615 Rabbit Track, Randolph, VT" -->
    <tag k="addr:city" v="Chelsea"/>
    <tag k="addr:housenumber" v="615"/>
    <tag k="addr:street" v="Rabbit Track"/>
    <tag k="addr:state" v="VT"/>
    <tag k="ref:vcgi:esiteid" v="754832"/>
  </node>
  <node id="-2208" visible="true" lat="43.892895146536" lon="-72.59307691072">
    <!-- conflict: "1269 Crocker Road, Randolph Center, VT" Fuzzy match to "1269 Crocker Road, Randolph, VT" -->
    <tag k="addr:city" v="Randolph Center"/>
    <tag k="addr:housenumber" v="1269"/>
    <tag k="addr:street" v="Crocker Road"/>
    <tag k="addr:state" v="VT"/>
    <tag k="ref:vcgi:esiteid" v="756131"/>
  </node>
  <node id="-2226" visible="true" lat="43.883301165594" lon="-72.590764822889">
    <!-- conflict: "1961 Crocker Road, Randolph Center, VT" Fuzzy match to "1961 Crocker Road, Randolph, VT" -->
    <tag k="addr:city" v="Randolph Center"/>
    <tag k="addr:housenumber" v="1961"/>
    <tag k="addr:street" v="Crocker Road"/>
    <tag k="addr:state" v="VT"/>
    <tag k="ref:vcgi:esiteid" v="762546"/>
  </node>
  <node id="-2227" visible="true" lat="43.957596976341" lon="-72.546333625701">
    <!-- conflict: "1330 Vermont Route 14 North, East Randolph, VT" Fuzzy match to "1330 Vermont Route 14 North, Randolph Center, VT" -->
    <tag k="addr:city" v="East Randolph"/>
    <tag k="addr:housenumber" v="1330"/>
    <tag k="addr:street" v="Vermont Route 14 North"/>
    <tag k="addr:state" v="VT"/>
    <tag k="ref:vcgi:esiteid" v="762899"/>
  </node>
  <node id="-2245" visible="true" lat="43.893439601909" lon="-72.584226556538">
    <!-- conflict: "22 Community Drive Extension, Randolph Center, VT" Fuzzy match to "22 Community Drive, Randolph Center, VT" -->
    <tag k="addr:city" v="Randolph Center"/>
    <tag k="addr:housenumber" v="22"/>
    <tag k="addr:street" v="Community Drive Extension"/>
    <tag k="addr:state" v="VT"/>
    <tag k="ref:vcgi:esiteid" v="767521"/>
  </node>
  <node id="-2247" visible="true" lat="43.95961310552" lon="-72.518451736782">
    <!-- conflict: "3034 Chelsea Mountain Road, Chelsea, VT" Fuzzy match to "3034 Chelsea Mountain Road, Randolph, VT" -->
    <tag k="addr:city" v="Chelsea"/>
    <tag k="addr:housenumber" v="3034"/>
    <tag k="addr:street" v="Chelsea Mountain Road"/>
    <tag k="addr:state" v="VT"/>
    <tag k="ref:vcgi:esiteid" v="768174"/>
  </node>
  <node id="-2258" visible="true" lat="43.916277999279" lon="-72.658369659626">
    <!-- conflict: "36 Sand Oak Drive, Randolph, VT" Fuzzy match to "36 Sand Oak Drive, , VT" -->
    <tag k="addr:city" v="Randolph"/>
    <tag k="addr:housenumber" v="36"/>
    <tag k="addr:street" v="Sand Oak Drive"/>
    <tag k="addr:state" v="VT"/>
    <tag k="ref:vcgi:esiteid" v="769979"/>
  </node>
  <node id="-2303" visible="true" lat="43.96659794794" lon="-72.551778113149">
    <!-- conflict: "153 Ferris Road, East Randolph, VT" Fuzzy match to "153 Ferris Road, Randolph Center, VT" -->
    <tag k="addr:city" v="East Randolph"/>
    <tag k="addr:housenumber" v="153"/>
    <tag k="addr:street" v="Ferris Road"/>
    <tag k="addr:state" v="VT"/>
    <tag k="ref:vcgi:esiteid" v="800067"/>
  </node>
  <node id="-2314" visible="true" lat="43.974503087895" lon="-72.625727700949">
    <!-- conflict: "6264 Interstate 89 North, Randolph Center, VT" Fuzzy match to "6264 Interstate 89 North, Randolph, VT" -->
    <tag k="addr:city" v="Randolph Center"/>
    <tag k="addr:housenumber" v="6264"/>
    <tag k="addr:street" v="Interstate 89 North"/>
    <tag k="addr:state" v="VT"/>
    <tag k="ref:vcgi:esiteid" v="1050696"/>
  </node>
  <node id="-2317" visible="true" lat="43.931544322213" lon="-72.61915300594">
    <!-- conflict: "3255 Interstate 89 North, Randolph Center, VT" Fuzzy match to "3255 Interstate 89 North, Randolph, VT" -->
    <tag k="addr:city" v="Randolph Center"/>
    <tag k="addr:housenumber" v="3255"/>
    <tag k="addr:street" v="Interstate 89 North"/>
    <tag k="addr:state" v="VT"/>
    <tag k="ref:vcgi:esiteid" v="1050699"/>
  </node>
  <node id="-2318" visible="true" lat="43.917845066668" lon="-72.612837779766">
    <!-- conflict: "2258 Interstate 89 North, Randolph Center, VT" Fuzzy match to "2258 Interstate 89 North, Randolph, VT" -->
    <tag k="addr:city" v="Randolph Center"/>
    <tag k="addr:housenumber" v="2258"/>
    <tag k="addr:street" v="Interstate 89 North"/>
    <tag k="addr:state" v="VT"/>
    <tag k="ref:vcgi:esiteid" v="1050700"/>
  </node>
  <node id="-2319" visible="true" lat="43.903830646859" lon="-72.61395550057">
    <!-- conflict: "1285 Interstate 89 North, Randolph Center, VT" Fuzzy match to "1285 Interstate 89 North, Randolph, VT" -->
    <tag k="addr:city" v="Randolph Center"/>
    <tag k="addr:housenumber" v="1285"/>
    <tag k="addr:street" v="Interstate 89 North"/>
    <tag k="addr:state" v="VT"/>
    <tag k="ref:vcgi:esiteid" v="1050701"/>
  </node>
  <node id="-2320" visible="true" lat="43.889508555946" lon="-72.616437969091">
    <!-- conflict: "287 Interstate 89 North, Randolph Center, VT" Fuzzy match to "287 Interstate 89 North, Randolph, VT" -->
    <tag k="addr:city" v="Randolph Center"/>
    <tag k="addr:housenumber" v="287"/>
    <tag k="addr:street" v="Interstate 89 North"/>
    <tag k="addr:state" v="VT"/>
    <tag k="ref:vcgi:esiteid" v="1050702"/>
  </node>
</osm>
