<?xml version="1.0" encoding="UTF-8"?>
<osm version="0.6" generator="JOSM" upload="false">
  <node id="-193" visible="true" lat="45.003062331314" lon="-72.579981812443">
    <tag k="addr:city" v="Richford"/>
    <tag k="addr:housenumber" v="71"/>
    <tag k="addr:street" v="Nickson Road"/>
    <tag k="addr:state" v="VT"/>
    <tag k="ref:vcgi:esiteid" v="199156"/>
  </node>
  <node id="-308" visible="true" lat="44.999695728647" lon="-72.579082498191">
    <tag k="addr:city" v="Richford"/>
    <tag k="addr:housenumber" v="332"/>
    <tag k="addr:street" v="East Nickson Road"/>
    <tag k="addr:state" v="VT"/>
    <tag k="ref:vcgi:esiteid" v="199286"/>
  </node>
  <node id="-354" visible="true" lat="45.000044790423" lon="-72.576314722647">
    <tag k="addr:city" v="Richford"/>
    <tag k="addr:housenumber" v="261"/>
    <tag k="addr:street" v="East Nickson Road"/>
    <tag k="addr:state" v="VT"/>
    <tag k="ref:vcgi:esiteid" v="199338"/>
  </node>
</osm>
