<?xml version="1.0" encoding="UTF-8"?>
<osm version="0.6" generator="JOSM" upload="false">
  <node id="-157" visible="true" lat="43.99752628786" lon="-73.057343170867">
    <!-- conflict: "1090 Dragon Brook Road, East Middlebury, VT" Fuzzy match to "1090 Dragon Brook Road, Ripton, VT" -->
    <tag k="addr:city" v="East Middlebury"/>
    <tag k="addr:housenumber" v="1090"/>
    <tag k="addr:street" v="Dragon Brook Road"/>
    <tag k="addr:state" v="VT"/>
    <tag k="ref:vcgi:esiteid" v="201863"/>
  </node>
  <node id="-158" visible="true" lat="43.997246555955" lon="-73.057956632069">
    <!-- conflict: "1070 Dragon Brook Road, East Middlebury, VT" Fuzzy match to "1070 Dragon Brook Road, Ripton, VT" -->
    <tag k="addr:city" v="East Middlebury"/>
    <tag k="addr:housenumber" v="1070"/>
    <tag k="addr:street" v="Dragon Brook Road"/>
    <tag k="addr:state" v="VT"/>
    <tag k="ref:vcgi:esiteid" v="201864"/>
  </node>
  <node id="-427" visible="true" lat="43.990054036121" lon="-73.059549967013">
    <!-- conflict: "594 Dragon Brook Road, East Middlebury, VT" Fuzzy match to "594 Dragon Brook Road, Ripton, VT" -->
    <tag k="addr:city" v="East Middlebury"/>
    <tag k="addr:housenumber" v="594"/>
    <tag k="addr:street" v="Dragon Brook Road"/>
    <tag k="addr:state" v="VT"/>
    <tag k="ref:vcgi:esiteid" v="202147"/>
  </node>
  <node id="-444" visible="true" lat="43.957251642824" lon="-73.044464360749">
    <!-- conflict: "1231 National Forest Road 92A, Ripton, VT" Fuzzy match to "1231 National Forest Road 92a, Ripton, VT" -->
    <tag k="addr:city" v="Ripton"/>
    <tag k="addr:housenumber" v="1231"/>
    <tag k="addr:street" v="National Forest Road 92A"/>
    <tag k="addr:state" v="VT"/>
    <tag k="ref:vcgi:esiteid" v="202167"/>
  </node>
  <node id="-445" visible="true" lat="43.955141984731" lon="-73.03839492721">
    <!-- conflict: "850 National Forest Road 92A, Ripton, VT" Fuzzy match to "850 National Forest Road 92a, Ripton, VT" -->
    <tag k="addr:city" v="Ripton"/>
    <tag k="addr:housenumber" v="850"/>
    <tag k="addr:street" v="National Forest Road 92A"/>
    <tag k="addr:state" v="VT"/>
    <tag k="ref:vcgi:esiteid" v="202168"/>
  </node>
</osm>
