<?xml version="1.0" encoding="UTF-8"?>
<osm version="0.6" generator="JOSM" upload="false">
  <node id="-1018" visible="true" lat="43.899283923724" lon="-72.780090645228">
    <tag k="addr:city" v="Rochester"/>
    <tag k="addr:housenumber" v="1595"/>
    <tag k="addr:street" v="North Hollow Road"/>
    <tag k="addr:state" v="VT"/>
    <tag k="ref:vcgi:esiteid" v="773318"/>
  </node>
  <node id="-1019" visible="true" lat="43.889116371597" lon="-72.781012678762">
    <tag k="addr:city" v="Rochester"/>
    <tag k="addr:housenumber" v="790"/>
    <tag k="addr:street" v="Middle Hollow Road"/>
    <tag k="addr:state" v="VT"/>
    <tag k="ref:vcgi:esiteid" v="773319"/>
  </node>
  <node id="-1020" visible="true" lat="43.860824693151" lon="-72.836944902257">
    <tag k="addr:city" v="Rochester"/>
    <tag k="addr:housenumber" v="332"/>
    <tag k="addr:street" v="Access Road"/>
    <tag k="addr:state" v="VT"/>
    <tag k="ref:vcgi:esiteid" v="773337"/>
  </node>
  <node id="-1021" visible="true" lat="43.881192302366" lon="-72.792925505679">
    <tag k="addr:city" v="Rochester"/>
    <tag k="addr:housenumber" v="784"/>
    <tag k="addr:street" v="Brook Street"/>
    <tag k="addr:state" v="VT"/>
    <tag k="ref:vcgi:esiteid" v="773760"/>
  </node>
</osm>
