<?xml version="1.0" encoding="UTF-8"?>
<osm version="0.6" generator="JOSM" upload="false">
  <node id="-1642" visible="true" lat="43.836321516788" lon="-72.476539179782">
    <tag k="addr:city" v="South Royalton"/>
    <tag k="addr:housenumber" v="2519"/>
    <tag k="addr:street" v="Dairy Hill Road"/>
    <tag k="addr:state" v="VT"/>
    <tag k="ref:vcgi:esiteid" v="773385"/>
  </node>
  <node id="-1644" visible="true" lat="43.816791182465" lon="-72.522465825252">
    <tag k="addr:city" v="South Royalton"/>
    <tag k="addr:housenumber" v="265"/>
    <tag k="addr:street" v="Pluck Hill Road"/>
    <tag k="addr:state" v="VT"/>
    <tag k="ref:vcgi:esiteid" v="773650"/>
  </node>
  <node id="-1645" visible="true" lat="43.816626914944" lon="-72.528048480232">
    <tag k="addr:city" v="South Royalton"/>
    <tag k="addr:housenumber" v="575"/>
    <tag k="addr:street" v="Pluck Hill Road"/>
    <tag k="addr:state" v="VT"/>
    <tag k="ref:vcgi:esiteid" v="773653"/>
  </node>
  <node id="-1646" visible="true" lat="43.815945790139" lon="-72.521972123698">
    <tag k="addr:city" v="South Royalton"/>
    <tag k="addr:housenumber" v="261"/>
    <tag k="addr:street" v="Pluck Hill Road"/>
    <tag k="addr:state" v="VT"/>
    <tag k="ref:vcgi:esiteid" v="773654"/>
  </node>
  <node id="-1649" visible="true" lat="43.815835529689" lon="-72.525646190058">
    <tag k="addr:city" v="South Royalton"/>
    <tag k="addr:housenumber" v="445"/>
    <tag k="addr:street" v="Pluck Hill Road"/>
    <tag k="addr:state" v="VT"/>
    <tag k="ref:vcgi:esiteid" v="773657"/>
  </node>
  <node id="-1650" visible="true" lat="43.789693276372" lon="-72.51809663037">
    <tag k="addr:city" v="South Royalton"/>
    <tag k="addr:housenumber" v="2144"/>
    <tag k="addr:street" v="Oxbow Road"/>
    <tag k="addr:state" v="VT"/>
    <tag k="ref:vcgi:esiteid" v="773766"/>
  </node>
</osm>
