<?xml version="1.0" encoding="UTF-8"?>
<osm version="0.6" generator="JOSM" upload="false">
  <node id="-616" visible="true" lat="43.30499985" lon="-73.13704048">
    <tag k="addr:housenumber" v="692"/>
    <tag k="addr:street" v="Sykes Hollow Road"/>
    <tag k="addr:state" v="VT"/>
    <tag k="ref:vcgi:esiteid" v="656539"/>
  </node>
  <node id="-617" visible="true" lat="43.30499251" lon="-73.13730712">
    <tag k="addr:housenumber" v="690"/>
    <tag k="addr:street" v="Sykes Hollow Road"/>
    <tag k="addr:state" v="VT"/>
    <tag k="ref:vcgi:esiteid" v="656540"/>
  </node>
</osm>
