<?xml version="1.0" encoding="UTF-8"?>
<osm version="0.6" generator="JOSM" upload="false">
  <node id="-6346" visible="true" lat="43.60796297" lon="-72.9804094">
    <tag k="addr:city" v="Rutland"/>
    <tag k="addr:housenumber" v="125"/>
    <tag k="addr:street" v="West Street"/>
    <tag k="addr:state" v="VT"/>
    <tag k="ref:vcgi:esiteid" v="773007"/>
  </node>
  <node id="-6347" visible="true" lat="43.60799714" lon="-72.98015198">
    <tag k="addr:city" v="Rutland"/>
    <tag k="addr:housenumber" v="119"/>
    <tag k="addr:street" v="West Street"/>
    <tag k="addr:state" v="VT"/>
    <tag k="ref:vcgi:esiteid" v="773008"/>
  </node>
</osm>
