<?xml version="1.0" encoding="UTF-8"?>
<osm version="0.6" generator="JOSM" upload="false">
  <node id="-468" visible="true" lat="44.400424437548" lon="-73.138788898384">
    <tag k="addr:city" v="Williston"/>
    <tag k="addr:housenumber" v="5337"/>
    <tag k="addr:street" v="116"/>
    <tag k="addr:state" v="VT"/>
    <tag k="ref:vcgi:esiteid" v="773873"/>
  </node>
  <node id="-469" visible="true" lat="44.399942012577" lon="-73.138347096064">
    <tag k="addr:city" v="Williston"/>
    <tag k="addr:housenumber" v="5339"/>
    <tag k="addr:street" v="116"/>
    <tag k="addr:state" v="VT"/>
    <tag k="ref:vcgi:esiteid" v="773874"/>
  </node>
</osm>
