<?xml version="1.0" encoding="UTF-8"?>
<osm version="0.6" generator="JOSM" upload="false">
  <node id="-118" visible="true" lat="43.956878997064" lon="-73.116512453225">
    <tag k="addr:city" v="Salisbury"/>
    <tag k="addr:housenumber" v="29"/>
    <tag k="addr:street" v="United States Route 7"/>
    <tag k="addr:state" v="VT"/>
    <tag k="ref:vcgi:esiteid" v="216194"/>
  </node>
  <node id="-138" visible="true" lat="43.953575985475" lon="-73.115302178478">
    <tag k="addr:city" v="Salisbury"/>
    <tag k="addr:housenumber" v="253"/>
    <tag k="addr:street" v="United States Route 7"/>
    <tag k="addr:state" v="VT"/>
    <tag k="ref:vcgi:esiteid" v="216214"/>
  </node>
  <node id="-146" visible="true" lat="43.952364257812" lon="-73.114822685817">
    <tag k="addr:city" v="Salisbury"/>
    <tag k="addr:housenumber" v="335"/>
    <tag k="addr:street" v="United States Route 7"/>
    <tag k="addr:state" v="VT"/>
    <tag k="ref:vcgi:esiteid" v="216222"/>
  </node>
  <node id="-227" visible="true" lat="43.932334134306" lon="-73.108748659973">
    <tag k="addr:city" v="Salisbury"/>
    <tag k="addr:housenumber" v="1767"/>
    <tag k="addr:street" v="United States Route 7"/>
    <tag k="addr:state" v="VT"/>
    <tag k="ref:vcgi:esiteid" v="216304"/>
  </node>
  <node id="-229" visible="true" lat="43.931808896172" lon="-73.107155169309">
    <tag k="addr:city" v="Salisbury"/>
    <tag k="addr:housenumber" v="1787"/>
    <tag k="addr:street" v="United States Route 7"/>
    <tag k="addr:state" v="VT"/>
    <tag k="ref:vcgi:esiteid" v="216306"/>
  </node>
  <node id="-747" visible="true" lat="43.955972821842" lon="-73.115347180679">
    <tag k="addr:city" v="Salisbury"/>
    <tag k="addr:housenumber" v="99"/>
    <tag k="addr:street" v="United States Route 7"/>
    <tag k="addr:state" v="VT"/>
    <tag k="ref:vcgi:esiteid" v="216838"/>
  </node>
  <node id="-759" visible="true" lat="43.943065976292" lon="-73.102968650044">
    <tag k="addr:city" v="Salisbury"/>
    <tag k="addr:housenumber" v="438"/>
    <tag k="addr:street" v="Plains Road"/>
    <tag k="addr:state" v="VT"/>
    <tag k="ref:vcgi:esiteid" v="216850"/>
  </node>
  <node id="-869" visible="true" lat="43.942412451316" lon="-73.103576124957">
    <tag k="addr:city" v="Salisbury"/>
    <tag k="addr:housenumber" v="370"/>
    <tag k="addr:street" v="Plains Road"/>
    <tag k="addr:state" v="VT"/>
    <tag k="ref:vcgi:esiteid" v="318046"/>
  </node>
  <node id="-1122" visible="true" lat="43.922229349949" lon="-73.090092798026">
    <tag k="addr:city" v="Salisbury"/>
    <tag k="addr:housenumber" v="66"/>
    <tag k="addr:street" v="Lake Dunmore Road"/>
    <tag k="addr:state" v="VT"/>
    <tag k="ref:vcgi:esiteid" v="655648"/>
  </node>
  <node id="-1123" visible="true" lat="43.923587311098" lon="-73.091549148415">
    <tag k="addr:city" v="Salisbury"/>
    <tag k="addr:housenumber" v="3"/>
    <tag k="addr:street" v="Lake Dunmore Road"/>
    <tag k="addr:state" v="VT"/>
    <tag k="ref:vcgi:esiteid" v="655649"/>
  </node>
  <node id="-1130" visible="true" lat="43.924619208951" lon="-73.079112823139">
    <tag k="addr:city" v="Salisbury"/>
    <tag k="addr:housenumber" v="1996"/>
    <tag k="addr:street" v="Lake Dunmore Road"/>
    <tag k="addr:state" v="VT"/>
    <tag k="ref:vcgi:esiteid" v="656612"/>
  </node>
  <node id="-1131" visible="true" lat="43.903920460977" lon="-73.086318807208">
    <tag k="addr:city" v="Salisbury"/>
    <tag k="addr:housenumber" v="1191"/>
    <tag k="addr:street" v="West Shore Road"/>
    <tag k="addr:state" v="VT"/>
    <tag k="ref:vcgi:esiteid" v="656613"/>
  </node>
  <node id="-1132" visible="true" lat="43.921811815887" lon="-73.089238594017">
    <tag k="addr:city" v="Salisbury"/>
    <tag k="addr:housenumber" v="1169"/>
    <tag k="addr:street" v="Lake Dunmore Road"/>
    <tag k="addr:state" v="VT"/>
    <tag k="ref:vcgi:esiteid" v="656647"/>
  </node>
  <node id="-1133" visible="true" lat="43.922398485796" lon="-73.09067746574">
    <tag k="addr:city" v="Salisbury"/>
    <tag k="addr:housenumber" v="38"/>
    <tag k="addr:street" v="Marthas Way"/>
    <tag k="addr:state" v="VT"/>
    <tag k="ref:vcgi:esiteid" v="656648"/>
  </node>
  <node id="-1190" visible="true" lat="43.94266002517" lon="-73.112098464398">
    <tag k="addr:city" v="Salisbury"/>
    <tag k="addr:housenumber" v="1010"/>
    <tag k="addr:street" v="United States Route 7"/>
    <tag k="addr:state" v="VT"/>
    <tag k="ref:vcgi:esiteid" v="772289"/>
  </node>
  <node id="-1191" visible="true" lat="43.897134854826" lon="-73.088155256896">
    <tag k="addr:city" v="Salisbury"/>
    <tag k="addr:housenumber" v="123"/>
    <tag k="addr:street" v="Rogers Road"/>
    <tag k="addr:state" v="VT"/>
    <tag k="ref:vcgi:esiteid" v="773196"/>
  </node>
  <node id="-1192" visible="true" lat="43.956824698538" lon="-73.115505737287">
    <tag k="addr:city" v="Salisbury"/>
    <tag k="addr:housenumber" v="97"/>
    <tag k="addr:street" v="United States Route 7"/>
    <tag k="addr:state" v="VT"/>
    <tag k="ref:vcgi:esiteid" v="900099"/>
  </node>
</osm>
