<?xml version="1.0" encoding="UTF-8"?>
<osm version="0.6" generator="JOSM" upload="false">
  <node id="-120" visible="true" lat="43.956403773862" lon="-73.117033571837">
    <!-- conflict: "52 United States Route 7, Salisbury, VT" No match in OSM, but a different address exists <5m away: "52 U.S. Route 7, Salisbury, VT" -->
    <tag k="addr:city" v="Salisbury"/>
    <tag k="addr:housenumber" v="52"/>
    <tag k="addr:street" v="United States Route 7"/>
    <tag k="addr:state" v="VT"/>
    <tag k="ref:vcgi:esiteid" v="216196"/>
  </node>
  <node id="-131" visible="true" lat="43.9540815072" lon="-73.115556002598">
    <!-- conflict: "217 United States Route 7, Salisbury, VT" No match in OSM, but a different address exists <5m away: "217 U.S. Route 7, Salisbury, VT" -->
    <tag k="addr:city" v="Salisbury"/>
    <tag k="addr:housenumber" v="217"/>
    <tag k="addr:street" v="United States Route 7"/>
    <tag k="addr:state" v="VT"/>
    <tag k="ref:vcgi:esiteid" v="216207"/>
  </node>
  <node id="-142" visible="true" lat="43.952978064197" lon="-73.114957090684">
    <!-- conflict: "293 United States Route 7, Salisbury, VT" No match in OSM, but a different address exists <5m away: "293 U.S. Route 7, Salisbury, VT" -->
    <tag k="addr:city" v="Salisbury"/>
    <tag k="addr:housenumber" v="293"/>
    <tag k="addr:street" v="United States Route 7"/>
    <tag k="addr:state" v="VT"/>
    <tag k="ref:vcgi:esiteid" v="216218"/>
  </node>
  <node id="-162" visible="true" lat="43.950014027621" lon="-73.114041388506">
    <!-- conflict: "509 United States Route 7, Salisbury, VT" No match in OSM, but a different address exists <5m away: "509 U.S. Route 7, Salisbury, VT" -->
    <tag k="addr:city" v="Salisbury"/>
    <tag k="addr:housenumber" v="509"/>
    <tag k="addr:street" v="United States Route 7"/>
    <tag k="addr:state" v="VT"/>
    <tag k="ref:vcgi:esiteid" v="216238"/>
  </node>
  <node id="-167" visible="true" lat="43.94891112081" lon="-73.113506435641">
    <!-- conflict: "587 United States Route 7, Salisbury, VT" No match in OSM, but a different address exists <5m away: "587 U.S. Route 7, Salisbury, VT" -->
    <tag k="addr:city" v="Salisbury"/>
    <tag k="addr:housenumber" v="587"/>
    <tag k="addr:street" v="United States Route 7"/>
    <tag k="addr:state" v="VT"/>
    <tag k="ref:vcgi:esiteid" v="216243"/>
  </node>
  <node id="-172" visible="true" lat="43.947448390067" lon="-73.112062682757">
    <!-- conflict: "711 United States Route 7, Salisbury, VT" No match in OSM, but a different address exists <5m away: "711 U.S. Route 7, Salisbury, VT" -->
    <tag k="addr:city" v="Salisbury"/>
    <tag k="addr:housenumber" v="711"/>
    <tag k="addr:street" v="United States Route 7"/>
    <tag k="addr:state" v="VT"/>
    <tag k="ref:vcgi:esiteid" v="216248"/>
  </node>
  <node id="-186" visible="true" lat="43.943734170351" lon="-73.112627876513">
    <!-- conflict: "1008 United States Route 7, Salisbury, VT" No match in OSM, but a different address exists <5m away: "1008 U.S. Route 7, Salisbury, VT" -->
    <tag k="addr:city" v="Salisbury"/>
    <tag k="addr:housenumber" v="1008"/>
    <tag k="addr:street" v="United States Route 7"/>
    <tag k="addr:state" v="VT"/>
    <tag k="ref:vcgi:esiteid" v="216263"/>
  </node>
  <node id="-187" visible="true" lat="43.943194304295" lon="-73.111368913829">
    <!-- conflict: "991 United States Route 7, Salisbury, VT" No match in OSM, but a different address exists <5m away: "991 U.S. Route 7, Salisbury, VT" -->
    <tag k="addr:city" v="Salisbury"/>
    <tag k="addr:housenumber" v="991"/>
    <tag k="addr:street" v="United States Route 7"/>
    <tag k="addr:state" v="VT"/>
    <tag k="ref:vcgi:esiteid" v="216264"/>
  </node>
  <node id="-192" visible="true" lat="43.941864727002" lon="-73.112011575423">
    <!-- conflict: "1046 United States Route 7, Salisbury, VT" No match in OSM, but a different address exists <5m away: "1046 U.S. Route 7, Salisbury, VT" -->
    <tag k="addr:city" v="Salisbury"/>
    <tag k="addr:housenumber" v="1046"/>
    <tag k="addr:street" v="United States Route 7"/>
    <tag k="addr:state" v="VT"/>
    <tag k="ref:vcgi:esiteid" v="216269"/>
  </node>
  <node id="-194" visible="true" lat="43.941511739286" lon="-73.104350616411">
    <!-- conflict: "350 Plains Road, Salisbury, VT" No match in OSM, but a different address exists <5m away: "318 Plains Road, Salisbury, VT" -->
    <tag k="addr:city" v="Salisbury"/>
    <tag k="addr:housenumber" v="350"/>
    <tag k="addr:street" v="Plains Road"/>
    <tag k="addr:state" v="VT"/>
    <tag k="ref:vcgi:esiteid" v="216271"/>
  </node>
  <node id="-196" visible="true" lat="43.941321709892" lon="-73.111832749101">
    <!-- conflict: "1134 United States Route 7, Salisbury, VT" No match in OSM, but a different address exists <5m away: "1134 U.S. Route 7, Salisbury, VT" -->
    <tag k="addr:city" v="Salisbury"/>
    <tag k="addr:housenumber" v="1134"/>
    <tag k="addr:street" v="United States Route 7"/>
    <tag k="addr:state" v="VT"/>
    <tag k="ref:vcgi:esiteid" v="216273"/>
  </node>
  <node id="-200" visible="true" lat="43.940985258469" lon="-73.110185651911">
    <!-- conflict: "1193 United States Route 7, Salisbury, VT" No match in OSM, but a different address exists <5m away: "1193 U.S. Route 7, Salisbury, VT" -->
    <tag k="addr:city" v="Salisbury"/>
    <tag k="addr:housenumber" v="1193"/>
    <tag k="addr:street" v="United States Route 7"/>
    <tag k="addr:state" v="VT"/>
    <tag k="ref:vcgi:esiteid" v="216277"/>
  </node>
  <node id="-202" visible="true" lat="43.940558855384" lon="-73.111799196913">
    <!-- conflict: "1182 United States Route 7, Salisbury, VT" No match in OSM, but a different address exists <5m away: "1182 U.S. Route 7, Salisbury, VT" -->
    <tag k="addr:city" v="Salisbury"/>
    <tag k="addr:housenumber" v="1182"/>
    <tag k="addr:street" v="United States Route 7"/>
    <tag k="addr:state" v="VT"/>
    <tag k="ref:vcgi:esiteid" v="216279"/>
  </node>
  <node id="-211" visible="true" lat="43.939701834481" lon="-73.110398344608">
    <!-- conflict: "1258 United States Route 7, Salisbury, VT" No match in OSM, but a different address exists <5m away: "1258 U.S. Route 7, Salisbury, VT" -->
    <tag k="addr:city" v="Salisbury"/>
    <tag k="addr:housenumber" v="1258"/>
    <tag k="addr:street" v="United States Route 7"/>
    <tag k="addr:state" v="VT"/>
    <tag k="ref:vcgi:esiteid" v="216288"/>
  </node>
  <node id="-213" visible="true" lat="43.937157440469" lon="-73.108637388786">
    <!-- conflict: "1503 United States Route 7, Salisbury, VT" No match in OSM, but a different address exists <5m away: "1503 U.S. Route 7, Salisbury, VT" -->
    <tag k="addr:city" v="Salisbury"/>
    <tag k="addr:housenumber" v="1503"/>
    <tag k="addr:street" v="United States Route 7"/>
    <tag k="addr:state" v="VT"/>
    <tag k="ref:vcgi:esiteid" v="216290"/>
  </node>
  <node id="-216" visible="true" lat="43.935608457415" lon="-73.107118207096">
    <!-- conflict: "1567 United States Route 7, Salisbury, VT" No match in OSM, but a different address exists <5m away: "1567 U.S. Route 7, Salisbury, VT" -->
    <tag k="addr:city" v="Salisbury"/>
    <tag k="addr:housenumber" v="1567"/>
    <tag k="addr:street" v="United States Route 7"/>
    <tag k="addr:state" v="VT"/>
    <tag k="ref:vcgi:esiteid" v="216293"/>
  </node>
  <node id="-222" visible="true" lat="43.93380677458" lon="-73.107322421468">
    <!-- conflict: "1625 United States Route 7, Salisbury, VT" No match in OSM, but a different address exists <5m away: "1625 U.S. Route 7, Salisbury, VT" -->
    <tag k="addr:city" v="Salisbury"/>
    <tag k="addr:housenumber" v="1625"/>
    <tag k="addr:street" v="United States Route 7"/>
    <tag k="addr:state" v="VT"/>
    <tag k="ref:vcgi:esiteid" v="216299"/>
  </node>
  <node id="-245" visible="true" lat="43.928954171936" lon="-73.109950806127">
    <!-- conflict: "2062 United States Route 7, Salisbury, VT" No match in OSM, but a different address exists <5m away: "2062 U.S. Route 7, Salisbury, VT" -->
    <tag k="addr:city" v="Salisbury"/>
    <tag k="addr:housenumber" v="2062"/>
    <tag k="addr:street" v="United States Route 7"/>
    <tag k="addr:state" v="VT"/>
    <tag k="ref:vcgi:esiteid" v="216322"/>
  </node>
  <node id="-263" visible="true" lat="43.925129326617" lon="-73.108850600039">
    <!-- conflict: "2275 United States Route 7, Salisbury, VT" No match in OSM, but a different address exists <5m away: "2275 U.S. Route 7, Salisbury, VT" -->
    <tag k="addr:city" v="Salisbury"/>
    <tag k="addr:housenumber" v="2275"/>
    <tag k="addr:street" v="United States Route 7"/>
    <tag k="addr:state" v="VT"/>
    <tag k="ref:vcgi:esiteid" v="216341"/>
  </node>
  <node id="-284" visible="true" lat="43.924460653965" lon="-73.110967555631">
    <!-- conflict: "2320 United States Route 7, Salisbury, VT" No match in OSM, but a different address exists <5m away: "2320 U.S. Route 7, Salisbury, VT" -->
    <tag k="addr:city" v="Salisbury"/>
    <tag k="addr:housenumber" v="2320"/>
    <tag k="addr:street" v="United States Route 7"/>
    <tag k="addr:state" v="VT"/>
    <tag k="ref:vcgi:esiteid" v="216362"/>
  </node>
  <node id="-312" visible="true" lat="43.923473173112" lon="-73.11140615856">
    <!-- conflict: "2386 United States Route 7, Salisbury, VT" No match in OSM, but a different address exists <5m away: "2386 U.S. Route 7, Salisbury, VT" -->
    <tag k="addr:city" v="Salisbury"/>
    <tag k="addr:housenumber" v="2386"/>
    <tag k="addr:street" v="United States Route 7"/>
    <tag k="addr:state" v="VT"/>
    <tag k="ref:vcgi:esiteid" v="216390"/>
  </node>
  <node id="-315" visible="true" lat="43.923572020027" lon="-73.110572635734">
    <!-- conflict: "2399 United States Route 7, Salisbury, VT" No match in OSM, but a different address exists <5m away: "2399 U.S. Route 7, Salisbury, VT" -->
    <tag k="addr:city" v="Salisbury"/>
    <tag k="addr:housenumber" v="2399"/>
    <tag k="addr:street" v="United States Route 7"/>
    <tag k="addr:state" v="VT"/>
    <tag k="ref:vcgi:esiteid" v="216393"/>
  </node>
  <node id="-320" visible="true" lat="43.923035931897" lon="-73.111733849016">
    <!-- conflict: "2414 United States Route 7, Salisbury, VT" No match in OSM, but a different address exists <5m away: "2414 U.S. Route 7, Salisbury, VT" -->
    <tag k="addr:city" v="Salisbury"/>
    <tag k="addr:housenumber" v="2414"/>
    <tag k="addr:street" v="United States Route 7"/>
    <tag k="addr:state" v="VT"/>
    <tag k="ref:vcgi:esiteid" v="216398"/>
  </node>
  <node id="-552" visible="true" lat="43.909343755513" lon="-73.110587574708">
    <!-- conflict: "3361 United States Route 7, Salisbury, VT" No match in OSM, but a different address exists <5m away: "3361 U.S. Route 7, Salisbury, VT" -->
    <tag k="addr:city" v="Salisbury"/>
    <tag k="addr:housenumber" v="3361"/>
    <tag k="addr:street" v="United States Route 7"/>
    <tag k="addr:state" v="VT"/>
    <tag k="ref:vcgi:esiteid" v="216637"/>
  </node>
  <node id="-642" visible="true" lat="43.903312227532" lon="-73.064604922905">
    <!-- conflict: "3751 Lake Dunmore Road, Brandon, VT" Fuzzy match to "3751 Lake Dunmore Road, Salisbury, VT" -->
    <tag k="addr:city" v="Brandon"/>
    <tag k="addr:housenumber" v="3751"/>
    <tag k="addr:street" v="Lake Dunmore Road"/>
    <tag k="addr:state" v="VT"/>
    <tag k="ref:vcgi:esiteid" v="216729"/>
  </node>
  <node id="-669" visible="true" lat="43.900369648463" lon="-73.063854684587">
    <!-- conflict: "3963 Lake Dunmore Road, Brandon, VT" Fuzzy match to "3963 Lake Dunmore Road, Salisbury, VT" -->
    <tag k="addr:city" v="Brandon"/>
    <tag k="addr:housenumber" v="3963"/>
    <tag k="addr:street" v="Lake Dunmore Road"/>
    <tag k="addr:state" v="VT"/>
    <tag k="ref:vcgi:esiteid" v="216756"/>
  </node>
  <node id="-749" visible="true" lat="43.955040462246" lon="-73.132909305803">
    <!-- conflict: "2370 Middle Road, Middlebury, VT" Fuzzy match to "2370 Middle Road, Salisbury, VT" -->
    <tag k="addr:city" v="Middlebury"/>
    <tag k="addr:housenumber" v="2370"/>
    <tag k="addr:street" v="Middle Road"/>
    <tag k="addr:state" v="VT"/>
    <tag k="ref:vcgi:esiteid" v="216840"/>
  </node>
  <node id="-756" visible="true" lat="43.937948419841" lon="-73.111617924942">
    <!-- conflict: "1260 United States Route 7, Salisbury, VT" No match in OSM, but a different address exists <5m away: "1260 U.S. Route 7, Salisbury, VT" -->
    <tag k="addr:city" v="Salisbury"/>
    <tag k="addr:housenumber" v="1260"/>
    <tag k="addr:street" v="United States Route 7"/>
    <tag k="addr:state" v="VT"/>
    <tag k="ref:vcgi:esiteid" v="216847"/>
  </node>
  <node id="-768" visible="true" lat="43.916390121463" lon="-73.112120467367">
    <!-- conflict: "2940 United States Route 7, Salisbury, VT" No match in OSM, but a different address exists <5m away: "2940 U.S. Route 7, Salisbury, VT" -->
    <tag k="addr:city" v="Salisbury"/>
    <tag k="addr:housenumber" v="2940"/>
    <tag k="addr:street" v="United States Route 7"/>
    <tag k="addr:state" v="VT"/>
    <tag k="ref:vcgi:esiteid" v="216863"/>
  </node>
  <node id="-864" visible="true" lat="43.950810279372" lon="-73.113773750432">
    <!-- conflict: "499 United States Route 7, Salisbury, VT" No match in OSM, but a different address exists <5m away: "499 U.S. Route 7, Salisbury, VT" -->
    <tag k="addr:city" v="Salisbury"/>
    <tag k="addr:housenumber" v="499"/>
    <tag k="addr:street" v="United States Route 7"/>
    <tag k="addr:state" v="VT"/>
    <tag k="ref:vcgi:esiteid" v="311348"/>
  </node>
  <node id="-907" visible="true" lat="43.914900521171" lon="-73.041392700915">
    <!-- conflict: "1149 National Forest Road 24B, Brandon, VT" Fuzzy match to "1149 National Forest Road 24b, Salisbury, VT" -->
    <tag k="addr:city" v="Brandon"/>
    <tag k="addr:housenumber" v="1149"/>
    <tag k="addr:street" v="National Forest Road 24B"/>
    <tag k="addr:state" v="VT"/>
    <tag k="ref:vcgi:esiteid" v="450363"/>
  </node>
  <node id="-1114" visible="true" lat="43.927902523967" lon="-73.110080891144">
    <!-- conflict: "2078 United States Route 7, Salisbury, VT" No match in OSM, but a different address exists <5m away: "2078 U.S. Route 7, Salisbury, VT" -->
    <tag k="addr:city" v="Salisbury"/>
    <tag k="addr:housenumber" v="2078"/>
    <tag k="addr:street" v="United States Route 7"/>
    <tag k="addr:state" v="VT"/>
    <tag k="ref:vcgi:esiteid" v="618077"/>
  </node>
  <node id="-1116" visible="true" lat="43.942034203275" lon="-73.110313084962">
    <!-- conflict: "1099 United States Route 7, Salisbury, VT" No match in OSM, but a different address exists <5m away: "1099 U.S. Route 7, Salisbury, VT" -->
    <tag k="addr:city" v="Salisbury"/>
    <tag k="addr:housenumber" v="1099"/>
    <tag k="addr:street" v="United States Route 7"/>
    <tag k="addr:state" v="VT"/>
    <tag k="ref:vcgi:esiteid" v="618079"/>
  </node>
</osm>
