<?xml version="1.0" encoding="UTF-8"?>
<osm version="0.6" generator="JOSM" upload="false">
  <node id="-100" visible="true" lat="42.919343548053" lon="-72.970041179564">
    <!-- conflict: "706 Somerset Road, Wilmington, VT" Fuzzy match to "706 Somerset Road, Searsburg, VT" -->
    <tag k="addr:city" v="Wilmington"/>
    <tag k="addr:housenumber" v="706"/>
    <tag k="addr:street" v="Somerset Road"/>
    <tag k="addr:state" v="VT"/>
    <tag k="ref:vcgi:esiteid" v="217258"/>
  </node>
  <node id="-101" visible="true" lat="42.918971365376" lon="-72.969313452755">
    <!-- conflict: "698 Somerset Road, Wilmington, VT" Fuzzy match to "698 Somerset Road, Searsburg, VT" -->
    <tag k="addr:city" v="Wilmington"/>
    <tag k="addr:housenumber" v="698"/>
    <tag k="addr:street" v="Somerset Road"/>
    <tag k="addr:state" v="VT"/>
    <tag k="ref:vcgi:esiteid" v="217259"/>
  </node>
  <node id="-102" visible="true" lat="42.918679468781" lon="-72.96257969404">
    <!-- conflict: "618 Somerset Road, Wilmington, VT" Fuzzy match to "618 Somerset Road, Searsburg, VT" -->
    <tag k="addr:city" v="Wilmington"/>
    <tag k="addr:housenumber" v="618"/>
    <tag k="addr:street" v="Somerset Road"/>
    <tag k="addr:state" v="VT"/>
    <tag k="ref:vcgi:esiteid" v="217260"/>
  </node>
  <node id="-103" visible="true" lat="42.918456819664" lon="-72.969646584465">
    <!-- conflict: "702 Somerset Road, Wilmington, VT" Fuzzy match to "702 Somerset Road, Searsburg, VT" -->
    <tag k="addr:city" v="Wilmington"/>
    <tag k="addr:housenumber" v="702"/>
    <tag k="addr:street" v="Somerset Road"/>
    <tag k="addr:state" v="VT"/>
    <tag k="ref:vcgi:esiteid" v="217261"/>
  </node>
  <node id="-104" visible="true" lat="42.914378866095" lon="-72.96022748373">
    <!-- conflict: "550 Somerset Road, Wilmington, VT" Fuzzy match to "550 Somerset Road, Searsburg, VT" -->
    <tag k="addr:city" v="Wilmington"/>
    <tag k="addr:housenumber" v="550"/>
    <tag k="addr:street" v="Somerset Road"/>
    <tag k="addr:state" v="VT"/>
    <tag k="ref:vcgi:esiteid" v="217262"/>
  </node>
  <node id="-105" visible="true" lat="42.913521992835" lon="-72.960123955648">
    <!-- conflict: "544 Somerset Road, Wilmington, VT" Fuzzy match to "544 Somerset Road, Searsburg, VT" -->
    <tag k="addr:city" v="Wilmington"/>
    <tag k="addr:housenumber" v="544"/>
    <tag k="addr:street" v="Somerset Road"/>
    <tag k="addr:state" v="VT"/>
    <tag k="ref:vcgi:esiteid" v="217263"/>
  </node>
  <node id="-106" visible="true" lat="42.914272350372" lon="-72.9590536631">
    <!-- conflict: "539 Somerset Road, Wilmington, VT" Fuzzy match to "539 Somerset Road, Searsburg, VT" -->
    <tag k="addr:city" v="Wilmington"/>
    <tag k="addr:housenumber" v="539"/>
    <tag k="addr:street" v="Somerset Road"/>
    <tag k="addr:state" v="VT"/>
    <tag k="ref:vcgi:esiteid" v="217264"/>
  </node>
  <node id="-107" visible="true" lat="42.91322848172" lon="-72.959869155186">
    <!-- conflict: "526 Somerset Road, Wilmington, VT" Fuzzy match to "526 Somerset Road, Searsburg, VT" -->
    <tag k="addr:city" v="Wilmington"/>
    <tag k="addr:housenumber" v="526"/>
    <tag k="addr:street" v="Somerset Road"/>
    <tag k="addr:state" v="VT"/>
    <tag k="ref:vcgi:esiteid" v="217265"/>
  </node>
  <node id="-108" visible="true" lat="42.901845533323" lon="-72.949986007851">
    <!-- conflict: "227 Somerset Road, Wilmington, VT" Fuzzy match to "227 Somerset Road, Searsburg, VT" -->
    <tag k="addr:city" v="Wilmington"/>
    <tag k="addr:housenumber" v="227"/>
    <tag k="addr:street" v="Somerset Road"/>
    <tag k="addr:state" v="VT"/>
    <tag k="ref:vcgi:esiteid" v="217266"/>
  </node>
  <node id="-109" visible="true" lat="42.897220680062" lon="-72.970200916373">
    <!-- conflict: "1401 Vermont Route 9 West, Wilmington, VT" Fuzzy match to "1401 Vermont Route 9 West, Searsburg, VT" -->
    <tag k="addr:city" v="Wilmington"/>
    <tag k="addr:housenumber" v="1401"/>
    <tag k="addr:street" v="Vermont Route 9 West"/>
    <tag k="addr:state" v="VT"/>
    <tag k="ref:vcgi:esiteid" v="217267"/>
  </node>
  <node id="-110" visible="true" lat="42.895537866791" lon="-72.987824639808">
    <!-- conflict: "1595 Vermont Route 9 West, Wilmington, VT" Fuzzy match to "1595 Vermont Route 9 West, Searsburg, VT" -->
    <tag k="addr:city" v="Wilmington"/>
    <tag k="addr:housenumber" v="1595"/>
    <tag k="addr:street" v="Vermont Route 9 West"/>
    <tag k="addr:state" v="VT"/>
    <tag k="ref:vcgi:esiteid" v="217268"/>
  </node>
  <node id="-111" visible="true" lat="42.896094100719" lon="-73.002323882167">
    <!-- conflict: "65 Rake Branch Trail, Wilmington, VT" Fuzzy match to "65 Rake Branch Trail, Searsburg, VT" -->
    <tag k="addr:city" v="Wilmington"/>
    <tag k="addr:housenumber" v="65"/>
    <tag k="addr:street" v="Rake Branch Trail"/>
    <tag k="addr:state" v="VT"/>
    <tag k="ref:vcgi:esiteid" v="217269"/>
  </node>
  <node id="-112" visible="true" lat="42.895892100572" lon="-72.977778077778">
    <!-- conflict: "18 Town Garage Road, Wilmington, VT" Fuzzy match to "18 Town Garage Road, Searsburg, VT" -->
    <tag k="addr:city" v="Wilmington"/>
    <tag k="addr:housenumber" v="18"/>
    <tag k="addr:street" v="Town Garage Road"/>
    <tag k="addr:state" v="VT"/>
    <tag k="ref:vcgi:esiteid" v="217270"/>
  </node>
  <node id="-113" visible="true" lat="42.895753956695" lon="-73.002150271836">
    <!-- conflict: "61 Rake Branch Trail, Wilmington, VT" Fuzzy match to "61 Rake Branch Trail, Searsburg, VT" -->
    <tag k="addr:city" v="Wilmington"/>
    <tag k="addr:housenumber" v="61"/>
    <tag k="addr:street" v="Rake Branch Trail"/>
    <tag k="addr:state" v="VT"/>
    <tag k="ref:vcgi:esiteid" v="217271"/>
  </node>
  <node id="-114" visible="true" lat="42.895676830092" lon="-72.985196204967">
    <!-- conflict: "1561 Vermont Route 9 West, Wilmington, VT" Fuzzy match to "1561 Vermont Route 9 West, Searsburg, VT" -->
    <tag k="addr:city" v="Wilmington"/>
    <tag k="addr:housenumber" v="1561"/>
    <tag k="addr:street" v="Vermont Route 9 West"/>
    <tag k="addr:state" v="VT"/>
    <tag k="ref:vcgi:esiteid" v="217272"/>
  </node>
  <node id="-115" visible="true" lat="42.895544210405" lon="-72.98194470608">
    <!-- conflict: "1527 Vermont Route 9 West, Wilmington, VT" Fuzzy match to "1527 Vermont Route 9 West, Searsburg, VT" -->
    <tag k="addr:city" v="Wilmington"/>
    <tag k="addr:housenumber" v="1527"/>
    <tag k="addr:street" v="Vermont Route 9 West"/>
    <tag k="addr:state" v="VT"/>
    <tag k="ref:vcgi:esiteid" v="217273"/>
  </node>
  <node id="-116" visible="true" lat="42.895482678774" lon="-72.980855822158">
    <!-- conflict: "1515 Vermont Route 9 West, Wilmington, VT" Fuzzy match to "1515 Vermont Route 9 West, Searsburg, VT" -->
    <tag k="addr:city" v="Wilmington"/>
    <tag k="addr:housenumber" v="1515"/>
    <tag k="addr:street" v="Vermont Route 9 West"/>
    <tag k="addr:state" v="VT"/>
    <tag k="ref:vcgi:esiteid" v="217274"/>
  </node>
  <node id="-117" visible="true" lat="42.895542874294" lon="-72.966629705408">
    <!-- conflict: "1358 Vermont Route 9 West, Wilmington, VT" Fuzzy match to "1358 Vermont Route 9 West, Searsburg, VT" -->
    <tag k="addr:city" v="Wilmington"/>
    <tag k="addr:housenumber" v="1358"/>
    <tag k="addr:street" v="Vermont Route 9 West"/>
    <tag k="addr:state" v="VT"/>
    <tag k="ref:vcgi:esiteid" v="217275"/>
  </node>
  <node id="-118" visible="true" lat="42.895424824681" lon="-72.975689132336">
    <!-- conflict: "1459 Vermont Route 9 West, Wilmington, VT" Fuzzy match to "1459 Vermont Route 9 West, Searsburg, VT" -->
    <tag k="addr:city" v="Wilmington"/>
    <tag k="addr:housenumber" v="1459"/>
    <tag k="addr:street" v="Vermont Route 9 West"/>
    <tag k="addr:state" v="VT"/>
    <tag k="ref:vcgi:esiteid" v="217276"/>
  </node>
  <node id="-119" visible="true" lat="42.895475140473" lon="-72.967861883664">
    <!-- conflict: "1371 Vermont Route 9 West, Wilmington, VT" Fuzzy match to "1371 Vermont Route 9 West, Searsburg, VT" -->
    <tag k="addr:city" v="Wilmington"/>
    <tag k="addr:housenumber" v="1371"/>
    <tag k="addr:street" v="Vermont Route 9 West"/>
    <tag k="addr:state" v="VT"/>
    <tag k="ref:vcgi:esiteid" v="217277"/>
  </node>
  <node id="-120" visible="true" lat="42.895292424569" lon="-73.002137618764">
    <!-- conflict: "55 Rake Branch Trail, Wilmington, VT" Fuzzy match to "55 Rake Branch Trail, Searsburg, VT" -->
    <tag k="addr:city" v="Wilmington"/>
    <tag k="addr:housenumber" v="55"/>
    <tag k="addr:street" v="Rake Branch Trail"/>
    <tag k="addr:state" v="VT"/>
    <tag k="ref:vcgi:esiteid" v="217278"/>
  </node>
  <node id="-121" visible="true" lat="42.895168493386" lon="-72.982814409381">
    <!-- conflict: "1534 Vermont Route 9 West, Wilmington, VT" Fuzzy match to "1534 Vermont Route 9 West, Searsburg, VT" -->
    <tag k="addr:city" v="Wilmington"/>
    <tag k="addr:housenumber" v="1534"/>
    <tag k="addr:street" v="Vermont Route 9 West"/>
    <tag k="addr:state" v="VT"/>
    <tag k="ref:vcgi:esiteid" v="217279"/>
  </node>
  <node id="-122" visible="true" lat="42.895217151143" lon="-72.974577783477">
    <!-- conflict: "1447 Vermont Route 9 West, Wilmington, VT" Fuzzy match to "1447 Vermont Route 9 West, Searsburg, VT" -->
    <tag k="addr:city" v="Wilmington"/>
    <tag k="addr:housenumber" v="1447"/>
    <tag k="addr:street" v="Vermont Route 9 West"/>
    <tag k="addr:state" v="VT"/>
    <tag k="ref:vcgi:esiteid" v="217280"/>
  </node>
  <node id="-123" visible="true" lat="42.895283397033" lon="-72.967310434343">
    <!-- conflict: "1368 Vermont Route 9 West, Wilmington, VT" Fuzzy match to "1368 Vermont Route 9 West, Searsburg, VT" -->
    <tag k="addr:city" v="Wilmington"/>
    <tag k="addr:housenumber" v="1368"/>
    <tag k="addr:street" v="Vermont Route 9 West"/>
    <tag k="addr:state" v="VT"/>
    <tag k="ref:vcgi:esiteid" v="217281"/>
  </node>
  <node id="-124" visible="true" lat="42.894925945855" lon="-73.002316206697">
    <!-- conflict: "47 Rake Branch Trail, Wilmington, VT" Fuzzy match to "47 Rake Branch Trail, Searsburg, VT" -->
    <tag k="addr:city" v="Wilmington"/>
    <tag k="addr:housenumber" v="47"/>
    <tag k="addr:street" v="Rake Branch Trail"/>
    <tag k="addr:state" v="VT"/>
    <tag k="ref:vcgi:esiteid" v="217282"/>
  </node>
  <node id="-125" visible="true" lat="42.89476868497" lon="-72.979456467064">
    <!-- conflict: "1498 Vermont Route 9 West, Wilmington, VT" Fuzzy match to "1498 Vermont Route 9 West, Searsburg, VT" -->
    <tag k="addr:city" v="Wilmington"/>
    <tag k="addr:housenumber" v="1498"/>
    <tag k="addr:street" v="Vermont Route 9 West"/>
    <tag k="addr:state" v="VT"/>
    <tag k="ref:vcgi:esiteid" v="217283"/>
  </node>
  <node id="-126" visible="true" lat="42.894801773073" lon="-72.977611333712">
    <!-- conflict: "1478 Vermont Route 9 West, Wilmington, VT" Fuzzy match to "1478 Vermont Route 9 West, Searsburg, VT" -->
    <tag k="addr:city" v="Wilmington"/>
    <tag k="addr:housenumber" v="1478"/>
    <tag k="addr:street" v="Vermont Route 9 West"/>
    <tag k="addr:state" v="VT"/>
    <tag k="ref:vcgi:esiteid" v="217284"/>
  </node>
  <node id="-127" visible="true" lat="42.894771441717" lon="-72.977907977868">
    <!-- conflict: "1482 Vermont Route 9 West, Wilmington, VT" Fuzzy match to "1482 Vermont Route 9 West, Searsburg, VT" -->
    <tag k="addr:city" v="Wilmington"/>
    <tag k="addr:housenumber" v="1482"/>
    <tag k="addr:street" v="Vermont Route 9 West"/>
    <tag k="addr:state" v="VT"/>
    <tag k="ref:vcgi:esiteid" v="217285"/>
  </node>
  <node id="-128" visible="true" lat="42.894795253099" lon="-72.969754266933">
    <!-- conflict: "1394 Vermont Route 9 West, Wilmington, VT" Fuzzy match to "1394 Vermont Route 9 West, Searsburg, VT" -->
    <tag k="addr:city" v="Wilmington"/>
    <tag k="addr:housenumber" v="1394"/>
    <tag k="addr:street" v="Vermont Route 9 West"/>
    <tag k="addr:state" v="VT"/>
    <tag k="ref:vcgi:esiteid" v="217286"/>
  </node>
  <node id="-129" visible="true" lat="42.89449593952" lon="-72.992892612404">
    <!-- conflict: "1646 Vermont Route 9 West, Wilmington, VT" Fuzzy match to "1646 Vermont Route 9 West, Searsburg, VT" -->
    <tag k="addr:city" v="Wilmington"/>
    <tag k="addr:housenumber" v="1646"/>
    <tag k="addr:street" v="Vermont Route 9 West"/>
    <tag k="addr:state" v="VT"/>
    <tag k="ref:vcgi:esiteid" v="217287"/>
  </node>
  <node id="-130" visible="true" lat="42.894646735947" lon="-72.978372871908">
    <!-- conflict: "1488 Vermont Route 9 West, Wilmington, VT" Fuzzy match to "1488 Vermont Route 9 West, Searsburg, VT" -->
    <tag k="addr:city" v="Wilmington"/>
    <tag k="addr:housenumber" v="1488"/>
    <tag k="addr:street" v="Vermont Route 9 West"/>
    <tag k="addr:state" v="VT"/>
    <tag k="ref:vcgi:esiteid" v="217289"/>
  </node>
  <node id="-131" visible="true" lat="42.894482141729" lon="-72.995510045783">
    <!-- conflict: "1675 Vermont Route 9 West, Wilmington, VT" Fuzzy match to "1675 Vermont Route 9 West, Searsburg, VT" -->
    <tag k="addr:city" v="Wilmington"/>
    <tag k="addr:housenumber" v="1675"/>
    <tag k="addr:street" v="Vermont Route 9 West"/>
    <tag k="addr:state" v="VT"/>
    <tag k="ref:vcgi:esiteid" v="217290"/>
  </node>
  <node id="-132" visible="true" lat="42.894325780806" lon="-73.002362664112">
    <!-- conflict: "39 Rake Branch Trail, Wilmington, VT" Fuzzy match to "39 Rake Branch Trail, Searsburg, VT" -->
    <tag k="addr:city" v="Wilmington"/>
    <tag k="addr:housenumber" v="39"/>
    <tag k="addr:street" v="Rake Branch Trail"/>
    <tag k="addr:state" v="VT"/>
    <tag k="ref:vcgi:esiteid" v="217291"/>
  </node>
  <node id="-133" visible="true" lat="42.894445929556" lon="-72.973166725853">
    <!-- conflict: "1428 Vermont Route 9 West, Wilmington, VT" Fuzzy match to "1428 Vermont Route 9 West, Searsburg, VT" -->
    <tag k="addr:city" v="Wilmington"/>
    <tag k="addr:housenumber" v="1428"/>
    <tag k="addr:street" v="Vermont Route 9 West"/>
    <tag k="addr:state" v="VT"/>
    <tag k="ref:vcgi:esiteid" v="217293"/>
  </node>
  <node id="-134" visible="true" lat="42.894292935723" lon="-72.955022414964">
    <!-- conflict: "66 Somerset Road, Wilmington, VT" Fuzzy match to "66 Somerset Road, Searsburg, VT" -->
    <tag k="addr:city" v="Wilmington"/>
    <tag k="addr:housenumber" v="66"/>
    <tag k="addr:street" v="Somerset Road"/>
    <tag k="addr:state" v="VT"/>
    <tag k="ref:vcgi:esiteid" v="217294"/>
  </node>
  <node id="-135" visible="true" lat="42.894166474695" lon="-72.994017602126">
    <!-- conflict: "1660 Vermont Route 9 West, Wilmington, VT" Fuzzy match to "1660 Vermont Route 9 West, Searsburg, VT" -->
    <tag k="addr:city" v="Wilmington"/>
    <tag k="addr:housenumber" v="1660"/>
    <tag k="addr:street" v="Vermont Route 9 West"/>
    <tag k="addr:state" v="VT"/>
    <tag k="ref:vcgi:esiteid" v="217295"/>
  </node>
  <node id="-136" visible="true" lat="42.893999533684" lon="-73.002415213055">
    <!-- conflict: "33 Rake Branch Trail, Wilmington, VT" Fuzzy match to "33 Rake Branch Trail, Searsburg, VT" -->
    <tag k="addr:city" v="Wilmington"/>
    <tag k="addr:housenumber" v="33"/>
    <tag k="addr:street" v="Rake Branch Trail"/>
    <tag k="addr:state" v="VT"/>
    <tag k="ref:vcgi:esiteid" v="217296"/>
  </node>
  <node id="-137" visible="true" lat="42.894028735134" lon="-72.974898087764">
    <!-- conflict: "18 Vermont Route 8, Wilmington, VT" Fuzzy match to "18 Vermont Route 8, Searsburg, VT" -->
    <tag k="addr:city" v="Wilmington"/>
    <tag k="addr:housenumber" v="18"/>
    <tag k="addr:street" v="Vermont Route 8"/>
    <tag k="addr:state" v="VT"/>
    <tag k="ref:vcgi:esiteid" v="217297"/>
  </node>
  <node id="-138" visible="true" lat="42.893250010126" lon="-72.996034087878">
    <!-- conflict: "6 Old Route 9, Wilmington, VT" Fuzzy match to "6 Old Route 9, Searsburg, VT" -->
    <tag k="addr:city" v="Wilmington"/>
    <tag k="addr:housenumber" v="6"/>
    <tag k="addr:street" v="Old Route 9"/>
    <tag k="addr:state" v="VT"/>
    <tag k="ref:vcgi:esiteid" v="217299"/>
  </node>
  <node id="-139" visible="true" lat="42.893218157702" lon="-72.975850218735">
    <!-- conflict: "29 Vermont Route 8, Wilmington, VT" Fuzzy match to "29 Vermont Route 8, Searsburg, VT" -->
    <tag k="addr:city" v="Wilmington"/>
    <tag k="addr:housenumber" v="29"/>
    <tag k="addr:street" v="Vermont Route 8"/>
    <tag k="addr:state" v="VT"/>
    <tag k="ref:vcgi:esiteid" v="217301"/>
  </node>
  <node id="-140" visible="true" lat="42.893403782726" lon="-72.992698775585">
    <!-- conflict: "1638 Vermont Route 9 West, Wilmington, VT" Fuzzy match to "1638 Vermont Route 9 West, Searsburg, VT" -->
    <tag k="addr:city" v="Wilmington"/>
    <tag k="addr:housenumber" v="1638"/>
    <tag k="addr:street" v="Vermont Route 9 West"/>
    <tag k="addr:state" v="VT"/>
    <tag k="ref:vcgi:esiteid" v="217302"/>
  </node>
  <node id="-141" visible="true" lat="42.892814845991" lon="-72.997375824278">
    <!-- conflict: "18 Old Route 9, Wilmington, VT" Fuzzy match to "18 Old Route 9, Searsburg, VT" -->
    <tag k="addr:city" v="Wilmington"/>
    <tag k="addr:housenumber" v="18"/>
    <tag k="addr:street" v="Old Route 9"/>
    <tag k="addr:state" v="VT"/>
    <tag k="ref:vcgi:esiteid" v="217303"/>
  </node>
  <node id="-142" visible="true" lat="42.892801784562" lon="-72.975481076714">
    <!-- conflict: "35 Vermont Route 8, Wilmington, VT" Fuzzy match to "35 Vermont Route 8, Searsburg, VT" -->
    <tag k="addr:city" v="Wilmington"/>
    <tag k="addr:housenumber" v="35"/>
    <tag k="addr:street" v="Vermont Route 8"/>
    <tag k="addr:state" v="VT"/>
    <tag k="ref:vcgi:esiteid" v="217304"/>
  </node>
  <node id="-143" visible="true" lat="42.892399167316" lon="-72.996550848748">
    <!-- conflict: "16 Old Route 9, Wilmington, VT" Fuzzy match to "16 Old Route 9, Searsburg, VT" -->
    <tag k="addr:city" v="Wilmington"/>
    <tag k="addr:housenumber" v="16"/>
    <tag k="addr:street" v="Old Route 9"/>
    <tag k="addr:state" v="VT"/>
    <tag k="ref:vcgi:esiteid" v="217306"/>
  </node>
  <node id="-144" visible="true" lat="42.892644551665" lon="-72.9529671942">
    <!-- conflict: "50 Somerset Road, Wilmington, VT" Fuzzy match to "50 Somerset Road, Searsburg, VT" -->
    <tag k="addr:city" v="Wilmington"/>
    <tag k="addr:housenumber" v="50"/>
    <tag k="addr:street" v="Somerset Road"/>
    <tag k="addr:state" v="VT"/>
    <tag k="ref:vcgi:esiteid" v="217307"/>
  </node>
  <node id="-145" visible="true" lat="42.892184394523" lon="-73.000306067434">
    <!-- conflict: "56 Old Route 9, Wilmington, VT" Fuzzy match to "56 Old Route 9, Searsburg, VT" -->
    <tag k="addr:city" v="Wilmington"/>
    <tag k="addr:housenumber" v="56"/>
    <tag k="addr:street" v="Old Route 9"/>
    <tag k="addr:state" v="VT"/>
    <tag k="ref:vcgi:esiteid" v="217308"/>
  </node>
  <node id="-146" visible="true" lat="42.892228477645" lon="-72.975088630669">
    <!-- conflict: "45 Vermont Route 8, Wilmington, VT" Fuzzy match to "45 Vermont Route 8, Searsburg, VT" -->
    <tag k="addr:city" v="Wilmington"/>
    <tag k="addr:housenumber" v="45"/>
    <tag k="addr:street" v="Vermont Route 8"/>
    <tag k="addr:state" v="VT"/>
    <tag k="ref:vcgi:esiteid" v="217309"/>
  </node>
  <node id="-147" visible="true" lat="42.89203001596" lon="-72.999169240741">
    <!-- conflict: "44 Old Route 9, Wilmington, VT" Fuzzy match to "44 Old Route 9, Searsburg, VT" -->
    <tag k="addr:city" v="Wilmington"/>
    <tag k="addr:housenumber" v="44"/>
    <tag k="addr:street" v="Old Route 9"/>
    <tag k="addr:state" v="VT"/>
    <tag k="ref:vcgi:esiteid" v="217311"/>
  </node>
  <node id="-148" visible="true" lat="42.891909520955" lon="-73.000594105095">
    <!-- conflict: "5 Bishop Road, Wilmington, VT" Fuzzy match to "5 Bishop Road, Searsburg, VT" -->
    <tag k="addr:city" v="Wilmington"/>
    <tag k="addr:housenumber" v="5"/>
    <tag k="addr:street" v="Bishop Road"/>
    <tag k="addr:state" v="VT"/>
    <tag k="ref:vcgi:esiteid" v="217312"/>
  </node>
  <node id="-149" visible="true" lat="42.891625501532" lon="-72.974022687571">
    <!-- conflict: "54 Vermont Route 8, Wilmington, VT" Fuzzy match to "54 Vermont Route 8, Searsburg, VT" -->
    <tag k="addr:city" v="Wilmington"/>
    <tag k="addr:housenumber" v="54"/>
    <tag k="addr:street" v="Vermont Route 8"/>
    <tag k="addr:state" v="VT"/>
    <tag k="ref:vcgi:esiteid" v="217313"/>
  </node>
  <node id="-150" visible="true" lat="42.891656213021" lon="-73.001513940828">
    <!-- conflict: "68 Old Route 9, Wilmington, VT" Fuzzy match to "68 Old Route 9, Searsburg, VT" -->
    <tag k="addr:city" v="Wilmington"/>
    <tag k="addr:housenumber" v="68"/>
    <tag k="addr:street" v="Old Route 9"/>
    <tag k="addr:state" v="VT"/>
    <tag k="ref:vcgi:esiteid" v="217315"/>
  </node>
  <node id="-151" visible="true" lat="42.89160976313" lon="-72.952435756873">
    <!-- conflict: "36 Somerset Road, Wilmington, VT" Fuzzy match to "36 Somerset Road, Searsburg, VT" -->
    <tag k="addr:city" v="Wilmington"/>
    <tag k="addr:housenumber" v="36"/>
    <tag k="addr:street" v="Somerset Road"/>
    <tag k="addr:state" v="VT"/>
    <tag k="ref:vcgi:esiteid" v="217316"/>
  </node>
  <node id="-152" visible="true" lat="42.891567140156" lon="-72.97455089531">
    <!-- conflict: "57 Vermont Route 8, Wilmington, VT" Fuzzy match to "57 Vermont Route 8, Searsburg, VT" -->
    <tag k="addr:city" v="Wilmington"/>
    <tag k="addr:housenumber" v="57"/>
    <tag k="addr:street" v="Vermont Route 8"/>
    <tag k="addr:state" v="VT"/>
    <tag k="ref:vcgi:esiteid" v="217317"/>
  </node>
  <node id="-153" visible="true" lat="42.891374249775" lon="-73.00258392128">
    <!-- conflict: "70 Old Route 9, Wilmington, VT" Fuzzy match to "70 Old Route 9, Searsburg, VT" -->
    <tag k="addr:city" v="Wilmington"/>
    <tag k="addr:housenumber" v="70"/>
    <tag k="addr:street" v="Old Route 9"/>
    <tag k="addr:state" v="VT"/>
    <tag k="ref:vcgi:esiteid" v="217318"/>
  </node>
  <node id="-154" visible="true" lat="42.891253775413" lon="-72.95288762158">
    <!-- conflict: "30 Somerset Road, Wilmington, VT" Fuzzy match to "30 Somerset Road, Searsburg, VT" -->
    <tag k="addr:city" v="Wilmington"/>
    <tag k="addr:housenumber" v="30"/>
    <tag k="addr:street" v="Somerset Road"/>
    <tag k="addr:state" v="VT"/>
    <tag k="ref:vcgi:esiteid" v="217319"/>
  </node>
  <node id="-155" visible="true" lat="42.891089999057" lon="-72.974192283147">
    <!-- conflict: "64 Vermont Route 8, Wilmington, VT" Fuzzy match to "64 Vermont Route 8, Searsburg, VT" -->
    <tag k="addr:city" v="Wilmington"/>
    <tag k="addr:housenumber" v="64"/>
    <tag k="addr:street" v="Vermont Route 8"/>
    <tag k="addr:state" v="VT"/>
    <tag k="ref:vcgi:esiteid" v="217320"/>
  </node>
  <node id="-156" visible="true" lat="42.890735729747" lon="-73.000404019276">
    <!-- conflict: "20 Bishop Road, Wilmington, VT" Fuzzy match to "20 Bishop Road, Searsburg, VT" -->
    <tag k="addr:city" v="Wilmington"/>
    <tag k="addr:housenumber" v="20"/>
    <tag k="addr:street" v="Bishop Road"/>
    <tag k="addr:state" v="VT"/>
    <tag k="ref:vcgi:esiteid" v="217321"/>
  </node>
  <node id="-157" visible="true" lat="42.890720864027" lon="-72.97296637598">
    <!-- conflict: "72 Vermont Route 8, Wilmington, VT" Fuzzy match to "72 Vermont Route 8, Searsburg, VT" -->
    <tag k="addr:city" v="Wilmington"/>
    <tag k="addr:housenumber" v="72"/>
    <tag k="addr:street" v="Vermont Route 8"/>
    <tag k="addr:state" v="VT"/>
    <tag k="ref:vcgi:esiteid" v="217322"/>
  </node>
  <node id="-158" visible="true" lat="42.890695707826" lon="-72.974088590014">
    <!-- conflict: "70 Vermont Route 8, Wilmington, VT" Fuzzy match to "70 Vermont Route 8, Searsburg, VT" -->
    <tag k="addr:city" v="Wilmington"/>
    <tag k="addr:housenumber" v="70"/>
    <tag k="addr:street" v="Vermont Route 8"/>
    <tag k="addr:state" v="VT"/>
    <tag k="ref:vcgi:esiteid" v="217323"/>
  </node>
  <node id="-159" visible="true" lat="42.890106307131" lon="-72.974746147814">
    <!-- conflict: "79 Vermont Route 8, Wilmington, VT" Fuzzy match to "79 Vermont Route 8, Searsburg, VT" -->
    <tag k="addr:city" v="Wilmington"/>
    <tag k="addr:housenumber" v="79"/>
    <tag k="addr:street" v="Vermont Route 8"/>
    <tag k="addr:state" v="VT"/>
    <tag k="ref:vcgi:esiteid" v="217326"/>
  </node>
  <node id="-160" visible="true" lat="42.889904580647" lon="-73.009706499318">
    <!-- conflict: "1843 Vermont Route 9 West, Wilmington, VT" Fuzzy match to "1843 Vermont Route 9 West, Searsburg, VT" -->
    <tag k="addr:city" v="Wilmington"/>
    <tag k="addr:housenumber" v="1843"/>
    <tag k="addr:street" v="Vermont Route 9 West"/>
    <tag k="addr:state" v="VT"/>
    <tag k="ref:vcgi:esiteid" v="217327"/>
  </node>
  <node id="-161" visible="true" lat="42.889698423182" lon="-72.976231194369">
    <!-- conflict: "21 Putnam Road, Wilmington, VT" Fuzzy match to "21 Putnam Road, Searsburg, VT" -->
    <tag k="addr:city" v="Wilmington"/>
    <tag k="addr:housenumber" v="21"/>
    <tag k="addr:street" v="Putnam Road"/>
    <tag k="addr:state" v="VT"/>
    <tag k="ref:vcgi:esiteid" v="217328"/>
  </node>
  <node id="-162" visible="true" lat="42.88940904801" lon="-73.002195268568">
    <!-- conflict: "43 Bishop Road, Wilmington, VT" Fuzzy match to "43 Bishop Road, Searsburg, VT" -->
    <tag k="addr:city" v="Wilmington"/>
    <tag k="addr:housenumber" v="43"/>
    <tag k="addr:street" v="Bishop Road"/>
    <tag k="addr:state" v="VT"/>
    <tag k="ref:vcgi:esiteid" v="217329"/>
  </node>
  <node id="-163" visible="true" lat="42.889662661973" lon="-72.974818781003">
    <!-- conflict: "85 Vermont Route 8, Wilmington, VT" Fuzzy match to "85 Vermont Route 8, Searsburg, VT" -->
    <tag k="addr:city" v="Wilmington"/>
    <tag k="addr:housenumber" v="85"/>
    <tag k="addr:street" v="Vermont Route 8"/>
    <tag k="addr:state" v="VT"/>
    <tag k="ref:vcgi:esiteid" v="217330"/>
  </node>
  <node id="-164" visible="true" lat="42.888888584239" lon="-72.972947326414">
    <!-- conflict: "100 Vermont Route 8, Wilmington, VT" Fuzzy match to "100 Vermont Route 8, Searsburg, VT" -->
    <tag k="addr:city" v="Wilmington"/>
    <tag k="addr:housenumber" v="100"/>
    <tag k="addr:street" v="Vermont Route 8"/>
    <tag k="addr:state" v="VT"/>
    <tag k="ref:vcgi:esiteid" v="217331"/>
  </node>
  <node id="-165" visible="true" lat="42.888312903267" lon="-72.951640822451">
    <!-- conflict: "1126 Vermont Route 9 West, Wilmington, VT" Fuzzy match to "1126 Vermont Route 9 West, Searsburg, VT" -->
    <tag k="addr:city" v="Wilmington"/>
    <tag k="addr:housenumber" v="1126"/>
    <tag k="addr:street" v="Vermont Route 9 West"/>
    <tag k="addr:state" v="VT"/>
    <tag k="ref:vcgi:esiteid" v="217332"/>
  </node>
  <node id="-166" visible="true" lat="42.88816886768" lon="-72.977117509318">
    <!-- conflict: "37 Putnam Road, Wilmington, VT" Fuzzy match to "37 Putnam Road, Searsburg, VT" -->
    <tag k="addr:city" v="Wilmington"/>
    <tag k="addr:housenumber" v="37"/>
    <tag k="addr:street" v="Putnam Road"/>
    <tag k="addr:state" v="VT"/>
    <tag k="ref:vcgi:esiteid" v="217333"/>
  </node>
  <node id="-167" visible="true" lat="42.887140035203" lon="-72.973120116681">
    <!-- conflict: "125 Vermont Route 8, Wilmington, VT" Fuzzy match to "125 Vermont Route 8, Searsburg, VT" -->
    <tag k="addr:city" v="Wilmington"/>
    <tag k="addr:housenumber" v="125"/>
    <tag k="addr:street" v="Vermont Route 8"/>
    <tag k="addr:state" v="VT"/>
    <tag k="ref:vcgi:esiteid" v="217334"/>
  </node>
  <node id="-168" visible="true" lat="42.8864434067" lon="-72.9505089858">
    <!-- conflict: "1098 Vermont Route 9 West, Wilmington, VT" Fuzzy match to "1098 Vermont Route 9 West, Searsburg, VT" -->
    <tag k="addr:city" v="Wilmington"/>
    <tag k="addr:housenumber" v="1098"/>
    <tag k="addr:street" v="Vermont Route 9 West"/>
    <tag k="addr:state" v="VT"/>
    <tag k="ref:vcgi:esiteid" v="217335"/>
  </node>
  <node id="-169" visible="true" lat="42.88573011616" lon="-72.973197932491">
    <!-- conflict: "149 Vermont Route 8, Wilmington, VT" Fuzzy match to "149 Vermont Route 8, Searsburg, VT" -->
    <tag k="addr:city" v="Wilmington"/>
    <tag k="addr:housenumber" v="149"/>
    <tag k="addr:street" v="Vermont Route 8"/>
    <tag k="addr:state" v="VT"/>
    <tag k="ref:vcgi:esiteid" v="217336"/>
  </node>
  <node id="-170" visible="true" lat="42.882176675122" lon="-72.970821891245">
    <!-- conflict: "18 Hager Lane, Wilmington, VT" Fuzzy match to "18 Hager Lane, Searsburg, VT" -->
    <tag k="addr:city" v="Wilmington"/>
    <tag k="addr:housenumber" v="18"/>
    <tag k="addr:street" v="Hager Lane"/>
    <tag k="addr:state" v="VT"/>
    <tag k="ref:vcgi:esiteid" v="217337"/>
  </node>
  <node id="-171" visible="true" lat="42.882190670334" lon="-72.972680857154">
    <!-- conflict: "197 Vermont Route 8, Wilmington, VT" Fuzzy match to "197 Vermont Route 8, Searsburg, VT" -->
    <tag k="addr:city" v="Wilmington"/>
    <tag k="addr:housenumber" v="197"/>
    <tag k="addr:street" v="Vermont Route 8"/>
    <tag k="addr:state" v="VT"/>
    <tag k="ref:vcgi:esiteid" v="217338"/>
  </node>
  <node id="-172" visible="true" lat="42.882161444965" lon="-72.970144942718">
    <!-- conflict: "19 Hager Lane, Wilmington, VT" Fuzzy match to "19 Hager Lane, Searsburg, VT" -->
    <tag k="addr:city" v="Wilmington"/>
    <tag k="addr:housenumber" v="19"/>
    <tag k="addr:street" v="Hager Lane"/>
    <tag k="addr:state" v="VT"/>
    <tag k="ref:vcgi:esiteid" v="217339"/>
  </node>
  <node id="-173" visible="true" lat="42.881675961005" lon="-72.970446759139">
    <!-- conflict: "11 Hager Lane, Wilmington, VT" Fuzzy match to "11 Hager Lane, Searsburg, VT" -->
    <tag k="addr:city" v="Wilmington"/>
    <tag k="addr:housenumber" v="11"/>
    <tag k="addr:street" v="Hager Lane"/>
    <tag k="addr:state" v="VT"/>
    <tag k="ref:vcgi:esiteid" v="217340"/>
  </node>
  <node id="-174" visible="true" lat="42.88165847028" lon="-72.953851312372">
    <!-- conflict: "128 Sleepy Hollow Road, Wilmington, VT" Fuzzy match to "128 Sleepy Hollow Road, Searsburg, VT" -->
    <tag k="addr:city" v="Wilmington"/>
    <tag k="addr:housenumber" v="128"/>
    <tag k="addr:street" v="Sleepy Hollow Road"/>
    <tag k="addr:state" v="VT"/>
    <tag k="ref:vcgi:esiteid" v="217341"/>
  </node>
  <node id="-175" visible="true" lat="42.881260746648" lon="-72.954401898152">
    <!-- conflict: "135 Sleepy Hollow Road, Wilmington, VT" Fuzzy match to "135 Sleepy Hollow Road, Searsburg, VT" -->
    <tag k="addr:city" v="Wilmington"/>
    <tag k="addr:housenumber" v="135"/>
    <tag k="addr:street" v="Sleepy Hollow Road"/>
    <tag k="addr:state" v="VT"/>
    <tag k="ref:vcgi:esiteid" v="217342"/>
  </node>
  <node id="-176" visible="true" lat="42.881209188361" lon="-72.954090474342">
    <!-- conflict: "134 Sleepy Hollow Road, Wilmington, VT" Fuzzy match to "134 Sleepy Hollow Road, Searsburg, VT" -->
    <tag k="addr:city" v="Wilmington"/>
    <tag k="addr:housenumber" v="134"/>
    <tag k="addr:street" v="Sleepy Hollow Road"/>
    <tag k="addr:state" v="VT"/>
    <tag k="ref:vcgi:esiteid" v="217343"/>
  </node>
  <node id="-177" visible="true" lat="42.880165176867" lon="-72.971600172529">
    <!-- conflict: "233 Vermont Route 8, Wilmington, VT" Fuzzy match to "233 Vermont Route 8, Searsburg, VT" -->
    <tag k="addr:city" v="Wilmington"/>
    <tag k="addr:housenumber" v="233"/>
    <tag k="addr:street" v="Vermont Route 8"/>
    <tag k="addr:state" v="VT"/>
    <tag k="ref:vcgi:esiteid" v="217344"/>
  </node>
  <node id="-178" visible="true" lat="42.88013921993" lon="-72.946267828572">
    <!-- conflict: "101 Lind Lane, Wilmington, VT" Fuzzy match to "101 Lind Lane, Searsburg, VT" -->
    <tag k="addr:city" v="Wilmington"/>
    <tag k="addr:housenumber" v="101"/>
    <tag k="addr:street" v="Lind Lane"/>
    <tag k="addr:state" v="VT"/>
    <tag k="ref:vcgi:esiteid" v="217345"/>
  </node>
  <node id="-179" visible="true" lat="42.879811578619" lon="-72.971442713744">
    <!-- conflict: "237 Vermont Route 8, Wilmington, VT" Fuzzy match to "237 Vermont Route 8, Searsburg, VT" -->
    <tag k="addr:city" v="Wilmington"/>
    <tag k="addr:housenumber" v="237"/>
    <tag k="addr:street" v="Vermont Route 8"/>
    <tag k="addr:state" v="VT"/>
    <tag k="ref:vcgi:esiteid" v="217346"/>
  </node>
  <node id="-180" visible="true" lat="42.87980550366" lon="-72.945220258831">
    <!-- conflict: "97 Lind Lane, Wilmington, VT" Fuzzy match to "97 Lind Lane, Searsburg, VT" -->
    <tag k="addr:city" v="Wilmington"/>
    <tag k="addr:housenumber" v="97"/>
    <tag k="addr:street" v="Lind Lane"/>
    <tag k="addr:state" v="VT"/>
    <tag k="ref:vcgi:esiteid" v="217347"/>
  </node>
  <node id="-181" visible="true" lat="42.883894973284" lon="-72.964517572936">
    <!-- conflict: "187 Vermont Route 8, Wilmington, VT" Fuzzy match to "187 Vermont Route 8, Searsburg, VT" -->
    <tag k="addr:city" v="Wilmington"/>
    <tag k="addr:housenumber" v="187"/>
    <tag k="addr:street" v="Vermont Route 8"/>
    <tag k="addr:state" v="VT"/>
    <tag k="ref:vcgi:esiteid" v="217349"/>
  </node>
  <node id="-182" visible="true" lat="42.879070747742" lon="-72.943174249221">
    <!-- conflict: "71 Lind Lane, Wilmington, VT" Fuzzy match to "71 Lind Lane, Searsburg, VT" -->
    <tag k="addr:city" v="Wilmington"/>
    <tag k="addr:housenumber" v="71"/>
    <tag k="addr:street" v="Lind Lane"/>
    <tag k="addr:state" v="VT"/>
    <tag k="ref:vcgi:esiteid" v="217350"/>
  </node>
  <node id="-183" visible="true" lat="42.878652381122" lon="-72.971028487118">
    <!-- conflict: "253 Vermont Route 8, Readsboro, VT" Fuzzy match to "253 Vermont Route 8, Searsburg, VT" -->
    <tag k="addr:city" v="Readsboro"/>
    <tag k="addr:housenumber" v="253"/>
    <tag k="addr:street" v="Vermont Route 8"/>
    <tag k="addr:state" v="VT"/>
    <tag k="ref:vcgi:esiteid" v="217351"/>
  </node>
  <node id="-184" visible="true" lat="42.878453673472" lon="-72.957306483189">
    <!-- conflict: "179 Sleepy Hollow Road, Wilmington, VT" Fuzzy match to "179 Sleepy Hollow Road, Searsburg, VT" -->
    <tag k="addr:city" v="Wilmington"/>
    <tag k="addr:housenumber" v="179"/>
    <tag k="addr:street" v="Sleepy Hollow Road"/>
    <tag k="addr:state" v="VT"/>
    <tag k="ref:vcgi:esiteid" v="217352"/>
  </node>
  <node id="-185" visible="true" lat="42.873491000461" lon="-72.928239978313">
    <!-- conflict: "693 Vermont Route 9 West, Wilmington, VT" Fuzzy match to "693 Vermont Route 9 West, Searsburg, VT" -->
    <tag k="addr:city" v="Wilmington"/>
    <tag k="addr:housenumber" v="693"/>
    <tag k="addr:street" v="Vermont Route 9 West"/>
    <tag k="addr:state" v="VT"/>
    <tag k="ref:vcgi:esiteid" v="217353"/>
  </node>
  <node id="-186" visible="true" lat="42.873026535255" lon="-72.97076906665">
    <!-- conflict: "343 Vermont Route 8, Readsboro, VT" Fuzzy match to "343 Vermont Route 8, Searsburg, VT" -->
    <tag k="addr:city" v="Readsboro"/>
    <tag k="addr:housenumber" v="343"/>
    <tag k="addr:street" v="Vermont Route 8"/>
    <tag k="addr:state" v="VT"/>
    <tag k="ref:vcgi:esiteid" v="217354"/>
  </node>
  <node id="-187" visible="true" lat="42.872788168997" lon="-72.937536037801">
    <!-- conflict: "789 Vermont Route 9 West, Wilmington, VT" Fuzzy match to "789 Vermont Route 9 West, Searsburg, VT" -->
    <tag k="addr:city" v="Wilmington"/>
    <tag k="addr:housenumber" v="789"/>
    <tag k="addr:street" v="Vermont Route 9 West"/>
    <tag k="addr:state" v="VT"/>
    <tag k="ref:vcgi:esiteid" v="217355"/>
  </node>
  <node id="-188" visible="true" lat="42.872742104732" lon="-72.925747841164">
    <!-- conflict: "665 Vermont Route 9 West, Wilmington, VT" Fuzzy match to "665 Vermont Route 9 West, Searsburg, VT" -->
    <tag k="addr:city" v="Wilmington"/>
    <tag k="addr:housenumber" v="665"/>
    <tag k="addr:street" v="Vermont Route 9 West"/>
    <tag k="addr:state" v="VT"/>
    <tag k="ref:vcgi:esiteid" v="217356"/>
  </node>
  <node id="-189" visible="true" lat="42.872539074461" lon="-72.93592219098">
    <!-- conflict: "771 Vermont Route 9 West, Wilmington, VT" Fuzzy match to "771 Vermont Route 9 West, Searsburg, VT" -->
    <tag k="addr:city" v="Wilmington"/>
    <tag k="addr:housenumber" v="771"/>
    <tag k="addr:street" v="Vermont Route 9 West"/>
    <tag k="addr:state" v="VT"/>
    <tag k="ref:vcgi:esiteid" v="217357"/>
  </node>
  <node id="-190" visible="true" lat="42.872236666922" lon="-72.931915923797">
    <!-- conflict: "725 Vermont Route 9 West, Wilmington, VT" Fuzzy match to "725 Vermont Route 9 West, Searsburg, VT" -->
    <tag k="addr:city" v="Wilmington"/>
    <tag k="addr:housenumber" v="725"/>
    <tag k="addr:street" v="Vermont Route 9 West"/>
    <tag k="addr:state" v="VT"/>
    <tag k="ref:vcgi:esiteid" v="217358"/>
  </node>
  <node id="-191" visible="true" lat="42.870725490291" lon="-72.970559763197">
    <!-- conflict: "376 Vermont Route 8, Readsboro, VT" Fuzzy match to "376 Vermont Route 8, Searsburg, VT" -->
    <tag k="addr:city" v="Readsboro"/>
    <tag k="addr:housenumber" v="376"/>
    <tag k="addr:street" v="Vermont Route 8"/>
    <tag k="addr:state" v="VT"/>
    <tag k="ref:vcgi:esiteid" v="217359"/>
  </node>
  <node id="-192" visible="true" lat="42.872867465734" lon="-72.937111126809">
    <!-- conflict: "779 Vermont Route 9 West, Wilmington, VT" Fuzzy match to "779 Vermont Route 9 West, Searsburg, VT" -->
    <tag k="addr:city" v="Wilmington"/>
    <tag k="addr:housenumber" v="779"/>
    <tag k="addr:street" v="Vermont Route 9 West"/>
    <tag k="addr:state" v="VT"/>
    <tag k="ref:vcgi:esiteid" v="217360"/>
  </node>
  <node id="-193" visible="true" lat="42.897261974431" lon="-73.00211261836">
    <!-- conflict: "66 Rake Branch Trail, Wilmington, VT" Fuzzy match to "66 Rake Branch Trail, Searsburg, VT" -->
    <tag k="addr:city" v="Wilmington"/>
    <tag k="addr:housenumber" v="66"/>
    <tag k="addr:street" v="Rake Branch Trail"/>
    <tag k="addr:state" v="VT"/>
    <tag k="ref:vcgi:esiteid" v="217361"/>
  </node>
  <node id="-194" visible="true" lat="42.897578485869" lon="-73.001737844101">
    <!-- conflict: "68 Rake Branch Trail, Wilmington, VT" Fuzzy match to "68 Rake Branch Trail, Searsburg, VT" -->
    <tag k="addr:city" v="Wilmington"/>
    <tag k="addr:housenumber" v="68"/>
    <tag k="addr:street" v="Rake Branch Trail"/>
    <tag k="addr:state" v="VT"/>
    <tag k="ref:vcgi:esiteid" v="217362"/>
  </node>
  <node id="-195" visible="true" lat="42.89764288422" lon="-73.002160740721">
    <!-- conflict: "70 Rake Branch Trail, Wilmington, VT" Fuzzy match to "70 Rake Branch Trail, Searsburg, VT" -->
    <tag k="addr:city" v="Wilmington"/>
    <tag k="addr:housenumber" v="70"/>
    <tag k="addr:street" v="Rake Branch Trail"/>
    <tag k="addr:state" v="VT"/>
    <tag k="ref:vcgi:esiteid" v="217363"/>
  </node>
  <node id="-196" visible="true" lat="42.896040680888" lon="-72.967828872516">
    <!-- conflict: "1367 Vermont Route 9 West, Wilmington, VT" Fuzzy match to "1367 Vermont Route 9 West, Searsburg, VT" -->
    <tag k="addr:city" v="Wilmington"/>
    <tag k="addr:housenumber" v="1367"/>
    <tag k="addr:street" v="Vermont Route 9 West"/>
    <tag k="addr:state" v="VT"/>
    <tag k="ref:vcgi:esiteid" v="217364"/>
  </node>
  <node id="-197" visible="true" lat="42.870810763868" lon="-72.927215863937">
    <!-- conflict: "133 New England Power Road, Wilmington, VT" Fuzzy match to "133 New England Power Road, Searsburg, VT" -->
    <tag k="addr:city" v="Wilmington"/>
    <tag k="addr:housenumber" v="133"/>
    <tag k="addr:street" v="New England Power Road"/>
    <tag k="addr:state" v="VT"/>
    <tag k="ref:vcgi:esiteid" v="217366"/>
  </node>
  <node id="-198" visible="true" lat="42.896569929713" lon="-73.002149179166">
    <!-- conflict: "72 Rake Branch Trail, Wilmington, VT" Fuzzy match to "72 Rake Branch Trail, Searsburg, VT" -->
    <tag k="addr:city" v="Wilmington"/>
    <tag k="addr:housenumber" v="72"/>
    <tag k="addr:street" v="Rake Branch Trail"/>
    <tag k="addr:state" v="VT"/>
    <tag k="ref:vcgi:esiteid" v="217367"/>
  </node>
  <node id="-199" visible="true" lat="42.894477255833" lon="-72.967236306826">
    <!-- conflict: "1370 Vermont Route 9 West, Wilmington, VT" Fuzzy match to "1370 Vermont Route 9 West, Searsburg, VT" -->
    <tag k="addr:city" v="Wilmington"/>
    <tag k="addr:housenumber" v="1370"/>
    <tag k="addr:street" v="Vermont Route 9 West"/>
    <tag k="addr:state" v="VT"/>
    <tag k="ref:vcgi:esiteid" v="217368"/>
  </node>
  <node id="-200" visible="true" lat="42.894132179264" lon="-72.996250292378">
    <!-- conflict: "1677 Vermont Route 9 West, Wilmington, VT" Fuzzy match to "1677 Vermont Route 9 West, Searsburg, VT" -->
    <tag k="addr:city" v="Wilmington"/>
    <tag k="addr:housenumber" v="1677"/>
    <tag k="addr:street" v="Vermont Route 9 West"/>
    <tag k="addr:state" v="VT"/>
    <tag k="ref:vcgi:esiteid" v="217369"/>
  </node>
  <node id="-201" visible="true" lat="42.896413341394" lon="-72.984737093368">
    <!-- conflict: "1549 Vermont Route 9 West, Wilmington, VT" Fuzzy match to "1549 Vermont Route 9 West, Searsburg, VT" -->
    <tag k="addr:city" v="Wilmington"/>
    <tag k="addr:housenumber" v="1549"/>
    <tag k="addr:street" v="Vermont Route 9 West"/>
    <tag k="addr:state" v="VT"/>
    <tag k="ref:vcgi:esiteid" v="217370"/>
  </node>
  <node id="-202" visible="true" lat="42.880636013533" lon="-72.9720160986">
    <!-- conflict: "231 Vermont Route 8, Wilmington, VT" Fuzzy match to "231 Vermont Route 8, Searsburg, VT" -->
    <tag k="addr:city" v="Wilmington"/>
    <tag k="addr:housenumber" v="231"/>
    <tag k="addr:street" v="Vermont Route 8"/>
    <tag k="addr:state" v="VT"/>
    <tag k="ref:vcgi:esiteid" v="217371"/>
  </node>
  <node id="-203" visible="true" lat="42.895709798192" lon="-72.972760647285">
    <!-- conflict: "1435 Vermont Route 9 West, Wilmington, VT" Fuzzy match to "1435 Vermont Route 9 West, Searsburg, VT" -->
    <tag k="addr:city" v="Wilmington"/>
    <tag k="addr:housenumber" v="1435"/>
    <tag k="addr:street" v="Vermont Route 9 West"/>
    <tag k="addr:state" v="VT"/>
    <tag k="ref:vcgi:esiteid" v="217372"/>
  </node>
  <node id="-204" visible="true" lat="42.892711639023" lon="-73.001601319696">
    <!-- conflict: "1803 Vermont Route 9 West, Wilmington, VT" Fuzzy match to "1803 Vermont Route 9 West, Searsburg, VT" -->
    <tag k="addr:city" v="Wilmington"/>
    <tag k="addr:housenumber" v="1803"/>
    <tag k="addr:street" v="Vermont Route 9 West"/>
    <tag k="addr:state" v="VT"/>
    <tag k="ref:vcgi:esiteid" v="217373"/>
  </node>
  <node id="-205" visible="true" lat="42.893453226902" lon="-72.987956201618">
    <!-- conflict: "1596 Vermont Route 9 West, Wilmington, VT" Fuzzy match to "1596 Vermont Route 9 West, Searsburg, VT" -->
    <tag k="addr:city" v="Wilmington"/>
    <tag k="addr:housenumber" v="1596"/>
    <tag k="addr:street" v="Vermont Route 9 West"/>
    <tag k="addr:state" v="VT"/>
    <tag k="ref:vcgi:esiteid" v="217374"/>
  </node>
  <node id="-206" visible="true" lat="42.883302566828" lon="-72.932857027283">
    <!-- conflict: "765 Vermont Route 9 West, Wilmington, VT" Fuzzy match to "765 Vermont Route 9 West, Searsburg, VT" -->
    <tag k="addr:city" v="Wilmington"/>
    <tag k="addr:housenumber" v="765"/>
    <tag k="addr:street" v="Vermont Route 9 West"/>
    <tag k="addr:state" v="VT"/>
    <tag k="ref:vcgi:esiteid" v="217375"/>
  </node>
  <node id="-207" visible="true" lat="42.892750818651" lon="-72.974770371111">
    <!-- conflict: "36 Vermont Route 8, Wilmington, VT" Fuzzy match to "36 Vermont Route 8, Searsburg, VT" -->
    <tag k="addr:city" v="Wilmington"/>
    <tag k="addr:housenumber" v="36"/>
    <tag k="addr:street" v="Vermont Route 8"/>
    <tag k="addr:state" v="VT"/>
    <tag k="ref:vcgi:esiteid" v="217376"/>
  </node>
  <node id="-208" visible="true" lat="42.859890780607" lon="-72.973331566817">
    <!-- conflict: "528 Sleepy Hollow Road, Readsboro, VT" Fuzzy match to "528 Sleepy Hollow Road, Searsburg, VT" -->
    <tag k="addr:city" v="Readsboro"/>
    <tag k="addr:housenumber" v="528"/>
    <tag k="addr:street" v="Sleepy Hollow Road"/>
    <tag k="addr:state" v="VT"/>
    <tag k="ref:vcgi:esiteid" v="217377"/>
  </node>
  <node id="-209" visible="true" lat="42.886266651162" lon="-72.953366819405">
    <!-- conflict: "24 Sleepy Hollow Road, Wilmington, VT" Fuzzy match to "24 Sleepy Hollow Road, Searsburg, VT" -->
    <tag k="addr:city" v="Wilmington"/>
    <tag k="addr:housenumber" v="24"/>
    <tag k="addr:street" v="Sleepy Hollow Road"/>
    <tag k="addr:state" v="VT"/>
    <tag k="ref:vcgi:esiteid" v="315277"/>
  </node>
  <node id="-210" visible="true" lat="42.894394045507" lon="-73.001128582547">
    <!-- conflict: "1799 Vermont Route 9 West, Wilmington, VT" Fuzzy match to "1799 Vermont Route 9 West, Searsburg, VT" -->
    <tag k="addr:city" v="Wilmington"/>
    <tag k="addr:housenumber" v="1799"/>
    <tag k="addr:street" v="Vermont Route 9 West"/>
    <tag k="addr:state" v="VT"/>
    <tag k="ref:vcgi:esiteid" v="345114"/>
  </node>
  <node id="-211" visible="true" lat="42.894746607565" lon="-72.994221328512">
    <!-- conflict: "1659 Vermont Route 9 West, Wilmington, VT" Fuzzy match to "1659 Vermont Route 9 West, Searsburg, VT" -->
    <tag k="addr:city" v="Wilmington"/>
    <tag k="addr:housenumber" v="1659"/>
    <tag k="addr:street" v="Vermont Route 9 West"/>
    <tag k="addr:state" v="VT"/>
    <tag k="ref:vcgi:esiteid" v="446153"/>
  </node>
  <node id="-212" visible="true" lat="42.871454544749" lon="-72.928798541608">
    <!-- conflict: "690 Vermont Route 9 West, Wilmington, VT" Fuzzy match to "690 Vermont Route 9 West, Searsburg, VT" -->
    <tag k="addr:city" v="Wilmington"/>
    <tag k="addr:housenumber" v="690"/>
    <tag k="addr:street" v="Vermont Route 9 West"/>
    <tag k="addr:state" v="VT"/>
    <tag k="ref:vcgi:esiteid" v="446275"/>
  </node>
  <node id="-213" visible="true" lat="42.875204672482" lon="-72.945218101196">
    <!-- conflict: "8 Lind Lane, Wilmington, VT" Fuzzy match to "8 Lind Lane, Searsburg, VT" -->
    <tag k="addr:city" v="Wilmington"/>
    <tag k="addr:housenumber" v="8"/>
    <tag k="addr:street" v="Lind Lane"/>
    <tag k="addr:state" v="VT"/>
    <tag k="ref:vcgi:esiteid" v="446277"/>
  </node>
  <node id="-214" visible="true" lat="42.894423709816" lon="-72.972027590461">
    <!-- conflict: "1420 Vermont Route 9 West, Wilmington, VT" Fuzzy match to "1420 Vermont Route 9 West, Searsburg, VT" -->
    <tag k="addr:city" v="Wilmington"/>
    <tag k="addr:housenumber" v="1420"/>
    <tag k="addr:street" v="Vermont Route 9 West"/>
    <tag k="addr:state" v="VT"/>
    <tag k="ref:vcgi:esiteid" v="446279"/>
  </node>
  <node id="-215" visible="true" lat="42.89226697286" lon="-72.954328141291">
    <!-- conflict: "1189 Vermont Route 9 West, Wilmington, VT" Fuzzy match to "1189 Vermont Route 9 West, Searsburg, VT" -->
    <tag k="addr:city" v="Wilmington"/>
    <tag k="addr:housenumber" v="1189"/>
    <tag k="addr:street" v="Vermont Route 9 West"/>
    <tag k="addr:state" v="VT"/>
    <tag k="ref:vcgi:esiteid" v="446295"/>
  </node>
  <node id="-216" visible="true" lat="42.879429044321" lon="-72.973785575712">
    <!-- conflict: "33 Bond Brook Way, Wilmington, VT" Fuzzy match to "33 Bond Brook Way, Searsburg, VT" -->
    <tag k="addr:city" v="Wilmington"/>
    <tag k="addr:housenumber" v="33"/>
    <tag k="addr:street" v="Bond Brook Way"/>
    <tag k="addr:state" v="VT"/>
    <tag k="ref:vcgi:esiteid" v="446996"/>
  </node>
  <node id="-217" visible="true" lat="42.894695881134" lon="-72.970371068208">
    <!-- conflict: "1398 Vermont Route 9 West, Wilmington, VT" Fuzzy match to "1398 Vermont Route 9 West, Searsburg, VT" -->
    <tag k="addr:city" v="Wilmington"/>
    <tag k="addr:housenumber" v="1398"/>
    <tag k="addr:street" v="Vermont Route 9 West"/>
    <tag k="addr:state" v="VT"/>
    <tag k="ref:vcgi:esiteid" v="448600"/>
  </node>
  <node id="-218" visible="true" lat="42.889529219184" lon="-73.010151642036">
    <!-- conflict: "1845 Vermont Route 9 West, Wilmington, VT" Fuzzy match to "1845 Vermont Route 9 West, Searsburg, VT" -->
    <tag k="addr:city" v="Wilmington"/>
    <tag k="addr:housenumber" v="1845"/>
    <tag k="addr:street" v="Vermont Route 9 West"/>
    <tag k="addr:state" v="VT"/>
    <tag k="ref:vcgi:esiteid" v="448601"/>
  </node>
  <node id="-219" visible="true" lat="42.894852398101" lon="-72.994813699685">
    <!-- conflict: "1667 Vermont Route 9 West, Wilmington, VT" Fuzzy match to "1667 Vermont Route 9 West, Searsburg, VT" -->
    <tag k="addr:city" v="Wilmington"/>
    <tag k="addr:housenumber" v="1667"/>
    <tag k="addr:street" v="Vermont Route 9 West"/>
    <tag k="addr:state" v="VT"/>
    <tag k="ref:vcgi:esiteid" v="449574"/>
  </node>
  <node id="-220" visible="true" lat="42.887668544727" lon="-72.954176993127">
    <!-- conflict: "17 Sleepy Hollow Road, Wilmington, VT" Fuzzy match to "17 Sleepy Hollow Road, Searsburg, VT" -->
    <tag k="addr:city" v="Wilmington"/>
    <tag k="addr:housenumber" v="17"/>
    <tag k="addr:street" v="Sleepy Hollow Road"/>
    <tag k="addr:state" v="VT"/>
    <tag k="ref:vcgi:esiteid" v="453016"/>
  </node>
  <node id="-223" visible="true" lat="42.877636334531" lon="-72.969592083284">
    <!-- conflict: "260 Vermont Route 8, Readsboro, VT" Fuzzy match to "260 Vermont Route 8, Searsburg, VT" -->
    <tag k="addr:city" v="Readsboro"/>
    <tag k="addr:housenumber" v="260"/>
    <tag k="addr:street" v="Vermont Route 8"/>
    <tag k="addr:state" v="VT"/>
    <tag k="ref:vcgi:esiteid" v="612055"/>
  </node>
  <node id="-224" visible="true" lat="42.916489127896" lon="-72.959873270646">
    <!-- conflict: "571 Somerset Road, Wilmington, VT" Fuzzy match to "571 Somerset Road, Searsburg, VT" -->
    <tag k="addr:city" v="Wilmington"/>
    <tag k="addr:housenumber" v="571"/>
    <tag k="addr:street" v="Somerset Road"/>
    <tag k="addr:state" v="VT"/>
    <tag k="ref:vcgi:esiteid" v="612507"/>
  </node>
  <node id="-225" visible="true" lat="42.879516670071" lon="-72.945488374481">
    <!-- conflict: "100 Lind Lane, Wilmington, VT" Fuzzy match to "100 Lind Lane, Searsburg, VT" -->
    <tag k="addr:city" v="Wilmington"/>
    <tag k="addr:housenumber" v="100"/>
    <tag k="addr:street" v="Lind Lane"/>
    <tag k="addr:state" v="VT"/>
    <tag k="ref:vcgi:esiteid" v="612741"/>
  </node>
  <node id="-226" visible="true" lat="42.885849372581" lon="-72.950256228177">
    <!-- conflict: "1056 Vermont Route 9 West, Wilmington, VT" Fuzzy match to "1056 Vermont Route 9 West, Searsburg, VT" -->
    <tag k="addr:city" v="Wilmington"/>
    <tag k="addr:housenumber" v="1056"/>
    <tag k="addr:street" v="Vermont Route 9 West"/>
    <tag k="addr:state" v="VT"/>
    <tag k="ref:vcgi:esiteid" v="612743"/>
  </node>
  <node id="-228" visible="true" lat="42.895095080608" lon="-72.968261303363">
    <!-- conflict: "1378 Vermont Route 9 West, Wilmington, VT" Fuzzy match to "1378 Vermont Route 9 West, Searsburg, VT" -->
    <tag k="addr:city" v="Wilmington"/>
    <tag k="addr:housenumber" v="1378"/>
    <tag k="addr:street" v="Vermont Route 9 West"/>
    <tag k="addr:state" v="VT"/>
    <tag k="ref:vcgi:esiteid" v="617312"/>
  </node>
  <node id="-241" visible="true" lat="42.882764491145" lon="-72.953909379661">
    <!-- conflict: "118 Sleepy Hollow Road, Wilmington, VT" Fuzzy match to "118 Sleepy Hollow Road, Searsburg, VT" -->
    <tag k="addr:city" v="Wilmington"/>
    <tag k="addr:housenumber" v="118"/>
    <tag k="addr:street" v="Sleepy Hollow Road"/>
    <tag k="addr:state" v="VT"/>
    <tag k="ref:vcgi:esiteid" v="758249"/>
  </node>
  <node id="-242" visible="true" lat="42.873287280236" lon="-72.933111276861">
    <!-- conflict: "749 Vermont Route 9 West, Wilmington, VT" Fuzzy match to "749 Vermont Route 9 West, Searsburg, VT" -->
    <tag k="addr:city" v="Wilmington"/>
    <tag k="addr:housenumber" v="749"/>
    <tag k="addr:street" v="Vermont Route 9 West"/>
    <tag k="addr:state" v="VT"/>
    <tag k="ref:vcgi:esiteid" v="759032"/>
  </node>
  <node id="-243" visible="true" lat="42.874177126419" lon="-72.929685527414">
    <!-- conflict: "699 Vermont Route 9 West, Wilmington, VT" Fuzzy match to "699 Vermont Route 9 West, Searsburg, VT" -->
    <tag k="addr:city" v="Wilmington"/>
    <tag k="addr:housenumber" v="699"/>
    <tag k="addr:street" v="Vermont Route 9 West"/>
    <tag k="addr:state" v="VT"/>
    <tag k="ref:vcgi:esiteid" v="759033"/>
  </node>
  <node id="-245" visible="true" lat="42.885621262639" lon="-72.975435919142">
    <!-- conflict: "171 Vermont Route 8, Wilmington, VT" Fuzzy match to "171 Vermont Route 8, Searsburg, VT" -->
    <tag k="addr:city" v="Wilmington"/>
    <tag k="addr:housenumber" v="171"/>
    <tag k="addr:street" v="Vermont Route 8"/>
    <tag k="addr:state" v="VT"/>
    <tag k="ref:vcgi:esiteid" v="759216"/>
  </node>
  <node id="-246" visible="true" lat="42.884569450865" lon="-72.973670947226">
    <!-- conflict: "173 Vermont Route 8, Wilmington, VT" Fuzzy match to "173 Vermont Route 8, Searsburg, VT" -->
    <tag k="addr:city" v="Wilmington"/>
    <tag k="addr:housenumber" v="173"/>
    <tag k="addr:street" v="Vermont Route 8"/>
    <tag k="addr:state" v="VT"/>
    <tag k="ref:vcgi:esiteid" v="759217"/>
  </node>
  <node id="-247" visible="true" lat="42.885860891597" lon="-72.953124946794">
    <!-- conflict: "62 Sleepy Hollow Road, Wilmington, VT" Fuzzy match to "62 Sleepy Hollow Road, Searsburg, VT" -->
    <tag k="addr:city" v="Wilmington"/>
    <tag k="addr:housenumber" v="62"/>
    <tag k="addr:street" v="Sleepy Hollow Road"/>
    <tag k="addr:state" v="VT"/>
    <tag k="ref:vcgi:esiteid" v="763821"/>
  </node>
  <node id="-249" visible="true" lat="42.895233280715" lon="-72.966181190937">
    <!-- conflict: "1354 Vermont Route 9 West, Wilmington, VT" Fuzzy match to "1354 Vermont Route 9 West, Searsburg, VT" -->
    <tag k="addr:city" v="Wilmington"/>
    <tag k="addr:housenumber" v="1354"/>
    <tag k="addr:street" v="Vermont Route 9 West"/>
    <tag k="addr:state" v="VT"/>
    <tag k="ref:vcgi:esiteid" v="767554"/>
  </node>
  <node id="-250" visible="true" lat="42.893389307296" lon="-72.975345134417">
    <!-- conflict: "26 Vermont Route 8, Wilmington, VT" Fuzzy match to "26 Vermont Route 8, Searsburg, VT" -->
    <tag k="addr:city" v="Wilmington"/>
    <tag k="addr:housenumber" v="26"/>
    <tag k="addr:street" v="Vermont Route 8"/>
    <tag k="addr:state" v="VT"/>
    <tag k="ref:vcgi:esiteid" v="767832"/>
  </node>
  <node id="-251" visible="true" lat="42.894658286308" lon="-72.975707637886">
    <!-- conflict: "4 Vermont Route 8, Wilmington, VT" Fuzzy match to "4 Vermont Route 8, Searsburg, VT" -->
    <tag k="addr:city" v="Wilmington"/>
    <tag k="addr:housenumber" v="4"/>
    <tag k="addr:street" v="Vermont Route 8"/>
    <tag k="addr:state" v="VT"/>
    <tag k="ref:vcgi:esiteid" v="900032"/>
  </node>
  <node id="-252" visible="true" lat="42.860181553395" lon="-72.974624806838">
    <!-- conflict: "566 Vermont Route 8, Readsboro, VT" Fuzzy match to "566 Vermont Route 8, Searsburg, VT" -->
    <tag k="addr:city" v="Readsboro"/>
    <tag k="addr:housenumber" v="566"/>
    <tag k="addr:street" v="Vermont Route 8"/>
    <tag k="addr:state" v="VT"/>
    <tag k="ref:vcgi:esiteid" v="900249"/>
  </node>
  <node id="-253" visible="true" lat="42.879405922809" lon="-72.946187058079">
    <!-- conflict: "950 Vermont Route 9 West, Wilmington, VT" Fuzzy match to "950 Vermont Route 9 West, Searsburg, VT" -->
    <tag k="addr:city" v="Wilmington"/>
    <tag k="addr:housenumber" v="950"/>
    <tag k="addr:street" v="Vermont Route 9 West"/>
    <tag k="addr:state" v="VT"/>
    <tag k="ref:vcgi:esiteid" v="900286"/>
  </node>
  <node id="-254" visible="true" lat="42.912339490169" lon="-72.951780141853">
    <!-- conflict: "389 Somerset Road, Wilmington, VT" Fuzzy match to "389 Somerset Road, Searsburg, VT" -->
    <tag k="addr:city" v="Wilmington"/>
    <tag k="addr:housenumber" v="389"/>
    <tag k="addr:street" v="Somerset Road"/>
    <tag k="addr:state" v="VT"/>
    <tag k="ref:vcgi:esiteid" v="900288"/>
  </node>
  <node id="-255" visible="true" lat="42.886330394354" lon="-72.986594622682">
    <!-- conflict: "146 Putnam Road, Wilmington, VT" Fuzzy match to "146 Putnam Road, Searsburg, VT" -->
    <tag k="addr:city" v="Wilmington"/>
    <tag k="addr:housenumber" v="146"/>
    <tag k="addr:street" v="Putnam Road"/>
    <tag k="addr:state" v="VT"/>
    <tag k="ref:vcgi:esiteid" v="900396"/>
  </node>
  <node id="-256" visible="true" lat="42.895791809488" lon="-72.977293011418">
    <!-- conflict: "13 Town Garage Road, Wilmington, VT" Fuzzy match to "13 Town Garage Road, Searsburg, VT" -->
    <tag k="addr:city" v="Wilmington"/>
    <tag k="addr:housenumber" v="13"/>
    <tag k="addr:street" v="Town Garage Road"/>
    <tag k="addr:state" v="VT"/>
    <tag k="ref:vcgi:esiteid" v="1050262"/>
  </node>
  <node id="-260" visible="true" lat="42.884905461257" lon="-72.985623164661">
    <!-- conflict: "34 Putnam Road, Wilmington, VT" Fuzzy match to "34 Putnam Road, Searsburg, VT" -->
    <tag k="addr:city" v="Wilmington"/>
    <tag k="addr:housenumber" v="34"/>
    <tag k="addr:street" v="Putnam Road"/>
    <tag k="addr:state" v="VT"/>
    <tag k="ref:vcgi:esiteid" v="1051828"/>
  </node>
  <node id="-261" visible="true" lat="42.883511395945" lon="-72.99082020938">
    <!-- conflict: "43 Putnam Road, Wilmington, VT" Fuzzy match to "43 Putnam Road, Searsburg, VT" -->
    <tag k="addr:city" v="Wilmington"/>
    <tag k="addr:housenumber" v="43"/>
    <tag k="addr:street" v="Putnam Road"/>
    <tag k="addr:state" v="VT"/>
    <tag k="ref:vcgi:esiteid" v="1051829"/>
  </node>
  <node id="-262" visible="true" lat="42.881068276254" lon="-72.990684250137">
    <!-- conflict: "50 Putnam Road, Wilmington, VT" Fuzzy match to "50 Putnam Road, Searsburg, VT" -->
    <tag k="addr:city" v="Wilmington"/>
    <tag k="addr:housenumber" v="50"/>
    <tag k="addr:street" v="Putnam Road"/>
    <tag k="addr:state" v="VT"/>
    <tag k="ref:vcgi:esiteid" v="1051830"/>
  </node>
  <node id="-263" visible="true" lat="42.878638944972" lon="-72.990665000094">
    <!-- conflict: "58 Putnam Road, Wilmington, VT" Fuzzy match to "58 Putnam Road, Searsburg, VT" -->
    <tag k="addr:city" v="Wilmington"/>
    <tag k="addr:housenumber" v="58"/>
    <tag k="addr:street" v="Putnam Road"/>
    <tag k="addr:state" v="VT"/>
    <tag k="ref:vcgi:esiteid" v="1051831"/>
  </node>
  <node id="-264" visible="true" lat="42.876456622431" lon="-72.98969561355">
    <!-- conflict: "64 Putnam Road, Wilmington, VT" Fuzzy match to "64 Putnam Road, Searsburg, VT" -->
    <tag k="addr:city" v="Wilmington"/>
    <tag k="addr:housenumber" v="64"/>
    <tag k="addr:street" v="Putnam Road"/>
    <tag k="addr:state" v="VT"/>
    <tag k="ref:vcgi:esiteid" v="1051832"/>
  </node>
  <node id="-265" visible="true" lat="42.874504012058" lon="-72.988475518903">
    <!-- conflict: "70 Putnam Road, Wilmington, VT" Fuzzy match to "70 Putnam Road, Searsburg, VT" -->
    <tag k="addr:city" v="Wilmington"/>
    <tag k="addr:housenumber" v="70"/>
    <tag k="addr:street" v="Putnam Road"/>
    <tag k="addr:state" v="VT"/>
    <tag k="ref:vcgi:esiteid" v="1051833"/>
  </node>
  <node id="-266" visible="true" lat="42.872740629864" lon="-72.986440955749">
    <!-- conflict: "78 Putnam Road, Wilmington, VT" Fuzzy match to "78 Putnam Road, Searsburg, VT" -->
    <tag k="addr:city" v="Wilmington"/>
    <tag k="addr:housenumber" v="78"/>
    <tag k="addr:street" v="Putnam Road"/>
    <tag k="addr:state" v="VT"/>
    <tag k="ref:vcgi:esiteid" v="1051834"/>
  </node>
  <node id="-267" visible="true" lat="42.870487064307" lon="-72.985412967986">
    <!-- conflict: "83 Putnam Road, Wilmington, VT" Fuzzy match to "83 Putnam Road, Searsburg, VT" -->
    <tag k="addr:city" v="Wilmington"/>
    <tag k="addr:housenumber" v="83"/>
    <tag k="addr:street" v="Putnam Road"/>
    <tag k="addr:state" v="VT"/>
    <tag k="ref:vcgi:esiteid" v="1051835"/>
  </node>
</osm>
