<?xml version="1.0" encoding="UTF-8"?>
<osm version="0.6" generator="JOSM" upload="false">
  <node id="-101" visible="true" lat="44.628483144225" lon="-72.166089755423">
    <!-- conflict: "2550 Sheffield Square Road, Glover, VT" Fuzzy match to "2550 Sheffield Square Road, Sheffield, VT" -->
    <tag k="addr:city" v="Glover"/>
    <tag k="addr:housenumber" v="2550"/>
    <tag k="addr:street" v="Sheffield Square Road"/>
    <tag k="addr:state" v="VT"/>
    <tag k="ref:vcgi:esiteid" v="349"/>
  </node>
  <node id="-102" visible="true" lat="44.688595299429" lon="-72.10559273185">
    <!-- conflict: "1188 Annis Brook Lane, Barton, VT" Fuzzy match to "1188 Annis Brook Lane, Sheffield, VT" -->
    <tag k="addr:city" v="Barton"/>
    <tag k="addr:housenumber" v="1188"/>
    <tag k="addr:street" v="Annis Brook Lane"/>
    <tag k="addr:state" v="VT"/>
    <tag k="ref:vcgi:esiteid" v="15736"/>
  </node>
  <node id="-106" visible="true" lat="44.678079131139" lon="-72.163567693536">
    <!-- conflict: "9275 Vermont Route 122, Glover, VT" Fuzzy match to "9275 Vermont Route 122, Sheffield, VT" -->
    <tag k="addr:city" v="Glover"/>
    <tag k="addr:housenumber" v="9275"/>
    <tag k="addr:street" v="Vermont Route 122"/>
    <tag k="addr:state" v="VT"/>
    <tag k="ref:vcgi:esiteid" v="219830"/>
  </node>
  <node id="-107" visible="true" lat="44.678195777699" lon="-72.161870494545">
    <!-- conflict: "9216 Vermont Route 122, Glover, VT" Fuzzy match to "9216 Vermont Route 122, Sheffield, VT" -->
    <tag k="addr:city" v="Glover"/>
    <tag k="addr:housenumber" v="9216"/>
    <tag k="addr:street" v="Vermont Route 122"/>
    <tag k="addr:state" v="VT"/>
    <tag k="ref:vcgi:esiteid" v="219831"/>
  </node>
  <node id="-108" visible="true" lat="44.677566061979" lon="-72.160936286702">
    <!-- conflict: "9158 Vermont Route 122, Glover, VT" Fuzzy match to "9158 Vermont Route 122, Sheffield, VT" -->
    <tag k="addr:city" v="Glover"/>
    <tag k="addr:housenumber" v="9158"/>
    <tag k="addr:street" v="Vermont Route 122"/>
    <tag k="addr:state" v="VT"/>
    <tag k="ref:vcgi:esiteid" v="219832"/>
  </node>
  <node id="-109" visible="true" lat="44.676919840136" lon="-72.161729750945">
    <!-- conflict: "9145 Vermont Route 122, Glover, VT" Fuzzy match to "9145 Vermont Route 122, Sheffield, VT" -->
    <tag k="addr:city" v="Glover"/>
    <tag k="addr:housenumber" v="9145"/>
    <tag k="addr:street" v="Vermont Route 122"/>
    <tag k="addr:state" v="VT"/>
    <tag k="ref:vcgi:esiteid" v="219833"/>
  </node>
  <node id="-138" visible="true" lat="44.657530468472" lon="-72.089639915458">
    <!-- conflict: "576 Dareios Road, Sutton, VT" Fuzzy match to "576 Dareios Road, Sheffield, VT" -->
    <tag k="addr:city" v="Sutton"/>
    <tag k="addr:housenumber" v="576"/>
    <tag k="addr:street" v="Dareios Road"/>
    <tag k="addr:state" v="VT"/>
    <tag k="ref:vcgi:esiteid" v="219863"/>
  </node>
  <node id="-149" visible="true" lat="44.654086935707" lon="-72.078503131994">
    <!-- conflict: "3227 King George Farm Road, Sutton, VT" Fuzzy match to "3227 King George Farm Road, Sheffield, VT" -->
    <tag k="addr:city" v="Sutton"/>
    <tag k="addr:housenumber" v="3227"/>
    <tag k="addr:street" v="King George Farm Road"/>
    <tag k="addr:state" v="VT"/>
    <tag k="ref:vcgi:esiteid" v="219874"/>
  </node>
  <node id="-150" visible="true" lat="44.653967512737" lon="-72.079306364439">
    <!-- conflict: "14 Kivimae Road, Sutton, VT" Fuzzy match to "14 Kivimae Road, Sheffield, VT" -->
    <tag k="addr:city" v="Sutton"/>
    <tag k="addr:housenumber" v="14"/>
    <tag k="addr:street" v="Kivimae Road"/>
    <tag k="addr:state" v="VT"/>
    <tag k="ref:vcgi:esiteid" v="219875"/>
  </node>
  <node id="-153" visible="true" lat="44.6514241613" lon="-72.081294444334">
    <!-- conflict: "206 Kivimae Road, Sutton, VT" Fuzzy match to "206 Kivimae Road, Sheffield, VT" -->
    <tag k="addr:city" v="Sutton"/>
    <tag k="addr:housenumber" v="206"/>
    <tag k="addr:street" v="Kivimae Road"/>
    <tag k="addr:state" v="VT"/>
    <tag k="ref:vcgi:esiteid" v="219878"/>
  </node>
  <node id="-194" visible="true" lat="44.636652844242" lon="-72.187392116166">
    <!-- conflict: "3726 Sheffield Square Road, Glover, VT" Fuzzy match to "3726 Sheffield Square Road, Sheffield, VT" -->
    <tag k="addr:city" v="Glover"/>
    <tag k="addr:housenumber" v="3726"/>
    <tag k="addr:street" v="Sheffield Square Road"/>
    <tag k="addr:state" v="VT"/>
    <tag k="ref:vcgi:esiteid" v="219921"/>
  </node>
  <node id="-198" visible="true" lat="44.636098379752" lon="-72.192773022846">
    <!-- conflict: "4013 Sheffield Square Road, Glover, VT" Fuzzy match to "4013 Sheffield Square Road, Sheffield, VT" -->
    <tag k="addr:city" v="Glover"/>
    <tag k="addr:housenumber" v="4013"/>
    <tag k="addr:street" v="Sheffield Square Road"/>
    <tag k="addr:state" v="VT"/>
    <tag k="ref:vcgi:esiteid" v="219925"/>
  </node>
  <node id="-200" visible="true" lat="44.635688066913" lon="-72.185131551717">
    <!-- conflict: "3616 Sheffield Square Road, Glover, VT" Fuzzy match to "3616 Sheffield Square Road, Sheffield, VT" -->
    <tag k="addr:city" v="Glover"/>
    <tag k="addr:housenumber" v="3616"/>
    <tag k="addr:street" v="Sheffield Square Road"/>
    <tag k="addr:state" v="VT"/>
    <tag k="ref:vcgi:esiteid" v="219928"/>
  </node>
  <node id="-202" visible="true" lat="44.63574148623" lon="-72.190776734305">
    <!-- conflict: "53 Quarry Road, Glover, VT" Fuzzy match to "53 Quarry Road, Sheffield, VT" -->
    <tag k="addr:city" v="Glover"/>
    <tag k="addr:housenumber" v="53"/>
    <tag k="addr:street" v="Quarry Road"/>
    <tag k="addr:state" v="VT"/>
    <tag k="ref:vcgi:esiteid" v="219930"/>
  </node>
  <node id="-205" visible="true" lat="44.634870045676" lon="-72.191491283336">
    <!-- conflict: "103 Quarry Road, Glover, VT" Fuzzy match to "103 Quarry Road, Sheffield, VT" -->
    <tag k="addr:city" v="Glover"/>
    <tag k="addr:housenumber" v="103"/>
    <tag k="addr:street" v="Quarry Road"/>
    <tag k="addr:state" v="VT"/>
    <tag k="ref:vcgi:esiteid" v="219933"/>
  </node>
  <node id="-207" visible="true" lat="44.63457009029" lon="-72.183987139809">
    <!-- conflict: "3563 Sheffield Square Road, Glover, VT" Fuzzy match to "3563 Sheffield Square Road, Sheffield, VT" -->
    <tag k="addr:city" v="Glover"/>
    <tag k="addr:housenumber" v="3563"/>
    <tag k="addr:street" v="Sheffield Square Road"/>
    <tag k="addr:state" v="VT"/>
    <tag k="ref:vcgi:esiteid" v="219935"/>
  </node>
  <node id="-209" visible="true" lat="44.634585810236" lon="-72.192552427917">
    <!-- conflict: "162 Quarry Road, Glover, VT" Fuzzy match to "162 Quarry Road, Sheffield, VT" -->
    <tag k="addr:city" v="Glover"/>
    <tag k="addr:housenumber" v="162"/>
    <tag k="addr:street" v="Quarry Road"/>
    <tag k="addr:state" v="VT"/>
    <tag k="ref:vcgi:esiteid" v="219938"/>
  </node>
  <node id="-212" visible="true" lat="44.633901634332" lon="-72.192004051077">
    <!-- conflict: "151 Quarry Road, Glover, VT" Fuzzy match to "151 Quarry Road, Sheffield, VT" -->
    <tag k="addr:city" v="Glover"/>
    <tag k="addr:housenumber" v="151"/>
    <tag k="addr:street" v="Quarry Road"/>
    <tag k="addr:state" v="VT"/>
    <tag k="ref:vcgi:esiteid" v="219941"/>
  </node>
  <node id="-219" visible="true" lat="44.632117019983" lon="-72.070957641111">
    <!-- conflict: "1007 Gold Mine Road, Sutton, VT" Fuzzy match to "1007 Gold Mine Road, Sheffield, VT" -->
    <tag k="addr:city" v="Sutton"/>
    <tag k="addr:housenumber" v="1007"/>
    <tag k="addr:street" v="Gold Mine Road"/>
    <tag k="addr:state" v="VT"/>
    <tag k="ref:vcgi:esiteid" v="219948"/>
  </node>
  <node id="-223" visible="true" lat="44.632098083948" lon="-72.170185489042">
    <!-- conflict: "2908 Sheffield Square Road, Glover, VT" Fuzzy match to "2908 Sheffield Square Road, Sheffield, VT" -->
    <tag k="addr:city" v="Glover"/>
    <tag k="addr:housenumber" v="2908"/>
    <tag k="addr:street" v="Sheffield Square Road"/>
    <tag k="addr:state" v="VT"/>
    <tag k="ref:vcgi:esiteid" v="219952"/>
  </node>
  <node id="-234" visible="true" lat="44.6299318755" lon="-72.192801111142">
    <!-- conflict: "464 Quarry Road, Glover, VT" Fuzzy match to "464 Quarry Road, Sheffield, VT" -->
    <tag k="addr:city" v="Glover"/>
    <tag k="addr:housenumber" v="464"/>
    <tag k="addr:street" v="Quarry Road"/>
    <tag k="addr:state" v="VT"/>
    <tag k="ref:vcgi:esiteid" v="219963"/>
  </node>
  <node id="-237" visible="true" lat="44.629544728004" lon="-72.181115303061">
    <!-- conflict: "399 Dunbar Road, Glover, VT" Fuzzy match to "399 Dunbar Road, Sheffield, VT" -->
    <tag k="addr:city" v="Glover"/>
    <tag k="addr:housenumber" v="399"/>
    <tag k="addr:street" v="Dunbar Road"/>
    <tag k="addr:state" v="VT"/>
    <tag k="ref:vcgi:esiteid" v="219966"/>
  </node>
  <node id="-244" visible="true" lat="44.626000872551" lon="-72.192727244399">
    <!-- conflict: "738 Quarry Road, Glover, VT" Fuzzy match to "738 Quarry Road, Sheffield, VT" -->
    <tag k="addr:city" v="Glover"/>
    <tag k="addr:housenumber" v="738"/>
    <tag k="addr:street" v="Quarry Road"/>
    <tag k="addr:state" v="VT"/>
    <tag k="ref:vcgi:esiteid" v="219973"/>
  </node>
  <node id="-245" visible="true" lat="44.625829211654" lon="-72.181718025638">
    <!-- conflict: "671 Hod Brooks Road, Glover, VT" Fuzzy match to "671 Hod Brooks Road, Sheffield, VT" -->
    <tag k="addr:city" v="Glover"/>
    <tag k="addr:housenumber" v="671"/>
    <tag k="addr:street" v="Hod Brooks Road"/>
    <tag k="addr:state" v="VT"/>
    <tag k="ref:vcgi:esiteid" v="219974"/>
  </node>
  <node id="-249" visible="true" lat="44.625520220465" lon="-72.192727244563">
    <!-- conflict: "772 Quarry Road, Glover, VT" Fuzzy match to "772 Quarry Road, Sheffield, VT" -->
    <tag k="addr:city" v="Glover"/>
    <tag k="addr:housenumber" v="772"/>
    <tag k="addr:street" v="Quarry Road"/>
    <tag k="addr:state" v="VT"/>
    <tag k="ref:vcgi:esiteid" v="219978"/>
  </node>
  <node id="-253" visible="true" lat="44.62469624612" lon="-72.187897836798">
    <!-- conflict: "219 Hod Brooks Road, Glover, VT" Fuzzy match to "219 Hod Brooks Road, Sheffield, VT" -->
    <tag k="addr:city" v="Glover"/>
    <tag k="addr:housenumber" v="219"/>
    <tag k="addr:street" v="Hod Brooks Road"/>
    <tag k="addr:state" v="VT"/>
    <tag k="ref:vcgi:esiteid" v="219983"/>
  </node>
  <node id="-257" visible="true" lat="44.623666278397" lon="-72.182366524853">
    <!-- conflict: "522 Hod Brooks Road, Glover, VT" Fuzzy match to "522 Hod Brooks Road, Sheffield, VT" -->
    <tag k="addr:city" v="Glover"/>
    <tag k="addr:housenumber" v="522"/>
    <tag k="addr:street" v="Hod Brooks Road"/>
    <tag k="addr:state" v="VT"/>
    <tag k="ref:vcgi:esiteid" v="219987"/>
  </node>
  <node id="-259" visible="true" lat="44.623357288067" lon="-72.152558470392">
    <!-- conflict: "1774 Sheffield Square Road, Glover, VT" Fuzzy match to "1774 Sheffield Square Road, Sheffield, VT" -->
    <tag k="addr:city" v="Glover"/>
    <tag k="addr:housenumber" v="1774"/>
    <tag k="addr:street" v="Sheffield Square Road"/>
    <tag k="addr:state" v="VT"/>
    <tag k="ref:vcgi:esiteid" v="219989"/>
  </node>
  <node id="-270" visible="true" lat="44.620500569577" lon="-72.149856005444">
    <!-- conflict: "1570 Sheffield Square Road, Glover, VT" Fuzzy match to "1570 Sheffield Square Road, Sheffield, VT" -->
    <tag k="addr:city" v="Glover"/>
    <tag k="addr:housenumber" v="1570"/>
    <tag k="addr:street" v="Sheffield Square Road"/>
    <tag k="addr:state" v="VT"/>
    <tag k="ref:vcgi:esiteid" v="220000"/>
  </node>
  <node id="-271" visible="true" lat="44.620416155746" lon="-72.179841193461">
    <!-- conflict: "291 Gilbert Road, Glover, VT" Fuzzy match to "291 Gilbert Road, Sheffield, VT" -->
    <tag k="addr:city" v="Glover"/>
    <tag k="addr:housenumber" v="291"/>
    <tag k="addr:street" v="Gilbert Road"/>
    <tag k="addr:state" v="VT"/>
    <tag k="ref:vcgi:esiteid" v="220001"/>
  </node>
  <node id="-274" visible="true" lat="44.619718065613" lon="-72.179551276239">
    <!-- conflict: "334 Gilbert Road, Glover, VT" Fuzzy match to "334 Gilbert Road, Sheffield, VT" -->
    <tag k="addr:city" v="Glover"/>
    <tag k="addr:housenumber" v="334"/>
    <tag k="addr:street" v="Gilbert Road"/>
    <tag k="addr:state" v="VT"/>
    <tag k="ref:vcgi:esiteid" v="220004"/>
  </node>
  <node id="-276" visible="true" lat="44.61966429028" lon="-72.160490792576">
    <!-- conflict: "246 Dunn Mountain Road, Glover, VT" Fuzzy match to "246 Dunn Mountain Road, Sheffield, VT" -->
    <tag k="addr:city" v="Glover"/>
    <tag k="addr:housenumber" v="246"/>
    <tag k="addr:street" v="Dunn Mountain Road"/>
    <tag k="addr:state" v="VT"/>
    <tag k="ref:vcgi:esiteid" v="220006"/>
  </node>
  <node id="-278" visible="true" lat="44.619491205649" lon="-72.151005584656">
    <!-- conflict: "1567 Sheffield Square Road, Glover, VT" Fuzzy match to "1567 Sheffield Square Road, Sheffield, VT" -->
    <tag k="addr:city" v="Glover"/>
    <tag k="addr:housenumber" v="1567"/>
    <tag k="addr:street" v="Sheffield Square Road"/>
    <tag k="addr:state" v="VT"/>
    <tag k="ref:vcgi:esiteid" v="220008"/>
  </node>
  <node id="-279" visible="true" lat="44.619081012913" lon="-72.148255490156">
    <!-- conflict: "1446 Sheffield Square Road, Glover, VT" Fuzzy match to "1446 Sheffield Square Road, Sheffield, VT" -->
    <tag k="addr:city" v="Glover"/>
    <tag k="addr:housenumber" v="1446"/>
    <tag k="addr:street" v="Sheffield Square Road"/>
    <tag k="addr:state" v="VT"/>
    <tag k="ref:vcgi:esiteid" v="220009"/>
  </node>
  <node id="-290" visible="true" lat="44.616925708584" lon="-72.146577022496">
    <!-- conflict: "1267 Sheffield Square Road, Glover, VT" Fuzzy match to "1267 Sheffield Square Road, Sheffield, VT" -->
    <tag k="addr:city" v="Glover"/>
    <tag k="addr:housenumber" v="1267"/>
    <tag k="addr:street" v="Sheffield Square Road"/>
    <tag k="addr:state" v="VT"/>
    <tag k="ref:vcgi:esiteid" v="220021"/>
  </node>
  <node id="-292" visible="true" lat="44.61659764376" lon="-72.143098016899">
    <!-- conflict: "1092 Sheffield Square Road, Glover, VT" Fuzzy match to "1092 Sheffield Square Road, Sheffield, VT" -->
    <tag k="addr:city" v="Glover"/>
    <tag k="addr:housenumber" v="1092"/>
    <tag k="addr:street" v="Sheffield Square Road"/>
    <tag k="addr:state" v="VT"/>
    <tag k="ref:vcgi:esiteid" v="220023"/>
  </node>
  <node id="-293" visible="true" lat="44.616519910045" lon="-72.162361866466">
    <!-- conflict: "468 Dunn Mountain Road, Glover, VT" Fuzzy match to "468 Dunn Mountain Road, Sheffield, VT" -->
    <tag k="addr:city" v="Glover"/>
    <tag k="addr:housenumber" v="468"/>
    <tag k="addr:street" v="Dunn Mountain Road"/>
    <tag k="addr:state" v="VT"/>
    <tag k="ref:vcgi:esiteid" v="220024"/>
  </node>
  <node id="-296" visible="true" lat="44.615719152242" lon="-72.163553740701">
    <!-- conflict: "566 Dunn Mountain Road, Glover, VT" Fuzzy match to "566 Dunn Mountain Road, Sheffield, VT" -->
    <tag k="addr:city" v="Glover"/>
    <tag k="addr:housenumber" v="566"/>
    <tag k="addr:street" v="Dunn Mountain Road"/>
    <tag k="addr:state" v="VT"/>
    <tag k="ref:vcgi:esiteid" v="220027"/>
  </node>
  <node id="-297" visible="true" lat="44.61545705064" lon="-72.131356374052">
    <!-- conflict: "600 Sheffield Square Road, Glover, VT" Fuzzy match to "600 Sheffield Square Road, Sheffield, VT" -->
    <tag k="addr:city" v="Glover"/>
    <tag k="addr:housenumber" v="600"/>
    <tag k="addr:street" v="Sheffield Square Road"/>
    <tag k="addr:state" v="VT"/>
    <tag k="ref:vcgi:esiteid" v="220028"/>
  </node>
  <node id="-298" visible="true" lat="44.615153356688" lon="-72.163935292717">
    <!-- conflict: "568 Dunn Mountain Road, Glover, VT" Fuzzy match to "568 Dunn Mountain Road, Sheffield, VT" -->
    <tag k="addr:city" v="Glover"/>
    <tag k="addr:housenumber" v="568"/>
    <tag k="addr:street" v="Dunn Mountain Road"/>
    <tag k="addr:state" v="VT"/>
    <tag k="ref:vcgi:esiteid" v="220029"/>
  </node>
  <node id="-299" visible="true" lat="44.615102283886" lon="-72.140053886953">
    <!-- conflict: "949 Sheffield Square Road, Glover, VT" Fuzzy match to "949 Sheffield Square Road, Sheffield, VT" -->
    <tag k="addr:city" v="Glover"/>
    <tag k="addr:housenumber" v="949"/>
    <tag k="addr:street" v="Sheffield Square Road"/>
    <tag k="addr:state" v="VT"/>
    <tag k="ref:vcgi:esiteid" v="220030"/>
  </node>
  <node id="-301" visible="true" lat="44.615079395569" lon="-72.145447870481">
    <!-- conflict: "1177 Sheffield Square Road, Glover, VT" Fuzzy match to "1177 Sheffield Square Road, Sheffield, VT" -->
    <tag k="addr:city" v="Glover"/>
    <tag k="addr:housenumber" v="1177"/>
    <tag k="addr:street" v="Sheffield Square Road"/>
    <tag k="addr:state" v="VT"/>
    <tag k="ref:vcgi:esiteid" v="220032"/>
  </node>
  <node id="-302" visible="true" lat="44.614821548151" lon="-72.143061161348">
    <!-- conflict: "1079 Sheffield Square Road, Glover, VT" Fuzzy match to "1079 Sheffield Square Road, Sheffield, VT" -->
    <tag k="addr:city" v="Glover"/>
    <tag k="addr:housenumber" v="1079"/>
    <tag k="addr:street" v="Sheffield Square Road"/>
    <tag k="addr:state" v="VT"/>
    <tag k="ref:vcgi:esiteid" v="220034"/>
  </node>
  <node id="-303" visible="true" lat="44.614831439016" lon="-72.141579766581">
    <!-- conflict: "983 Sheffield Square Road, Glover, VT" Fuzzy match to "983 Sheffield Square Road, Sheffield, VT" -->
    <tag k="addr:city" v="Glover"/>
    <tag k="addr:housenumber" v="983"/>
    <tag k="addr:street" v="Sheffield Square Road"/>
    <tag k="addr:state" v="VT"/>
    <tag k="ref:vcgi:esiteid" v="220035"/>
  </node>
  <node id="-304" visible="true" lat="44.614807239489" lon="-72.162401200716">
    <!-- conflict: "583 Dunn Mountain Road, Glover, VT" Fuzzy match to "583 Dunn Mountain Road, Sheffield, VT" -->
    <tag k="addr:city" v="Glover"/>
    <tag k="addr:housenumber" v="583"/>
    <tag k="addr:street" v="Dunn Mountain Road"/>
    <tag k="addr:state" v="VT"/>
    <tag k="ref:vcgi:esiteid" v="220036"/>
  </node>
  <node id="-307" visible="true" lat="44.613474810608" lon="-72.169040888227">
    <!-- conflict: "260 Hams Camp Road, Glover, VT" Fuzzy match to "260 Hams Camp Road, Sheffield, VT" -->
    <tag k="addr:city" v="Glover"/>
    <tag k="addr:housenumber" v="260"/>
    <tag k="addr:street" v="Hams Camp Road"/>
    <tag k="addr:state" v="VT"/>
    <tag k="ref:vcgi:esiteid" v="220039"/>
  </node>
  <node id="-308" visible="true" lat="44.613021432516" lon="-72.163124253115">
    <!-- conflict: "749 Dunn Mountain Road, Glover, VT" Fuzzy match to "749 Dunn Mountain Road, Sheffield, VT" -->
    <tag k="addr:city" v="Glover"/>
    <tag k="addr:housenumber" v="749"/>
    <tag k="addr:street" v="Dunn Mountain Road"/>
    <tag k="addr:state" v="VT"/>
    <tag k="ref:vcgi:esiteid" v="220040"/>
  </node>
  <node id="-314" visible="true" lat="44.611743925036" lon="-72.163420203679">
    <!-- conflict: "826 Dunn Mountain Road, Glover, VT" Fuzzy match to "826 Dunn Mountain Road, Sheffield, VT" -->
    <tag k="addr:city" v="Glover"/>
    <tag k="addr:housenumber" v="826"/>
    <tag k="addr:street" v="Dunn Mountain Road"/>
    <tag k="addr:state" v="VT"/>
    <tag k="ref:vcgi:esiteid" v="220046"/>
  </node>
  <node id="-321" visible="true" lat="44.60867441465" lon="-72.15677100705">
    <!-- conflict: "315 Gilman Field Road, Glover, VT" Fuzzy match to "315 Gilman Field Road, Sheffield, VT" -->
    <tag k="addr:city" v="Glover"/>
    <tag k="addr:housenumber" v="315"/>
    <tag k="addr:street" v="Gilman Field Road"/>
    <tag k="addr:state" v="VT"/>
    <tag k="ref:vcgi:esiteid" v="220053"/>
  </node>
  <node id="-322" visible="true" lat="44.608152356912" lon="-72.157425814626">
    <!-- conflict: "296 Gilman Field Road, Glover, VT" Fuzzy match to "296 Gilman Field Road, Sheffield, VT" -->
    <tag k="addr:city" v="Glover"/>
    <tag k="addr:housenumber" v="296"/>
    <tag k="addr:street" v="Gilman Field Road"/>
    <tag k="addr:state" v="VT"/>
    <tag k="ref:vcgi:esiteid" v="220054"/>
  </node>
  <node id="-323" visible="true" lat="44.608348314032" lon="-72.158274710582">
    <!-- conflict: "245 Gilman Field Road, Glover, VT" Fuzzy match to "245 Gilman Field Road, Sheffield, VT" -->
    <tag k="addr:city" v="Glover"/>
    <tag k="addr:housenumber" v="245"/>
    <tag k="addr:street" v="Gilman Field Road"/>
    <tag k="addr:state" v="VT"/>
    <tag k="ref:vcgi:esiteid" v="220055"/>
  </node>
  <node id="-324" visible="true" lat="44.608129781936" lon="-72.158008561719">
    <!-- conflict: "274 Gilman Field Road, Glover, VT" Fuzzy match to "274 Gilman Field Road, Sheffield, VT" -->
    <tag k="addr:city" v="Glover"/>
    <tag k="addr:housenumber" v="274"/>
    <tag k="addr:street" v="Gilman Field Road"/>
    <tag k="addr:state" v="VT"/>
    <tag k="ref:vcgi:esiteid" v="220056"/>
  </node>
  <node id="-326" visible="true" lat="44.607810365698" lon="-72.156462221789">
    <!-- conflict: "376 Gilman Field Road, Glover, VT" Fuzzy match to "376 Gilman Field Road, Sheffield, VT" -->
    <tag k="addr:city" v="Glover"/>
    <tag k="addr:housenumber" v="376"/>
    <tag k="addr:street" v="Gilman Field Road"/>
    <tag k="addr:state" v="VT"/>
    <tag k="ref:vcgi:esiteid" v="220058"/>
  </node>
  <node id="-445" visible="true" lat="44.586717092765" lon="-72.095170009509">
    <!-- conflict: "312 Vertical Mile Road, Lyndonville, VT" Fuzzy match to "312 Vertical Mile Road, Sheffield, VT" -->
    <tag k="addr:city" v="Lyndonville"/>
    <tag k="addr:housenumber" v="312"/>
    <tag k="addr:street" v="Vertical Mile Road"/>
    <tag k="addr:state" v="VT"/>
    <tag k="ref:vcgi:esiteid" v="220189"/>
  </node>
  <node id="-453" visible="true" lat="44.612940538544" lon="-72.165208582986">
    <!-- conflict: "11 Hams Camp Road, Glover, VT" Fuzzy match to "11 Hams Camp Road, Sheffield, VT" -->
    <tag k="addr:city" v="Glover"/>
    <tag k="addr:housenumber" v="11"/>
    <tag k="addr:street" v="Hams Camp Road"/>
    <tag k="addr:state" v="VT"/>
    <tag k="ref:vcgi:esiteid" v="220199"/>
  </node>
  <node id="-454" visible="true" lat="44.676731183339" lon="-72.160259564334">
    <!-- conflict: "9130 Vermont Route 122, Glover, VT" Fuzzy match to "9130 Vermont Route 122, Sheffield, VT" -->
    <tag k="addr:city" v="Glover"/>
    <tag k="addr:housenumber" v="9130"/>
    <tag k="addr:street" v="Vermont Route 122"/>
    <tag k="addr:state" v="VT"/>
    <tag k="ref:vcgi:esiteid" v="220200"/>
  </node>
  <node id="-458" visible="true" lat="44.629412682752" lon="-72.069366511893">
    <!-- conflict: "798 Wood Hill Road, Sutton, VT" Fuzzy match to "798 Wood Hill Road, Sheffield, VT" -->
    <tag k="addr:city" v="Sutton"/>
    <tag k="addr:housenumber" v="798"/>
    <tag k="addr:street" v="Wood Hill Road"/>
    <tag k="addr:state" v="VT"/>
    <tag k="ref:vcgi:esiteid" v="220204"/>
  </node>
  <node id="-463" visible="true" lat="44.627992596167" lon="-72.191949425526">
    <!-- conflict: "601 Quarry Road, Glover, VT" Fuzzy match to "601 Quarry Road, Sheffield, VT" -->
    <tag k="addr:city" v="Glover"/>
    <tag k="addr:housenumber" v="601"/>
    <tag k="addr:street" v="Quarry Road"/>
    <tag k="addr:state" v="VT"/>
    <tag k="ref:vcgi:esiteid" v="220209"/>
  </node>
  <node id="-464" visible="true" lat="44.614684122119" lon="-72.138369785451">
    <!-- conflict: "811 Sheffield Square Road, Glover, VT" Fuzzy match to "811 Sheffield Square Road, Sheffield, VT" -->
    <tag k="addr:city" v="Glover"/>
    <tag k="addr:housenumber" v="811"/>
    <tag k="addr:street" v="Sheffield Square Road"/>
    <tag k="addr:state" v="VT"/>
    <tag k="ref:vcgi:esiteid" v="220210"/>
  </node>
  <node id="-465" visible="true" lat="44.621427307668" lon="-72.150485098365">
    <!-- conflict: "1586 Sheffield Square Road, Glover, VT" Fuzzy match to "1586 Sheffield Square Road, Sheffield, VT" -->
    <tag k="addr:city" v="Glover"/>
    <tag k="addr:housenumber" v="1586"/>
    <tag k="addr:street" v="Sheffield Square Road"/>
    <tag k="addr:state" v="VT"/>
    <tag k="ref:vcgi:esiteid" v="220211"/>
  </node>
  <node id="-467" visible="true" lat="44.621843514352" lon="-72.158892678595">
    <!-- conflict: "76 Dunn Mountain Road, Glover, VT" Fuzzy match to "76 Dunn Mountain Road, Sheffield, VT" -->
    <tag k="addr:city" v="Glover"/>
    <tag k="addr:housenumber" v="76"/>
    <tag k="addr:street" v="Dunn Mountain Road"/>
    <tag k="addr:state" v="VT"/>
    <tag k="ref:vcgi:esiteid" v="220213"/>
  </node>
  <node id="-468" visible="true" lat="44.617747832752" lon="-72.161605284642">
    <!-- conflict: "394 Dunn Mountain Road, Glover, VT" Fuzzy match to "394 Dunn Mountain Road, Sheffield, VT" -->
    <tag k="addr:city" v="Glover"/>
    <tag k="addr:housenumber" v="394"/>
    <tag k="addr:street" v="Dunn Mountain Road"/>
    <tag k="addr:state" v="VT"/>
    <tag k="ref:vcgi:esiteid" v="220214"/>
  </node>
  <node id="-469" visible="true" lat="44.677406864181" lon="-72.163950625359">
    <!-- conflict: "9261 Vermont Route 122, Glover, VT" Fuzzy match to "9261 Vermont Route 122, Sheffield, VT" -->
    <tag k="addr:city" v="Glover"/>
    <tag k="addr:housenumber" v="9261"/>
    <tag k="addr:street" v="Vermont Route 122"/>
    <tag k="addr:state" v="VT"/>
    <tag k="ref:vcgi:esiteid" v="220215"/>
  </node>
  <node id="-470" visible="true" lat="44.657227621897" lon="-72.089979042814">
    <!-- conflict: "589 Dareios Road, Sutton, VT" Fuzzy match to "589 Dareios Road, Sheffield, VT" -->
    <tag k="addr:city" v="Sutton"/>
    <tag k="addr:housenumber" v="589"/>
    <tag k="addr:street" v="Dareios Road"/>
    <tag k="addr:state" v="VT"/>
    <tag k="ref:vcgi:esiteid" v="220216"/>
  </node>
  <node id="-471" visible="true" lat="44.65365384011" lon="-72.079705176047">
    <!-- conflict: "38 Kivimae Road, Sutton, VT" Fuzzy match to "38 Kivimae Road, Sheffield, VT" -->
    <tag k="addr:city" v="Sutton"/>
    <tag k="addr:housenumber" v="38"/>
    <tag k="addr:street" v="Kivimae Road"/>
    <tag k="addr:state" v="VT"/>
    <tag k="ref:vcgi:esiteid" v="220217"/>
  </node>
  <node id="-476" visible="true" lat="44.628488500403" lon="-72.076954444789">
    <!-- conflict: "680 Gold Mine Road, Sutton, VT" Fuzzy match to "680 Gold Mine Road, Sheffield, VT" -->
    <tag k="addr:city" v="Sutton"/>
    <tag k="addr:housenumber" v="680"/>
    <tag k="addr:street" v="Gold Mine Road"/>
    <tag k="addr:state" v="VT"/>
    <tag k="ref:vcgi:esiteid" v="220222"/>
  </node>
  <node id="-480" visible="true" lat="44.658583569626" lon="-72.08844846954">
    <!-- conflict: "125 The Bostonian Way, Sutton, VT" Fuzzy match to "125 The Bostonian Way, Sheffield, VT" -->
    <tag k="addr:city" v="Sutton"/>
    <tag k="addr:housenumber" v="125"/>
    <tag k="addr:street" v="The Bostonian Way"/>
    <tag k="addr:state" v="VT"/>
    <tag k="ref:vcgi:esiteid" v="220226"/>
  </node>
  <node id="-481" visible="true" lat="44.6584965214" lon="-72.088824994154">
    <!-- conflict: "145 The Bostonian Way, Sutton, VT" Fuzzy match to "145 The Bostonian Way, Sheffield, VT" -->
    <tag k="addr:city" v="Sutton"/>
    <tag k="addr:housenumber" v="145"/>
    <tag k="addr:street" v="The Bostonian Way"/>
    <tag k="addr:state" v="VT"/>
    <tag k="ref:vcgi:esiteid" v="220227"/>
  </node>
  <node id="-482" visible="true" lat="44.658405711849" lon="-72.089174437023">
    <!-- conflict: "165 The Bostonian Way, Sutton, VT" Fuzzy match to "165 The Bostonian Way, Sheffield, VT" -->
    <tag k="addr:city" v="Sutton"/>
    <tag k="addr:housenumber" v="165"/>
    <tag k="addr:street" v="The Bostonian Way"/>
    <tag k="addr:state" v="VT"/>
    <tag k="ref:vcgi:esiteid" v="220228"/>
  </node>
  <node id="-485" visible="true" lat="44.618226575866" lon="-72.070999945101">
    <!-- conflict: "1736 Town Farm Road, Sutton, VT" Fuzzy match to "1736 Town Farm Road, Sheffield, VT" -->
    <tag k="addr:city" v="Sutton"/>
    <tag k="addr:housenumber" v="1736"/>
    <tag k="addr:street" v="Town Farm Road"/>
    <tag k="addr:state" v="VT"/>
    <tag k="ref:vcgi:esiteid" v="220231"/>
  </node>
  <node id="-486" visible="true" lat="44.613926029089" lon="-72.163328768307">
    <!-- conflict: "671 Dunn Mountain Road, Glover, VT" Fuzzy match to "671 Dunn Mountain Road, Sheffield, VT" -->
    <tag k="addr:city" v="Glover"/>
    <tag k="addr:housenumber" v="671"/>
    <tag k="addr:street" v="Dunn Mountain Road"/>
    <tag k="addr:state" v="VT"/>
    <tag k="ref:vcgi:esiteid" v="220232"/>
  </node>
  <node id="-500" visible="true" lat="44.615836408018" lon="-72.161654653685">
    <!-- conflict: "541 Dunn Mountain Road, Glover, VT" Fuzzy match to "541 Dunn Mountain Road, Sheffield, VT" -->
    <tag k="addr:city" v="Glover"/>
    <tag k="addr:housenumber" v="541"/>
    <tag k="addr:street" v="Dunn Mountain Road"/>
    <tag k="addr:state" v="VT"/>
    <tag k="ref:vcgi:esiteid" v="220246"/>
  </node>
  <node id="-501" visible="true" lat="44.634945484783" lon="-72.186264863108">
    <!-- conflict: "3635 Sheffield Square Road, Glover, VT" Fuzzy match to "3635 Sheffield Square Road, Sheffield, VT" -->
    <tag k="addr:city" v="Glover"/>
    <tag k="addr:housenumber" v="3635"/>
    <tag k="addr:street" v="Sheffield Square Road"/>
    <tag k="addr:state" v="VT"/>
    <tag k="ref:vcgi:esiteid" v="220247"/>
  </node>
  <node id="-506" visible="true" lat="44.624496183093" lon="-72.182826992567">
    <!-- conflict: "491 Hod Brooks Road, Glover, VT" Fuzzy match to "491 Hod Brooks Road, Sheffield, VT" -->
    <tag k="addr:city" v="Glover"/>
    <tag k="addr:housenumber" v="491"/>
    <tag k="addr:street" v="Hod Brooks Road"/>
    <tag k="addr:state" v="VT"/>
    <tag k="ref:vcgi:esiteid" v="220252"/>
  </node>
  <node id="-507" visible="true" lat="44.645787515508" lon="-72.074354331617">
    <!-- conflict: "370 Union House Road, Sutton, VT" Fuzzy match to "370 Union House Road, Sheffield, VT" -->
    <tag k="addr:city" v="Sutton"/>
    <tag k="addr:housenumber" v="370"/>
    <tag k="addr:street" v="Union House Road"/>
    <tag k="addr:state" v="VT"/>
    <tag k="ref:vcgi:esiteid" v="254556"/>
  </node>
  <node id="-508" visible="true" lat="44.586016502391" lon="-72.096155474865">
    <!-- conflict: "378 Vertical Mile Road, Lyndonville, VT" Fuzzy match to "378 Vertical Mile Road, Sheffield, VT" -->
    <tag k="addr:city" v="Lyndonville"/>
    <tag k="addr:housenumber" v="378"/>
    <tag k="addr:street" v="Vertical Mile Road"/>
    <tag k="addr:state" v="VT"/>
    <tag k="ref:vcgi:esiteid" v="285618"/>
  </node>
  <node id="-509" visible="true" lat="44.585338807295" lon="-72.094897855095">
    <!-- conflict: "423 Vertical Mile Road, Lyndonville, VT" Fuzzy match to "423 Vertical Mile Road, Sheffield, VT" -->
    <tag k="addr:city" v="Lyndonville"/>
    <tag k="addr:housenumber" v="423"/>
    <tag k="addr:street" v="Vertical Mile Road"/>
    <tag k="addr:state" v="VT"/>
    <tag k="ref:vcgi:esiteid" v="285619"/>
  </node>
  <node id="-510" visible="true" lat="44.590989917987" lon="-72.089808513914">
    <!-- conflict: "182 Sulfur Spring Road, Lyndonville, VT" Fuzzy match to "182 Sulfur Spring Road, Sheffield, VT" -->
    <tag k="addr:city" v="Lyndonville"/>
    <tag k="addr:housenumber" v="182"/>
    <tag k="addr:street" v="Sulfur Spring Road"/>
    <tag k="addr:state" v="VT"/>
    <tag k="ref:vcgi:esiteid" v="285643"/>
  </node>
  <node id="-511" visible="true" lat="44.585044725186" lon="-72.095248588282">
    <!-- conflict: "452 Vertical Mile Road, Lyndonville, VT" Fuzzy match to "452 Vertical Mile Road, Sheffield, VT" -->
    <tag k="addr:city" v="Lyndonville"/>
    <tag k="addr:housenumber" v="452"/>
    <tag k="addr:street" v="Vertical Mile Road"/>
    <tag k="addr:state" v="VT"/>
    <tag k="ref:vcgi:esiteid" v="285703"/>
  </node>
  <node id="-513" visible="true" lat="44.689576911347" lon="-72.103848905639">
    <!-- conflict: "1041 Annis Brook Lane, Barton, VT" Fuzzy match to "1041 Annis Brook Lane, Sheffield, VT" -->
    <tag k="addr:city" v="Barton"/>
    <tag k="addr:housenumber" v="1041"/>
    <tag k="addr:street" v="Annis Brook Lane"/>
    <tag k="addr:state" v="VT"/>
    <tag k="ref:vcgi:esiteid" v="327322"/>
  </node>
  <node id="-515" visible="true" lat="44.636035118199" lon="-72.182626025679">
    <!-- conflict: "3518 Sheffield Square Road, Glover, VT" Fuzzy match to "3518 Sheffield Square Road, Sheffield, VT" -->
    <tag k="addr:city" v="Glover"/>
    <tag k="addr:housenumber" v="3518"/>
    <tag k="addr:street" v="Sheffield Square Road"/>
    <tag k="addr:state" v="VT"/>
    <tag k="ref:vcgi:esiteid" v="327607"/>
  </node>
  <node id="-516" visible="true" lat="44.617131822097" lon="-72.161301945201">
    <!-- conflict: "415 Dunn Mountain Road, Glover, VT" Fuzzy match to "415 Dunn Mountain Road, Sheffield, VT" -->
    <tag k="addr:city" v="Glover"/>
    <tag k="addr:housenumber" v="415"/>
    <tag k="addr:street" v="Dunn Mountain Road"/>
    <tag k="addr:state" v="VT"/>
    <tag k="ref:vcgi:esiteid" v="327608"/>
  </node>
  <node id="-517" visible="true" lat="44.678345443314" lon="-72.159703412801">
    <!-- conflict: "9160 Vermont Route 122, Glover, VT" Fuzzy match to "9160 Vermont Route 122, Sheffield, VT" -->
    <tag k="addr:city" v="Glover"/>
    <tag k="addr:housenumber" v="9160"/>
    <tag k="addr:street" v="Vermont Route 122"/>
    <tag k="addr:state" v="VT"/>
    <tag k="ref:vcgi:esiteid" v="328235"/>
  </node>
  <node id="-522" visible="true" lat="44.635970477076" lon="-72.188432741727">
    <!-- conflict: "3787 Sheffield Square Road, Glover, VT" Fuzzy match to "3787 Sheffield Square Road, Sheffield, VT" -->
    <tag k="addr:city" v="Glover"/>
    <tag k="addr:housenumber" v="3787"/>
    <tag k="addr:street" v="Sheffield Square Road"/>
    <tag k="addr:state" v="VT"/>
    <tag k="ref:vcgi:esiteid" v="328240"/>
  </node>
  <node id="-527" visible="true" lat="44.616673180281" lon="-72.161587832612">
    <!-- conflict: "455 Dunn Mountain Road, Glover, VT" Fuzzy match to "455 Dunn Mountain Road, Sheffield, VT" -->
    <tag k="addr:city" v="Glover"/>
    <tag k="addr:housenumber" v="455"/>
    <tag k="addr:street" v="Dunn Mountain Road"/>
    <tag k="addr:state" v="VT"/>
    <tag k="ref:vcgi:esiteid" v="328245"/>
  </node>
  <node id="-528" visible="true" lat="44.613522118035" lon="-72.135813975446">
    <!-- conflict: "655 Sheffield Square Road, Glover, VT" Fuzzy match to "655 Sheffield Square Road, Sheffield, VT" -->
    <tag k="addr:city" v="Glover"/>
    <tag k="addr:housenumber" v="655"/>
    <tag k="addr:street" v="Sheffield Square Road"/>
    <tag k="addr:state" v="VT"/>
    <tag k="ref:vcgi:esiteid" v="328246"/>
  </node>
  <node id="-529" visible="true" lat="44.621284228405" lon="-72.155253225774">
    <!-- conflict: "1815 Sheffield Square Road, Glover, VT" Fuzzy match to "1815 Sheffield Square Road, Sheffield, VT" -->
    <tag k="addr:city" v="Glover"/>
    <tag k="addr:housenumber" v="1815"/>
    <tag k="addr:street" v="Sheffield Square Road"/>
    <tag k="addr:state" v="VT"/>
    <tag k="ref:vcgi:esiteid" v="328247"/>
  </node>
  <node id="-530" visible="true" lat="44.618448751993" lon="-72.154066159426">
    <!-- conflict: "1713 Sheffield Square Road, Glover, VT" Fuzzy match to "1713 Sheffield Square Road, Sheffield, VT" -->
    <tag k="addr:city" v="Glover"/>
    <tag k="addr:housenumber" v="1713"/>
    <tag k="addr:street" v="Sheffield Square Road"/>
    <tag k="addr:state" v="VT"/>
    <tag k="ref:vcgi:esiteid" v="328248"/>
  </node>
  <node id="-536" visible="true" lat="44.630430206299" lon="-72.074376573749">
    <!-- conflict: "820 Gold Mine Road, Sutton, VT" Fuzzy match to "820 Gold Mine Road, Sheffield, VT" -->
    <tag k="addr:city" v="Sutton"/>
    <tag k="addr:housenumber" v="820"/>
    <tag k="addr:street" v="Gold Mine Road"/>
    <tag k="addr:state" v="VT"/>
    <tag k="ref:vcgi:esiteid" v="335526"/>
  </node>
  <node id="-538" visible="true" lat="44.60750632153" lon="-72.155953875693">
    <!-- conflict: "412 Gilman Field Road, Glover, VT" Fuzzy match to "412 Gilman Field Road, Sheffield, VT" -->
    <tag k="addr:city" v="Glover"/>
    <tag k="addr:housenumber" v="412"/>
    <tag k="addr:street" v="Gilman Field Road"/>
    <tag k="addr:state" v="VT"/>
    <tag k="ref:vcgi:esiteid" v="336490"/>
  </node>
  <node id="-548" visible="true" lat="44.646602321674" lon="-72.083910226258">
    <!-- conflict: "517 Kivimae Road, Sutton, VT" Fuzzy match to "517 Kivimae Road, Sheffield, VT" -->
    <tag k="addr:city" v="Sutton"/>
    <tag k="addr:housenumber" v="517"/>
    <tag k="addr:street" v="Kivimae Road"/>
    <tag k="addr:state" v="VT"/>
    <tag k="ref:vcgi:esiteid" v="449823"/>
  </node>
  <node id="-550" visible="true" lat="44.618201022259" lon="-72.160388221363">
    <!-- conflict: "355 Dunn Mountain Road, Glover, VT" Fuzzy match to "355 Dunn Mountain Road, Sheffield, VT" -->
    <tag k="addr:city" v="Glover"/>
    <tag k="addr:housenumber" v="355"/>
    <tag k="addr:street" v="Dunn Mountain Road"/>
    <tag k="addr:state" v="VT"/>
    <tag k="ref:vcgi:esiteid" v="449825"/>
  </node>
  <node id="-554" visible="true" lat="44.646935519475" lon="-72.074878054444">
    <!-- conflict: "474 Union House Road, Sutton, VT" Fuzzy match to "474 Union House Road, Sheffield, VT" -->
    <tag k="addr:city" v="Sutton"/>
    <tag k="addr:housenumber" v="474"/>
    <tag k="addr:street" v="Union House Road"/>
    <tag k="addr:state" v="VT"/>
    <tag k="ref:vcgi:esiteid" v="450464"/>
  </node>
  <node id="-556" visible="true" lat="44.606463872545" lon="-72.152874512194">
    <!-- conflict: "503 Gilman Field Road, Glover, VT" Fuzzy match to "503 Gilman Field Road, Sheffield, VT" -->
    <tag k="addr:city" v="Glover"/>
    <tag k="addr:housenumber" v="503"/>
    <tag k="addr:street" v="Gilman Field Road"/>
    <tag k="addr:state" v="VT"/>
    <tag k="ref:vcgi:esiteid" v="454621"/>
  </node>
  <node id="-583" visible="true" lat="44.624648727394" lon="-72.161602799199">
    <!-- conflict: "2155 Sheffield Square Road, Glover, VT" Fuzzy match to "2155 Sheffield Square Road, Sheffield, VT" -->
    <tag k="addr:city" v="Glover"/>
    <tag k="addr:housenumber" v="2155"/>
    <tag k="addr:street" v="Sheffield Square Road"/>
    <tag k="addr:state" v="VT"/>
    <tag k="ref:vcgi:esiteid" v="611524"/>
  </node>
  <node id="-592" visible="true" lat="44.621128242551" lon="-72.158177185081">
    <!-- conflict: "101 Dunn Mountain Road, Glover, VT" Fuzzy match to "101 Dunn Mountain Road, Sheffield, VT" -->
    <tag k="addr:city" v="Glover"/>
    <tag k="addr:housenumber" v="101"/>
    <tag k="addr:street" v="Dunn Mountain Road"/>
    <tag k="addr:state" v="VT"/>
    <tag k="ref:vcgi:esiteid" v="612778"/>
  </node>
  <node id="-597" visible="true" lat="44.611731239355" lon="-72.163034325237">
    <!-- conflict: "827 Dunn Mountain Road, Glover, VT" Fuzzy match to "827 Dunn Mountain Road, Sheffield, VT" -->
    <tag k="addr:city" v="Glover"/>
    <tag k="addr:housenumber" v="827"/>
    <tag k="addr:street" v="Dunn Mountain Road"/>
    <tag k="addr:state" v="VT"/>
    <tag k="ref:vcgi:esiteid" v="617390"/>
  </node>
  <node id="-599" visible="true" lat="44.62054139333" lon="-72.1585667191">
    <!-- conflict: "127 Dunn Mountain Road, Glover, VT" Fuzzy match to "127 Dunn Mountain Road, Sheffield, VT" -->
    <tag k="addr:city" v="Glover"/>
    <tag k="addr:housenumber" v="127"/>
    <tag k="addr:street" v="Dunn Mountain Road"/>
    <tag k="addr:state" v="VT"/>
    <tag k="ref:vcgi:esiteid" v="620826"/>
  </node>
  <node id="-604" visible="true" lat="44.62475885068" lon="-72.19211411645">
    <!-- conflict: "2 Hod Brooks Road, Glover, VT" Fuzzy match to "2 Hod Brooks Road, Sheffield, VT" -->
    <tag k="addr:city" v="Glover"/>
    <tag k="addr:housenumber" v="2"/>
    <tag k="addr:street" v="Hod Brooks Road"/>
    <tag k="addr:state" v="VT"/>
    <tag k="ref:vcgi:esiteid" v="752966"/>
  </node>
  <node id="-612" visible="true" lat="44.608823652774" lon="-72.157524867558">
    <!-- conflict: "313 Gilman Field Road, Glover, VT" Fuzzy match to "313 Gilman Field Road, Sheffield, VT" -->
    <tag k="addr:city" v="Glover"/>
    <tag k="addr:housenumber" v="313"/>
    <tag k="addr:street" v="Gilman Field Road"/>
    <tag k="addr:state" v="VT"/>
    <tag k="ref:vcgi:esiteid" v="756061"/>
  </node>
  <node id="-614" visible="true" lat="44.613982845854" lon="-72.136470742219">
    <!-- conflict: "733 Sheffield Square Road, Glover, VT" Fuzzy match to "733 Sheffield Square Road, Sheffield, VT" -->
    <tag k="addr:city" v="Glover"/>
    <tag k="addr:housenumber" v="733"/>
    <tag k="addr:street" v="Sheffield Square Road"/>
    <tag k="addr:state" v="VT"/>
    <tag k="ref:vcgi:esiteid" v="756531"/>
  </node>
  <node id="-615" visible="true" lat="44.613213286031" lon="-72.132245544914">
    <!-- conflict: "499 Sheffield Square Road, Glover, VT" Fuzzy match to "499 Sheffield Square Road, Sheffield, VT" -->
    <tag k="addr:city" v="Glover"/>
    <tag k="addr:housenumber" v="499"/>
    <tag k="addr:street" v="Sheffield Square Road"/>
    <tag k="addr:state" v="VT"/>
    <tag k="ref:vcgi:esiteid" v="756532"/>
  </node>
  <node id="-617" visible="true" lat="44.620264523052" lon="-72.152476312091">
    <!-- conflict: "1645 Sheffield Square Road, Glover, VT" Fuzzy match to "1645 Sheffield Square Road, Sheffield, VT" -->
    <tag k="addr:city" v="Glover"/>
    <tag k="addr:housenumber" v="1645"/>
    <tag k="addr:street" v="Sheffield Square Road"/>
    <tag k="addr:state" v="VT"/>
    <tag k="ref:vcgi:esiteid" v="757022"/>
  </node>
  <node id="-619" visible="true" lat="44.650239239027" lon="-72.081907937326">
    <!-- conflict: "300 Kivimae Road, Sutton, VT" Fuzzy match to "300 Kivimae Road, Sheffield, VT" -->
    <tag k="addr:city" v="Sutton"/>
    <tag k="addr:housenumber" v="300"/>
    <tag k="addr:street" v="Kivimae Road"/>
    <tag k="addr:state" v="VT"/>
    <tag k="ref:vcgi:esiteid" v="758348"/>
  </node>
  <node id="-620" visible="true" lat="44.689943938483" lon="-72.107807774338">
    <!-- conflict: "1058 Annis Brook Lane, Barton, VT" Fuzzy match to "1058 Annis Brook Lane, Sheffield, VT" -->
    <tag k="addr:city" v="Barton"/>
    <tag k="addr:housenumber" v="1058"/>
    <tag k="addr:street" v="Annis Brook Lane"/>
    <tag k="addr:state" v="VT"/>
    <tag k="ref:vcgi:esiteid" v="758349"/>
  </node>
  <node id="-621" visible="true" lat="44.649968207666" lon="-72.081964300191">
    <!-- conflict: "310 Kivimae Road, Sutton, VT" Fuzzy match to "310 Kivimae Road, Sheffield, VT" -->
    <tag k="addr:city" v="Sutton"/>
    <tag k="addr:housenumber" v="310"/>
    <tag k="addr:street" v="Kivimae Road"/>
    <tag k="addr:state" v="VT"/>
    <tag k="ref:vcgi:esiteid" v="758350"/>
  </node>
  <node id="-625" visible="true" lat="44.650273360505" lon="-72.076565328453">
    <!-- conflict: "725 Union House Road, Sutton, VT" Fuzzy match to "725 Union House Road, Sheffield, VT" -->
    <tag k="addr:city" v="Sutton"/>
    <tag k="addr:housenumber" v="725"/>
    <tag k="addr:street" v="Union House Road"/>
    <tag k="addr:state" v="VT"/>
    <tag k="ref:vcgi:esiteid" v="763361"/>
  </node>
  <node id="-643" visible="true" lat="44.614339235728" lon="-72.128253652194">
    <!-- conflict: "400 Sheffield Square Road, Glover, VT" Fuzzy match to "400 Sheffield Square Road, Sheffield, VT" -->
    <tag k="addr:city" v="Glover"/>
    <tag k="addr:housenumber" v="400"/>
    <tag k="addr:street" v="Sheffield Square Road"/>
    <tag k="addr:state" v="VT"/>
    <tag k="ref:vcgi:esiteid" v="764588"/>
  </node>
  <node id="-658" visible="true" lat="44.634874806576" lon="-72.178941845571">
    <!-- conflict: "3394 Sheffield Square Road, Glover, VT" Fuzzy match to "3394 Sheffield Square Road, Sheffield, VT" -->
    <tag k="addr:city" v="Glover"/>
    <tag k="addr:housenumber" v="3394"/>
    <tag k="addr:street" v="Sheffield Square Road"/>
    <tag k="addr:state" v="VT"/>
    <tag k="ref:vcgi:esiteid" v="766551"/>
  </node>
  <node id="-659" visible="true" lat="44.635765971947" lon="-72.179786212658">
    <!-- conflict: "3396 Sheffield Square Road, Glover, VT" Fuzzy match to "3396 Sheffield Square Road, Sheffield, VT" -->
    <tag k="addr:city" v="Glover"/>
    <tag k="addr:housenumber" v="3396"/>
    <tag k="addr:street" v="Sheffield Square Road"/>
    <tag k="addr:state" v="VT"/>
    <tag k="ref:vcgi:esiteid" v="766552"/>
  </node>
  <node id="-663" visible="true" lat="44.621157486815" lon="-72.182358712432">
    <!-- conflict: "136 Gilbert Road, Glover, VT" Fuzzy match to "136 Gilbert Road, Sheffield, VT" -->
    <tag k="addr:city" v="Glover"/>
    <tag k="addr:housenumber" v="136"/>
    <tag k="addr:street" v="Gilbert Road"/>
    <tag k="addr:state" v="VT"/>
    <tag k="ref:vcgi:esiteid" v="767644"/>
  </node>
</osm>
