<?xml version="1.0" encoding="UTF-8"?>
<osm version="0.6" generator="JOSM" upload="false">
  <node id="-1235" visible="true" lat="44.897085000219" lon="-72.859174138126">
    <tag k="addr:city" v="Enosburg Falls"/>
    <tag k="addr:housenumber" v="3754"/>
    <tag k="addr:street" v="East Sheldon Road"/>
    <tag k="addr:state" v="VT"/>
    <tag k="ref:vcgi:esiteid" v="773887"/>
  </node>
  <node id="-1236" visible="true" lat="44.884862263611" lon="-72.928255662276">
    <tag k="addr:city" v="Sheldon"/>
    <tag k="addr:housenumber" v="399"/>
    <tag k="addr:street" v="Crowe Hill Road"/>
    <tag k="addr:state" v="VT"/>
    <tag k="ref:vcgi:esiteid" v="773888"/>
  </node>
  <node id="-1237" visible="true" lat="44.884717280976" lon="-72.919930184564">
    <tag k="addr:city" v="Sheldon"/>
    <tag k="addr:housenumber" v="673"/>
    <tag k="addr:street" v="Crowe Hill Road"/>
    <tag k="addr:state" v="VT"/>
    <tag k="ref:vcgi:esiteid" v="773889"/>
  </node>
</osm>
