<?xml version="1.0" encoding="UTF-8"?>
<osm version="0.6" generator="JOSM" upload="false">
  <node id="-913" visible="true" lat="43.883720163222" lon="-73.290149257417">
    <tag k="addr:city" v="Shoreham"/>
    <tag k="addr:housenumber" v="236"/>
    <tag k="addr:street" v="Burgess Road"/>
    <tag k="addr:state" v="VT"/>
    <tag k="ref:vcgi:esiteid" v="773944"/>
  </node>
  <node id="-914" visible="true" lat="43.883389233353" lon="-73.290499096806">
    <tag k="addr:city" v="Shoreham"/>
    <tag k="addr:housenumber" v="193"/>
    <tag k="addr:street" v="Burgess Road"/>
    <tag k="addr:state" v="VT"/>
    <tag k="ref:vcgi:esiteid" v="773945"/>
  </node>
  <node id="-915" visible="true" lat="43.883931636819" lon="-73.290476453676">
    <tag k="addr:city" v="Shoreham"/>
    <tag k="addr:housenumber" v="254"/>
    <tag k="addr:street" v="Burgess Road"/>
    <tag k="addr:state" v="VT"/>
    <tag k="ref:vcgi:esiteid" v="773946"/>
  </node>
</osm>
