<?xml version="1.0" encoding="UTF-8"?>
<osm version="0.6" generator="JOSM" upload="false">
  <node id="-590" visible="true" lat="43.494722561377" lon="-72.917380154396">
    <tag k="addr:city" v="Cuttingsville"/>
    <tag k="addr:housenumber" v="1626"/>
    <tag k="addr:street" v="Spring Lake Road"/>
    <tag k="addr:state" v="VT"/>
    <tag k="ref:vcgi:esiteid" v="226713"/>
  </node>
  <node id="-591" visible="true" lat="43.495153367013" lon="-72.917040509314">
    <tag k="addr:city" v="Cuttingsville"/>
    <tag k="addr:housenumber" v="1628"/>
    <tag k="addr:street" v="Spring Lake Road"/>
    <tag k="addr:state" v="VT"/>
    <tag k="ref:vcgi:esiteid" v="226714"/>
  </node>
  <node id="-592" visible="true" lat="43.494423662331" lon="-72.922736474153">
    <tag k="addr:city" v="Cuttingsville"/>
    <tag k="addr:housenumber" v="1851"/>
    <tag k="addr:street" v="Spring Lake Road"/>
    <tag k="addr:state" v="VT"/>
    <tag k="ref:vcgi:esiteid" v="226715"/>
  </node>
  <node id="-593" visible="true" lat="43.492605217346" lon="-72.923135976439">
    <tag k="addr:city" v="Cuttingsville"/>
    <tag k="addr:housenumber" v="1849"/>
    <tag k="addr:street" v="Spring Lake Road"/>
    <tag k="addr:state" v="VT"/>
    <tag k="ref:vcgi:esiteid" v="226716"/>
  </node>
  <node id="-782" visible="true" lat="43.490948465333" lon="-72.903455406689">
    <tag k="addr:city" v="Cuttingsville"/>
    <tag k="addr:housenumber" v="156"/>
    <tag k="addr:street" v="Button Hill Road"/>
    <tag k="addr:state" v="VT"/>
    <tag k="ref:vcgi:esiteid" v="773437"/>
  </node>
</osm>
