<?xml version="1.0" encoding="UTF-8"?>
<osm version="0.6" generator="JOSM" upload="false">
  <node id="-100" visible="true" lat="42.980819909947" lon="-72.975941862481">
    <!-- conflict: "264 Leonard Road, Wilmington, VT" Fuzzy match to "264 Leonard Road, Somerset, VT" -->
    <tag k="addr:city" v="Wilmington"/>
    <tag k="addr:housenumber" v="264"/>
    <tag k="addr:street" v="Leonard Road"/>
    <tag k="addr:state" v="VT"/>
    <tag k="ref:vcgi:esiteid" v="226796"/>
  </node>
  <node id="-101" visible="true" lat="42.974465005884" lon="-72.984058450712">
    <!-- conflict: "112 Leonard Road, Wilmington, VT" Fuzzy match to "112 Leonard Road, Somerset, VT" -->
    <tag k="addr:city" v="Wilmington"/>
    <tag k="addr:housenumber" v="112"/>
    <tag k="addr:street" v="Leonard Road"/>
    <tag k="addr:state" v="VT"/>
    <tag k="ref:vcgi:esiteid" v="226798"/>
  </node>
  <node id="-102" visible="true" lat="42.974067984666" lon="-72.984804814601">
    <!-- conflict: "105 Leonard Road, Wilmington, VT" Fuzzy match to "105 Leonard Road, Somerset, VT" -->
    <tag k="addr:city" v="Wilmington"/>
    <tag k="addr:housenumber" v="105"/>
    <tag k="addr:street" v="Leonard Road"/>
    <tag k="addr:state" v="VT"/>
    <tag k="ref:vcgi:esiteid" v="226799"/>
  </node>
  <node id="-103" visible="true" lat="42.972612749636" lon="-72.98349341082">
    <!-- conflict: "90 Leonard Road, Wilmington, VT" Fuzzy match to "90 Leonard Road, Somerset, VT" -->
    <tag k="addr:city" v="Wilmington"/>
    <tag k="addr:housenumber" v="90"/>
    <tag k="addr:street" v="Leonard Road"/>
    <tag k="addr:state" v="VT"/>
    <tag k="ref:vcgi:esiteid" v="226800"/>
  </node>
  <node id="-104" visible="true" lat="42.972611905862" lon="-72.949998870875">
    <!-- conflict: "1960 Somerset Road, Wilmington, VT" Fuzzy match to "1960 Somerset Road, Somerset, VT" -->
    <tag k="addr:city" v="Wilmington"/>
    <tag k="addr:housenumber" v="1960"/>
    <tag k="addr:street" v="Somerset Road"/>
    <tag k="addr:state" v="VT"/>
    <tag k="ref:vcgi:esiteid" v="226801"/>
  </node>
  <node id="-105" visible="true" lat="42.972210945738" lon="-72.948913009856">
    <!-- conflict: "1974 Somerset Road, Wilmington, VT" Fuzzy match to "1974 Somerset Road, Somerset, VT" -->
    <tag k="addr:city" v="Wilmington"/>
    <tag k="addr:housenumber" v="1974"/>
    <tag k="addr:street" v="Somerset Road"/>
    <tag k="addr:state" v="VT"/>
    <tag k="ref:vcgi:esiteid" v="226802"/>
  </node>
  <node id="-106" visible="true" lat="42.971932291691" lon="-72.984193503146">
    <!-- conflict: "74 Leonard Road, Wilmington, VT" Fuzzy match to "74 Leonard Road, Somerset, VT" -->
    <tag k="addr:city" v="Wilmington"/>
    <tag k="addr:housenumber" v="74"/>
    <tag k="addr:street" v="Leonard Road"/>
    <tag k="addr:state" v="VT"/>
    <tag k="ref:vcgi:esiteid" v="226803"/>
  </node>
  <node id="-107" visible="true" lat="42.971168603633" lon="-72.984331053963">
    <!-- conflict: "64 Leonard Road, Wilmington, VT" Fuzzy match to "64 Leonard Road, Somerset, VT" -->
    <tag k="addr:city" v="Wilmington"/>
    <tag k="addr:housenumber" v="64"/>
    <tag k="addr:street" v="Leonard Road"/>
    <tag k="addr:state" v="VT"/>
    <tag k="ref:vcgi:esiteid" v="226804"/>
  </node>
  <node id="-108" visible="true" lat="42.97047479889" lon="-72.983136531399">
    <!-- conflict: "54 Leonard Road, Wilmington, VT" Fuzzy match to "54 Leonard Road, Somerset, VT" -->
    <tag k="addr:city" v="Wilmington"/>
    <tag k="addr:housenumber" v="54"/>
    <tag k="addr:street" v="Leonard Road"/>
    <tag k="addr:state" v="VT"/>
    <tag k="ref:vcgi:esiteid" v="226805"/>
  </node>
  <node id="-109" visible="true" lat="42.969204665175" lon="-72.984850486892">
    <!-- conflict: "35 Leonard Road, Wilmington, VT" Fuzzy match to "35 Leonard Road, Somerset, VT" -->
    <tag k="addr:city" v="Wilmington"/>
    <tag k="addr:housenumber" v="35"/>
    <tag k="addr:street" v="Leonard Road"/>
    <tag k="addr:state" v="VT"/>
    <tag k="ref:vcgi:esiteid" v="226806"/>
  </node>
  <node id="-110" visible="true" lat="42.968424576208" lon="-72.975407085828">
    <!-- conflict: "1621 Somerset Road, Wilmington, VT" Fuzzy match to "1621 Somerset Road, Somerset, VT" -->
    <tag k="addr:city" v="Wilmington"/>
    <tag k="addr:housenumber" v="1621"/>
    <tag k="addr:street" v="Somerset Road"/>
    <tag k="addr:state" v="VT"/>
    <tag k="ref:vcgi:esiteid" v="226807"/>
  </node>
  <node id="-111" visible="true" lat="42.968047903183" lon="-72.980011074749">
    <!-- conflict: "1571 Somerset Road, Wilmington, VT" Fuzzy match to "1571 Somerset Road, Somerset, VT" -->
    <tag k="addr:city" v="Wilmington"/>
    <tag k="addr:housenumber" v="1571"/>
    <tag k="addr:street" v="Somerset Road"/>
    <tag k="addr:state" v="VT"/>
    <tag k="ref:vcgi:esiteid" v="226808"/>
  </node>
  <node id="-112" visible="true" lat="42.967683902117" lon="-72.979218753843">
    <!-- conflict: "1581 Somerset Road, Wilmington, VT" Fuzzy match to "1581 Somerset Road, Somerset, VT" -->
    <tag k="addr:city" v="Wilmington"/>
    <tag k="addr:housenumber" v="1581"/>
    <tag k="addr:street" v="Somerset Road"/>
    <tag k="addr:state" v="VT"/>
    <tag k="ref:vcgi:esiteid" v="226809"/>
  </node>
  <node id="-113" visible="true" lat="42.967748876168" lon="-72.977957620705">
    <!-- conflict: "1595 Somerset Road, Wilmington, VT" Fuzzy match to "1595 Somerset Road, Somerset, VT" -->
    <tag k="addr:city" v="Wilmington"/>
    <tag k="addr:housenumber" v="1595"/>
    <tag k="addr:street" v="Somerset Road"/>
    <tag k="addr:state" v="VT"/>
    <tag k="ref:vcgi:esiteid" v="226810"/>
  </node>
  <node id="-114" visible="true" lat="42.967221487674" lon="-72.975584300308">
    <!-- conflict: "1620 Somerset Road, Wilmington, VT" Fuzzy match to "1620 Somerset Road, Somerset, VT" -->
    <tag k="addr:city" v="Wilmington"/>
    <tag k="addr:housenumber" v="1620"/>
    <tag k="addr:street" v="Somerset Road"/>
    <tag k="addr:state" v="VT"/>
    <tag k="ref:vcgi:esiteid" v="226811"/>
  </node>
  <node id="-115" visible="true" lat="42.966752981695" lon="-72.984711115559">
    <!-- conflict: "1523 Somerset Road, Wilmington, VT" Fuzzy match to "1523 Somerset Road, Somerset, VT" -->
    <tag k="addr:city" v="Wilmington"/>
    <tag k="addr:housenumber" v="1523"/>
    <tag k="addr:street" v="Somerset Road"/>
    <tag k="addr:state" v="VT"/>
    <tag k="ref:vcgi:esiteid" v="226812"/>
  </node>
  <node id="-116" visible="true" lat="42.966805413786" lon="-72.983628742344">
    <!-- conflict: "1530 Somerset Road, Wilmington, VT" Fuzzy match to "1530 Somerset Road, Somerset, VT" -->
    <tag k="addr:city" v="Wilmington"/>
    <tag k="addr:housenumber" v="1530"/>
    <tag k="addr:street" v="Somerset Road"/>
    <tag k="addr:state" v="VT"/>
    <tag k="ref:vcgi:esiteid" v="226813"/>
  </node>
  <node id="-117" visible="true" lat="42.966148199269" lon="-72.984669240503">
    <!-- conflict: "1513 Somerset Road, Wilmington, VT" Fuzzy match to "1513 Somerset Road, Somerset, VT" -->
    <tag k="addr:city" v="Wilmington"/>
    <tag k="addr:housenumber" v="1513"/>
    <tag k="addr:street" v="Somerset Road"/>
    <tag k="addr:state" v="VT"/>
    <tag k="ref:vcgi:esiteid" v="226814"/>
  </node>
  <node id="-118" visible="true" lat="42.965699941154" lon="-72.984655346734">
    <!-- conflict: "1505 Somerset Road, Wilmington, VT" Fuzzy match to "1505 Somerset Road, Somerset, VT" -->
    <tag k="addr:city" v="Wilmington"/>
    <tag k="addr:housenumber" v="1505"/>
    <tag k="addr:street" v="Somerset Road"/>
    <tag k="addr:state" v="VT"/>
    <tag k="ref:vcgi:esiteid" v="226815"/>
  </node>
  <node id="-119" visible="true" lat="42.965153479939" lon="-72.984543254256">
    <!-- conflict: "1499 Somerset Road, Wilmington, VT" Fuzzy match to "1499 Somerset Road, Somerset, VT" -->
    <tag k="addr:city" v="Wilmington"/>
    <tag k="addr:housenumber" v="1499"/>
    <tag k="addr:street" v="Somerset Road"/>
    <tag k="addr:state" v="VT"/>
    <tag k="ref:vcgi:esiteid" v="226816"/>
  </node>
  <node id="-120" visible="true" lat="42.963529573183" lon="-72.981401769876">
    <!-- conflict: "1460 Somerset Road, Wilmington, VT" Fuzzy match to "1460 Somerset Road, Somerset, VT" -->
    <tag k="addr:city" v="Wilmington"/>
    <tag k="addr:housenumber" v="1460"/>
    <tag k="addr:street" v="Somerset Road"/>
    <tag k="addr:state" v="VT"/>
    <tag k="ref:vcgi:esiteid" v="226817"/>
  </node>
  <node id="-121" visible="true" lat="42.961537794654" lon="-72.983648676531">
    <!-- conflict: "1444 Somerset Road, Wilmington, VT" Fuzzy match to "1444 Somerset Road, Somerset, VT" -->
    <tag k="addr:city" v="Wilmington"/>
    <tag k="addr:housenumber" v="1444"/>
    <tag k="addr:street" v="Somerset Road"/>
    <tag k="addr:state" v="VT"/>
    <tag k="ref:vcgi:esiteid" v="226818"/>
  </node>
  <node id="-123" visible="true" lat="42.96612072747" lon="-72.981829979958">
    <!-- conflict: "1544 Somerset Road, Wilmington, VT" Fuzzy match to "1544 Somerset Road, Somerset, VT" -->
    <tag k="addr:city" v="Wilmington"/>
    <tag k="addr:housenumber" v="1544"/>
    <tag k="addr:street" v="Somerset Road"/>
    <tag k="addr:state" v="VT"/>
    <tag k="ref:vcgi:esiteid" v="335409"/>
  </node>
  <node id="-124" visible="true" lat="42.968906966375" lon="-72.981061172053">
    <!-- conflict: "1569 Somerset Road, Wilmington, VT" Fuzzy match to "1569 Somerset Road, Somerset, VT" -->
    <tag k="addr:city" v="Wilmington"/>
    <tag k="addr:housenumber" v="1569"/>
    <tag k="addr:street" v="Somerset Road"/>
    <tag k="addr:state" v="VT"/>
    <tag k="ref:vcgi:esiteid" v="335410"/>
  </node>
  <node id="-125" visible="true" lat="42.966858967903" lon="-72.979874778842">
    <!-- conflict: "1570 Somerset Road, Wilmington, VT" Fuzzy match to "1570 Somerset Road, Somerset, VT" -->
    <tag k="addr:city" v="Wilmington"/>
    <tag k="addr:housenumber" v="1570"/>
    <tag k="addr:street" v="Somerset Road"/>
    <tag k="addr:state" v="VT"/>
    <tag k="ref:vcgi:esiteid" v="335412"/>
  </node>
  <node id="-127" visible="true" lat="42.966895333135" lon="-72.978626369543">
    <!-- conflict: "1584 Somerset Road, Wilmington, VT" Fuzzy match to "1584 Somerset Road, Somerset, VT" -->
    <tag k="addr:city" v="Wilmington"/>
    <tag k="addr:housenumber" v="1584"/>
    <tag k="addr:street" v="Somerset Road"/>
    <tag k="addr:state" v="VT"/>
    <tag k="ref:vcgi:esiteid" v="335414"/>
  </node>
  <node id="-128" visible="true" lat="42.968023871131" lon="-72.976949682706">
    <!-- conflict: "1605 Somerset Road, Wilmington, VT" Fuzzy match to "1605 Somerset Road, Somerset, VT" -->
    <tag k="addr:city" v="Wilmington"/>
    <tag k="addr:housenumber" v="1605"/>
    <tag k="addr:street" v="Somerset Road"/>
    <tag k="addr:state" v="VT"/>
    <tag k="ref:vcgi:esiteid" v="335415"/>
  </node>
  <node id="-129" visible="true" lat="42.95233537816" lon="-72.988498307636">
    <!-- conflict: "13 Airport Road, Wilmington, VT" Fuzzy match to "13 Airport Road, Somerset, VT" -->
    <tag k="addr:city" v="Wilmington"/>
    <tag k="addr:housenumber" v="13"/>
    <tag k="addr:street" v="Airport Road"/>
    <tag k="addr:state" v="VT"/>
    <tag k="ref:vcgi:esiteid" v="341042"/>
  </node>
  <node id="-130" visible="true" lat="42.95420721461" lon="-72.986775254604">
    <!-- conflict: "1334 Somerset Road, Wilmington, VT" Fuzzy match to "1334 Somerset Road, Somerset, VT" -->
    <tag k="addr:city" v="Wilmington"/>
    <tag k="addr:housenumber" v="1334"/>
    <tag k="addr:street" v="Somerset Road"/>
    <tag k="addr:state" v="VT"/>
    <tag k="ref:vcgi:esiteid" v="341043"/>
  </node>
  <node id="-132" visible="true" lat="42.959551863383" lon="-72.922426307213">
    <!-- conflict: "266 Summit Work Road, West Dover, VT" Fuzzy match to "266 Summit Work Road, Somerset, VT" -->
    <tag k="addr:city" v="West Dover"/>
    <tag k="addr:housenumber" v="266"/>
    <tag k="addr:street" v="Summit Work Road"/>
    <tag k="addr:state" v="VT"/>
    <tag k="ref:vcgi:esiteid" v="752810"/>
  </node>
  <node id="-133" visible="true" lat="42.968545178237" lon="-72.981896374724">
    <!-- conflict: "1545 Somerset Road, Wilmington, VT" Fuzzy match to "1545 Somerset Road, Somerset, VT" -->
    <tag k="addr:city" v="Wilmington"/>
    <tag k="addr:housenumber" v="1545"/>
    <tag k="addr:street" v="Somerset Road"/>
    <tag k="addr:state" v="VT"/>
    <tag k="ref:vcgi:esiteid" v="759516"/>
  </node>
  <node id="-135" visible="true" lat="42.974585306847" lon="-72.952581546919">
    <!-- conflict: "1921 Somerset Road, Wilmington, VT" Fuzzy match to "1921 Somerset Road, Somerset, VT" -->
    <tag k="addr:city" v="Wilmington"/>
    <tag k="addr:housenumber" v="1921"/>
    <tag k="addr:street" v="Somerset Road"/>
    <tag k="addr:state" v="VT"/>
    <tag k="ref:vcgi:esiteid" v="1050939"/>
  </node>
  <node id="-136" visible="true" lat="42.97118015131" lon="-72.948018449172">
    <!-- conflict: "1990 Somerset Road, Wilmington, VT" Fuzzy match to "1990 Somerset Road, Somerset, VT" -->
    <tag k="addr:city" v="Wilmington"/>
    <tag k="addr:housenumber" v="1990"/>
    <tag k="addr:street" v="Somerset Road"/>
    <tag k="addr:state" v="VT"/>
    <tag k="ref:vcgi:esiteid" v="1050940"/>
  </node>
  <node id="-137" visible="true" lat="42.973342536906" lon="-72.945682903994">
    <!-- conflict: "2041 Somerset Road, Wilmington, VT" Fuzzy match to "2041 Somerset Road, Somerset, VT" -->
    <tag k="addr:city" v="Wilmington"/>
    <tag k="addr:housenumber" v="2041"/>
    <tag k="addr:street" v="Somerset Road"/>
    <tag k="addr:state" v="VT"/>
    <tag k="ref:vcgi:esiteid" v="1050941"/>
  </node>
  <node id="-138" visible="true" lat="42.973907596122" lon="-72.94438387705">
    <!-- conflict: "2049 Somerset Road, Wilmington, VT" Fuzzy match to "2049 Somerset Road, Somerset, VT" -->
    <tag k="addr:city" v="Wilmington"/>
    <tag k="addr:housenumber" v="2049"/>
    <tag k="addr:street" v="Somerset Road"/>
    <tag k="addr:state" v="VT"/>
    <tag k="ref:vcgi:esiteid" v="1050942"/>
  </node>
  <node id="-139" visible="true" lat="42.973462165887" lon="-72.942079334792">
    <!-- conflict: "2075 Somerset Road, Wilmington, VT" Fuzzy match to "2075 Somerset Road, Somerset, VT" -->
    <tag k="addr:city" v="Wilmington"/>
    <tag k="addr:housenumber" v="2075"/>
    <tag k="addr:street" v="Somerset Road"/>
    <tag k="addr:state" v="VT"/>
    <tag k="ref:vcgi:esiteid" v="1050943"/>
  </node>
</osm>
