<?xml version="1.0" encoding="UTF-8"?>
<osm version="0.6" generator="JOSM" upload="false">
  <node id="-509" visible="true" lat="44.64944429" lon="-73.30351559">
    <!-- conflict: "56 Mabel Way, South Hero, VT" No match in OSM, but a different address exists <5m away: "56 Mable Way, South Hero, VT" -->
    <tag k="addr:city" v="South Hero"/>
    <tag k="addr:housenumber" v="56"/>
    <tag k="addr:street" v="Mabel Way"/>
    <tag k="addr:state" v="VT"/>
    <tag k="ref:vcgi:esiteid" v="233669"/>
  </node>
  <node id="-1708" visible="true" lat="44.64938249" lon="-73.30456051">
    <!-- conflict: "93 Mabel Way, South Hero, VT" No match in OSM, but a different address exists <5m away: "93 Mable Way, South Hero, VT" -->
    <tag k="addr:city" v="South Hero"/>
    <tag k="addr:housenumber" v="93"/>
    <tag k="addr:street" v="Mabel Way"/>
    <tag k="addr:state" v="VT"/>
    <tag k="ref:vcgi:esiteid" v="756491"/>
  </node>
  <node id="-1709" visible="true" lat="44.64949982" lon="-73.30455212">
    <!-- conflict: "95 Mabel Way, South Hero, VT" No match in OSM, but a different address exists <5m away: "95 Mable Way, South Hero, VT" -->
    <tag k="addr:city" v="South Hero"/>
    <tag k="addr:housenumber" v="95"/>
    <tag k="addr:street" v="Mabel Way"/>
    <tag k="addr:state" v="VT"/>
    <tag k="ref:vcgi:esiteid" v="756492"/>
  </node>
</osm>
