<?xml version="1.0" encoding="UTF-8"?>
<osm version="0.6" generator="JOSM" upload="false">
  <node id="-122" visible="true" lat="44.676042040348" lon="-73.318322717047">
    <tag k="addr:city" v="South Hero"/>
    <tag k="addr:housenumber" v="608"/>
    <tag k="addr:street" v="United States Route 2"/>
    <tag k="addr:state" v="VT"/>
    <tag k="ref:vcgi:esiteid" v="233267"/>
  </node>
  <node id="-128" visible="true" lat="44.675408799778" lon="-73.318849145199">
    <tag k="addr:city" v="South Hero"/>
    <tag k="addr:housenumber" v="600"/>
    <tag k="addr:street" v="United States Route 2"/>
    <tag k="addr:state" v="VT"/>
    <tag k="ref:vcgi:esiteid" v="233273"/>
  </node>
  <node id="-152" visible="true" lat="44.670705276403" lon="-73.323243677587">
    <tag k="addr:city" v="South Hero"/>
    <tag k="addr:housenumber" v="567"/>
    <tag k="addr:street" v="United States Route 2"/>
    <tag k="addr:state" v="VT"/>
    <tag k="ref:vcgi:esiteid" v="233297"/>
  </node>
  <node id="-155" visible="true" lat="44.670373398235" lon="-73.321351586014">
    <tag k="addr:city" v="South Hero"/>
    <tag k="addr:housenumber" v="564"/>
    <tag k="addr:street" v="United States Route 2"/>
    <tag k="addr:state" v="VT"/>
    <tag k="ref:vcgi:esiteid" v="233300"/>
  </node>
  <node id="-486" visible="true" lat="44.65004868928" lon="-73.300492814741">
    <tag k="addr:city" v="South Hero"/>
    <tag k="addr:housenumber" v="284"/>
    <tag k="addr:street" v="United States Route 2"/>
    <tag k="addr:state" v="VT"/>
    <tag k="ref:vcgi:esiteid" v="233645"/>
  </node>
  <node id="-533" visible="true" lat="44.647637799926" lon="-73.298684647281">
    <tag k="addr:city" v="South Hero"/>
    <tag k="addr:housenumber" v="272"/>
    <tag k="addr:street" v="United States Route 2"/>
    <tag k="addr:state" v="VT"/>
    <tag k="ref:vcgi:esiteid" v="233695"/>
  </node>
  <node id="-540" visible="true" lat="44.647084667851" lon="-73.300553849067">
    <tag k="addr:city" v="South Hero"/>
    <tag k="addr:housenumber" v="282"/>
    <tag k="addr:street" v="United States Route 2"/>
    <tag k="addr:state" v="VT"/>
    <tag k="ref:vcgi:esiteid" v="233702"/>
  </node>
  <node id="-553" visible="true" lat="44.646554426274" lon="-73.299729874945">
    <tag k="addr:city" v="South Hero"/>
    <tag k="addr:housenumber" v="276"/>
    <tag k="addr:street" v="United States Route 2"/>
    <tag k="addr:state" v="VT"/>
    <tag k="ref:vcgi:esiteid" v="233715"/>
  </node>
  <node id="-563" visible="true" lat="44.646356061324" lon="-73.298364211419">
    <tag k="addr:city" v="South Hero"/>
    <tag k="addr:housenumber" v="270"/>
    <tag k="addr:street" v="United States Route 2"/>
    <tag k="addr:state" v="VT"/>
    <tag k="ref:vcgi:esiteid" v="233725"/>
  </node>
  <node id="-568" visible="true" lat="44.64624543578" lon="-73.2947783963">
    <tag k="addr:city" v="South Hero"/>
    <tag k="addr:housenumber" v="253"/>
    <tag k="addr:street" v="United States Route 2"/>
    <tag k="addr:state" v="VT"/>
    <tag k="ref:vcgi:esiteid" v="233731"/>
  </node>
  <node id="-591" visible="true" lat="44.645792441614" lon="-73.30547206121">
    <tag k="addr:city" v="South Hero"/>
    <tag k="addr:housenumber" v="326"/>
    <tag k="addr:street" v="United States Route 2"/>
    <tag k="addr:state" v="VT"/>
    <tag k="ref:vcgi:esiteid" v="233756"/>
  </node>
  <node id="-595" visible="true" lat="44.645646528066" lon="-73.308503680028">
    <tag k="addr:city" v="South Hero"/>
    <tag k="addr:housenumber" v="348"/>
    <tag k="addr:street" v="United States Route 2"/>
    <tag k="addr:state" v="VT"/>
    <tag k="ref:vcgi:esiteid" v="233762"/>
  </node>
  <node id="-607" visible="true" lat="44.645451978462" lon="-73.301690629868">
    <tag k="addr:city" v="South Hero"/>
    <tag k="addr:housenumber" v="295"/>
    <tag k="addr:street" v="United States Route 2"/>
    <tag k="addr:state" v="VT"/>
    <tag k="ref:vcgi:esiteid" v="233775"/>
  </node>
  <node id="-611" visible="true" lat="44.64524061251" lon="-73.303579163691">
    <tag k="addr:city" v="South Hero"/>
    <tag k="addr:housenumber" v="311"/>
    <tag k="addr:street" v="United States Route 2"/>
    <tag k="addr:state" v="VT"/>
    <tag k="ref:vcgi:esiteid" v="233782"/>
  </node>
  <node id="-670" visible="true" lat="44.640705424959" lon="-73.27906429683">
    <tag k="addr:city" v="South Hero"/>
    <tag k="addr:housenumber" v="145"/>
    <tag k="addr:street" v="United States Route 2"/>
    <tag k="addr:state" v="VT"/>
    <tag k="ref:vcgi:esiteid" v="233844"/>
  </node>
  <node id="-715" visible="true" lat="44.637326672174" lon="-73.273599187829">
    <tag k="addr:city" v="South Hero"/>
    <tag k="addr:housenumber" v="117"/>
    <tag k="addr:street" v="United States Route 2"/>
    <tag k="addr:state" v="VT"/>
    <tag k="ref:vcgi:esiteid" v="233889"/>
  </node>
  <node id="-1086" visible="true" lat="44.64207655644" lon="-73.276537496006">
    <tag k="addr:city" v="South Hero"/>
    <tag k="addr:housenumber" v="150"/>
    <tag k="addr:street" v="United States Route 2"/>
    <tag k="addr:state" v="VT"/>
    <tag k="ref:vcgi:esiteid" v="234282"/>
  </node>
  <node id="-1111" visible="true" lat="44.676496411551" lon="-73.320648869935">
    <tag k="addr:city" v="South Hero"/>
    <tag k="addr:housenumber" v="601"/>
    <tag k="addr:street" v="United States Route 2"/>
    <tag k="addr:state" v="VT"/>
    <tag k="ref:vcgi:esiteid" v="234307"/>
  </node>
  <node id="-1471" visible="true" lat="44.592773003349" lon="-73.336345582777">
    <tag k="addr:city" v="South Hero"/>
    <tag k="addr:housenumber" v="343"/>
    <tag k="addr:street" v="Stave Island"/>
    <tag k="addr:state" v="VT"/>
    <tag k="ref:vcgi:esiteid" v="451787"/>
  </node>
  <node id="-1489" visible="true" lat="44.673798194577" lon="-73.252743546609">
    <tag k="addr:city" v="South Hero"/>
    <tag k="addr:housenumber" v="568"/>
    <tag k="addr:street" v="Fish Bladder Island"/>
    <tag k="addr:state" v="VT"/>
    <tag k="ref:vcgi:esiteid" v="452198"/>
  </node>
  <node id="-1491" visible="true" lat="44.667622840307" lon="-73.297612197237">
    <tag k="addr:city" v="South Hero"/>
    <tag k="addr:housenumber" v="216"/>
    <tag k="addr:street" v="Kellogg Island"/>
    <tag k="addr:state" v="VT"/>
    <tag k="ref:vcgi:esiteid" v="452200"/>
  </node>
  <node id="-1759" visible="true" lat="44.662398135014" lon="-73.322909535566">
    <tag k="addr:city" v="South Hero"/>
    <tag k="addr:housenumber" v="505"/>
    <tag k="addr:street" v="United States Route 2"/>
    <tag k="addr:state" v="VT"/>
    <tag k="ref:vcgi:esiteid" v="771279"/>
  </node>
  <node id="-1775" visible="true" lat="44.646708834355" lon="-73.304933811026">
    <tag k="addr:city" v="South Hero"/>
    <tag k="addr:housenumber" v="322"/>
    <tag k="addr:street" v="United States Route 2"/>
    <tag k="addr:state" v="VT"/>
    <tag k="ref:vcgi:esiteid" v="773054"/>
  </node>
  <node id="-1782" visible="true" lat="44.63319079306" lon="-73.302101534678">
    <tag k="addr:city" v="South Hero"/>
    <tag k="addr:housenumber" v="93"/>
    <tag k="addr:street" v="South Street"/>
    <tag k="addr:state" v="VT"/>
    <tag k="ref:vcgi:esiteid" v="773631"/>
  </node>
  <node id="-1783" visible="true" lat="44.671057510623" lon="-73.323819604424">
    <tag k="addr:city" v="South Hero"/>
    <tag k="addr:housenumber" v="569"/>
    <tag k="addr:street" v="2"/>
    <tag k="addr:state" v="VT"/>
    <tag k="ref:vcgi:esiteid" v="773817"/>
  </node>
</osm>
