<?xml version="1.0" encoding="UTF-8"?>
<osm version="0.6" generator="JOSM" upload="false">
  <node id="-530" visible="true" lat="43.734575072416" lon="-72.786161649887">
    <tag k="addr:city" v="Stockbridge"/>
    <tag k="addr:housenumber" v="5195"/>
    <tag k="addr:street" v="Fletcher Brook Road"/>
    <tag k="addr:state" v="VT"/>
    <tag k="ref:vcgi:esiteid" v="249251"/>
  </node>
  <node id="-631" visible="true" lat="43.759819136002" lon="-72.795510865752">
    <tag k="addr:city" v="Stockbridge"/>
    <tag k="addr:housenumber" v="2076"/>
    <tag k="addr:street" v="South South Hill Road"/>
    <tag k="addr:state" v="VT"/>
    <tag k="ref:vcgi:esiteid" v="315898"/>
  </node>
  <node id="-741" visible="true" lat="43.738149053943" lon="-72.789232301269">
    <tag k="addr:city" v="Stockbridge"/>
    <tag k="addr:housenumber" v="5525"/>
    <tag k="addr:street" v="Fletcher Brook Road"/>
    <tag k="addr:state" v="VT"/>
    <tag k="ref:vcgi:esiteid" v="773635"/>
  </node>
  <node id="-742" visible="true" lat="43.733862057685" lon="-72.784572419026">
    <tag k="addr:city" v="Stockbridge"/>
    <tag k="addr:housenumber" v="5086"/>
    <tag k="addr:street" v="Fletcher Brook Road"/>
    <tag k="addr:state" v="VT"/>
    <tag k="ref:vcgi:esiteid" v="773636"/>
  </node>
  <node id="-743" visible="true" lat="43.766116693162" lon="-72.717725422941">
    <tag k="addr:city" v="Stockbridge"/>
    <tag k="addr:housenumber" v="3021"/>
    <tag k="addr:street" v="107"/>
    <tag k="addr:state" v="VT"/>
    <tag k="ref:vcgi:esiteid" v="773754"/>
  </node>
  <node id="-744" visible="true" lat="43.732606403978" lon="-72.739341204609">
    <tag k="addr:city" v="Stockbridge"/>
    <tag k="addr:housenumber" v="212"/>
    <tag k="addr:street" v="Labadie Road"/>
    <tag k="addr:state" v="VT"/>
    <tag k="ref:vcgi:esiteid" v="773884"/>
  </node>
</osm>
