<?xml version="1.0" encoding="UTF-8"?>
<osm version="0.6" generator="JOSM" upload="false">
  <node id="-1105" visible="true" lat="44.477625743236" lon="-72.692354621671">
    <tag k="addr:city" v="Stowe"/>
    <tag k="addr:housenumber" v="273"/>
    <tag k="addr:street" v="Weeks Hill Road"/>
    <tag k="addr:state" v="VT"/>
    <tag k="ref:vcgi:esiteid" v="250438"/>
  </node>
  <node id="-1189" visible="true" lat="44.474007637395" lon="-72.696024369907">
    <tag k="addr:city" v="Stowe"/>
    <tag k="addr:housenumber" v="27"/>
    <tag k="addr:street" v="Outbound Way"/>
    <tag k="addr:state" v="VT"/>
    <tag k="ref:vcgi:esiteid" v="250532"/>
  </node>
  <node id="-3091" visible="true" lat="44.473994064593" lon="-72.695131833741">
    <tag k="addr:city" v="Stowe"/>
    <tag k="addr:housenumber" v="50"/>
    <tag k="addr:street" v="Outbound Way"/>
    <tag k="addr:state" v="VT"/>
    <tag k="ref:vcgi:esiteid" v="340711"/>
  </node>
  <node id="-3869" visible="true" lat="44.477517750176" lon="-72.694226656395">
    <tag k="addr:city" v="Stowe"/>
    <tag k="addr:housenumber" v="269"/>
    <tag k="addr:street" v="Weeks Hill Road"/>
    <tag k="addr:state" v="VT"/>
    <tag k="ref:vcgi:esiteid" v="768451"/>
  </node>
  <node id="-3880" visible="true" lat="44.47445186312" lon="-72.694960871219">
    <tag k="addr:city" v="Stowe"/>
    <tag k="addr:housenumber" v="66"/>
    <tag k="addr:street" v="Outbound Way"/>
    <tag k="addr:state" v="VT"/>
    <tag k="ref:vcgi:esiteid" v="769330"/>
  </node>
  <node id="-3933" visible="true" lat="44.474975592565" lon="-72.695394686219">
    <tag k="addr:city" v="Stowe"/>
    <tag k="addr:housenumber" v="139"/>
    <tag k="addr:street" v="Outbound Way"/>
    <tag k="addr:state" v="VT"/>
    <tag k="ref:vcgi:esiteid" v="772938"/>
  </node>
  <node id="-3942" visible="true" lat="44.473795520903" lon="-72.666539474565">
    <tag k="addr:city" v="Stowe"/>
    <tag k="addr:housenumber" v="222"/>
    <tag k="addr:street" v="Brookside Drive"/>
    <tag k="addr:state" v="VT"/>
    <tag k="ref:vcgi:esiteid" v="773222"/>
  </node>
  <node id="-3943" visible="true" lat="44.475051879635" lon="-72.695556477985">
    <tag k="addr:city" v="Stowe"/>
    <tag k="addr:housenumber" v="133"/>
    <tag k="addr:street" v="Outbound Way"/>
    <tag k="addr:state" v="VT"/>
    <tag k="ref:vcgi:esiteid" v="773289"/>
  </node>
  <node id="-3944" visible="true" lat="44.474769331824" lon="-72.695082938522">
    <tag k="addr:city" v="Stowe"/>
    <tag k="addr:housenumber" v="153"/>
    <tag k="addr:street" v="Outbound Way"/>
    <tag k="addr:state" v="VT"/>
    <tag k="ref:vcgi:esiteid" v="773291"/>
  </node>
  <node id="-3945" visible="true" lat="44.474718473848" lon="-72.694905361977">
    <tag k="addr:city" v="Stowe"/>
    <tag k="addr:housenumber" v="161"/>
    <tag k="addr:street" v="Outbound Way"/>
    <tag k="addr:state" v="VT"/>
    <tag k="ref:vcgi:esiteid" v="773292"/>
  </node>
  <node id="-3946" visible="true" lat="44.474616755715" lon="-72.695734056767">
    <tag k="addr:city" v="Stowe"/>
    <tag k="addr:housenumber" v="106"/>
    <tag k="addr:street" v="Outbound Way"/>
    <tag k="addr:state" v="VT"/>
    <tag k="ref:vcgi:esiteid" v="773293"/>
  </node>
  <node id="-3947" visible="true" lat="44.474724123987" lon="-72.695564371444">
    <tag k="addr:city" v="Stowe"/>
    <tag k="addr:housenumber" v="120"/>
    <tag k="addr:street" v="Outbound Way"/>
    <tag k="addr:state" v="VT"/>
    <tag k="ref:vcgi:esiteid" v="773294"/>
  </node>
  <node id="-3948" visible="true" lat="44.47477498285" lon="-72.695493340588">
    <tag k="addr:city" v="Stowe"/>
    <tag k="addr:housenumber" v="126"/>
    <tag k="addr:street" v="Outbound Way"/>
    <tag k="addr:state" v="VT"/>
    <tag k="ref:vcgi:esiteid" v="773295"/>
  </node>
  <node id="-3949" visible="true" lat="44.47474672805" lon="-72.695000070176">
    <tag k="addr:city" v="Stowe"/>
    <tag k="addr:housenumber" v="157"/>
    <tag k="addr:street" v="Outbound Way"/>
    <tag k="addr:state" v="VT"/>
    <tag k="ref:vcgi:esiteid" v="773296"/>
  </node>
  <node id="-3950" visible="true" lat="44.474808889198" lon="-72.695161862733">
    <tag k="addr:city" v="Stowe"/>
    <tag k="addr:housenumber" v="149"/>
    <tag k="addr:street" v="Outbound Way"/>
    <tag k="addr:state" v="VT"/>
    <tag k="ref:vcgi:esiteid" v="773298"/>
  </node>
  <node id="-3951" visible="true" lat="44.475082959592" lon="-72.695647239746">
    <tag k="addr:city" v="Stowe"/>
    <tag k="addr:housenumber" v="131"/>
    <tag k="addr:street" v="Outbound Way"/>
    <tag k="addr:state" v="VT"/>
    <tag k="ref:vcgi:esiteid" v="773299"/>
  </node>
  <node id="-3952" visible="true" lat="44.474670439664" lon="-72.695647240229">
    <tag k="addr:city" v="Stowe"/>
    <tag k="addr:housenumber" v="114"/>
    <tag k="addr:street" v="Outbound Way"/>
    <tag k="addr:state" v="VT"/>
    <tag k="ref:vcgi:esiteid" v="773300"/>
  </node>
  <node id="-3953" visible="true" lat="44.474701520719" lon="-72.694822492462">
    <tag k="addr:city" v="Stowe"/>
    <tag k="addr:housenumber" v="165"/>
    <tag k="addr:street" v="Outbound Way"/>
    <tag k="addr:state" v="VT"/>
    <tag k="ref:vcgi:esiteid" v="773301"/>
  </node>
  <node id="-3955" visible="true" lat="44.479560614331" lon="-72.722222744026">
    <tag k="addr:city" v="Stowe"/>
    <tag k="addr:housenumber" v="226"/>
    <tag k="addr:street" v="Mountain Road"/>
    <tag k="addr:state" v="VT"/>
    <tag k="ref:vcgi:esiteid" v="773321"/>
  </node>
  <node id="-3956" visible="true" lat="44.479318421127" lon="-72.72105607397">
    <tag k="addr:city" v="Stowe"/>
    <tag k="addr:housenumber" v="150"/>
    <tag k="addr:street" v="Mountain Road"/>
    <tag k="addr:state" v="VT"/>
    <tag k="ref:vcgi:esiteid" v="773322"/>
  </node>
  <node id="-3957" visible="true" lat="44.515995394204" lon="-72.726285244988">
    <tag k="addr:city" v="Stowe"/>
    <tag k="addr:housenumber" v="1086"/>
    <tag k="addr:street" v="Wade Pasture Road"/>
    <tag k="addr:state" v="VT"/>
    <tag k="ref:vcgi:esiteid" v="773328"/>
  </node>
  <node id="-3958" visible="true" lat="44.474938860733" lon="-72.695303924761">
    <tag k="addr:city" v="Stowe"/>
    <tag k="addr:housenumber" v="141"/>
    <tag k="addr:street" v="Outbound Way"/>
    <tag k="addr:state" v="VT"/>
    <tag k="ref:vcgi:esiteid" v="773330"/>
  </node>
  <node id="-3959" visible="true" lat="44.50227041215" lon="-72.728406084857">
    <tag k="addr:city" v="Stowe"/>
    <tag k="addr:housenumber" v="942"/>
    <tag k="addr:street" v="Edson Hill Road"/>
    <tag k="addr:state" v="VT"/>
    <tag k="ref:vcgi:esiteid" v="773387"/>
  </node>
  <node id="-3961" visible="true" lat="44.444381129938" lon="-72.680036309877">
    <tag k="addr:city" v="Stowe"/>
    <tag k="addr:housenumber" v="147"/>
    <tag k="addr:street" v="Dutton Mill Way"/>
    <tag k="addr:state" v="VT"/>
    <tag k="ref:vcgi:esiteid" v="773433"/>
  </node>
  <node id="-3962" visible="true" lat="44.480069640066" lon="-72.72020595064">
    <tag k="addr:city" v="Stowe"/>
    <tag k="addr:housenumber" v="351"/>
    <tag k="addr:street" v="Grey Birch Road"/>
    <tag k="addr:state" v="VT"/>
    <tag k="ref:vcgi:esiteid" v="773642"/>
  </node>
  <node id="-3963" visible="true" lat="44.444894714667" lon="-72.662522058687">
    <tag k="addr:city" v="Stowe"/>
    <tag k="addr:housenumber" v="304"/>
    <tag k="addr:street" v="North Hollow Road"/>
    <tag k="addr:state" v="VT"/>
    <tag k="ref:vcgi:esiteid" v="773907"/>
  </node>
</osm>
