<?xml version="1.0" encoding="UTF-8"?>
<osm version="0.6" generator="JOSM" upload="false">
  <node id="-3894" visible="true" lat="44.863453606697" lon="-73.086009352474">
    <tag k="addr:city" v="Swanton"/>
    <tag k="addr:housenumber" v="110"/>
    <tag k="addr:street" v="Sugar Maple Drive"/>
    <tag k="addr:state" v="VT"/>
    <tag k="ref:vcgi:esiteid" v="346184"/>
  </node>
  <node id="-4262" visible="true" lat="44.872647724526" lon="-73.089125432188">
    <tag k="addr:city" v="Swanton"/>
    <tag k="addr:housenumber" v="255"/>
    <tag k="addr:street" v="Ellsworth Drive"/>
    <tag k="addr:state" v="VT"/>
    <tag k="ref:vcgi:esiteid" v="773091"/>
  </node>
  <node id="-4263" visible="true" lat="44.873329576973" lon="-73.088730909766">
    <tag k="addr:city" v="Swanton"/>
    <tag k="addr:housenumber" v="257"/>
    <tag k="addr:street" v="Ellsworth Drive"/>
    <tag k="addr:state" v="VT"/>
    <tag k="ref:vcgi:esiteid" v="773092"/>
  </node>
  <node id="-4264" visible="true" lat="44.873890637729" lon="-73.088621319415">
    <tag k="addr:city" v="Swanton"/>
    <tag k="addr:housenumber" v="279"/>
    <tag k="addr:street" v="Ellsworth Drive"/>
    <tag k="addr:state" v="VT"/>
    <tag k="ref:vcgi:esiteid" v="773093"/>
  </node>
  <node id="-4265" visible="true" lat="44.873578937627" lon="-73.086226789734">
    <tag k="addr:city" v="Swanton"/>
    <tag k="addr:housenumber" v="300"/>
    <tag k="addr:street" v="Ellsworth Drive"/>
    <tag k="addr:state" v="VT"/>
    <tag k="ref:vcgi:esiteid" v="773094"/>
  </node>
  <node id="-4266" visible="true" lat="44.87434649476" lon="-73.086643229317">
    <tag k="addr:city" v="Swanton"/>
    <tag k="addr:housenumber" v="314"/>
    <tag k="addr:street" v="Ellsworth Drive"/>
    <tag k="addr:state" v="VT"/>
    <tag k="ref:vcgi:esiteid" v="773095"/>
  </node>
  <node id="-4267" visible="true" lat="44.862259225848" lon="-73.092141258795">
    <tag k="addr:city" v="Swanton"/>
    <tag k="addr:housenumber" v="33"/>
    <tag k="addr:street" v="Maple Grove Estate"/>
    <tag k="addr:state" v="VT"/>
    <tag k="ref:vcgi:esiteid" v="773096"/>
  </node>
  <node id="-4269" visible="true" lat="44.861773569897" lon="-73.088015881874">
    <tag k="addr:city" v="Swanton"/>
    <tag k="addr:housenumber" v="84"/>
    <tag k="addr:street" v="Sugar Maple Drive"/>
    <tag k="addr:state" v="VT"/>
    <tag k="ref:vcgi:esiteid" v="773099"/>
  </node>
  <node id="-4270" visible="true" lat="44.862003466298" lon="-73.087829603549">
    <tag k="addr:city" v="Swanton"/>
    <tag k="addr:housenumber" v="88"/>
    <tag k="addr:street" v="Sugar Maple Drive"/>
    <tag k="addr:state" v="VT"/>
    <tag k="ref:vcgi:esiteid" v="773100"/>
  </node>
  <node id="-4271" visible="true" lat="44.920442666595" lon="-73.120923231752">
    <tag k="addr:city" v="Swanton"/>
    <tag k="addr:housenumber" v="2"/>
    <tag k="addr:street" v="Greenwich Street"/>
    <tag k="addr:state" v="VT"/>
    <tag k="ref:vcgi:esiteid" v="773101"/>
  </node>
  <node id="-4272" visible="true" lat="44.842920049666" lon="-73.00317659562">
    <tag k="addr:city" v="Fairfield"/>
    <tag k="addr:housenumber" v="900"/>
    <tag k="addr:street" v="Swanton Hill Road"/>
    <tag k="addr:state" v="VT"/>
    <tag k="ref:vcgi:esiteid" v="773278"/>
  </node>
  <node id="-4273" visible="true" lat="44.893193303206" lon="-73.06655665329">
    <tag k="addr:city" v="Saint Albans"/>
    <tag k="addr:housenumber" v="2167"/>
    <tag k="addr:street" v="Highgate Road"/>
    <tag k="addr:state" v="VT"/>
    <tag k="ref:vcgi:esiteid" v="773495"/>
  </node>
  <node id="-4274" visible="true" lat="44.852565425137" lon="-73.091599537858">
    <tag k="addr:city" v="Swanton"/>
    <tag k="addr:housenumber" v="590"/>
    <tag k="addr:street" v="Saint Albans Road"/>
    <tag k="addr:state" v="VT"/>
    <tag k="ref:vcgi:esiteid" v="773538"/>
  </node>
  <node id="-4275" visible="true" lat="44.90517269073" lon="-73.079085532799">
    <tag k="addr:city" v="Swanton"/>
    <tag k="addr:housenumber" v="60"/>
    <tag k="addr:street" v="Donaldson Road"/>
    <tag k="addr:state" v="VT"/>
    <tag k="ref:vcgi:esiteid" v="773968"/>
  </node>
</osm>
