<?xml version="1.0" encoding="UTF-8"?>
<osm version="0.6" generator="JOSM" upload="false">
  <node id="-307" visible="true" lat="43.873923607528" lon="-72.178456007676">
    <tag k="addr:city" v="Fairlee"/>
    <tag k="addr:housenumber" v="7627"/>
    <tag k="addr:street" v="United States Route 5"/>
    <tag k="addr:state" v="VT"/>
    <tag k="ref:vcgi:esiteid" v="258682"/>
  </node>
  <node id="-431" visible="true" lat="43.853783635472" lon="-72.189899890899">
    <tag k="addr:city" v="East Thetford"/>
    <tag k="addr:housenumber" v="6119"/>
    <tag k="addr:street" v="United States Route 5"/>
    <tag k="addr:state" v="VT"/>
    <tag k="ref:vcgi:esiteid" v="258811"/>
  </node>
  <node id="-492" visible="true" lat="43.845920797206" lon="-72.185169356448">
    <tag k="addr:city" v="East Thetford"/>
    <tag k="addr:housenumber" v="5528"/>
    <tag k="addr:street" v="United States Route 5"/>
    <tag k="addr:state" v="VT"/>
    <tag k="ref:vcgi:esiteid" v="258873"/>
  </node>
  <node id="-502" visible="true" lat="43.845110286507" lon="-72.184752931709">
    <tag k="addr:city" v="East Thetford"/>
    <tag k="addr:housenumber" v="5470"/>
    <tag k="addr:street" v="United States Route 5"/>
    <tag k="addr:state" v="VT"/>
    <tag k="ref:vcgi:esiteid" v="258883"/>
  </node>
  <node id="-528" visible="true" lat="43.843011154081" lon="-72.185000693973">
    <tag k="addr:city" v="East Thetford"/>
    <tag k="addr:housenumber" v="5325"/>
    <tag k="addr:street" v="United States Route 5"/>
    <tag k="addr:state" v="VT"/>
    <tag k="ref:vcgi:esiteid" v="258909"/>
  </node>
  <node id="-543" visible="true" lat="43.841972930712" lon="-72.188318339762">
    <tag k="addr:city" v="East Thetford"/>
    <tag k="addr:housenumber" v="5139"/>
    <tag k="addr:street" v="United States Route 5"/>
    <tag k="addr:state" v="VT"/>
    <tag k="ref:vcgi:esiteid" v="258924"/>
  </node>
  <node id="-546" visible="true" lat="43.841664703916" lon="-72.187694199731">
    <tag k="addr:city" v="East Thetford"/>
    <tag k="addr:housenumber" v="5136"/>
    <tag k="addr:street" v="United States Route 5"/>
    <tag k="addr:state" v="VT"/>
    <tag k="ref:vcgi:esiteid" v="258927"/>
  </node>
  <node id="-589" visible="true" lat="43.837833161348" lon="-72.189671754665">
    <tag k="addr:city" v="East Thetford"/>
    <tag k="addr:housenumber" v="4804"/>
    <tag k="addr:street" v="United States Route 5"/>
    <tag k="addr:state" v="VT"/>
    <tag k="ref:vcgi:esiteid" v="258977"/>
  </node>
  <node id="-729" visible="true" lat="43.8292108861" lon="-72.190630779082">
    <tag k="addr:city" v="East Thetford"/>
    <tag k="addr:housenumber" v="4221"/>
    <tag k="addr:street" v="United States Route 5"/>
    <tag k="addr:state" v="VT"/>
    <tag k="ref:vcgi:esiteid" v="259120"/>
  </node>
  <node id="-769" visible="true" lat="43.826225907047" lon="-72.189482883929">
    <tag k="addr:city" v="East Thetford"/>
    <tag k="addr:housenumber" v="4004"/>
    <tag k="addr:street" v="United States Route 5"/>
    <tag k="addr:state" v="VT"/>
    <tag k="ref:vcgi:esiteid" v="259160"/>
  </node>
  <node id="-800" visible="true" lat="43.823585649397" lon="-72.189755385139">
    <tag k="addr:city" v="East Thetford"/>
    <tag k="addr:housenumber" v="3836"/>
    <tag k="addr:street" v="United States Route 5"/>
    <tag k="addr:state" v="VT"/>
    <tag k="ref:vcgi:esiteid" v="259192"/>
  </node>
  <node id="-994" visible="true" lat="43.812539424" lon="-72.188729387084">
    <tag k="addr:city" v="East Thetford"/>
    <tag k="addr:housenumber" v="3052"/>
    <tag k="addr:street" v="United States Route 5"/>
    <tag k="addr:state" v="VT"/>
    <tag k="ref:vcgi:esiteid" v="259398"/>
  </node>
  <node id="-1011" visible="true" lat="43.811828196985" lon="-72.189699066155">
    <tag k="addr:city" v="East Thetford"/>
    <tag k="addr:housenumber" v="3009"/>
    <tag k="addr:street" v="United States Route 5"/>
    <tag k="addr:state" v="VT"/>
    <tag k="ref:vcgi:esiteid" v="259415"/>
  </node>
  <node id="-1198" visible="true" lat="43.793761044742" lon="-72.197499630482">
    <tag k="addr:city" v="East Thetford"/>
    <tag k="addr:housenumber" v="1680"/>
    <tag k="addr:street" v="United States Route 5"/>
    <tag k="addr:state" v="VT"/>
    <tag k="ref:vcgi:esiteid" v="259603"/>
  </node>
  <node id="-1581" visible="true" lat="43.864892478156" lon="-72.275222141924">
    <tag k="addr:city" v="Thetford Center"/>
    <tag k="addr:housenumber" v="1692"/>
    <tag k="addr:street" v="Sawnee Bean Road"/>
    <tag k="addr:state" v="VT"/>
    <tag k="ref:vcgi:esiteid" v="500038"/>
  </node>
  <node id="-1717" visible="true" lat="43.821440644001" lon="-72.189808369479">
    <tag k="addr:city" v="East Thetford"/>
    <tag k="addr:housenumber" v="3682"/>
    <tag k="addr:street" v="5"/>
    <tag k="addr:state" v="VT"/>
    <tag k="ref:vcgi:esiteid" v="773088"/>
  </node>
  <node id="-1718" visible="true" lat="43.801932446422" lon="-72.210713792048">
    <tag k="addr:city" v="East Thetford"/>
    <tag k="addr:housenumber" v="280"/>
    <tag k="addr:street" v="Sunset Point"/>
    <tag k="addr:state" v="VT"/>
    <tag k="ref:vcgi:esiteid" v="773769"/>
  </node>
  <node id="-1719" visible="true" lat="43.835559832971" lon="-72.284402524824">
    <tag k="addr:city" v="Thetford Center"/>
    <tag k="addr:housenumber" v="669"/>
    <tag k="addr:street" v="Jackson Brook Road"/>
    <tag k="addr:state" v="VT"/>
    <tag k="ref:vcgi:esiteid" v="773847"/>
  </node>
  <node id="-1720" visible="true" lat="43.838656054592" lon="-72.282787527798">
    <tag k="addr:city" v="Thetford Center"/>
    <tag k="addr:housenumber" v="895"/>
    <tag k="addr:street" v="Jackson Brook Road"/>
    <tag k="addr:state" v="VT"/>
    <tag k="ref:vcgi:esiteid" v="773848"/>
  </node>
  <node id="-1721" visible="true" lat="43.892453194159" lon="-72.246709231174">
    <tag k="addr:city" v="Fairlee"/>
    <tag k="addr:housenumber" v="353"/>
    <tag k="addr:street" v="Cross Street"/>
    <tag k="addr:state" v="VT"/>
    <tag k="ref:vcgi:esiteid" v="773857"/>
  </node>
  <node id="-1722" visible="true" lat="43.883343886897" lon="-72.215358415488">
    <tag k="addr:city" v="Fairlee"/>
    <tag k="addr:housenumber" v="1060"/>
    <tag k="addr:street" v="Quinibeck Road"/>
    <tag k="addr:state" v="VT"/>
    <tag k="ref:vcgi:esiteid" v="773977"/>
  </node>
</osm>
