<?xml version="1.0" encoding="UTF-8"?>
<osm version="0.6" generator="JOSM" upload="false">
  <node id="-818" visible="true" lat="44.140941103133" lon="-72.316439596895">
    <tag k="addr:city" v="West Topsham"/>
    <tag k="addr:housenumber" v="7"/>
    <tag k="addr:street" v="United States Route 302"/>
    <tag k="addr:state" v="VT"/>
    <tag k="ref:vcgi:esiteid" v="341859"/>
  </node>
  <node id="-839" visible="true" lat="44.182236345061" lon="-72.226749309675">
    <tag k="addr:city" v="Topsham"/>
    <tag k="addr:housenumber" v="483"/>
    <tag k="addr:street" v="Powder Spring Road"/>
    <tag k="addr:state" v="VT"/>
    <tag k="ref:vcgi:esiteid" v="500006"/>
  </node>
  <node id="-840" visible="true" lat="44.129213682003" lon="-72.214512131918">
    <tag k="addr:city" v="Topsham"/>
    <tag k="addr:housenumber" v="10"/>
    <tag k="addr:street" v="Johnny Road"/>
    <tag k="addr:state" v="VT"/>
    <tag k="ref:vcgi:esiteid" v="500020"/>
  </node>
  <node id="-912" visible="true" lat="44.117197152457" lon="-72.311616731195">
    <tag k="addr:city" v="West Topsham"/>
    <tag k="addr:housenumber" v="2"/>
    <tag k="addr:street" v="Batten Road"/>
    <tag k="addr:state" v="VT"/>
    <tag k="ref:vcgi:esiteid" v="773555"/>
  </node>
</osm>
