<?xml version="1.0" encoding="UTF-8"?>
<osm version="0.6" generator="JOSM" upload="false">
  <node id="-1033" visible="true" lat="44.960292488308" lon="-72.370112331082">
    <tag k="addr:city" v="North Troy"/>
    <tag k="addr:housenumber" v="2143"/>
    <tag k="addr:street" v="East Hill"/>
    <tag k="addr:state" v="VT"/>
    <tag k="ref:vcgi:esiteid" v="768971"/>
  </node>
  <node id="-1051" visible="true" lat="44.971983696373" lon="-72.37424976319">
    <tag k="addr:city" v="North Troy"/>
    <tag k="addr:housenumber" v="1554"/>
    <tag k="addr:street" v="East Hill"/>
    <tag k="addr:state" v="VT"/>
    <tag k="ref:vcgi:esiteid" v="773268"/>
  </node>
</osm>
