<?xml version="1.0" encoding="UTF-8"?>
<osm version="0.6" generator="JOSM" upload="false">
  <node id="-1344" visible="true" lat="44.577215016816" lon="-72.937050024518">
    <tag k="addr:city" v="Underhill"/>
    <tag k="addr:housenumber" v="219"/>
    <tag k="addr:street" v="Warner Creek"/>
    <tag k="addr:state" v="VT"/>
    <tag k="ref:vcgi:esiteid" v="455224"/>
  </node>
  <node id="-1345" visible="true" lat="44.578276371158" lon="-72.937207888996">
    <tag k="addr:city" v="Underhill"/>
    <tag k="addr:housenumber" v="223"/>
    <tag k="addr:street" v="Warner Creek"/>
    <tag k="addr:state" v="VT"/>
    <tag k="ref:vcgi:esiteid" v="455225"/>
  </node>
  <node id="-1346" visible="true" lat="44.575858481053" lon="-72.936873298165">
    <tag k="addr:city" v="Underhill"/>
    <tag k="addr:housenumber" v="281"/>
    <tag k="addr:street" v="Warner Creek"/>
    <tag k="addr:state" v="VT"/>
    <tag k="ref:vcgi:esiteid" v="455226"/>
  </node>
  <node id="-1347" visible="true" lat="44.574933135612" lon="-72.936951316895">
    <tag k="addr:city" v="Underhill"/>
    <tag k="addr:housenumber" v="345"/>
    <tag k="addr:street" v="Warner Creek"/>
    <tag k="addr:state" v="VT"/>
    <tag k="ref:vcgi:esiteid" v="455227"/>
  </node>
  <node id="-1399" visible="true" lat="44.574201034287" lon="-72.93722962778">
    <tag k="addr:city" v="Underhill"/>
    <tag k="addr:housenumber" v="391"/>
    <tag k="addr:street" v="Warner Creek"/>
    <tag k="addr:state" v="VT"/>
    <tag k="ref:vcgi:esiteid" v="656057"/>
  </node>
  <node id="-1587" visible="true" lat="44.513648081471" lon="-72.91111965476">
    <tag k="addr:city" v="Underhill"/>
    <tag k="addr:housenumber" v="218"/>
    <tag k="addr:street" v="River Road"/>
    <tag k="addr:state" v="VT"/>
    <tag k="ref:vcgi:esiteid" v="773533"/>
  </node>
  <node id="-1588" visible="true" lat="44.555004775345" lon="-72.943993028606">
    <tag k="addr:city" v="Underhill"/>
    <tag k="addr:housenumber" v="630"/>
    <tag k="addr:street" v="15"/>
    <tag k="addr:state" v="VT"/>
    <tag k="ref:vcgi:esiteid" v="773755"/>
  </node>
</osm>
