<?xml version="1.0" encoding="UTF-8"?>
<osm version="0.6" generator="JOSM" upload="false">
  <node id="-100" visible="true" lat="44.597100732772" lon="-71.849160234056">
    <!-- conflict: "343 Victory Road, North Concord, VT" Fuzzy match to "343 Victory Road, Victory, VT" -->
    <tag k="addr:city" v="North Concord"/>
    <tag k="addr:housenumber" v="343"/>
    <tag k="addr:street" v="Victory Road"/>
    <tag k="addr:state" v="VT"/>
    <tag k="ref:vcgi:esiteid" v="267325"/>
  </node>
  <node id="-101" visible="true" lat="44.595620631409" lon="-71.843110121801">
    <!-- conflict: "697 Victory Road, North Concord, VT" Fuzzy match to "697 Victory Road, Victory, VT" -->
    <tag k="addr:city" v="North Concord"/>
    <tag k="addr:housenumber" v="697"/>
    <tag k="addr:street" v="Victory Road"/>
    <tag k="addr:state" v="VT"/>
    <tag k="ref:vcgi:esiteid" v="267326"/>
  </node>
  <node id="-102" visible="true" lat="44.580403802484" lon="-71.799881957357">
    <!-- conflict: "3434 Victory Road, North Concord, VT" Fuzzy match to "3434 Victory Road, Victory, VT" -->
    <tag k="addr:city" v="North Concord"/>
    <tag k="addr:housenumber" v="3434"/>
    <tag k="addr:street" v="Victory Road"/>
    <tag k="addr:state" v="VT"/>
    <tag k="ref:vcgi:esiteid" v="267327"/>
  </node>
  <node id="-103" visible="true" lat="44.576703546451" lon="-71.781296746268">
    <!-- conflict: "257 River Road, North Concord, VT" Fuzzy match to "257 River Road, Victory, VT" -->
    <tag k="addr:city" v="North Concord"/>
    <tag k="addr:housenumber" v="257"/>
    <tag k="addr:street" v="River Road"/>
    <tag k="addr:state" v="VT"/>
    <tag k="ref:vcgi:esiteid" v="267328"/>
  </node>
  <node id="-104" visible="true" lat="44.576474664431" lon="-71.785363214439">
    <!-- conflict: "101 Radar Road, North Concord, VT" Fuzzy match to "101 Radar Road, Victory, VT" -->
    <tag k="addr:city" v="North Concord"/>
    <tag k="addr:housenumber" v="101"/>
    <tag k="addr:street" v="Radar Road"/>
    <tag k="addr:state" v="VT"/>
    <tag k="ref:vcgi:esiteid" v="267329"/>
  </node>
  <node id="-105" visible="true" lat="44.576425072807" lon="-71.78721715749">
    <!-- conflict: "4129 Victory Road, North Concord, VT" Fuzzy match to "4129 Victory Road, Victory, VT" -->
    <tag k="addr:city" v="North Concord"/>
    <tag k="addr:housenumber" v="4129"/>
    <tag k="addr:street" v="Victory Road"/>
    <tag k="addr:state" v="VT"/>
    <tag k="ref:vcgi:esiteid" v="267330"/>
  </node>
  <node id="-106" visible="true" lat="44.576214686412" lon="-71.784724696567">
    <!-- conflict: "102 Radar Road, North Concord, VT" Fuzzy match to "102 Radar Road, Victory, VT" -->
    <tag k="addr:city" v="North Concord"/>
    <tag k="addr:housenumber" v="102"/>
    <tag k="addr:street" v="Radar Road"/>
    <tag k="addr:state" v="VT"/>
    <tag k="ref:vcgi:esiteid" v="267331"/>
  </node>
  <node id="-107" visible="true" lat="44.575829561786" lon="-71.789567113484">
    <!-- conflict: "4002 Victory Road, North Concord, VT" Fuzzy match to "4002 Victory Road, Victory, VT" -->
    <tag k="addr:city" v="North Concord"/>
    <tag k="addr:housenumber" v="4002"/>
    <tag k="addr:street" v="Victory Road"/>
    <tag k="addr:state" v="VT"/>
    <tag k="ref:vcgi:esiteid" v="267332"/>
  </node>
  <node id="-108" visible="true" lat="44.575782666219" lon="-71.784900696152">
    <!-- conflict: "74 Radar Road, North Concord, VT" Fuzzy match to "74 Radar Road, Victory, VT" -->
    <tag k="addr:city" v="North Concord"/>
    <tag k="addr:housenumber" v="74"/>
    <tag k="addr:street" v="Radar Road"/>
    <tag k="addr:state" v="VT"/>
    <tag k="ref:vcgi:esiteid" v="267333"/>
  </node>
  <node id="-109" visible="true" lat="44.575810906968" lon="-71.786652582957">
    <!-- conflict: "4127 Victory Road, North Concord, VT" Fuzzy match to "4127 Victory Road, Victory, VT" -->
    <tag k="addr:city" v="North Concord"/>
    <tag k="addr:housenumber" v="4127"/>
    <tag k="addr:street" v="Victory Road"/>
    <tag k="addr:state" v="VT"/>
    <tag k="ref:vcgi:esiteid" v="267334"/>
  </node>
  <node id="-110" visible="true" lat="44.575810906822" lon="-71.791222591178">
    <!-- conflict: "3932 Victory Road, North Concord, VT" Fuzzy match to "3932 Victory Road, Victory, VT" -->
    <tag k="addr:city" v="North Concord"/>
    <tag k="addr:housenumber" v="3932"/>
    <tag k="addr:street" v="Victory Road"/>
    <tag k="addr:state" v="VT"/>
    <tag k="ref:vcgi:esiteid" v="267335"/>
  </node>
  <node id="-111" visible="true" lat="44.575428581316" lon="-71.788188277867">
    <!-- conflict: "4082 Victory Road, North Concord, VT" Fuzzy match to "4082 Victory Road, Victory, VT" -->
    <tag k="addr:city" v="North Concord"/>
    <tag k="addr:housenumber" v="4082"/>
    <tag k="addr:street" v="Victory Road"/>
    <tag k="addr:state" v="VT"/>
    <tag k="ref:vcgi:esiteid" v="267336"/>
  </node>
  <node id="-112" visible="true" lat="44.575271241658" lon="-71.782995236021">
    <!-- conflict: "323 River Road, North Concord, VT" Fuzzy match to "323 River Road, Victory, VT" -->
    <tag k="addr:city" v="North Concord"/>
    <tag k="addr:housenumber" v="323"/>
    <tag k="addr:street" v="River Road"/>
    <tag k="addr:state" v="VT"/>
    <tag k="ref:vcgi:esiteid" v="267337"/>
  </node>
  <node id="-113" visible="true" lat="44.57513058126" lon="-71.786846621262">
    <!-- conflict: "4140 Victory Road, North Concord, VT" Fuzzy match to "4140 Victory Road, Victory, VT" -->
    <tag k="addr:city" v="North Concord"/>
    <tag k="addr:housenumber" v="4140"/>
    <tag k="addr:street" v="Victory Road"/>
    <tag k="addr:state" v="VT"/>
    <tag k="ref:vcgi:esiteid" v="267338"/>
  </node>
  <node id="-114" visible="true" lat="44.575154779101" lon="-71.783616081197">
    <!-- conflict: "337 River Road, North Concord, VT" Fuzzy match to "337 River Road, Victory, VT" -->
    <tag k="addr:city" v="North Concord"/>
    <tag k="addr:housenumber" v="337"/>
    <tag k="addr:street" v="River Road"/>
    <tag k="addr:state" v="VT"/>
    <tag k="ref:vcgi:esiteid" v="267339"/>
  </node>
  <node id="-115" visible="true" lat="44.575116630397" lon="-71.786362666147">
    <!-- conflict: "4176 Victory Road, North Concord, VT" Fuzzy match to "4176 Victory Road, Victory, VT" -->
    <tag k="addr:city" v="North Concord"/>
    <tag k="addr:housenumber" v="4176"/>
    <tag k="addr:street" v="Victory Road"/>
    <tag k="addr:state" v="VT"/>
    <tag k="ref:vcgi:esiteid" v="267340"/>
  </node>
  <node id="-116" visible="true" lat="44.574909240549" lon="-71.785965445226">
    <!-- conflict: "4192 Victory Road, North Concord, VT" Fuzzy match to "4192 Victory Road, Victory, VT" -->
    <tag k="addr:city" v="North Concord"/>
    <tag k="addr:housenumber" v="4192"/>
    <tag k="addr:street" v="Victory Road"/>
    <tag k="addr:state" v="VT"/>
    <tag k="ref:vcgi:esiteid" v="267341"/>
  </node>
  <node id="-117" visible="true" lat="44.574830342178" lon="-71.785683724005">
    <!-- conflict: "4212 Victory Road, North Concord, VT" Fuzzy match to "4212 Victory Road, Victory, VT" -->
    <tag k="addr:city" v="North Concord"/>
    <tag k="addr:housenumber" v="4212"/>
    <tag k="addr:street" v="Victory Road"/>
    <tag k="addr:state" v="VT"/>
    <tag k="ref:vcgi:esiteid" v="267342"/>
  </node>
  <node id="-118" visible="true" lat="44.574750421359" lon="-71.785264032033">
    <!-- conflict: "4236 Victory Road, North Concord, VT" Fuzzy match to "4236 Victory Road, Victory, VT" -->
    <tag k="addr:city" v="North Concord"/>
    <tag k="addr:housenumber" v="4236"/>
    <tag k="addr:street" v="Victory Road"/>
    <tag k="addr:state" v="VT"/>
    <tag k="ref:vcgi:esiteid" v="267343"/>
  </node>
  <node id="-119" visible="true" lat="44.574563058881" lon="-71.787041824919">
    <!-- conflict: "4162 Victory Road, North Concord, VT" Fuzzy match to "4162 Victory Road, Victory, VT" -->
    <tag k="addr:city" v="North Concord"/>
    <tag k="addr:housenumber" v="4162"/>
    <tag k="addr:street" v="Victory Road"/>
    <tag k="addr:state" v="VT"/>
    <tag k="ref:vcgi:esiteid" v="267344"/>
  </node>
  <node id="-120" visible="true" lat="44.5744245199" lon="-71.783392980697">
    <!-- conflict: "11 Granby Road, North Concord, VT" Fuzzy match to "11 Granby Road, Victory, VT" -->
    <tag k="addr:city" v="North Concord"/>
    <tag k="addr:housenumber" v="11"/>
    <tag k="addr:street" v="Granby Road"/>
    <tag k="addr:state" v="VT"/>
    <tag k="ref:vcgi:esiteid" v="267345"/>
  </node>
  <node id="-121" visible="true" lat="44.574231622653" lon="-71.785012261839">
    <!-- conflict: "4262 Victory Road, North Concord, VT" Fuzzy match to "4262 Victory Road, Victory, VT" -->
    <tag k="addr:city" v="North Concord"/>
    <tag k="addr:housenumber" v="4262"/>
    <tag k="addr:street" v="Victory Road"/>
    <tag k="addr:state" v="VT"/>
    <tag k="ref:vcgi:esiteid" v="267346"/>
  </node>
  <node id="-122" visible="true" lat="44.574204918757" lon="-71.784028069829">
    <!-- conflict: "405 River Road, North Concord, VT" Fuzzy match to "405 River Road, Victory, VT" -->
    <tag k="addr:city" v="North Concord"/>
    <tag k="addr:housenumber" v="405"/>
    <tag k="addr:street" v="River Road"/>
    <tag k="addr:state" v="VT"/>
    <tag k="ref:vcgi:esiteid" v="267347"/>
  </node>
  <node id="-123" visible="true" lat="44.574081851614" lon="-71.785756124461">
    <!-- conflict: "4270 Victory Road, North Concord, VT" Fuzzy match to "4270 Victory Road, Victory, VT" -->
    <tag k="addr:city" v="North Concord"/>
    <tag k="addr:housenumber" v="4270"/>
    <tag k="addr:street" v="Victory Road"/>
    <tag k="addr:state" v="VT"/>
    <tag k="ref:vcgi:esiteid" v="267348"/>
  </node>
  <node id="-124" visible="true" lat="44.573547049604" lon="-71.785002505072">
    <!-- conflict: "472 River Road, North Concord, VT" Fuzzy match to "472 River Road, Victory, VT" -->
    <tag k="addr:city" v="North Concord"/>
    <tag k="addr:housenumber" v="472"/>
    <tag k="addr:street" v="River Road"/>
    <tag k="addr:state" v="VT"/>
    <tag k="ref:vcgi:esiteid" v="267349"/>
  </node>
  <node id="-125" visible="true" lat="44.573026176786" lon="-71.785698906809">
    <!-- conflict: "520 River Road, North Concord, VT" Fuzzy match to "520 River Road, Victory, VT" -->
    <tag k="addr:city" v="North Concord"/>
    <tag k="addr:housenumber" v="520"/>
    <tag k="addr:street" v="River Road"/>
    <tag k="addr:state" v="VT"/>
    <tag k="ref:vcgi:esiteid" v="267350"/>
  </node>
  <node id="-126" visible="true" lat="44.573007104673" lon="-71.784417169997">
    <!-- conflict: "493 River Road, North Concord, VT" Fuzzy match to "493 River Road, Victory, VT" -->
    <tag k="addr:city" v="North Concord"/>
    <tag k="addr:housenumber" v="493"/>
    <tag k="addr:street" v="River Road"/>
    <tag k="addr:state" v="VT"/>
    <tag k="ref:vcgi:esiteid" v="267351"/>
  </node>
  <node id="-127" visible="true" lat="44.572057616567" lon="-71.781875945874">
    <!-- conflict: "211 Granby Road, North Concord, VT" Fuzzy match to "211 Granby Road, Victory, VT" -->
    <tag k="addr:city" v="North Concord"/>
    <tag k="addr:housenumber" v="211"/>
    <tag k="addr:street" v="Granby Road"/>
    <tag k="addr:state" v="VT"/>
    <tag k="ref:vcgi:esiteid" v="267352"/>
  </node>
  <node id="-128" visible="true" lat="44.57128286016" lon="-71.77378941959">
    <!-- conflict: "647 Granby Road, North Concord, VT" Fuzzy match to "647 Granby Road, Victory, VT" -->
    <tag k="addr:city" v="North Concord"/>
    <tag k="addr:housenumber" v="647"/>
    <tag k="addr:street" v="Granby Road"/>
    <tag k="addr:state" v="VT"/>
    <tag k="ref:vcgi:esiteid" v="267353"/>
  </node>
  <node id="-129" visible="true" lat="44.570676323665" lon="-71.768067371735">
    <!-- conflict: "945 Granby Road, North Concord, VT" Fuzzy match to "945 Granby Road, Victory, VT" -->
    <tag k="addr:city" v="North Concord"/>
    <tag k="addr:housenumber" v="945"/>
    <tag k="addr:street" v="Granby Road"/>
    <tag k="addr:state" v="VT"/>
    <tag k="ref:vcgi:esiteid" v="267355"/>
  </node>
  <node id="-130" visible="true" lat="44.570316716374" lon="-71.770603434753">
    <!-- conflict: "822 Granby Road, North Concord, VT" Fuzzy match to "822 Granby Road, Victory, VT" -->
    <tag k="addr:city" v="North Concord"/>
    <tag k="addr:housenumber" v="822"/>
    <tag k="addr:street" v="Granby Road"/>
    <tag k="addr:state" v="VT"/>
    <tag k="ref:vcgi:esiteid" v="267356"/>
  </node>
  <node id="-131" visible="true" lat="44.570428367876" lon="-71.788628595654">
    <!-- conflict: "750 River Road, North Concord, VT" Fuzzy match to "750 River Road, Victory, VT" -->
    <tag k="addr:city" v="North Concord"/>
    <tag k="addr:housenumber" v="750"/>
    <tag k="addr:street" v="River Road"/>
    <tag k="addr:state" v="VT"/>
    <tag k="ref:vcgi:esiteid" v="267357"/>
  </node>
  <node id="-132" visible="true" lat="44.570765267389" lon="-71.779753755349">
    <!-- conflict: "451 Granby Road, North Concord, VT" Fuzzy match to "451 Granby Road, Victory, VT" -->
    <tag k="addr:city" v="North Concord"/>
    <tag k="addr:housenumber" v="451"/>
    <tag k="addr:street" v="Granby Road"/>
    <tag k="addr:state" v="VT"/>
    <tag k="ref:vcgi:esiteid" v="267358"/>
  </node>
  <node id="-133" visible="true" lat="44.570065971016" lon="-71.779343618921">
    <!-- conflict: "390 Granby Road, North Concord, VT" Fuzzy match to "390 Granby Road, Victory, VT" -->
    <tag k="addr:city" v="North Concord"/>
    <tag k="addr:housenumber" v="390"/>
    <tag k="addr:street" v="Granby Road"/>
    <tag k="addr:state" v="VT"/>
    <tag k="ref:vcgi:esiteid" v="267359"/>
  </node>
  <node id="-134" visible="true" lat="44.569014619267" lon="-71.789924801638">
    <!-- conflict: "874 River Road, North Concord, VT" Fuzzy match to "874 River Road, Victory, VT" -->
    <tag k="addr:city" v="North Concord"/>
    <tag k="addr:housenumber" v="874"/>
    <tag k="addr:street" v="River Road"/>
    <tag k="addr:state" v="VT"/>
    <tag k="ref:vcgi:esiteid" v="267360"/>
  </node>
  <node id="-135" visible="true" lat="44.569089448729" lon="-71.780445923084">
    <!-- conflict: "142 Rod Lane, North Concord, VT" Fuzzy match to "142 Rod Lane, Victory, VT" -->
    <tag k="addr:city" v="North Concord"/>
    <tag k="addr:housenumber" v="142"/>
    <tag k="addr:street" v="Rod Lane"/>
    <tag k="addr:state" v="VT"/>
    <tag k="ref:vcgi:esiteid" v="267361"/>
  </node>
  <node id="-136" visible="true" lat="44.567883964617" lon="-71.788872736135">
    <!-- conflict: "933 River Road, North Concord, VT" Fuzzy match to "933 River Road, Victory, VT" -->
    <tag k="addr:city" v="North Concord"/>
    <tag k="addr:housenumber" v="933"/>
    <tag k="addr:street" v="River Road"/>
    <tag k="addr:state" v="VT"/>
    <tag k="ref:vcgi:esiteid" v="267362"/>
  </node>
  <node id="-137" visible="true" lat="44.567559715605" lon="-71.789628046687">
    <!-- conflict: "948 River Road, North Concord, VT" Fuzzy match to "948 River Road, Victory, VT" -->
    <tag k="addr:city" v="North Concord"/>
    <tag k="addr:housenumber" v="948"/>
    <tag k="addr:street" v="River Road"/>
    <tag k="addr:state" v="VT"/>
    <tag k="ref:vcgi:esiteid" v="267363"/>
  </node>
  <node id="-138" visible="true" lat="44.567445274387" lon="-71.788811700082">
    <!-- conflict: "961 River Road, North Concord, VT" Fuzzy match to "961 River Road, Victory, VT" -->
    <tag k="addr:city" v="North Concord"/>
    <tag k="addr:housenumber" v="961"/>
    <tag k="addr:street" v="River Road"/>
    <tag k="addr:state" v="VT"/>
    <tag k="ref:vcgi:esiteid" v="267364"/>
  </node>
  <node id="-139" visible="true" lat="44.566583152058" lon="-71.789246576956">
    <!-- conflict: "1016 River Road, North Concord, VT" Fuzzy match to "1016 River Road, Victory, VT" -->
    <tag k="addr:city" v="North Concord"/>
    <tag k="addr:housenumber" v="1016"/>
    <tag k="addr:street" v="River Road"/>
    <tag k="addr:state" v="VT"/>
    <tag k="ref:vcgi:esiteid" v="267365"/>
  </node>
  <node id="-140" visible="true" lat="44.566506859065" lon="-71.788666741688">
    <!-- conflict: "1063 River Road, North Concord, VT" Fuzzy match to "1063 River Road, Victory, VT" -->
    <tag k="addr:city" v="North Concord"/>
    <tag k="addr:housenumber" v="1063"/>
    <tag k="addr:street" v="River Road"/>
    <tag k="addr:state" v="VT"/>
    <tag k="ref:vcgi:esiteid" v="267366"/>
  </node>
  <node id="-141" visible="true" lat="44.566159719904" lon="-71.788254754878">
    <!-- conflict: "1061 River Road, North Concord, VT" Fuzzy match to "1061 River Road, Victory, VT" -->
    <tag k="addr:city" v="North Concord"/>
    <tag k="addr:housenumber" v="1061"/>
    <tag k="addr:street" v="River Road"/>
    <tag k="addr:state" v="VT"/>
    <tag k="ref:vcgi:esiteid" v="267367"/>
  </node>
  <node id="-142" visible="true" lat="44.565980429124" lon="-71.789132135904">
    <!-- conflict: "1052 River Road, North Concord, VT" Fuzzy match to "1052 River Road, Victory, VT" -->
    <tag k="addr:city" v="North Concord"/>
    <tag k="addr:housenumber" v="1052"/>
    <tag k="addr:street" v="River Road"/>
    <tag k="addr:state" v="VT"/>
    <tag k="ref:vcgi:esiteid" v="267368"/>
  </node>
  <node id="-143" visible="true" lat="44.565957540934" lon="-71.78826238416">
    <!-- conflict: "1077 River Road, North Concord, VT" Fuzzy match to "1077 River Road, Victory, VT" -->
    <tag k="addr:city" v="North Concord"/>
    <tag k="addr:housenumber" v="1077"/>
    <tag k="addr:street" v="River Road"/>
    <tag k="addr:state" v="VT"/>
    <tag k="ref:vcgi:esiteid" v="267369"/>
  </node>
  <node id="-144" visible="true" lat="44.565454000786" lon="-71.787690179944">
    <!-- conflict: "1101 River Road, North Concord, VT" Fuzzy match to "1101 River Road, Victory, VT" -->
    <tag k="addr:city" v="North Concord"/>
    <tag k="addr:housenumber" v="1101"/>
    <tag k="addr:street" v="River Road"/>
    <tag k="addr:state" v="VT"/>
    <tag k="ref:vcgi:esiteid" v="267370"/>
  </node>
  <node id="-145" visible="true" lat="44.564351552834" lon="-71.786751764558">
    <!-- conflict: "1291 River Road, North Concord, VT" Fuzzy match to "1291 River Road, Victory, VT" -->
    <tag k="addr:city" v="North Concord"/>
    <tag k="addr:housenumber" v="1291"/>
    <tag k="addr:street" v="River Road"/>
    <tag k="addr:state" v="VT"/>
    <tag k="ref:vcgi:esiteid" v="267371"/>
  </node>
  <node id="-146" visible="true" lat="44.562188619555" lon="-71.786934868997">
    <!-- conflict: "1344 River Road, North Concord, VT" Fuzzy match to "1344 River Road, Victory, VT" -->
    <tag k="addr:city" v="North Concord"/>
    <tag k="addr:housenumber" v="1344"/>
    <tag k="addr:street" v="River Road"/>
    <tag k="addr:state" v="VT"/>
    <tag k="ref:vcgi:esiteid" v="267372"/>
  </node>
  <node id="-147" visible="true" lat="44.562058919297" lon="-71.776669257004">
    <!-- conflict: "1673 River Road, North Concord, VT" Fuzzy match to "1673 River Road, Victory, VT" -->
    <tag k="addr:city" v="North Concord"/>
    <tag k="addr:housenumber" v="1673"/>
    <tag k="addr:street" v="River Road"/>
    <tag k="addr:state" v="VT"/>
    <tag k="ref:vcgi:esiteid" v="267373"/>
  </node>
  <node id="-148" visible="true" lat="44.533738377254" lon="-71.771493893103">
    <!-- conflict: "1745 River Road, North Concord, VT" Fuzzy match to "1745 River Road, Victory, VT" -->
    <tag k="addr:city" v="North Concord"/>
    <tag k="addr:housenumber" v="1745"/>
    <tag k="addr:street" v="River Road"/>
    <tag k="addr:state" v="VT"/>
    <tag k="ref:vcgi:esiteid" v="267374"/>
  </node>
  <node id="-149" visible="true" lat="44.553852432131" lon="-71.855124975259">
    <!-- conflict: "334 Coburn Road, North Concord, VT" Fuzzy match to "334 Coburn Road, Victory, VT" -->
    <tag k="addr:city" v="North Concord"/>
    <tag k="addr:housenumber" v="334"/>
    <tag k="addr:street" v="Coburn Road"/>
    <tag k="addr:state" v="VT"/>
    <tag k="ref:vcgi:esiteid" v="267375"/>
  </node>
  <node id="-150" visible="true" lat="44.549628922003" lon="-71.845350843486">
    <!-- conflict: "2380 Victory Hill, North Concord, VT" Fuzzy match to "2380 Victory Hill, Victory, VT" -->
    <tag k="addr:city" v="North Concord"/>
    <tag k="addr:housenumber" v="2380"/>
    <tag k="addr:street" v="Victory Hill"/>
    <tag k="addr:state" v="VT"/>
    <tag k="ref:vcgi:esiteid" v="267376"/>
  </node>
  <node id="-151" visible="true" lat="44.548131619628" lon="-71.886050109812">
    <!-- conflict: "2341 Masten Road, North Concord, VT" Fuzzy match to "2341 Masten Road, Victory, VT" -->
    <tag k="addr:city" v="North Concord"/>
    <tag k="addr:housenumber" v="2341"/>
    <tag k="addr:street" v="Masten Road"/>
    <tag k="addr:state" v="VT"/>
    <tag k="ref:vcgi:esiteid" v="267377"/>
  </node>
  <node id="-152" visible="true" lat="44.545484041273" lon="-71.882891833632">
    <!-- conflict: "2111 Masten Road, North Concord, VT" Fuzzy match to "2111 Masten Road, Victory, VT" -->
    <tag k="addr:city" v="North Concord"/>
    <tag k="addr:housenumber" v="2111"/>
    <tag k="addr:street" v="Masten Road"/>
    <tag k="addr:state" v="VT"/>
    <tag k="ref:vcgi:esiteid" v="267378"/>
  </node>
  <node id="-153" visible="true" lat="44.544005948458" lon="-71.874969994662">
    <!-- conflict: "80 Buttonwood Lane, North Concord, VT" Fuzzy match to "80 Buttonwood Lane, Victory, VT" -->
    <tag k="addr:city" v="North Concord"/>
    <tag k="addr:housenumber" v="80"/>
    <tag k="addr:street" v="Buttonwood Lane"/>
    <tag k="addr:state" v="VT"/>
    <tag k="ref:vcgi:esiteid" v="267379"/>
  </node>
  <node id="-154" visible="true" lat="44.543380011235" lon="-71.871960651837">
    <!-- conflict: "1814 Masten Road, North Concord, VT" Fuzzy match to "1814 Masten Road, Victory, VT" -->
    <tag k="addr:city" v="North Concord"/>
    <tag k="addr:housenumber" v="1814"/>
    <tag k="addr:street" v="Masten Road"/>
    <tag k="addr:state" v="VT"/>
    <tag k="ref:vcgi:esiteid" v="267380"/>
  </node>
  <node id="-155" visible="true" lat="44.543138531942" lon="-71.854357312676">
    <!-- conflict: "2428 Victory Hill, North Concord, VT" Fuzzy match to "2428 Victory Hill, Victory, VT" -->
    <tag k="addr:city" v="North Concord"/>
    <tag k="addr:housenumber" v="2428"/>
    <tag k="addr:street" v="Victory Hill"/>
    <tag k="addr:state" v="VT"/>
    <tag k="ref:vcgi:esiteid" v="267381"/>
  </node>
  <node id="-156" visible="true" lat="44.542617875778" lon="-71.853124127704">
    <!-- conflict: "2364 Victory Hill, North Concord, VT" Fuzzy match to "2364 Victory Hill, Victory, VT" -->
    <tag k="addr:city" v="North Concord"/>
    <tag k="addr:housenumber" v="2364"/>
    <tag k="addr:street" v="Victory Hill"/>
    <tag k="addr:state" v="VT"/>
    <tag k="ref:vcgi:esiteid" v="267382"/>
  </node>
  <node id="-157" visible="true" lat="44.5418677221" lon="-71.855080641033">
    <!-- conflict: "2431 Victory Hill, North Concord, VT" Fuzzy match to "2431 Victory Hill, Victory, VT" -->
    <tag k="addr:city" v="North Concord"/>
    <tag k="addr:housenumber" v="2431"/>
    <tag k="addr:street" v="Victory Hill"/>
    <tag k="addr:state" v="VT"/>
    <tag k="ref:vcgi:esiteid" v="267383"/>
  </node>
  <node id="-158" visible="true" lat="44.541288614403" lon="-71.870350780292">
    <!-- conflict: "1645 Masten Road, North Concord, VT" Fuzzy match to "1645 Masten Road, Victory, VT" -->
    <tag k="addr:city" v="North Concord"/>
    <tag k="addr:housenumber" v="1645"/>
    <tag k="addr:street" v="Masten Road"/>
    <tag k="addr:state" v="VT"/>
    <tag k="ref:vcgi:esiteid" v="267384"/>
  </node>
  <node id="-159" visible="true" lat="44.536408889256" lon="-71.867554707362">
    <!-- conflict: "1283 Masten Road, North Concord, VT" Fuzzy match to "1283 Masten Road, Victory, VT" -->
    <tag k="addr:city" v="North Concord"/>
    <tag k="addr:housenumber" v="1283"/>
    <tag k="addr:street" v="Masten Road"/>
    <tag k="addr:state" v="VT"/>
    <tag k="ref:vcgi:esiteid" v="267385"/>
  </node>
  <node id="-160" visible="true" lat="44.536203468502" lon="-71.865959636137">
    <!-- conflict: "1204 Masten Road, North Concord, VT" Fuzzy match to "1204 Masten Road, Victory, VT" -->
    <tag k="addr:city" v="North Concord"/>
    <tag k="addr:housenumber" v="1204"/>
    <tag k="addr:street" v="Masten Road"/>
    <tag k="addr:state" v="VT"/>
    <tag k="ref:vcgi:esiteid" v="267386"/>
  </node>
  <node id="-161" visible="true" lat="44.533601732907" lon="-71.852556363353">
    <!-- conflict: "1735 Victory Hill, North Concord, VT" Fuzzy match to "1735 Victory Hill, Victory, VT" -->
    <tag k="addr:city" v="North Concord"/>
    <tag k="addr:housenumber" v="1735"/>
    <tag k="addr:street" v="Victory Hill"/>
    <tag k="addr:state" v="VT"/>
    <tag k="ref:vcgi:esiteid" v="267387"/>
  </node>
  <node id="-162" visible="true" lat="44.531323897184" lon="-71.852601087196">
    <!-- conflict: "1559 Victory Hill, North Concord, VT" Fuzzy match to "1559 Victory Hill, Victory, VT" -->
    <tag k="addr:city" v="North Concord"/>
    <tag k="addr:housenumber" v="1559"/>
    <tag k="addr:street" v="Victory Hill"/>
    <tag k="addr:state" v="VT"/>
    <tag k="ref:vcgi:esiteid" v="267388"/>
  </node>
  <node id="-163" visible="true" lat="44.530900465123" lon="-71.850472485495">
    <!-- conflict: "1586 Victory Hill, North Concord, VT" Fuzzy match to "1586 Victory Hill, Victory, VT" -->
    <tag k="addr:city" v="North Concord"/>
    <tag k="addr:housenumber" v="1586"/>
    <tag k="addr:street" v="Victory Hill"/>
    <tag k="addr:state" v="VT"/>
    <tag k="ref:vcgi:esiteid" v="267389"/>
  </node>
  <node id="-164" visible="true" lat="44.530152784513" lon="-71.851563489526">
    <!-- conflict: "1475 Victory Hill, North Concord, VT" Fuzzy match to "1475 Victory Hill, Victory, VT" -->
    <tag k="addr:city" v="North Concord"/>
    <tag k="addr:housenumber" v="1475"/>
    <tag k="addr:street" v="Victory Hill"/>
    <tag k="addr:state" v="VT"/>
    <tag k="ref:vcgi:esiteid" v="267390"/>
  </node>
  <node id="-165" visible="true" lat="44.528329358905" lon="-71.850876844163">
    <!-- conflict: "22 Masten Road, North Concord, VT" Fuzzy match to "22 Masten Road, Victory, VT" -->
    <tag k="addr:city" v="North Concord"/>
    <tag k="addr:housenumber" v="22"/>
    <tag k="addr:street" v="Masten Road"/>
    <tag k="addr:state" v="VT"/>
    <tag k="ref:vcgi:esiteid" v="267391"/>
  </node>
  <node id="-166" visible="true" lat="44.528089623737" lon="-71.851338638019">
    <!-- conflict: "37 Masten Road, North Concord, VT" Fuzzy match to "37 Masten Road, Victory, VT" -->
    <tag k="addr:city" v="North Concord"/>
    <tag k="addr:housenumber" v="37"/>
    <tag k="addr:street" v="Masten Road"/>
    <tag k="addr:state" v="VT"/>
    <tag k="ref:vcgi:esiteid" v="267392"/>
  </node>
  <node id="-167" visible="true" lat="44.528043257148" lon="-71.862778703875">
    <!-- conflict: "628 Masten Road, North Concord, VT" Fuzzy match to "628 Masten Road, Victory, VT" -->
    <tag k="addr:city" v="North Concord"/>
    <tag k="addr:housenumber" v="628"/>
    <tag k="addr:street" v="Masten Road"/>
    <tag k="addr:state" v="VT"/>
    <tag k="ref:vcgi:esiteid" v="267393"/>
  </node>
  <node id="-168" visible="true" lat="44.527657972087" lon="-71.849526440905">
    <!-- conflict: "1316 Victory Hill, North Concord, VT" Fuzzy match to "1316 Victory Hill, Victory, VT" -->
    <tag k="addr:city" v="North Concord"/>
    <tag k="addr:housenumber" v="1316"/>
    <tag k="addr:street" v="Victory Hill"/>
    <tag k="addr:state" v="VT"/>
    <tag k="ref:vcgi:esiteid" v="267394"/>
  </node>
  <node id="-169" visible="true" lat="44.527623638665" lon="-71.862107316952">
    <!-- conflict: "587 Masten Road, North Concord, VT" Fuzzy match to "587 Masten Road, Victory, VT" -->
    <tag k="addr:city" v="North Concord"/>
    <tag k="addr:housenumber" v="587"/>
    <tag k="addr:street" v="Masten Road"/>
    <tag k="addr:state" v="VT"/>
    <tag k="ref:vcgi:esiteid" v="267395"/>
  </node>
  <node id="-170" visible="true" lat="44.526860699233" lon="-71.849366221639">
    <!-- conflict: "1258 Victory Hill, North Concord, VT" Fuzzy match to "1258 Victory Hill, Victory, VT" -->
    <tag k="addr:city" v="North Concord"/>
    <tag k="addr:housenumber" v="1258"/>
    <tag k="addr:street" v="Victory Hill"/>
    <tag k="addr:state" v="VT"/>
    <tag k="ref:vcgi:esiteid" v="267396"/>
  </node>
  <node id="-171" visible="true" lat="44.508981211473" lon="-71.844834358645">
    <!-- conflict: "6985 River Road, North Concord, VT" Fuzzy match to "6985 River Road, Victory, VT" -->
    <tag k="addr:city" v="North Concord"/>
    <tag k="addr:housenumber" v="6985"/>
    <tag k="addr:street" v="River Road"/>
    <tag k="addr:state" v="VT"/>
    <tag k="ref:vcgi:esiteid" v="267397"/>
  </node>
  <node id="-172" visible="true" lat="44.508504374285" lon="-71.84697059113">
    <!-- conflict: "7084 River Road, North Concord, VT" Fuzzy match to "7084 River Road, Victory, VT" -->
    <tag k="addr:city" v="North Concord"/>
    <tag k="addr:housenumber" v="7084"/>
    <tag k="addr:street" v="River Road"/>
    <tag k="addr:state" v="VT"/>
    <tag k="ref:vcgi:esiteid" v="267398"/>
  </node>
  <node id="-173" visible="true" lat="44.50300357844" lon="-71.855896986414">
    <!-- conflict: "221 Stanley Road, North Concord, VT" Fuzzy match to "221 Stanley Road, Victory, VT" -->
    <tag k="addr:city" v="North Concord"/>
    <tag k="addr:housenumber" v="221"/>
    <tag k="addr:street" v="Stanley Road"/>
    <tag k="addr:state" v="VT"/>
    <tag k="ref:vcgi:esiteid" v="267399"/>
  </node>
  <node id="-174" visible="true" lat="44.501382332162" lon="-71.851540598607">
    <!-- conflict: "7625 River Road, North Concord, VT" Fuzzy match to "7625 River Road, Victory, VT" -->
    <tag k="addr:city" v="North Concord"/>
    <tag k="addr:housenumber" v="7625"/>
    <tag k="addr:street" v="River Road"/>
    <tag k="addr:state" v="VT"/>
    <tag k="ref:vcgi:esiteid" v="267400"/>
  </node>
  <node id="-175" visible="true" lat="44.500680427982" lon="-71.852944408816">
    <!-- conflict: "7704 River Road, North Concord, VT" Fuzzy match to "7704 River Road, Victory, VT" -->
    <tag k="addr:city" v="North Concord"/>
    <tag k="addr:housenumber" v="7704"/>
    <tag k="addr:street" v="River Road"/>
    <tag k="addr:state" v="VT"/>
    <tag k="ref:vcgi:esiteid" v="267401"/>
  </node>
  <node id="-176" visible="true" lat="44.596779291167" lon="-71.827220850786">
    <!-- conflict: "1502 Victory Road, North Concord, VT" Fuzzy match to "1502 Victory Road, Victory, VT" -->
    <tag k="addr:city" v="North Concord"/>
    <tag k="addr:housenumber" v="1502"/>
    <tag k="addr:street" v="Victory Road"/>
    <tag k="addr:state" v="VT"/>
    <tag k="ref:vcgi:esiteid" v="267402"/>
  </node>
  <node id="-177" visible="true" lat="44.597482202801" lon="-71.843842544757">
    <!-- conflict: "703 Victory Road, North Concord, VT" Fuzzy match to "703 Victory Road, Victory, VT" -->
    <tag k="addr:city" v="North Concord"/>
    <tag k="addr:housenumber" v="703"/>
    <tag k="addr:street" v="Victory Road"/>
    <tag k="addr:state" v="VT"/>
    <tag k="ref:vcgi:esiteid" v="267403"/>
  </node>
  <node id="-178" visible="true" lat="44.585329485597" lon="-71.816047600652">
    <!-- conflict: "2418 Victory Road, North Concord, VT" Fuzzy match to "2418 Victory Road, Victory, VT" -->
    <tag k="addr:city" v="North Concord"/>
    <tag k="addr:housenumber" v="2418"/>
    <tag k="addr:street" v="Victory Road"/>
    <tag k="addr:state" v="VT"/>
    <tag k="ref:vcgi:esiteid" v="267404"/>
  </node>
  <node id="-179" visible="true" lat="44.532250867263" lon="-71.850045240155">
    <!-- conflict: "1640 Victory Hill, North Concord, VT" Fuzzy match to "1640 Victory Hill, Victory, VT" -->
    <tag k="addr:city" v="North Concord"/>
    <tag k="addr:housenumber" v="1640"/>
    <tag k="addr:street" v="Victory Hill"/>
    <tag k="addr:state" v="VT"/>
    <tag k="ref:vcgi:esiteid" v="267407"/>
  </node>
  <node id="-180" visible="true" lat="44.543776779217" lon="-71.855756223157">
    <!-- conflict: "2622 Victory Hill, North Concord, VT" Fuzzy match to "2622 Victory Hill, Victory, VT" -->
    <tag k="addr:city" v="North Concord"/>
    <tag k="addr:housenumber" v="2622"/>
    <tag k="addr:street" v="Victory Hill"/>
    <tag k="addr:state" v="VT"/>
    <tag k="ref:vcgi:esiteid" v="267408"/>
  </node>
  <node id="-181" visible="true" lat="44.545484055307" lon="-71.855347670924">
    <!-- conflict: "2754 Victory Hill, North Concord, VT" Fuzzy match to "2754 Victory Hill, Victory, VT" -->
    <tag k="addr:city" v="North Concord"/>
    <tag k="addr:housenumber" v="2754"/>
    <tag k="addr:street" v="Victory Hill"/>
    <tag k="addr:state" v="VT"/>
    <tag k="ref:vcgi:esiteid" v="267409"/>
  </node>
  <node id="-182" visible="true" lat="44.547486772023" lon="-71.855553665717">
    <!-- conflict: "2870 Victory Hill, North Concord, VT" Fuzzy match to "2870 Victory Hill, Victory, VT" -->
    <tag k="addr:city" v="North Concord"/>
    <tag k="addr:housenumber" v="2870"/>
    <tag k="addr:street" v="Victory Hill"/>
    <tag k="addr:state" v="VT"/>
    <tag k="ref:vcgi:esiteid" v="267410"/>
  </node>
  <node id="-183" visible="true" lat="44.549039353364" lon="-71.853890456111">
    <!-- conflict: "3000 Victory Hill, North Concord, VT" Fuzzy match to "3000 Victory Hill, Victory, VT" -->
    <tag k="addr:city" v="North Concord"/>
    <tag k="addr:housenumber" v="3000"/>
    <tag k="addr:street" v="Victory Hill"/>
    <tag k="addr:state" v="VT"/>
    <tag k="ref:vcgi:esiteid" v="267411"/>
  </node>
  <node id="-184" visible="true" lat="44.549455156191" lon="-71.853447952601">
    <!-- conflict: "3036 Victory Hill, North Concord, VT" Fuzzy match to "3036 Victory Hill, Victory, VT" -->
    <tag k="addr:city" v="North Concord"/>
    <tag k="addr:housenumber" v="3036"/>
    <tag k="addr:street" v="Victory Hill"/>
    <tag k="addr:state" v="VT"/>
    <tag k="ref:vcgi:esiteid" v="267412"/>
  </node>
  <node id="-185" visible="true" lat="44.550912370083" lon="-71.852364576592">
    <!-- conflict: "3164 Victory Hill, North Concord, VT" Fuzzy match to "3164 Victory Hill, Victory, VT" -->
    <tag k="addr:city" v="North Concord"/>
    <tag k="addr:housenumber" v="3164"/>
    <tag k="addr:street" v="Victory Hill"/>
    <tag k="addr:state" v="VT"/>
    <tag k="ref:vcgi:esiteid" v="267413"/>
  </node>
  <node id="-186" visible="true" lat="44.533576420258" lon="-71.851302624368">
    <!-- conflict: "1768 Victory Hill, North Concord, VT" Fuzzy match to "1768 Victory Hill, Victory, VT" -->
    <tag k="addr:city" v="North Concord"/>
    <tag k="addr:housenumber" v="1768"/>
    <tag k="addr:street" v="Victory Hill"/>
    <tag k="addr:state" v="VT"/>
    <tag k="ref:vcgi:esiteid" v="267414"/>
  </node>
  <node id="-187" visible="true" lat="44.576908186235" lon="-71.791085433261">
    <!-- conflict: "3931 Victory Road, North Concord, VT" Fuzzy match to "3931 Victory Road, Victory, VT" -->
    <tag k="addr:city" v="North Concord"/>
    <tag k="addr:housenumber" v="3931"/>
    <tag k="addr:street" v="Victory Road"/>
    <tag k="addr:state" v="VT"/>
    <tag k="ref:vcgi:esiteid" v="267415"/>
  </node>
  <node id="-188" visible="true" lat="44.537424925115" lon="-71.867362231464">
    <!-- conflict: "1344 Masten Road, North Concord, VT" Fuzzy match to "1344 Masten Road, Victory, VT" -->
    <tag k="addr:city" v="North Concord"/>
    <tag k="addr:housenumber" v="1344"/>
    <tag k="addr:street" v="Masten Road"/>
    <tag k="addr:state" v="VT"/>
    <tag k="ref:vcgi:esiteid" v="267416"/>
  </node>
  <node id="-189" visible="true" lat="44.565272550683" lon="-71.761351108688">
    <!-- conflict: "200 Serenity Way, North Concord, VT" Fuzzy match to "200 Serenity Way, Victory, VT" -->
    <tag k="addr:city" v="North Concord"/>
    <tag k="addr:housenumber" v="200"/>
    <tag k="addr:street" v="Serenity Way"/>
    <tag k="addr:state" v="VT"/>
    <tag k="ref:vcgi:esiteid" v="267417"/>
  </node>
  <node id="-190" visible="true" lat="44.569139880767" lon="-71.765851464689">
    <!-- conflict: "1000 Granby Road, North Concord, VT" Fuzzy match to "1000 Granby Road, Victory, VT" -->
    <tag k="addr:city" v="North Concord"/>
    <tag k="addr:housenumber" v="1000"/>
    <tag k="addr:street" v="Granby Road"/>
    <tag k="addr:state" v="VT"/>
    <tag k="ref:vcgi:esiteid" v="307074"/>
  </node>
  <node id="-191" visible="true" lat="44.567801611234" lon="-71.763272251382">
    <!-- conflict: "1152 Granby Road, North Concord, VT" Fuzzy match to "1152 Granby Road, Victory, VT" -->
    <tag k="addr:city" v="North Concord"/>
    <tag k="addr:housenumber" v="1152"/>
    <tag k="addr:street" v="Granby Road"/>
    <tag k="addr:state" v="VT"/>
    <tag k="ref:vcgi:esiteid" v="307075"/>
  </node>
  <node id="-192" visible="true" lat="44.568574038617" lon="-71.764724495057">
    <!-- conflict: "1036 Granby Road, North Concord, VT" Fuzzy match to "1036 Granby Road, Victory, VT" -->
    <tag k="addr:city" v="North Concord"/>
    <tag k="addr:housenumber" v="1036"/>
    <tag k="addr:street" v="Granby Road"/>
    <tag k="addr:state" v="VT"/>
    <tag k="ref:vcgi:esiteid" v="309984"/>
  </node>
  <node id="-193" visible="true" lat="44.549693985207" lon="-71.740192483785">
    <!-- conflict: "670 Mount Tug Road, North Concord, VT" Fuzzy match to "670 Mount Tug Road, Victory, VT" -->
    <tag k="addr:city" v="North Concord"/>
    <tag k="addr:housenumber" v="670"/>
    <tag k="addr:street" v="Mount Tug Road"/>
    <tag k="addr:state" v="VT"/>
    <tag k="ref:vcgi:esiteid" v="326308"/>
  </node>
  <node id="-194" visible="true" lat="44.569981691597" lon="-71.766003412042">
    <!-- conflict: "975 Granby Road, North Concord, VT" Fuzzy match to "975 Granby Road, Victory, VT" -->
    <tag k="addr:city" v="North Concord"/>
    <tag k="addr:housenumber" v="975"/>
    <tag k="addr:street" v="Granby Road"/>
    <tag k="addr:state" v="VT"/>
    <tag k="ref:vcgi:esiteid" v="326725"/>
  </node>
  <node id="-195" visible="true" lat="44.556438175899" lon="-71.740386270941">
    <!-- conflict: "210 Mount Tug Road, North Concord, VT" Fuzzy match to "210 Mount Tug Road, Victory, VT" -->
    <tag k="addr:city" v="North Concord"/>
    <tag k="addr:housenumber" v="210"/>
    <tag k="addr:street" v="Mount Tug Road"/>
    <tag k="addr:state" v="VT"/>
    <tag k="ref:vcgi:esiteid" v="338338"/>
  </node>
  <node id="-196" visible="true" lat="44.551487639636" lon="-71.740514097283">
    <!-- conflict: "550 Mount Tug Road, North Concord, VT" Fuzzy match to "550 Mount Tug Road, Victory, VT" -->
    <tag k="addr:city" v="North Concord"/>
    <tag k="addr:housenumber" v="550"/>
    <tag k="addr:street" v="Mount Tug Road"/>
    <tag k="addr:state" v="VT"/>
    <tag k="ref:vcgi:esiteid" v="338340"/>
  </node>
  <node id="-197" visible="true" lat="44.564809545986" lon="-71.760511529597">
    <!-- conflict: "201 Serenity Way, North Concord, VT" Fuzzy match to "201 Serenity Way, Victory, VT" -->
    <tag k="addr:city" v="North Concord"/>
    <tag k="addr:housenumber" v="201"/>
    <tag k="addr:street" v="Serenity Way"/>
    <tag k="addr:state" v="VT"/>
    <tag k="ref:vcgi:esiteid" v="339944"/>
  </node>
  <node id="-198" visible="true" lat="44.597213044082" lon="-71.829736347827">
    <!-- conflict: "1324 Victory Road, North Concord, VT" Fuzzy match to "1324 Victory Road, Victory, VT" -->
    <tag k="addr:city" v="North Concord"/>
    <tag k="addr:housenumber" v="1324"/>
    <tag k="addr:street" v="Victory Road"/>
    <tag k="addr:state" v="VT"/>
    <tag k="ref:vcgi:esiteid" v="340753"/>
  </node>
  <node id="-199" visible="true" lat="44.574382092397" lon="-71.783823488891">
    <!-- conflict: "9 Granby Road, North Concord, VT" Fuzzy match to "9 Granby Road, Victory, VT" -->
    <tag k="addr:city" v="North Concord"/>
    <tag k="addr:housenumber" v="9"/>
    <tag k="addr:street" v="Granby Road"/>
    <tag k="addr:state" v="VT"/>
    <tag k="ref:vcgi:esiteid" v="448168"/>
  </node>
  <node id="-200" visible="true" lat="44.529527909198" lon="-71.850485646965">
    <!-- conflict: "1444 Victory Hill, North Concord, VT" Fuzzy match to "1444 Victory Hill, Victory, VT" -->
    <tag k="addr:city" v="North Concord"/>
    <tag k="addr:housenumber" v="1444"/>
    <tag k="addr:street" v="Victory Hill"/>
    <tag k="addr:state" v="VT"/>
    <tag k="ref:vcgi:esiteid" v="452882"/>
  </node>
  <node id="-201" visible="true" lat="44.550356302704" lon="-71.739927625382">
    <!-- conflict: "611 Mount Tug Road, North Concord, VT" Fuzzy match to "611 Mount Tug Road, Victory, VT" -->
    <tag k="addr:city" v="North Concord"/>
    <tag k="addr:housenumber" v="611"/>
    <tag k="addr:street" v="Mount Tug Road"/>
    <tag k="addr:state" v="VT"/>
    <tag k="ref:vcgi:esiteid" v="754147"/>
  </node>
  <node id="-204" visible="true" lat="44.534090855764" lon="-71.86325874783">
    <!-- conflict: "1128 Masten Road, North Concord, VT" Fuzzy match to "1128 Masten Road, Victory, VT" -->
    <tag k="addr:city" v="North Concord"/>
    <tag k="addr:housenumber" v="1128"/>
    <tag k="addr:street" v="Masten Road"/>
    <tag k="addr:state" v="VT"/>
    <tag k="ref:vcgi:esiteid" v="760567"/>
  </node>
  <node id="-205" visible="true" lat="44.569109228006" lon="-71.768344558093">
    <!-- conflict: "964 Granby Road, North Concord, VT" Fuzzy match to "964 Granby Road, Victory, VT" -->
    <tag k="addr:city" v="North Concord"/>
    <tag k="addr:housenumber" v="964"/>
    <tag k="addr:street" v="Granby Road"/>
    <tag k="addr:state" v="VT"/>
    <tag k="ref:vcgi:esiteid" v="762393"/>
  </node>
  <node id="-206" visible="true" lat="44.539736621375" lon="-71.787279204532">
    <!-- conflict: "3021 River Road, North Concord, VT" Fuzzy match to "3021 River Road, Victory, VT" -->
    <tag k="addr:city" v="North Concord"/>
    <tag k="addr:housenumber" v="3021"/>
    <tag k="addr:street" v="River Road"/>
    <tag k="addr:state" v="VT"/>
    <tag k="ref:vcgi:esiteid" v="771103"/>
  </node>
  <node id="-207" visible="true" lat="44.527878942944" lon="-71.816659608989">
    <!-- conflict: "4920 River Road, North Concord, VT" Fuzzy match to "4920 River Road, Victory, VT" -->
    <tag k="addr:city" v="North Concord"/>
    <tag k="addr:housenumber" v="4920"/>
    <tag k="addr:street" v="River Road"/>
    <tag k="addr:state" v="VT"/>
    <tag k="ref:vcgi:esiteid" v="771104"/>
  </node>
  <node id="-208" visible="true" lat="44.514702565048" lon="-71.827100158531">
    <!-- conflict: "6055 River Road, North Concord, VT" Fuzzy match to "6055 River Road, Victory, VT" -->
    <tag k="addr:city" v="North Concord"/>
    <tag k="addr:housenumber" v="6055"/>
    <tag k="addr:street" v="River Road"/>
    <tag k="addr:state" v="VT"/>
    <tag k="ref:vcgi:esiteid" v="771105"/>
  </node>
  <node id="-209" visible="true" lat="44.515288572717" lon="-71.827840271218">
    <!-- conflict: "6010 River Road, North Concord, VT" Fuzzy match to "6010 River Road, Victory, VT" -->
    <tag k="addr:city" v="North Concord"/>
    <tag k="addr:housenumber" v="6010"/>
    <tag k="addr:street" v="River Road"/>
    <tag k="addr:state" v="VT"/>
    <tag k="ref:vcgi:esiteid" v="771106"/>
  </node>
  <node id="-211" visible="true" lat="44.531657179435" lon="-71.862722642823">
    <!-- conflict: "922 Masten Road, North Concord, VT" Fuzzy match to "922 Masten Road, Victory, VT" -->
    <tag k="addr:city" v="North Concord"/>
    <tag k="addr:housenumber" v="922"/>
    <tag k="addr:street" v="Masten Road"/>
    <tag k="addr:state" v="VT"/>
    <tag k="ref:vcgi:esiteid" v="1050044"/>
  </node>
  <node id="-212" visible="true" lat="44.538755413509" lon="-71.868870238692">
    <!-- conflict: "1469 Masten Road, North Concord, VT" Fuzzy match to "1469 Masten Road, Victory, VT" -->
    <tag k="addr:city" v="North Concord"/>
    <tag k="addr:housenumber" v="1469"/>
    <tag k="addr:street" v="Masten Road"/>
    <tag k="addr:state" v="VT"/>
    <tag k="ref:vcgi:esiteid" v="1050045"/>
  </node>
</osm>
