<?xml version="1.0" encoding="UTF-8"?>
<osm version="0.6" generator="JOSM" upload="false">
  <node id="-1172" visible="true" lat="44.188766789116" lon="-72.835792812964">
    <tag k="addr:city" v="Waitsfield"/>
    <tag k="addr:housenumber" v="224"/>
    <tag k="addr:street" v="Carroll Road"/>
    <tag k="addr:state" v="VT"/>
    <tag k="ref:vcgi:esiteid" v="656757"/>
  </node>
  <node id="-1297" visible="true" lat="44.161481878121" lon="-72.835677062819">
    <tag k="addr:city" v="Waitsfield"/>
    <tag k="addr:housenumber" v="40"/>
    <tag k="addr:street" v="Kingsbury Road"/>
    <tag k="addr:state" v="VT"/>
    <tag k="ref:vcgi:esiteid" v="773819"/>
  </node>
</osm>
