<?xml version="1.0" encoding="UTF-8"?>
<osm version="0.6" generator="JOSM" upload="false">
  <node id="-100" visible="true" lat="44.933528914513" lon="-71.897205864588">
    <!-- conflict: "2231 Hurricane Brook Road, Norton, VT" Fuzzy match to "2231 Hurricane Brook Road, Warner's Grant, VT" -->
    <tag k="addr:city" v="Norton"/>
    <tag k="addr:housenumber" v="2231"/>
    <tag k="addr:street" v="Hurricane Brook Road"/>
    <tag k="addr:state" v="VT"/>
    <tag k="ref:vcgi:esiteid" v="305331"/>
  </node>
</osm>
