<?xml version="1.0" encoding="UTF-8"?>
<osm version="0.6" generator="JOSM" upload="false">
  <node id="-1778" visible="true" lat="44.142067756657" lon="-72.863436603599">
    <tag k="addr:city" v="Warren"/>
    <tag k="addr:housenumber" v="500"/>
    <tag k="addr:street" v="Morningstar Drive"/>
    <tag k="addr:state" v="VT"/>
    <tag k="ref:vcgi:esiteid" v="763656"/>
  </node>
  <node id="-1859" visible="true" lat="44.149722520127" lon="-72.881882127175">
    <tag k="addr:city" v="Warren"/>
    <tag k="addr:housenumber" v="71"/>
    <tag k="addr:street" v="Drumleys North Road"/>
    <tag k="addr:state" v="VT"/>
    <tag k="ref:vcgi:esiteid" v="773217"/>
  </node>
  <node id="-1860" visible="true" lat="44.143068002103" lon="-72.874623567909">
    <tag k="addr:city" v="Warren"/>
    <tag k="addr:housenumber" v="1571"/>
    <tag k="addr:street" v="Sugarbush Access Road"/>
    <tag k="addr:state" v="VT"/>
    <tag k="ref:vcgi:esiteid" v="773384"/>
  </node>
  <node id="-1861" visible="true" lat="44.132197638374" lon="-72.874468918723">
    <tag k="addr:city" v="Warren"/>
    <tag k="addr:housenumber" v="1080"/>
    <tag k="addr:street" v="Golf Course Road"/>
    <tag k="addr:state" v="VT"/>
    <tag k="ref:vcgi:esiteid" v="773534"/>
  </node>
  <node id="-1862" visible="true" lat="44.142929171027" lon="-72.865757523448">
    <tag k="addr:city" v="Warren"/>
    <tag k="addr:housenumber" v="192"/>
    <tag k="addr:street" v="Valley House View"/>
    <tag k="addr:state" v="VT"/>
    <tag k="ref:vcgi:esiteid" v="773649"/>
  </node>
  <node id="-1863" visible="true" lat="44.093866700936" lon="-72.81906062166">
    <tag k="addr:city" v="Warren"/>
    <tag k="addr:housenumber" v="135"/>
    <tag k="addr:street" v="Lenord Lane"/>
    <tag k="addr:state" v="VT"/>
    <tag k="ref:vcgi:esiteid" v="773794"/>
  </node>
  <node id="-1864" visible="true" lat="44.143154671209" lon="-72.864917497531">
    <tag k="addr:city" v="Warren"/>
    <tag k="addr:housenumber" v="320"/>
    <tag k="addr:street" v="Valley House View"/>
    <tag k="addr:state" v="VT"/>
    <tag k="ref:vcgi:esiteid" v="773923"/>
  </node>
</osm>
