<?xml version="1.0" encoding="UTF-8"?>
<osm version="0.6" generator="JOSM" upload="false">
  <node id="-1239" visible="true" lat="44.349674450614" lon="-72.774514032507">
    <tag k="addr:city" v="Waterbury"/>
    <tag k="addr:housenumber" v="701"/>
    <tag k="addr:street" v="United States Route 2"/>
    <tag k="addr:state" v="VT"/>
    <tag k="ref:vcgi:esiteid" v="274404"/>
  </node>
  <node id="-1247" visible="true" lat="44.349458138582" lon="-72.773965758278">
    <tag k="addr:city" v="Waterbury"/>
    <tag k="addr:housenumber" v="677"/>
    <tag k="addr:street" v="United States Route 2"/>
    <tag k="addr:state" v="VT"/>
    <tag k="ref:vcgi:esiteid" v="274414"/>
  </node>
  <node id="-1285" visible="true" lat="44.347605338478" lon="-72.769869370621">
    <tag k="addr:city" v="Waterbury"/>
    <tag k="addr:housenumber" v="438"/>
    <tag k="addr:street" v="United States Route 2"/>
    <tag k="addr:state" v="VT"/>
    <tag k="ref:vcgi:esiteid" v="274457"/>
  </node>
  <node id="-1293" visible="true" lat="44.347012316239" lon="-72.76926609713">
    <tag k="addr:city" v="Waterbury"/>
    <tag k="addr:housenumber" v="434"/>
    <tag k="addr:street" v="United States Route 2"/>
    <tag k="addr:state" v="VT"/>
    <tag k="ref:vcgi:esiteid" v="274469"/>
  </node>
  <node id="-1331" visible="true" lat="44.345561159258" lon="-72.768609691577">
    <tag k="addr:city" v="Waterbury"/>
    <tag k="addr:housenumber" v="187"/>
    <tag k="addr:street" v="United States Route 2"/>
    <tag k="addr:state" v="VT"/>
    <tag k="ref:vcgi:esiteid" v="274515"/>
  </node>
  <node id="-1351" visible="true" lat="44.344322873338" lon="-72.76468411794">
    <tag k="addr:city" v="Waterbury"/>
    <tag k="addr:housenumber" v="95"/>
    <tag k="addr:street" v="United States Route 2"/>
    <tag k="addr:state" v="VT"/>
    <tag k="ref:vcgi:esiteid" v="274543"/>
  </node>
  <node id="-2174" visible="true" lat="44.367159787943" lon="-72.726148849824">
    <tag k="addr:city" v="Waterbury Center"/>
    <tag k="addr:housenumber" v="112"/>
    <tag k="addr:street" v="Haskins Way"/>
    <tag k="addr:state" v="VT"/>
    <tag k="ref:vcgi:esiteid" v="329691"/>
  </node>
  <node id="-2340" visible="true" lat="44.338181578618" lon="-72.755958218445">
    <tag k="addr:city" v="Waterbury"/>
    <tag k="addr:housenumber" v="14"/>
    <tag k="addr:street" v="Stowe Street"/>
    <tag k="addr:state" v="VT"/>
    <tag k="ref:vcgi:esiteid" v="500089"/>
  </node>
  <node id="-2453" visible="true" lat="44.384145341884" lon="-72.696403739965">
    <tag k="addr:city" v="Waterbury Center"/>
    <tag k="addr:housenumber" v="134"/>
    <tag k="addr:street" v="Chickadee Lane"/>
    <tag k="addr:state" v="VT"/>
    <tag k="ref:vcgi:esiteid" v="656776"/>
  </node>
  <node id="-2606" visible="true" lat="44.345118811648" lon="-72.745824082781">
    <tag k="addr:city" v="Waterbury"/>
    <tag k="addr:housenumber" v="10"/>
    <tag k="addr:street" v="Lincoln Street"/>
    <tag k="addr:state" v="VT"/>
    <tag k="ref:vcgi:esiteid" v="770677"/>
  </node>
  <node id="-2620" visible="true" lat="44.362193462065" lon="-72.790637517408">
    <tag k="addr:city" v="Waterbury"/>
    <tag k="addr:housenumber" v="689"/>
    <tag k="addr:street" v="Farrs Landing"/>
    <tag k="addr:state" v="VT"/>
    <tag k="ref:vcgi:esiteid" v="773797"/>
  </node>
</osm>
