<?xml version="1.0" encoding="UTF-8"?>
<osm version="0.6" generator="JOSM" upload="false">
  <node id="-158" visible="true" lat="43.423787360901" lon="-72.40107073993">
    <tag k="addr:city" v="Windsor"/>
    <tag k="addr:housenumber" v="6377"/>
    <tag k="addr:street" v="United States Route 5"/>
    <tag k="addr:state" v="VT"/>
    <tag k="ref:vcgi:esiteid" v="276376"/>
  </node>
  <node id="-172" visible="true" lat="43.422407471115" lon="-72.402785600616">
    <tag k="addr:city" v="Windsor"/>
    <tag k="addr:housenumber" v="6248"/>
    <tag k="addr:street" v="United States Route 5"/>
    <tag k="addr:state" v="VT"/>
    <tag k="ref:vcgi:esiteid" v="276390"/>
  </node>
  <node id="-312" visible="true" lat="43.414765599568" lon="-72.408867982619">
    <tag k="addr:city" v="Windsor"/>
    <tag k="addr:housenumber" v="5724"/>
    <tag k="addr:street" v="United States Route 5"/>
    <tag k="addr:state" v="VT"/>
    <tag k="ref:vcgi:esiteid" v="276531"/>
  </node>
  <node id="-481" visible="true" lat="43.408505682225" lon="-72.406464721783">
    <tag k="addr:city" v="Ascutney"/>
    <tag k="addr:housenumber" v="5285"/>
    <tag k="addr:street" v="United States Route 5"/>
    <tag k="addr:state" v="VT"/>
    <tag k="ref:vcgi:esiteid" v="276709"/>
  </node>
  <node id="-501" visible="true" lat="43.407735112738" lon="-72.407273436627">
    <tag k="addr:city" v="Ascutney"/>
    <tag k="addr:housenumber" v="5231"/>
    <tag k="addr:street" v="United States Route 5"/>
    <tag k="addr:state" v="VT"/>
    <tag k="ref:vcgi:esiteid" v="276731"/>
  </node>
  <node id="-510" visible="true" lat="43.407391789424" lon="-72.407006408133">
    <tag k="addr:city" v="Ascutney"/>
    <tag k="addr:housenumber" v="5209"/>
    <tag k="addr:street" v="United States Route 5"/>
    <tag k="addr:state" v="VT"/>
    <tag k="ref:vcgi:esiteid" v="276740"/>
  </node>
  <node id="-573" visible="true" lat="43.403130772837" lon="-72.405778075759">
    <tag k="addr:city" v="Ascutney"/>
    <tag k="addr:housenumber" v="4905"/>
    <tag k="addr:street" v="United States Route 5"/>
    <tag k="addr:state" v="VT"/>
    <tag k="ref:vcgi:esiteid" v="276806"/>
  </node>
  <node id="-619" visible="true" lat="43.40063903478" lon="-72.40477170793">
    <tag k="addr:city" v="Ascutney"/>
    <tag k="addr:housenumber" v="4729"/>
    <tag k="addr:street" v="United States Route 5"/>
    <tag k="addr:state" v="VT"/>
    <tag k="ref:vcgi:esiteid" v="276852"/>
  </node>
  <node id="-629" visible="true" lat="43.399594108497" lon="-72.406096401778">
    <tag k="addr:city" v="Ascutney"/>
    <tag k="addr:housenumber" v="4678"/>
    <tag k="addr:street" v="United States Route 5"/>
    <tag k="addr:state" v="VT"/>
    <tag k="ref:vcgi:esiteid" v="276863"/>
  </node>
  <node id="-816" visible="true" lat="43.377066899446" lon="-72.417116914488">
    <tag k="addr:city" v="Springfield"/>
    <tag k="addr:housenumber" v="2903"/>
    <tag k="addr:street" v="United States Route 5"/>
    <tag k="addr:state" v="VT"/>
    <tag k="ref:vcgi:esiteid" v="277061"/>
  </node>
  <node id="-1637" visible="true" lat="43.401937046656" lon="-72.40788712454">
    <tag k="addr:city" v="Ascutney"/>
    <tag k="addr:housenumber" v="4840"/>
    <tag k="addr:street" v="United States Route 5"/>
    <tag k="addr:state" v="VT"/>
    <tag k="ref:vcgi:esiteid" v="345873"/>
  </node>
  <node id="-1679" visible="true" lat="43.345193248676" lon="-72.499339276459">
    <tag k="addr:city" v="Springfield"/>
    <tag k="addr:housenumber" v="1448"/>
    <tag k="addr:street" v="Reservoir Road"/>
    <tag k="addr:state" v="VT"/>
    <tag k="ref:vcgi:esiteid" v="656748"/>
  </node>
  <node id="-1680" visible="true" lat="43.346583607629" lon="-72.500050075957">
    <tag k="addr:city" v="Springfield"/>
    <tag k="addr:housenumber" v="1528"/>
    <tag k="addr:street" v="Reservoir Road"/>
    <tag k="addr:state" v="VT"/>
    <tag k="ref:vcgi:esiteid" v="656749"/>
  </node>
  <node id="-1681" visible="true" lat="43.396718909666" lon="-72.485917993296">
    <tag k="addr:city" v="Perkinsville"/>
    <tag k="addr:housenumber" v="1463"/>
    <tag k="addr:street" v="Plains Road"/>
    <tag k="addr:state" v="VT"/>
    <tag k="ref:vcgi:esiteid" v="656752"/>
  </node>
  <node id="-1771" visible="true" lat="43.361031707894" lon="-72.420241271708">
    <tag k="addr:city" v="Springfield"/>
    <tag k="addr:housenumber" v="222"/>
    <tag k="addr:street" v="Melody Lane"/>
    <tag k="addr:state" v="VT"/>
    <tag k="ref:vcgi:esiteid" v="773441"/>
  </node>
  <node id="-1772" visible="true" lat="43.404543148519" lon="-72.426934078299">
    <tag k="addr:city" v="Windsor"/>
    <tag k="addr:housenumber" v="212"/>
    <tag k="addr:street" v="Victory Drive"/>
    <tag k="addr:state" v="VT"/>
    <tag k="ref:vcgi:esiteid" v="773800"/>
  </node>
</osm>
