<?xml version="1.0" encoding="UTF-8"?>
<osm version="0.6" generator="JOSM" upload="false">
  <node id="-1133" visible="true" lat="43.60415042721" lon="-73.077643929993">
    <tag k="addr:city" v="Castleton"/>
    <tag k="addr:housenumber" v="665"/>
    <tag k="addr:street" v="Castleton Road"/>
    <tag k="addr:state" v="VT"/>
    <tag k="ref:vcgi:esiteid" v="773638"/>
  </node>
  <node id="-1134" visible="true" lat="43.604609701789" lon="-73.078675495095">
    <tag k="addr:city" v="Castleton"/>
    <tag k="addr:housenumber" v="700"/>
    <tag k="addr:street" v="Castleton Road"/>
    <tag k="addr:state" v="VT"/>
    <tag k="ref:vcgi:esiteid" v="773647"/>
  </node>
</osm>
