<?xml version="1.0" encoding="UTF-8"?>
<osm version="0.6" generator="JOSM" upload="false">
  <node id="-108" visible="true" lat="44.919789650948" lon="-72.413864260707">
    <!-- conflict: "233 Forest Haven Road, Westfield, VT" Fuzzy match to "233 Forest Haven Road, , VT" -->
    <tag k="addr:city" v="Westfield"/>
    <tag k="addr:housenumber" v="233"/>
    <tag k="addr:street" v="Forest Haven Road"/>
    <tag k="addr:state" v="VT"/>
    <tag k="ref:vcgi:esiteid" v="280919"/>
  </node>
  <node id="-110" visible="true" lat="44.919441123274" lon="-72.415092895201">
    <!-- conflict: "232 Forest Haven Road, Westfield, VT" Fuzzy match to "232 Forest Haven Road, , VT" -->
    <tag k="addr:city" v="Westfield"/>
    <tag k="addr:housenumber" v="232"/>
    <tag k="addr:street" v="Forest Haven Road"/>
    <tag k="addr:state" v="VT"/>
    <tag k="ref:vcgi:esiteid" v="280921"/>
  </node>
  <node id="-116" visible="true" lat="44.916390931335" lon="-72.42402769733">
    <!-- conflict: "1102 Kennison Road, Westfield, VT" Fuzzy match to "1102 Kennison Road, , VT" -->
    <tag k="addr:city" v="Westfield"/>
    <tag k="addr:housenumber" v="1102"/>
    <tag k="addr:street" v="Kennison Road"/>
    <tag k="addr:state" v="VT"/>
    <tag k="ref:vcgi:esiteid" v="280927"/>
  </node>
  <node id="-119" visible="true" lat="44.915707118855" lon="-72.431013502336">
    <!-- conflict: "1867 North Hill Road, Westfield, VT" Fuzzy match to "1867 North Hill Road, , VT" -->
    <tag k="addr:city" v="Westfield"/>
    <tag k="addr:housenumber" v="1867"/>
    <tag k="addr:street" v="North Hill Road"/>
    <tag k="addr:state" v="VT"/>
    <tag k="ref:vcgi:esiteid" v="280930"/>
  </node>
  <node id="-133" visible="true" lat="44.906351713032" lon="-72.431583474258">
    <!-- conflict: "1249 North Hill Road, Westfield, VT" Fuzzy match to "1249 North Hill Road, , VT" -->
    <tag k="addr:city" v="Westfield"/>
    <tag k="addr:housenumber" v="1249"/>
    <tag k="addr:street" v="North Hill Road"/>
    <tag k="addr:state" v="VT"/>
    <tag k="ref:vcgi:esiteid" v="280946"/>
  </node>
  <node id="-137" visible="true" lat="44.902842314824" lon="-72.436413516512">
    <!-- conflict: "245 Kingdom Mountain Road, Westfield, VT" Fuzzy match to "245 Kingdom Mountain Road, , VT" -->
    <tag k="addr:city" v="Westfield"/>
    <tag k="addr:housenumber" v="245"/>
    <tag k="addr:street" v="Kingdom Mountain Road"/>
    <tag k="addr:state" v="VT"/>
    <tag k="ref:vcgi:esiteid" v="280950"/>
  </node>
  <node id="-138" visible="true" lat="44.901931322243" lon="-72.425718260153">
    <!-- conflict: "397 Deslandes Road, Westfield, VT" Fuzzy match to "397 Deslandes Road, , VT" -->
    <tag k="addr:city" v="Westfield"/>
    <tag k="addr:housenumber" v="397"/>
    <tag k="addr:street" v="Deslandes Road"/>
    <tag k="addr:state" v="VT"/>
    <tag k="ref:vcgi:esiteid" v="280951"/>
  </node>
  <node id="-139" visible="true" lat="44.90134735535" lon="-72.445212582075">
    <!-- conflict: "725 Kingdom Mountain Road, Westfield, VT" Fuzzy match to "725 Kingdom Mountain Road, , VT" -->
    <tag k="addr:city" v="Westfield"/>
    <tag k="addr:housenumber" v="725"/>
    <tag k="addr:street" v="Kingdom Mountain Road"/>
    <tag k="addr:state" v="VT"/>
    <tag k="ref:vcgi:esiteid" v="280952"/>
  </node>
  <node id="-140" visible="true" lat="44.901195056509" lon="-72.423738877733">
    <!-- conflict: "352 Deslandes Road, Westfield, VT" Fuzzy match to "352 Deslandes Road, , VT" -->
    <tag k="addr:city" v="Westfield"/>
    <tag k="addr:housenumber" v="352"/>
    <tag k="addr:street" v="Deslandes Road"/>
    <tag k="addr:state" v="VT"/>
    <tag k="ref:vcgi:esiteid" v="280953"/>
  </node>
  <node id="-143" visible="true" lat="44.897256405374" lon="-72.41377378656">
    <!-- conflict: "204 Vermont Route 100, Troy, VT" Fuzzy match to "204 Vermont Route 100, , VT" -->
    <tag k="addr:city" v="Troy"/>
    <tag k="addr:housenumber" v="204"/>
    <tag k="addr:street" v="Vermont Route 100"/>
    <tag k="addr:state" v="VT"/>
    <tag k="ref:vcgi:esiteid" v="280956"/>
  </node>
  <node id="-145" visible="true" lat="44.896661314109" lon="-72.414132366381">
    <!-- conflict: "264 Vermont Route 100, Troy, VT" Fuzzy match to "264 Vermont Route 100, , VT" -->
    <tag k="addr:city" v="Troy"/>
    <tag k="addr:housenumber" v="264"/>
    <tag k="addr:street" v="Vermont Route 100"/>
    <tag k="addr:state" v="VT"/>
    <tag k="ref:vcgi:esiteid" v="280958"/>
  </node>
  <node id="-147" visible="true" lat="44.895734186378" lon="-72.521258382281">
    <!-- conflict: "1074 Vermont Route 242, Montgomery Center, VT" Fuzzy match to "1074 Vermont Route 242, Westfield, VT" -->
    <tag k="addr:city" v="Montgomery Center"/>
    <tag k="addr:housenumber" v="1074"/>
    <tag k="addr:street" v="Vermont Route 242"/>
    <tag k="addr:state" v="VT"/>
    <tag k="ref:vcgi:esiteid" v="280960"/>
  </node>
  <node id="-149" visible="true" lat="44.89517517388" lon="-72.417303402999">
    <!-- conflict: "460 Vermont Route 100, Westfield, VT" Fuzzy match to "460 Vermont Route 100, , VT" -->
    <tag k="addr:city" v="Westfield"/>
    <tag k="addr:housenumber" v="460"/>
    <tag k="addr:street" v="Vermont Route 100"/>
    <tag k="addr:state" v="VT"/>
    <tag k="ref:vcgi:esiteid" v="280962"/>
  </node>
  <node id="-151" visible="true" lat="44.894790251936" lon="-72.527709816367">
    <!-- conflict: "143 Enzian Drive, Montgomery Center, VT" Fuzzy match to "143 Enzian Drive, Westfield, VT" -->
    <tag k="addr:city" v="Montgomery Center"/>
    <tag k="addr:housenumber" v="143"/>
    <tag k="addr:street" v="Enzian Drive"/>
    <tag k="addr:state" v="VT"/>
    <tag k="ref:vcgi:esiteid" v="280964"/>
  </node>
  <node id="-154" visible="true" lat="44.893976965605" lon="-72.431039132522">
    <!-- conflict: "390 North Hill Road, Westfield, VT" Fuzzy match to "390 North Hill Road, , VT" -->
    <tag k="addr:city" v="Westfield"/>
    <tag k="addr:housenumber" v="390"/>
    <tag k="addr:street" v="North Hill Road"/>
    <tag k="addr:state" v="VT"/>
    <tag k="ref:vcgi:esiteid" v="280967"/>
  </node>
  <node id="-155" visible="true" lat="44.89422939445" lon="-72.527437616495">
    <!-- conflict: "97 Enzian Drive, Montgomery Center, VT" Fuzzy match to "97 Enzian Drive, Westfield, VT" -->
    <tag k="addr:city" v="Montgomery Center"/>
    <tag k="addr:housenumber" v="97"/>
    <tag k="addr:street" v="Enzian Drive"/>
    <tag k="addr:state" v="VT"/>
    <tag k="ref:vcgi:esiteid" v="280968"/>
  </node>
  <node id="-156" visible="true" lat="44.894116906524" lon="-72.531747152122">
    <!-- conflict: "131 Park Drive, Montgomery Center, VT" Fuzzy match to "131 Park Drive, Westfield, VT" -->
    <tag k="addr:city" v="Montgomery Center"/>
    <tag k="addr:housenumber" v="131"/>
    <tag k="addr:street" v="Park Drive"/>
    <tag k="addr:state" v="VT"/>
    <tag k="ref:vcgi:esiteid" v="280969"/>
  </node>
  <node id="-157" visible="true" lat="44.89411816659" lon="-72.526627008551">
    <!-- conflict: "82 Enzian Drive, Montgomery Center, VT" Fuzzy match to "82 Enzian Drive, Westfield, VT" -->
    <tag k="addr:city" v="Montgomery Center"/>
    <tag k="addr:housenumber" v="82"/>
    <tag k="addr:street" v="Enzian Drive"/>
    <tag k="addr:state" v="VT"/>
    <tag k="ref:vcgi:esiteid" v="280970"/>
  </node>
  <node id="-158" visible="true" lat="44.893981937102" lon="-72.530939765668">
    <!-- conflict: "112 Park Drive, Montgomery Center, VT" Fuzzy match to "112 Park Drive, Westfield, VT" -->
    <tag k="addr:city" v="Montgomery Center"/>
    <tag k="addr:housenumber" v="112"/>
    <tag k="addr:street" v="Park Drive"/>
    <tag k="addr:state" v="VT"/>
    <tag k="ref:vcgi:esiteid" v="280971"/>
  </node>
  <node id="-160" visible="true" lat="44.893870783578" lon="-72.528209183474">
    <!-- conflict: "70 Birch Road, Montgomery Center, VT" Fuzzy match to "70 Birch Road, Westfield, VT" -->
    <tag k="addr:city" v="Montgomery Center"/>
    <tag k="addr:housenumber" v="70"/>
    <tag k="addr:street" v="Birch Road"/>
    <tag k="addr:state" v="VT"/>
    <tag k="ref:vcgi:esiteid" v="280973"/>
  </node>
  <node id="-161" visible="true" lat="44.893810774753" lon="-72.530428651557">
    <!-- conflict: "74 Park Drive, Montgomery Center, VT" Fuzzy match to "74 Park Drive, Westfield, VT" -->
    <tag k="addr:city" v="Montgomery Center"/>
    <tag k="addr:housenumber" v="74"/>
    <tag k="addr:street" v="Park Drive"/>
    <tag k="addr:state" v="VT"/>
    <tag k="ref:vcgi:esiteid" v="280974"/>
  </node>
  <node id="-163" visible="true" lat="44.89360712563" lon="-72.527206989522">
    <!-- conflict: "65 Enzian Drive, Montgomery Center, VT" Fuzzy match to "65 Enzian Drive, Westfield, VT" -->
    <tag k="addr:city" v="Montgomery Center"/>
    <tag k="addr:housenumber" v="65"/>
    <tag k="addr:street" v="Enzian Drive"/>
    <tag k="addr:state" v="VT"/>
    <tag k="ref:vcgi:esiteid" v="280976"/>
  </node>
  <node id="-164" visible="true" lat="44.893575245441" lon="-72.528778492063">
    <!-- conflict: "100 Birch Road, Montgomery Center, VT" Fuzzy match to "100 Birch Road, Westfield, VT" -->
    <tag k="addr:city" v="Montgomery Center"/>
    <tag k="addr:housenumber" v="100"/>
    <tag k="addr:street" v="Birch Road"/>
    <tag k="addr:state" v="VT"/>
    <tag k="ref:vcgi:esiteid" v="280977"/>
  </node>
  <node id="-165" visible="true" lat="44.893613246556" lon="-72.533205052349">
    <!-- conflict: "156 Highland Drive, Montgomery Center, VT" Fuzzy match to "156 Highland Drive, Westfield, VT" -->
    <tag k="addr:city" v="Montgomery Center"/>
    <tag k="addr:housenumber" v="156"/>
    <tag k="addr:street" v="Highland Drive"/>
    <tag k="addr:state" v="VT"/>
    <tag k="ref:vcgi:esiteid" v="280978"/>
  </node>
  <node id="-166" visible="true" lat="44.893599813143" lon="-72.535162029122">
    <!-- conflict: "196 Highland Drive, Montgomery Center, VT" Fuzzy match to "196 Highland Drive, Westfield, VT" -->
    <tag k="addr:city" v="Montgomery Center"/>
    <tag k="addr:housenumber" v="196"/>
    <tag k="addr:street" v="Highland Drive"/>
    <tag k="addr:state" v="VT"/>
    <tag k="ref:vcgi:esiteid" v="280979"/>
  </node>
  <node id="-168" visible="true" lat="44.893461975601" lon="-72.53399993953">
    <!-- conflict: "192 Highland Drive, Montgomery Center, VT" Fuzzy match to "192 Highland Drive, Westfield, VT" -->
    <tag k="addr:city" v="Montgomery Center"/>
    <tag k="addr:housenumber" v="192"/>
    <tag k="addr:street" v="Highland Drive"/>
    <tag k="addr:state" v="VT"/>
    <tag k="ref:vcgi:esiteid" v="280981"/>
  </node>
  <node id="-169" visible="true" lat="44.893409803279" lon="-72.531475779566">
    <!-- conflict: "69 Park Drive, Montgomery Center, VT" Fuzzy match to "69 Park Drive, Westfield, VT" -->
    <tag k="addr:city" v="Montgomery Center"/>
    <tag k="addr:housenumber" v="69"/>
    <tag k="addr:street" v="Park Drive"/>
    <tag k="addr:state" v="VT"/>
    <tag k="ref:vcgi:esiteid" v="280982"/>
  </node>
  <node id="-170" visible="true" lat="44.893378745027" lon="-72.527983639978">
    <!-- conflict: "71 Birch Road, Montgomery Center, VT" Fuzzy match to "71 Birch Road, Westfield, VT" -->
    <tag k="addr:city" v="Montgomery Center"/>
    <tag k="addr:housenumber" v="71"/>
    <tag k="addr:street" v="Birch Road"/>
    <tag k="addr:state" v="VT"/>
    <tag k="ref:vcgi:esiteid" v="280983"/>
  </node>
  <node id="-172" visible="true" lat="44.893376767123" lon="-72.529683506517">
    <!-- conflict: "146 Birch Road, Montgomery Center, VT" Fuzzy match to "146 Birch Road, Westfield, VT" -->
    <tag k="addr:city" v="Montgomery Center"/>
    <tag k="addr:housenumber" v="146"/>
    <tag k="addr:street" v="Birch Road"/>
    <tag k="addr:state" v="VT"/>
    <tag k="ref:vcgi:esiteid" v="280985"/>
  </node>
  <node id="-173" visible="true" lat="44.893240781085" lon="-72.532642875214">
    <!-- conflict: "118 Highland Drive, Montgomery Center, VT" Fuzzy match to "118 Highland Drive, Westfield, VT" -->
    <tag k="addr:city" v="Montgomery Center"/>
    <tag k="addr:housenumber" v="118"/>
    <tag k="addr:street" v="Highland Drive"/>
    <tag k="addr:state" v="VT"/>
    <tag k="ref:vcgi:esiteid" v="280986"/>
  </node>
  <node id="-174" visible="true" lat="44.89321789187" lon="-72.532009634004">
    <!-- conflict: "92 Highland Drive, Montgomery Center, VT" Fuzzy match to "92 Highland Drive, Westfield, VT" -->
    <tag k="addr:city" v="Montgomery Center"/>
    <tag k="addr:housenumber" v="92"/>
    <tag k="addr:street" v="Highland Drive"/>
    <tag k="addr:state" v="VT"/>
    <tag k="ref:vcgi:esiteid" v="280987"/>
  </node>
  <node id="-175" visible="true" lat="44.893121059723" lon="-72.534945422607">
    <!-- conflict: "221 Highland Drive, Montgomery Center, VT" Fuzzy match to "221 Highland Drive, Westfield, VT" -->
    <tag k="addr:city" v="Montgomery Center"/>
    <tag k="addr:housenumber" v="221"/>
    <tag k="addr:street" v="Highland Drive"/>
    <tag k="addr:state" v="VT"/>
    <tag k="ref:vcgi:esiteid" v="280988"/>
  </node>
  <node id="-177" visible="true" lat="44.893125083921" lon="-72.537270836758">
    <!-- conflict: "345 Highland Drive, Montgomery Center, VT" Fuzzy match to "345 Highland Drive, Westfield, VT" -->
    <tag k="addr:city" v="Montgomery Center"/>
    <tag k="addr:housenumber" v="345"/>
    <tag k="addr:street" v="Highland Drive"/>
    <tag k="addr:state" v="VT"/>
    <tag k="ref:vcgi:esiteid" v="280990"/>
  </node>
  <node id="-178" visible="true" lat="44.892946026582" lon="-72.528588183678">
    <!-- conflict: "107 Birch Road, Montgomery Center, VT" Fuzzy match to "107 Birch Road, Westfield, VT" -->
    <tag k="addr:city" v="Montgomery Center"/>
    <tag k="addr:housenumber" v="107"/>
    <tag k="addr:street" v="Birch Road"/>
    <tag k="addr:state" v="VT"/>
    <tag k="ref:vcgi:esiteid" v="280991"/>
  </node>
  <node id="-179" visible="true" lat="44.892941412619" lon="-72.536014473929">
    <!-- conflict: "279 Highland Drive, Montgomery Center, VT" Fuzzy match to "279 Highland Drive, Westfield, VT" -->
    <tag k="addr:city" v="Montgomery Center"/>
    <tag k="addr:housenumber" v="279"/>
    <tag k="addr:street" v="Highland Drive"/>
    <tag k="addr:state" v="VT"/>
    <tag k="ref:vcgi:esiteid" v="280992"/>
  </node>
  <node id="-181" visible="true" lat="44.892397019559" lon="-72.535703687843">
    <!-- conflict: "118 Edelweiss Circle, Montgomery Center, VT" Fuzzy match to "118 Edelweiss Circle, Westfield, VT" -->
    <tag k="addr:city" v="Montgomery Center"/>
    <tag k="addr:housenumber" v="118"/>
    <tag k="addr:street" v="Edelweiss Circle"/>
    <tag k="addr:state" v="VT"/>
    <tag k="ref:vcgi:esiteid" v="280995"/>
  </node>
  <node id="-182" visible="true" lat="44.892398752518" lon="-72.534232048381">
    <!-- conflict: "43 Edelweiss Circle, Montgomery Center, VT" Fuzzy match to "43 Edelweiss Circle, Westfield, VT" -->
    <tag k="addr:city" v="Montgomery Center"/>
    <tag k="addr:housenumber" v="43"/>
    <tag k="addr:street" v="Edelweiss Circle"/>
    <tag k="addr:state" v="VT"/>
    <tag k="ref:vcgi:esiteid" v="280996"/>
  </node>
  <node id="-184" visible="true" lat="44.892370126199" lon="-72.536907873288">
    <!-- conflict: "59 Van De Kamer Road, Montgomery Center, VT" Fuzzy match to "59 Van De Kamer Road, Westfield, VT" -->
    <tag k="addr:city" v="Montgomery Center"/>
    <tag k="addr:housenumber" v="59"/>
    <tag k="addr:street" v="Van De Kamer Road"/>
    <tag k="addr:state" v="VT"/>
    <tag k="ref:vcgi:esiteid" v="280999"/>
  </node>
  <node id="-186" visible="true" lat="44.892445873827" lon="-72.534682743277">
    <!-- conflict: "65 Edelweiss Circle, Montgomery Center, VT" Fuzzy match to "65 Edelweiss Circle, Westfield, VT" -->
    <tag k="addr:city" v="Montgomery Center"/>
    <tag k="addr:housenumber" v="65"/>
    <tag k="addr:street" v="Edelweiss Circle"/>
    <tag k="addr:state" v="VT"/>
    <tag k="ref:vcgi:esiteid" v="281001"/>
  </node>
  <node id="-189" visible="true" lat="44.892134214236" lon="-72.530853124225">
    <!-- conflict: "225 Birch Road, Montgomery Center, VT" Fuzzy match to "225 Birch Road, Westfield, VT" -->
    <tag k="addr:city" v="Montgomery Center"/>
    <tag k="addr:housenumber" v="225"/>
    <tag k="addr:street" v="Birch Road"/>
    <tag k="addr:state" v="VT"/>
    <tag k="ref:vcgi:esiteid" v="281005"/>
  </node>
  <node id="-191" visible="true" lat="44.892165786655" lon="-72.535132528211">
    <!-- conflict: "133 Edelweiss Circle, Montgomery Center, VT" Fuzzy match to "133 Edelweiss Circle, Westfield, VT" -->
    <tag k="addr:city" v="Montgomery Center"/>
    <tag k="addr:housenumber" v="133"/>
    <tag k="addr:street" v="Edelweiss Circle"/>
    <tag k="addr:state" v="VT"/>
    <tag k="ref:vcgi:esiteid" v="281007"/>
  </node>
  <node id="-193" visible="true" lat="44.892148522726" lon="-72.531579306176">
    <!-- conflict: "264 Birch Road, Montgomery Center, VT" Fuzzy match to "264 Birch Road, Westfield, VT" -->
    <tag k="addr:city" v="Montgomery Center"/>
    <tag k="addr:housenumber" v="264"/>
    <tag k="addr:street" v="Birch Road"/>
    <tag k="addr:state" v="VT"/>
    <tag k="ref:vcgi:esiteid" v="281009"/>
  </node>
  <node id="-196" visible="true" lat="44.891930049129" lon="-72.530517771313">
    <!-- conflict: "201 Birch Road, Montgomery Center, VT" Fuzzy match to "201 Birch Road, Westfield, VT" -->
    <tag k="addr:city" v="Montgomery Center"/>
    <tag k="addr:housenumber" v="201"/>
    <tag k="addr:street" v="Birch Road"/>
    <tag k="addr:state" v="VT"/>
    <tag k="ref:vcgi:esiteid" v="281012"/>
  </node>
  <node id="-199" visible="true" lat="44.891978037874" lon="-72.53567562958">
    <!-- conflict: "150 Edelweiss Circle, Montgomery Center, VT" Fuzzy match to "150 Edelweiss Circle, Westfield, VT" -->
    <tag k="addr:city" v="Montgomery Center"/>
    <tag k="addr:housenumber" v="150"/>
    <tag k="addr:street" v="Edelweiss Circle"/>
    <tag k="addr:state" v="VT"/>
    <tag k="ref:vcgi:esiteid" v="281015"/>
  </node>
  <node id="-200" visible="true" lat="44.891922279911" lon="-72.531957335415">
    <!-- conflict: "285 Birch Road, Montgomery Center, VT" Fuzzy match to "285 Birch Road, Westfield, VT" -->
    <tag k="addr:city" v="Montgomery Center"/>
    <tag k="addr:housenumber" v="285"/>
    <tag k="addr:street" v="Birch Road"/>
    <tag k="addr:state" v="VT"/>
    <tag k="ref:vcgi:esiteid" v="281016"/>
  </node>
  <node id="-203" visible="true" lat="44.891909506278" lon="-72.42436681468">
    <!-- conflict: "864 Vermont Route 100, Westfield, VT" Fuzzy match to "864 Vermont Route 100, , VT" -->
    <tag k="addr:city" v="Westfield"/>
    <tag k="addr:housenumber" v="864"/>
    <tag k="addr:street" v="Vermont Route 100"/>
    <tag k="addr:state" v="VT"/>
    <tag k="ref:vcgi:esiteid" v="281019"/>
  </node>
  <node id="-205" visible="true" lat="44.891722161562" lon="-72.53433784713">
    <!-- conflict: "30 Christmas Road, Montgomery Center, VT" Fuzzy match to "30 Christmas Road, Westfield, VT" -->
    <tag k="addr:city" v="Montgomery Center"/>
    <tag k="addr:housenumber" v="30"/>
    <tag k="addr:street" v="Christmas Road"/>
    <tag k="addr:state" v="VT"/>
    <tag k="ref:vcgi:esiteid" v="281021"/>
  </node>
  <node id="-206" visible="true" lat="44.891709343072" lon="-72.536343170894">
    <!-- conflict: "92 Christmas Road, Montgomery Center, VT" Fuzzy match to "92 Christmas Road, Westfield, VT" -->
    <tag k="addr:city" v="Montgomery Center"/>
    <tag k="addr:housenumber" v="92"/>
    <tag k="addr:street" v="Christmas Road"/>
    <tag k="addr:state" v="VT"/>
    <tag k="ref:vcgi:esiteid" v="281022"/>
  </node>
  <node id="-207" visible="true" lat="44.891601114246" lon="-72.531151331964">
    <!-- conflict: "125 Evergreen Lane, Montgomery Center, VT" Fuzzy match to "125 Evergreen Lane, Westfield, VT" -->
    <tag k="addr:city" v="Montgomery Center"/>
    <tag k="addr:housenumber" v="125"/>
    <tag k="addr:street" v="Evergreen Lane"/>
    <tag k="addr:state" v="VT"/>
    <tag k="ref:vcgi:esiteid" v="281023"/>
  </node>
  <node id="-209" visible="true" lat="44.891462911249" lon="-72.526190882376">
    <!-- conflict: "614 Vermont Route 242, Montgomery Center, VT" Fuzzy match to "614 Vermont Route 242, Westfield, VT" -->
    <tag k="addr:city" v="Montgomery Center"/>
    <tag k="addr:housenumber" v="614"/>
    <tag k="addr:street" v="Vermont Route 242"/>
    <tag k="addr:state" v="VT"/>
    <tag k="ref:vcgi:esiteid" v="281025"/>
  </node>
  <node id="-210" visible="true" lat="44.891542132842" lon="-72.531754067906">
    <!-- conflict: "123 Evergreen Lane, Montgomery Center, VT" Fuzzy match to "123 Evergreen Lane, Westfield, VT" -->
    <tag k="addr:city" v="Montgomery Center"/>
    <tag k="addr:housenumber" v="123"/>
    <tag k="addr:street" v="Evergreen Lane"/>
    <tag k="addr:state" v="VT"/>
    <tag k="ref:vcgi:esiteid" v="281026"/>
  </node>
  <node id="-211" visible="true" lat="44.89144455633" lon="-72.536949001564">
    <!-- conflict: "170 Christmas Road, Montgomery Center, VT" Fuzzy match to "170 Christmas Road, Westfield, VT" -->
    <tag k="addr:city" v="Montgomery Center"/>
    <tag k="addr:housenumber" v="170"/>
    <tag k="addr:street" v="Christmas Road"/>
    <tag k="addr:state" v="VT"/>
    <tag k="ref:vcgi:esiteid" v="281027"/>
  </node>
  <node id="-212" visible="true" lat="44.891544740406" lon="-72.53234191297">
    <!-- conflict: "85 Evergreen Lane, Montgomery Center, VT" Fuzzy match to "85 Evergreen Lane, Westfield, VT" -->
    <tag k="addr:city" v="Montgomery Center"/>
    <tag k="addr:housenumber" v="85"/>
    <tag k="addr:street" v="Evergreen Lane"/>
    <tag k="addr:state" v="VT"/>
    <tag k="ref:vcgi:esiteid" v="281028"/>
  </node>
  <node id="-215" visible="true" lat="44.891465197522" lon="-72.530677213605">
    <!-- conflict: "150 Evergreen Lane, Montgomery Center, VT" Fuzzy match to "150 Evergreen Lane, Westfield, VT" -->
    <tag k="addr:city" v="Montgomery Center"/>
    <tag k="addr:housenumber" v="150"/>
    <tag k="addr:street" v="Evergreen Lane"/>
    <tag k="addr:state" v="VT"/>
    <tag k="ref:vcgi:esiteid" v="281031"/>
  </node>
  <node id="-216" visible="true" lat="44.891428191769" lon="-72.532822737255">
    <!-- conflict: "73 Evergreen Lane, Montgomery Center, VT" Fuzzy match to "73 Evergreen Lane, Westfield, VT" -->
    <tag k="addr:city" v="Montgomery Center"/>
    <tag k="addr:housenumber" v="73"/>
    <tag k="addr:street" v="Evergreen Lane"/>
    <tag k="addr:state" v="VT"/>
    <tag k="ref:vcgi:esiteid" v="281032"/>
  </node>
  <node id="-217" visible="true" lat="44.891184276258" lon="-72.535158912722">
    <!-- conflict: "53 Christmas Road, Montgomery Center, VT" Fuzzy match to "53 Christmas Road, Westfield, VT" -->
    <tag k="addr:city" v="Montgomery Center"/>
    <tag k="addr:housenumber" v="53"/>
    <tag k="addr:street" v="Christmas Road"/>
    <tag k="addr:state" v="VT"/>
    <tag k="ref:vcgi:esiteid" v="281033"/>
  </node>
  <node id="-219" visible="true" lat="44.891406708088" lon="-72.533451906471">
    <!-- conflict: "21 Evergreen Lane, Montgomery Center, VT" Fuzzy match to "21 Evergreen Lane, Westfield, VT" -->
    <tag k="addr:city" v="Montgomery Center"/>
    <tag k="addr:housenumber" v="21"/>
    <tag k="addr:street" v="Evergreen Lane"/>
    <tag k="addr:state" v="VT"/>
    <tag k="ref:vcgi:esiteid" v="281035"/>
  </node>
  <node id="-221" visible="true" lat="44.891377014653" lon="-72.535753586612">
    <!-- conflict: "73 Christmas Road, Montgomery Center, VT" Fuzzy match to "73 Christmas Road, Westfield, VT" -->
    <tag k="addr:city" v="Montgomery Center"/>
    <tag k="addr:housenumber" v="73"/>
    <tag k="addr:street" v="Christmas Road"/>
    <tag k="addr:state" v="VT"/>
    <tag k="ref:vcgi:esiteid" v="281037"/>
  </node>
  <node id="-222" visible="true" lat="44.891164329671" lon="-72.534577658857">
    <!-- conflict: "27 Christmas Road, Montgomery Center, VT" Fuzzy match to "27 Christmas Road, Westfield, VT" -->
    <tag k="addr:city" v="Montgomery Center"/>
    <tag k="addr:housenumber" v="27"/>
    <tag k="addr:street" v="Christmas Road"/>
    <tag k="addr:state" v="VT"/>
    <tag k="ref:vcgi:esiteid" v="281038"/>
  </node>
  <node id="-224" visible="true" lat="44.891126183762" lon="-72.531602194269">
    <!-- conflict: "92 Evergreen Lane, Montgomery Center, VT" Fuzzy match to "92 Evergreen Lane, Westfield, VT" -->
    <tag k="addr:city" v="Montgomery Center"/>
    <tag k="addr:housenumber" v="92"/>
    <tag k="addr:street" v="Evergreen Lane"/>
    <tag k="addr:state" v="VT"/>
    <tag k="ref:vcgi:esiteid" v="281040"/>
  </node>
  <node id="-225" visible="true" lat="44.891017044235" lon="-72.533612916977">
    <!-- conflict: "14 Evergreen Lane, Montgomery Center, VT" Fuzzy match to "14 Evergreen Lane, Westfield, VT" -->
    <tag k="addr:city" v="Montgomery Center"/>
    <tag k="addr:housenumber" v="14"/>
    <tag k="addr:street" v="Evergreen Lane"/>
    <tag k="addr:state" v="VT"/>
    <tag k="ref:vcgi:esiteid" v="281041"/>
  </node>
  <node id="-227" visible="true" lat="44.891056566176" lon="-72.528587080448">
    <!-- conflict: "593 Vermont Route 242, Montgomery Center, VT" Fuzzy match to "593 Vermont Route 242, Westfield, VT" -->
    <tag k="addr:city" v="Montgomery Center"/>
    <tag k="addr:housenumber" v="593"/>
    <tag k="addr:street" v="Vermont Route 242"/>
    <tag k="addr:state" v="VT"/>
    <tag k="ref:vcgi:esiteid" v="281043"/>
  </node>
  <node id="-228" visible="true" lat="44.890928282944" lon="-72.53261227218">
    <!-- conflict: "52 Evergreen Lane, Montgomery Center, VT" Fuzzy match to "52 Evergreen Lane, Westfield, VT" -->
    <tag k="addr:city" v="Montgomery Center"/>
    <tag k="addr:housenumber" v="52"/>
    <tag k="addr:street" v="Evergreen Lane"/>
    <tag k="addr:state" v="VT"/>
    <tag k="ref:vcgi:esiteid" v="281044"/>
  </node>
  <node id="-229" visible="true" lat="44.890910783117" lon="-72.423682623898">
    <!-- conflict: "855 Vermont Route 100, Westfield, VT" Fuzzy match to "855 Vermont Route 100, , VT" -->
    <tag k="addr:city" v="Westfield"/>
    <tag k="addr:housenumber" v="855"/>
    <tag k="addr:street" v="Vermont Route 100"/>
    <tag k="addr:state" v="VT"/>
    <tag k="ref:vcgi:esiteid" v="281045"/>
  </node>
  <node id="-230" visible="true" lat="44.891027946906" lon="-72.530501342227">
    <!-- conflict: "174 Karnten Road, Montgomery Center, VT" Fuzzy match to "174 Karnten Road, Westfield, VT" -->
    <tag k="addr:city" v="Montgomery Center"/>
    <tag k="addr:housenumber" v="174"/>
    <tag k="addr:street" v="Karnten Road"/>
    <tag k="addr:state" v="VT"/>
    <tag k="ref:vcgi:esiteid" v="281046"/>
  </node>
  <node id="-231" visible="true" lat="44.890973594127" lon="-72.53212862186">
    <!-- conflict: "90 Evergreen Lane, Montgomery Center, VT" Fuzzy match to "90 Evergreen Lane, Westfield, VT" -->
    <tag k="addr:city" v="Montgomery Center"/>
    <tag k="addr:housenumber" v="90"/>
    <tag k="addr:street" v="Evergreen Lane"/>
    <tag k="addr:state" v="VT"/>
    <tag k="ref:vcgi:esiteid" v="281047"/>
  </node>
  <node id="-233" visible="true" lat="44.890859490346" lon="-72.528107891761">
    <!-- conflict: "594 Vermont Route 242, Montgomery Center, VT" Fuzzy match to "594 Vermont Route 242, Westfield, VT" -->
    <tag k="addr:city" v="Montgomery Center"/>
    <tag k="addr:housenumber" v="594"/>
    <tag k="addr:street" v="Vermont Route 242"/>
    <tag k="addr:state" v="VT"/>
    <tag k="ref:vcgi:esiteid" v="281049"/>
  </node>
  <node id="-234" visible="true" lat="44.890878226203" lon="-72.537209800868">
    <!-- conflict: "167 Christmas Road, Montgomery Center, VT" Fuzzy match to "167 Christmas Road, Westfield, VT" -->
    <tag k="addr:city" v="Montgomery Center"/>
    <tag k="addr:housenumber" v="167"/>
    <tag k="addr:street" v="Christmas Road"/>
    <tag k="addr:state" v="VT"/>
    <tag k="ref:vcgi:esiteid" v="281050"/>
  </node>
  <node id="-235" visible="true" lat="44.890917012663" lon="-72.536544605027">
    <!-- conflict: "169 Christmas Road, Montgomery Center, VT" Fuzzy match to "169 Christmas Road, Westfield, VT" -->
    <tag k="addr:city" v="Montgomery Center"/>
    <tag k="addr:housenumber" v="169"/>
    <tag k="addr:street" v="Christmas Road"/>
    <tag k="addr:state" v="VT"/>
    <tag k="ref:vcgi:esiteid" v="281051"/>
  </node>
  <node id="-237" visible="true" lat="44.890694915159" lon="-72.537892859333">
    <!-- conflict: "219 Christmas Road, Montgomery Center, VT" Fuzzy match to "219 Christmas Road, Westfield, VT" -->
    <tag k="addr:city" v="Montgomery Center"/>
    <tag k="addr:housenumber" v="219"/>
    <tag k="addr:street" v="Christmas Road"/>
    <tag k="addr:state" v="VT"/>
    <tag k="ref:vcgi:esiteid" v="281053"/>
  </node>
  <node id="-240" visible="true" lat="44.890398666265" lon="-72.527849922967">
    <!-- conflict: "578 Vermont Route 242, Montgomery Center, VT" Fuzzy match to "578 Vermont Route 242, Westfield, VT" -->
    <tag k="addr:city" v="Montgomery Center"/>
    <tag k="addr:housenumber" v="578"/>
    <tag k="addr:street" v="Vermont Route 242"/>
    <tag k="addr:state" v="VT"/>
    <tag k="ref:vcgi:esiteid" v="281056"/>
  </node>
  <node id="-241" visible="true" lat="44.890654994887" lon="-72.534558707892">
    <!-- conflict: "129 Waldhof Drive, Montgomery Center, VT" Fuzzy match to "129 Waldhof Drive, Westfield, VT" -->
    <tag k="addr:city" v="Montgomery Center"/>
    <tag k="addr:housenumber" v="129"/>
    <tag k="addr:street" v="Waldhof Drive"/>
    <tag k="addr:state" v="VT"/>
    <tag k="ref:vcgi:esiteid" v="281057"/>
  </node>
  <node id="-245" visible="true" lat="44.890394338948" lon="-72.531791326418">
    <!-- conflict: "100 Karnten Road, Montgomery Center, VT" Fuzzy match to "100 Karnten Road, Westfield, VT" -->
    <tag k="addr:city" v="Montgomery Center"/>
    <tag k="addr:housenumber" v="100"/>
    <tag k="addr:street" v="Karnten Road"/>
    <tag k="addr:state" v="VT"/>
    <tag k="ref:vcgi:esiteid" v="281061"/>
  </node>
  <node id="-246" visible="true" lat="44.890414712247" lon="-72.436539818829">
    <!-- conflict: "219 Ballground Road, Westfield, VT" Fuzzy match to "219 Ballground Road, , VT" -->
    <tag k="addr:city" v="Westfield"/>
    <tag k="addr:housenumber" v="219"/>
    <tag k="addr:street" v="Ballground Road"/>
    <tag k="addr:state" v="VT"/>
    <tag k="ref:vcgi:esiteid" v="281062"/>
  </node>
  <node id="-250" visible="true" lat="44.890412834958" lon="-72.533387473689">
    <!-- conflict: "47 Karnten Road, Montgomery Center, VT" Fuzzy match to "47 Karnten Road, Westfield, VT" -->
    <tag k="addr:city" v="Montgomery Center"/>
    <tag k="addr:housenumber" v="47"/>
    <tag k="addr:street" v="Karnten Road"/>
    <tag k="addr:state" v="VT"/>
    <tag k="ref:vcgi:esiteid" v="281066"/>
  </node>
  <node id="-255" visible="true" lat="44.890130798638" lon="-72.532702315072">
    <!-- conflict: "50 Karnten Road, Montgomery Center, VT" Fuzzy match to "50 Karnten Road, Westfield, VT" -->
    <tag k="addr:city" v="Montgomery Center"/>
    <tag k="addr:housenumber" v="50"/>
    <tag k="addr:street" v="Karnten Road"/>
    <tag k="addr:state" v="VT"/>
    <tag k="ref:vcgi:esiteid" v="281071"/>
  </node>
  <node id="-259" visible="true" lat="44.889905825881" lon="-72.533350805819">
    <!-- conflict: "18 Karnten Road, Montgomery Center, VT" Fuzzy match to "18 Karnten Road, Westfield, VT" -->
    <tag k="addr:city" v="Montgomery Center"/>
    <tag k="addr:housenumber" v="18"/>
    <tag k="addr:street" v="Karnten Road"/>
    <tag k="addr:state" v="VT"/>
    <tag k="ref:vcgi:esiteid" v="281075"/>
  </node>
  <node id="-267" visible="true" lat="44.889326775768" lon="-72.429015559423">
    <!-- conflict: "17 North Hill Road, Westfield, VT" Fuzzy match to "17 North Hill Road, , VT" -->
    <tag k="addr:city" v="Westfield"/>
    <tag k="addr:housenumber" v="17"/>
    <tag k="addr:street" v="North Hill Road"/>
    <tag k="addr:state" v="VT"/>
    <tag k="ref:vcgi:esiteid" v="281083"/>
  </node>
  <node id="-274" visible="true" lat="44.887788663318" lon="-72.531834088432">
    <!-- conflict: "260 Vermont Route 242, Montgomery Center, VT" Fuzzy match to "260 Vermont Route 242, Westfield, VT" -->
    <tag k="addr:city" v="Montgomery Center"/>
    <tag k="addr:housenumber" v="260"/>
    <tag k="addr:street" v="Vermont Route 242"/>
    <tag k="addr:state" v="VT"/>
    <tag k="ref:vcgi:esiteid" v="281091"/>
  </node>
  <node id="-277" visible="true" lat="44.88791263289" lon="-72.534777811647">
    <!-- conflict: "195 Vermont Route 242, Montgomery Center, VT" Fuzzy match to "195 Vermont Route 242, , VT" -->
    <tag k="addr:city" v="Montgomery Center"/>
    <tag k="addr:housenumber" v="195"/>
    <tag k="addr:street" v="Vermont Route 242"/>
    <tag k="addr:state" v="VT"/>
    <tag k="ref:vcgi:esiteid" v="281094"/>
  </node>
  <node id="-279" visible="true" lat="44.887399009511" lon="-72.534235887806">
    <!-- conflict: "194 Vermont Route 242, Montgomery Center, VT" Fuzzy match to "194 Vermont Route 242, Westfield, VT" -->
    <tag k="addr:city" v="Montgomery Center"/>
    <tag k="addr:housenumber" v="194"/>
    <tag k="addr:street" v="Vermont Route 242"/>
    <tag k="addr:state" v="VT"/>
    <tag k="ref:vcgi:esiteid" v="281096"/>
  </node>
  <node id="-291" visible="true" lat="44.882270023791" lon="-72.53105991666">
    <!-- conflict: "903 Fisher Road, Montgomery Center, VT" Fuzzy match to "903 Fisher Road, , VT" -->
    <tag k="addr:city" v="Montgomery Center"/>
    <tag k="addr:housenumber" v="903"/>
    <tag k="addr:street" v="Fisher Road"/>
    <tag k="addr:state" v="VT"/>
    <tag k="ref:vcgi:esiteid" v="281108"/>
  </node>
  <node id="-292" visible="true" lat="44.88198624113" lon="-72.435164860282">
    <!-- conflict: "258 Carmel Road, Westfield, VT" Fuzzy match to "258 Carmel Road, , VT" -->
    <tag k="addr:city" v="Westfield"/>
    <tag k="addr:housenumber" v="258"/>
    <tag k="addr:street" v="Carmel Road"/>
    <tag k="addr:state" v="VT"/>
    <tag k="ref:vcgi:esiteid" v="281109"/>
  </node>
  <node id="-293" visible="true" lat="44.883320209025" lon="-72.5250630877">
    <!-- conflict: "905 Fisher Road, Montgomery Center, VT" Fuzzy match to "905 Fisher Road, , VT" -->
    <tag k="addr:city" v="Montgomery Center"/>
    <tag k="addr:housenumber" v="905"/>
    <tag k="addr:street" v="Fisher Road"/>
    <tag k="addr:state" v="VT"/>
    <tag k="ref:vcgi:esiteid" v="281110"/>
  </node>
  <node id="-294" visible="true" lat="44.880672971595" lon="-72.531243985361">
    <!-- conflict: "902 Fisher Road, Montgomery Center, VT" Fuzzy match to "902 Fisher Road, , VT" -->
    <tag k="addr:city" v="Montgomery Center"/>
    <tag k="addr:housenumber" v="902"/>
    <tag k="addr:street" v="Fisher Road"/>
    <tag k="addr:state" v="VT"/>
    <tag k="ref:vcgi:esiteid" v="281111"/>
  </node>
  <node id="-296" visible="true" lat="44.879967385628" lon="-72.535570729143">
    <!-- conflict: "650 Fisher Road, Montgomery Center, VT" Fuzzy match to "650 Fisher Road, , VT" -->
    <tag k="addr:city" v="Montgomery Center"/>
    <tag k="addr:housenumber" v="650"/>
    <tag k="addr:street" v="Fisher Road"/>
    <tag k="addr:state" v="VT"/>
    <tag k="ref:vcgi:esiteid" v="281113"/>
  </node>
  <node id="-299" visible="true" lat="44.879140405799" lon="-72.417481671354">
    <!-- conflict: "659 Cemetery Road, Westfield, VT" Fuzzy match to "659 Cemetery Road, , VT" -->
    <tag k="addr:city" v="Westfield"/>
    <tag k="addr:housenumber" v="659"/>
    <tag k="addr:street" v="Cemetery Road"/>
    <tag k="addr:state" v="VT"/>
    <tag k="ref:vcgi:esiteid" v="281116"/>
  </node>
  <node id="-300" visible="true" lat="44.881863900536" lon="-72.435068907335">
    <!-- conflict: "260 Carmel Road, Westfield, VT" Fuzzy match to "260 Carmel Road, , VT" -->
    <tag k="addr:city" v="Westfield"/>
    <tag k="addr:housenumber" v="260"/>
    <tag k="addr:street" v="Carmel Road"/>
    <tag k="addr:state" v="VT"/>
    <tag k="ref:vcgi:esiteid" v="281117"/>
  </node>
  <node id="-309" visible="true" lat="44.874064965706" lon="-72.451893633618">
    <!-- conflict: "434 Kettle Farm Road, Westfield, VT" Fuzzy match to "434 Kettle Farm Road, , VT" -->
    <tag k="addr:city" v="Westfield"/>
    <tag k="addr:housenumber" v="434"/>
    <tag k="addr:street" v="Kettle Farm Road"/>
    <tag k="addr:state" v="VT"/>
    <tag k="ref:vcgi:esiteid" v="281126"/>
  </node>
  <node id="-311" visible="true" lat="44.870746744439" lon="-72.445457170732">
    <!-- conflict: "272 Balance Rock Road, Westfield, VT" Fuzzy match to "272 Balance Rock Road, , VT" -->
    <tag k="addr:city" v="Westfield"/>
    <tag k="addr:housenumber" v="272"/>
    <tag k="addr:street" v="Balance Rock Road"/>
    <tag k="addr:state" v="VT"/>
    <tag k="ref:vcgi:esiteid" v="281128"/>
  </node>
  <node id="-316" visible="true" lat="44.869707983222" lon="-72.460549095898">
    <!-- conflict: "550 Corrow Basin Road, Westfield, VT" Fuzzy match to "550 Corrow Basin Road, , VT" -->
    <tag k="addr:city" v="Westfield"/>
    <tag k="addr:housenumber" v="550"/>
    <tag k="addr:street" v="Corrow Basin Road"/>
    <tag k="addr:state" v="VT"/>
    <tag k="ref:vcgi:esiteid" v="281133"/>
  </node>
  <node id="-322" visible="true" lat="44.868485932606" lon="-72.418365968616">
    <!-- conflict: "142 Fuller Road, Westfield, VT" Fuzzy match to "142 Fuller Road, , VT" -->
    <tag k="addr:city" v="Westfield"/>
    <tag k="addr:housenumber" v="142"/>
    <tag k="addr:street" v="Fuller Road"/>
    <tag k="addr:state" v="VT"/>
    <tag k="ref:vcgi:esiteid" v="281139"/>
  </node>
  <node id="-346" visible="true" lat="44.86219551693" lon="-72.457429193534">
    <!-- conflict: "1137 Balance Rock Road, Westfield, VT" Fuzzy match to "1137 Balance Rock Road, , VT" -->
    <tag k="addr:city" v="Westfield"/>
    <tag k="addr:housenumber" v="1137"/>
    <tag k="addr:street" v="Balance Rock Road"/>
    <tag k="addr:state" v="VT"/>
    <tag k="ref:vcgi:esiteid" v="281165"/>
  </node>
  <node id="-349" visible="true" lat="44.861425581202" lon="-72.43110788227">
    <!-- conflict: "178 Peaceful Ridge Drive, Westfield, VT" Fuzzy match to "178 Peaceful Ridge Drive, , VT" -->
    <tag k="addr:city" v="Westfield"/>
    <tag k="addr:housenumber" v="178"/>
    <tag k="addr:street" v="Peaceful Ridge Drive"/>
    <tag k="addr:state" v="VT"/>
    <tag k="ref:vcgi:esiteid" v="281168"/>
  </node>
  <node id="-351" visible="true" lat="44.859876180459" lon="-72.450372001474">
    <!-- conflict: "1281 Buck Hill Road, Westfield, VT" Fuzzy match to "1281 Buck Hill Road, , VT" -->
    <tag k="addr:city" v="Westfield"/>
    <tag k="addr:housenumber" v="1281"/>
    <tag k="addr:street" v="Buck Hill Road"/>
    <tag k="addr:state" v="VT"/>
    <tag k="ref:vcgi:esiteid" v="281170"/>
  </node>
  <node id="-352" visible="true" lat="44.858899618703" lon="-72.411805397996">
    <!-- conflict: "2452 Loop Road, Westfield, VT" Fuzzy match to "2452 Loop Road, , VT" -->
    <tag k="addr:city" v="Westfield"/>
    <tag k="addr:housenumber" v="2452"/>
    <tag k="addr:street" v="Loop Road"/>
    <tag k="addr:state" v="VT"/>
    <tag k="ref:vcgi:esiteid" v="281171"/>
  </node>
  <node id="-359" visible="true" lat="44.853839202071" lon="-72.460601296211">
    <!-- conflict: "86 Circle Road, Westfield, VT" Fuzzy match to "86 Circle Road, , VT" -->
    <tag k="addr:city" v="Westfield"/>
    <tag k="addr:housenumber" v="86"/>
    <tag k="addr:street" v="Circle Road"/>
    <tag k="addr:state" v="VT"/>
    <tag k="ref:vcgi:esiteid" v="281178"/>
  </node>
  <node id="-361" visible="true" lat="44.85325990445" lon="-72.460085382685">
    <!-- conflict: "7 Circle Road, Westfield, VT" Fuzzy match to "7 Circle Road, , VT" -->
    <tag k="addr:city" v="Westfield"/>
    <tag k="addr:housenumber" v="7"/>
    <tag k="addr:street" v="Circle Road"/>
    <tag k="addr:state" v="VT"/>
    <tag k="ref:vcgi:esiteid" v="281180"/>
  </node>
  <node id="-369" visible="true" lat="44.845841906821" lon="-72.441918629355">
    <!-- conflict: "571 Sniderbrook Road, Westfield, VT" Fuzzy match to "571 Sniderbrook Road, , VT" -->
    <tag k="addr:city" v="Westfield"/>
    <tag k="addr:housenumber" v="571"/>
    <tag k="addr:street" v="Sniderbrook Road"/>
    <tag k="addr:state" v="VT"/>
    <tag k="ref:vcgi:esiteid" v="281188"/>
  </node>
  <node id="-372" visible="true" lat="44.844834824704" lon="-72.48030212365">
    <!-- conflict: "2872 Balance Rock Road, Westfield, VT" Fuzzy match to "2872 Balance Rock Road, , VT" -->
    <tag k="addr:city" v="Westfield"/>
    <tag k="addr:housenumber" v="2872"/>
    <tag k="addr:street" v="Balance Rock Road"/>
    <tag k="addr:state" v="VT"/>
    <tag k="ref:vcgi:esiteid" v="281191"/>
  </node>
  <node id="-376" visible="true" lat="44.843713304159" lon="-72.479951172807">
    <!-- conflict: "2849 Balance Rock Road, Westfield, VT" Fuzzy match to "2849 Balance Rock Road, , VT" -->
    <tag k="addr:city" v="Westfield"/>
    <tag k="addr:housenumber" v="2849"/>
    <tag k="addr:street" v="Balance Rock Road"/>
    <tag k="addr:state" v="VT"/>
    <tag k="ref:vcgi:esiteid" v="281195"/>
  </node>
  <node id="-379" visible="true" lat="44.843087693462" lon="-72.482072145104">
    <!-- conflict: "2948 Balance Rock Road, Westfield, VT" Fuzzy match to "2948 Balance Rock Road, , VT" -->
    <tag k="addr:city" v="Westfield"/>
    <tag k="addr:housenumber" v="2948"/>
    <tag k="addr:street" v="Balance Rock Road"/>
    <tag k="addr:state" v="VT"/>
    <tag k="ref:vcgi:esiteid" v="281198"/>
  </node>
  <node id="-385" visible="true" lat="44.840044399066" lon="-72.529990757943">
    <!-- conflict: "1269 Route 58, Montgomery Center, VT" Fuzzy match to "1269 Route 58, , VT" -->
    <tag k="addr:city" v="Montgomery Center"/>
    <tag k="addr:housenumber" v="1269"/>
    <tag k="addr:street" v="Route 58"/>
    <tag k="addr:state" v="VT"/>
    <tag k="ref:vcgi:esiteid" v="281204"/>
  </node>
  <node id="-388" visible="true" lat="44.839252123321" lon="-72.435671896216">
    <!-- conflict: "4656 Vermont Route 100, Westfield, VT" Fuzzy match to "4656 Vermont Route 100, , VT" -->
    <tag k="addr:city" v="Westfield"/>
    <tag k="addr:housenumber" v="4656"/>
    <tag k="addr:street" v="Vermont Route 100"/>
    <tag k="addr:state" v="VT"/>
    <tag k="ref:vcgi:esiteid" v="281207"/>
  </node>
  <node id="-400" visible="true" lat="44.835248858571" lon="-72.507766654207">
    <!-- conflict: "1302 Monteith Road, Westfield, VT" Fuzzy match to "1302 Monteith Road, , VT" -->
    <tag k="addr:city" v="Westfield"/>
    <tag k="addr:housenumber" v="1302"/>
    <tag k="addr:street" v="Monteith Road"/>
    <tag k="addr:state" v="VT"/>
    <tag k="ref:vcgi:esiteid" v="281219"/>
  </node>
  <node id="-403" visible="true" lat="44.902684438994" lon="-72.439147442475">
    <!-- conflict: "387 Kingdom Mountain Road, Westfield, VT" Fuzzy match to "387 Kingdom Mountain Road, , VT" -->
    <tag k="addr:city" v="Westfield"/>
    <tag k="addr:housenumber" v="387"/>
    <tag k="addr:street" v="Kingdom Mountain Road"/>
    <tag k="addr:state" v="VT"/>
    <tag k="ref:vcgi:esiteid" v="281222"/>
  </node>
  <node id="-409" visible="true" lat="44.890862563204" lon="-72.434953534664">
    <!-- conflict: "169 Ballground Road, Westfield, VT" Fuzzy match to "169 Ballground Road, , VT" -->
    <tag k="addr:city" v="Westfield"/>
    <tag k="addr:housenumber" v="169"/>
    <tag k="addr:street" v="Ballground Road"/>
    <tag k="addr:state" v="VT"/>
    <tag k="ref:vcgi:esiteid" v="281228"/>
  </node>
  <node id="-418" visible="true" lat="44.892820681092" lon="-72.525414341683">
    <!-- conflict: "804 Vermont Route 242, Montgomery Center, VT" Fuzzy match to "804 Vermont Route 242, Westfield, VT" -->
    <tag k="addr:city" v="Montgomery Center"/>
    <tag k="addr:housenumber" v="804"/>
    <tag k="addr:street" v="Vermont Route 242"/>
    <tag k="addr:state" v="VT"/>
    <tag k="ref:vcgi:esiteid" v="281238"/>
  </node>
  <node id="-419" visible="true" lat="44.893593636299" lon="-72.526382885629">
    <!-- conflict: "787 Vermont Route 242, Montgomery Center, VT" Fuzzy match to "787 Vermont Route 242, Westfield, VT" -->
    <tag k="addr:city" v="Montgomery Center"/>
    <tag k="addr:housenumber" v="787"/>
    <tag k="addr:street" v="Vermont Route 242"/>
    <tag k="addr:state" v="VT"/>
    <tag k="ref:vcgi:esiteid" v="281239"/>
  </node>
  <node id="-424" visible="true" lat="44.8585974811" lon="-72.448217022194">
    <!-- conflict: "1348 Buck Hill Road, Westfield, VT" Fuzzy match to "1348 Buck Hill Road, , VT" -->
    <tag k="addr:city" v="Westfield"/>
    <tag k="addr:housenumber" v="1348"/>
    <tag k="addr:street" v="Buck Hill Road"/>
    <tag k="addr:state" v="VT"/>
    <tag k="ref:vcgi:esiteid" v="281244"/>
  </node>
  <node id="-425" visible="true" lat="44.857286556119" lon="-72.449608082125">
    <!-- conflict: "1462 Buck Hill Road, Westfield, VT" Fuzzy match to "1462 Buck Hill Road, , VT" -->
    <tag k="addr:city" v="Westfield"/>
    <tag k="addr:housenumber" v="1462"/>
    <tag k="addr:street" v="Buck Hill Road"/>
    <tag k="addr:state" v="VT"/>
    <tag k="ref:vcgi:esiteid" v="281245"/>
  </node>
  <node id="-429" visible="true" lat="44.899211060739" lon="-72.423980569576">
    <!-- conflict: "272 Deslandes Road, Westfield, VT" Fuzzy match to "272 Deslandes Road, , VT" -->
    <tag k="addr:city" v="Westfield"/>
    <tag k="addr:housenumber" v="272"/>
    <tag k="addr:street" v="Deslandes Road"/>
    <tag k="addr:state" v="VT"/>
    <tag k="ref:vcgi:esiteid" v="281249"/>
  </node>
  <node id="-433" visible="true" lat="44.918621485441" lon="-72.422993761408">
    <!-- conflict: "1409 Kennison Road, Westfield, VT" Fuzzy match to "1409 Kennison Road, , VT" -->
    <tag k="addr:city" v="Westfield"/>
    <tag k="addr:housenumber" v="1409"/>
    <tag k="addr:street" v="Kennison Road"/>
    <tag k="addr:state" v="VT"/>
    <tag k="ref:vcgi:esiteid" v="281254"/>
  </node>
  <node id="-435" visible="true" lat="44.896763326139" lon="-72.527744850064">
    <!-- conflict: "282 Enzian Drive, Montgomery Center, VT" Fuzzy match to "282 Enzian Drive, Westfield, VT" -->
    <tag k="addr:city" v="Montgomery Center"/>
    <tag k="addr:housenumber" v="282"/>
    <tag k="addr:street" v="Enzian Drive"/>
    <tag k="addr:state" v="VT"/>
    <tag k="ref:vcgi:esiteid" v="316893"/>
  </node>
  <node id="-436" visible="true" lat="44.889804554299" lon="-72.536127585498">
    <!-- conflict: "113 Waldhof Drive, Montgomery Center, VT" Fuzzy match to "113 Waldhof Drive, Westfield, VT" -->
    <tag k="addr:city" v="Montgomery Center"/>
    <tag k="addr:housenumber" v="113"/>
    <tag k="addr:street" v="Waldhof Drive"/>
    <tag k="addr:state" v="VT"/>
    <tag k="ref:vcgi:esiteid" v="318047"/>
  </node>
  <node id="-437" visible="true" lat="44.888447965238" lon="-72.441857789852">
    <!-- conflict: "237 Crawford Trail, Westfield, VT" Fuzzy match to "237 Crawford Trail, , VT" -->
    <tag k="addr:city" v="Westfield"/>
    <tag k="addr:housenumber" v="237"/>
    <tag k="addr:street" v="Crawford Trail"/>
    <tag k="addr:state" v="VT"/>
    <tag k="ref:vcgi:esiteid" v="326217"/>
  </node>
  <node id="-438" visible="true" lat="44.887708638332" lon="-72.445627678648">
    <!-- conflict: "440 Crawford Trail, Westfield, VT" Fuzzy match to "440 Crawford Trail, , VT" -->
    <tag k="addr:city" v="Westfield"/>
    <tag k="addr:housenumber" v="440"/>
    <tag k="addr:street" v="Crawford Trail"/>
    <tag k="addr:state" v="VT"/>
    <tag k="ref:vcgi:esiteid" v="326218"/>
  </node>
  <node id="-439" visible="true" lat="44.881453813128" lon="-72.449111756971">
    <!-- conflict: "922 Crawford Trail, Westfield, VT" Fuzzy match to "922 Crawford Trail, , VT" -->
    <tag k="addr:city" v="Westfield"/>
    <tag k="addr:housenumber" v="922"/>
    <tag k="addr:street" v="Crawford Trail"/>
    <tag k="addr:state" v="VT"/>
    <tag k="ref:vcgi:esiteid" v="326219"/>
  </node>
  <node id="-442" visible="true" lat="44.9031285503" lon="-72.440570376491">
    <!-- conflict: "454 Kingdom Mountain Road, Westfield, VT" Fuzzy match to "454 Kingdom Mountain Road, , VT" -->
    <tag k="addr:city" v="Westfield"/>
    <tag k="addr:housenumber" v="454"/>
    <tag k="addr:street" v="Kingdom Mountain Road"/>
    <tag k="addr:state" v="VT"/>
    <tag k="ref:vcgi:esiteid" v="326573"/>
  </node>
  <node id="-444" visible="true" lat="44.879540871569" lon="-72.449713163097">
    <!-- conflict: "1200 Carmel Road, Westfield, VT" Fuzzy match to "1200 Carmel Road, , VT" -->
    <tag k="addr:city" v="Westfield"/>
    <tag k="addr:housenumber" v="1200"/>
    <tag k="addr:street" v="Carmel Road"/>
    <tag k="addr:state" v="VT"/>
    <tag k="ref:vcgi:esiteid" v="326575"/>
  </node>
  <node id="-449" visible="true" lat="44.924375006741" lon="-72.526070007455">
    <!-- conflict: "1838 Work Road, North Troy, VT" Fuzzy match to "1838 Work Road, , VT" -->
    <tag k="addr:city" v="North Troy"/>
    <tag k="addr:housenumber" v="1838"/>
    <tag k="addr:street" v="Work Road"/>
    <tag k="addr:state" v="VT"/>
    <tag k="ref:vcgi:esiteid" v="340437"/>
  </node>
  <node id="-450" visible="true" lat="44.925811153798" lon="-72.527781874089">
    <!-- conflict: "1378 Work Road, North Troy, VT" Fuzzy match to "1378 Work Road, , VT" -->
    <tag k="addr:city" v="North Troy"/>
    <tag k="addr:housenumber" v="1378"/>
    <tag k="addr:street" v="Work Road"/>
    <tag k="addr:state" v="VT"/>
    <tag k="ref:vcgi:esiteid" v="340438"/>
  </node>
  <node id="-451" visible="true" lat="44.925585452594" lon="-72.516389709277">
    <!-- conflict: "446 Work Road, North Troy, VT" Fuzzy match to "446 Work Road, , VT" -->
    <tag k="addr:city" v="North Troy"/>
    <tag k="addr:housenumber" v="446"/>
    <tag k="addr:street" v="Work Road"/>
    <tag k="addr:state" v="VT"/>
    <tag k="ref:vcgi:esiteid" v="340442"/>
  </node>
  <node id="-452" visible="true" lat="44.92030208739" lon="-72.511869121425">
    <!-- conflict: "823 Work Road, North Troy, VT" Fuzzy match to "823 Work Road, , VT" -->
    <tag k="addr:city" v="North Troy"/>
    <tag k="addr:housenumber" v="823"/>
    <tag k="addr:street" v="Work Road"/>
    <tag k="addr:state" v="VT"/>
    <tag k="ref:vcgi:esiteid" v="340443"/>
  </node>
  <node id="-453" visible="true" lat="44.920101732944" lon="-72.511820036111">
    <!-- conflict: "825 Work Road, North Troy, VT" Fuzzy match to "825 Work Road, , VT" -->
    <tag k="addr:city" v="North Troy"/>
    <tag k="addr:housenumber" v="825"/>
    <tag k="addr:street" v="Work Road"/>
    <tag k="addr:state" v="VT"/>
    <tag k="ref:vcgi:esiteid" v="340444"/>
  </node>
  <node id="-454" visible="true" lat="44.879082384098" lon="-72.441789734167">
    <!-- conflict: "790 Carmel Road, Westfield, VT" Fuzzy match to "790 Carmel Road, , VT" -->
    <tag k="addr:city" v="Westfield"/>
    <tag k="addr:housenumber" v="790"/>
    <tag k="addr:street" v="Carmel Road"/>
    <tag k="addr:state" v="VT"/>
    <tag k="ref:vcgi:esiteid" v="340754"/>
  </node>
  <node id="-459" visible="true" lat="44.919714438592" lon="-72.429247438393">
    <!-- conflict: "2124 North Hill Road, Westfield, VT" Fuzzy match to "2124 North Hill Road, , VT" -->
    <tag k="addr:city" v="Westfield"/>
    <tag k="addr:housenumber" v="2124"/>
    <tag k="addr:street" v="North Hill Road"/>
    <tag k="addr:state" v="VT"/>
    <tag k="ref:vcgi:esiteid" v="343428"/>
  </node>
  <node id="-463" visible="true" lat="44.862717089952" lon="-72.429415006874">
    <!-- conflict: "187 Peaceful Ridge Drive, Westfield, VT" Fuzzy match to "187 Peaceful Ridge Drive, , VT" -->
    <tag k="addr:city" v="Westfield"/>
    <tag k="addr:housenumber" v="187"/>
    <tag k="addr:street" v="Peaceful Ridge Drive"/>
    <tag k="addr:state" v="VT"/>
    <tag k="ref:vcgi:esiteid" v="343432"/>
  </node>
  <node id="-465" visible="true" lat="44.84697243232" lon="-72.464904181312">
    <!-- conflict: "2482 Buck Hill Road, Westfield, VT" Fuzzy match to "2482 Buck Hill Road, , VT" -->
    <tag k="addr:city" v="Westfield"/>
    <tag k="addr:housenumber" v="2482"/>
    <tag k="addr:street" v="Buck Hill Road"/>
    <tag k="addr:state" v="VT"/>
    <tag k="ref:vcgi:esiteid" v="344364"/>
  </node>
  <node id="-466" visible="true" lat="44.864591924293" lon="-72.420327362036">
    <!-- conflict: "226 Mineral Spring Road, Westfield, VT" Fuzzy match to "226 Mineral Spring Road, , VT" -->
    <tag k="addr:city" v="Westfield"/>
    <tag k="addr:housenumber" v="226"/>
    <tag k="addr:street" v="Mineral Spring Road"/>
    <tag k="addr:state" v="VT"/>
    <tag k="ref:vcgi:esiteid" v="344427"/>
  </node>
  <node id="-468" visible="true" lat="44.870867049386" lon="-72.434955241189">
    <!-- conflict: "220 Buck Hill Road, Westfield, VT" Fuzzy match to "220 Buck Hill Road, , VT" -->
    <tag k="addr:city" v="Westfield"/>
    <tag k="addr:housenumber" v="220"/>
    <tag k="addr:street" v="Buck Hill Road"/>
    <tag k="addr:state" v="VT"/>
    <tag k="ref:vcgi:esiteid" v="345920"/>
  </node>
  <node id="-469" visible="true" lat="44.863774799319" lon="-72.429929081866">
    <!-- conflict: "127 Peaceful Ridge Drive, Westfield, VT" Fuzzy match to "127 Peaceful Ridge Drive, , VT" -->
    <tag k="addr:city" v="Westfield"/>
    <tag k="addr:housenumber" v="127"/>
    <tag k="addr:street" v="Peaceful Ridge Drive"/>
    <tag k="addr:state" v="VT"/>
    <tag k="ref:vcgi:esiteid" v="345921"/>
  </node>
  <node id="-473" visible="true" lat="44.90571307593" lon="-72.430813322221">
    <!-- conflict: "1202 North Hill Road, Westfield, VT" Fuzzy match to "1202 North Hill Road, , VT" -->
    <tag k="addr:city" v="Westfield"/>
    <tag k="addr:housenumber" v="1202"/>
    <tag k="addr:street" v="North Hill Road"/>
    <tag k="addr:state" v="VT"/>
    <tag k="ref:vcgi:esiteid" v="446628"/>
  </node>
  <node id="-475" visible="true" lat="44.879111922986" lon="-72.437200330478">
    <!-- conflict: "542 Carmel Road, Westfield, VT" Fuzzy match to "542 Carmel Road, , VT" -->
    <tag k="addr:city" v="Westfield"/>
    <tag k="addr:housenumber" v="542"/>
    <tag k="addr:street" v="Carmel Road"/>
    <tag k="addr:state" v="VT"/>
    <tag k="ref:vcgi:esiteid" v="448281"/>
  </node>
  <node id="-476" visible="true" lat="44.868577790302" lon="-72.443860866113">
    <!-- conflict: "239 Balance Rock Road, Westfield, VT" Fuzzy match to "239 Balance Rock Road, , VT" -->
    <tag k="addr:city" v="Westfield"/>
    <tag k="addr:housenumber" v="239"/>
    <tag k="addr:street" v="Balance Rock Road"/>
    <tag k="addr:state" v="VT"/>
    <tag k="ref:vcgi:esiteid" v="448308"/>
  </node>
  <node id="-483" visible="true" lat="44.905964382394" lon="-72.42735776056">
    <!-- conflict: "1248 North Hill Road, Westfield, VT" Fuzzy match to "1248 North Hill Road, , VT" -->
    <tag k="addr:city" v="Westfield"/>
    <tag k="addr:housenumber" v="1248"/>
    <tag k="addr:street" v="North Hill Road"/>
    <tag k="addr:state" v="VT"/>
    <tag k="ref:vcgi:esiteid" v="454920"/>
  </node>
  <node id="-485" visible="true" lat="44.870824858193" lon="-72.443335423242">
    <!-- conflict: "226 Balance Rock Road, Westfield, VT" Fuzzy match to "226 Balance Rock Road, , VT" -->
    <tag k="addr:city" v="Westfield"/>
    <tag k="addr:housenumber" v="226"/>
    <tag k="addr:street" v="Balance Rock Road"/>
    <tag k="addr:state" v="VT"/>
    <tag k="ref:vcgi:esiteid" v="611415"/>
  </node>
  <node id="-488" visible="true" lat="44.921771452775" lon="-72.430998468797">
    <!-- conflict: "37 Bonnies Way, Westfield, VT" Fuzzy match to "37 Bonnies Way, , VT" -->
    <tag k="addr:city" v="Westfield"/>
    <tag k="addr:housenumber" v="37"/>
    <tag k="addr:street" v="Bonnies Way"/>
    <tag k="addr:state" v="VT"/>
    <tag k="ref:vcgi:esiteid" v="612734"/>
  </node>
  <node id="-489" visible="true" lat="44.920283640717" lon="-72.417084197893">
    <!-- conflict: "126 Forest Haven Road, Westfield, VT" Fuzzy match to "126 Forest Haven Road, , VT" -->
    <tag k="addr:city" v="Westfield"/>
    <tag k="addr:housenumber" v="126"/>
    <tag k="addr:street" v="Forest Haven Road"/>
    <tag k="addr:state" v="VT"/>
    <tag k="ref:vcgi:esiteid" v="612736"/>
  </node>
  <node id="-490" visible="true" lat="44.896542701146" lon="-72.528710374934">
    <!-- conflict: "279 Enzian Drive, Montgomery Center, VT" Fuzzy match to "279 Enzian Drive, Westfield, VT" -->
    <tag k="addr:city" v="Montgomery Center"/>
    <tag k="addr:housenumber" v="279"/>
    <tag k="addr:street" v="Enzian Drive"/>
    <tag k="addr:state" v="VT"/>
    <tag k="ref:vcgi:esiteid" v="612737"/>
  </node>
  <node id="-491" visible="true" lat="44.897895086614" lon="-72.528664149816">
    <!-- conflict: "378 Enzian Drive, Montgomery Center, VT" Fuzzy match to "378 Enzian Drive, Westfield, VT" -->
    <tag k="addr:city" v="Montgomery Center"/>
    <tag k="addr:housenumber" v="378"/>
    <tag k="addr:street" v="Enzian Drive"/>
    <tag k="addr:state" v="VT"/>
    <tag k="ref:vcgi:esiteid" v="612738"/>
  </node>
  <node id="-492" visible="true" lat="44.897748487846" lon="-72.529334042084">
    <!-- conflict: "383 Enzian Drive, Montgomery Center, VT" Fuzzy match to "383 Enzian Drive, , VT" -->
    <tag k="addr:city" v="Montgomery Center"/>
    <tag k="addr:housenumber" v="383"/>
    <tag k="addr:street" v="Enzian Drive"/>
    <tag k="addr:state" v="VT"/>
    <tag k="ref:vcgi:esiteid" v="612739"/>
  </node>
  <node id="-493" visible="true" lat="44.901429825384" lon="-72.443171216198">
    <!-- conflict: "633 Kingdom Mountain Road, Westfield, VT" Fuzzy match to "633 Kingdom Mountain Road, , VT" -->
    <tag k="addr:city" v="Westfield"/>
    <tag k="addr:housenumber" v="633"/>
    <tag k="addr:street" v="Kingdom Mountain Road"/>
    <tag k="addr:state" v="VT"/>
    <tag k="ref:vcgi:esiteid" v="612740"/>
  </node>
  <node id="-502" visible="true" lat="44.844290522374" lon="-72.472860073134">
    <!-- conflict: "254 Legal Trail 4, Westfield, VT" Fuzzy match to "254 Legal Trail 4, , VT" -->
    <tag k="addr:city" v="Westfield"/>
    <tag k="addr:housenumber" v="254"/>
    <tag k="addr:street" v="Legal Trail 4"/>
    <tag k="addr:state" v="VT"/>
    <tag k="ref:vcgi:esiteid" v="612758"/>
  </node>
  <node id="-503" visible="true" lat="44.913430020766" lon="-72.423992232872">
    <!-- conflict: "919 Kennison Road, Westfield, VT" Fuzzy match to "919 Kennison Road, , VT" -->
    <tag k="addr:city" v="Westfield"/>
    <tag k="addr:housenumber" v="919"/>
    <tag k="addr:street" v="Kennison Road"/>
    <tag k="addr:state" v="VT"/>
    <tag k="ref:vcgi:esiteid" v="618199"/>
  </node>
  <node id="-504" visible="true" lat="44.854077793767" lon="-72.441880774772">
    <!-- conflict: "372 Sniderbrook Road, Westfield, VT" Fuzzy match to "372 Sniderbrook Road, , VT" -->
    <tag k="addr:city" v="Westfield"/>
    <tag k="addr:housenumber" v="372"/>
    <tag k="addr:street" v="Sniderbrook Road"/>
    <tag k="addr:state" v="VT"/>
    <tag k="ref:vcgi:esiteid" v="618210"/>
  </node>
  <node id="-505" visible="true" lat="44.907337140396" lon="-72.417990852875">
    <!-- conflict: "377 Kennison Road, Westfield, VT" Fuzzy match to "377 Kennison Road, , VT" -->
    <tag k="addr:city" v="Westfield"/>
    <tag k="addr:housenumber" v="377"/>
    <tag k="addr:street" v="Kennison Road"/>
    <tag k="addr:state" v="VT"/>
    <tag k="ref:vcgi:esiteid" v="618403"/>
  </node>
  <node id="-508" visible="true" lat="44.900437620235" lon="-72.430053418759">
    <!-- conflict: "812 North Hill Road, Westfield, VT" Fuzzy match to "812 North Hill Road, , VT" -->
    <tag k="addr:city" v="Westfield"/>
    <tag k="addr:housenumber" v="812"/>
    <tag k="addr:street" v="North Hill Road"/>
    <tag k="addr:state" v="VT"/>
    <tag k="ref:vcgi:esiteid" v="655663"/>
  </node>
  <node id="-509" visible="true" lat="44.888037144773" lon="-72.416480101135">
    <!-- conflict: "450 Loop Road, Westfield, VT" Fuzzy match to "450 Loop Road, , VT" -->
    <tag k="addr:city" v="Westfield"/>
    <tag k="addr:housenumber" v="450"/>
    <tag k="addr:street" v="Loop Road"/>
    <tag k="addr:state" v="VT"/>
    <tag k="ref:vcgi:esiteid" v="753578"/>
  </node>
  <node id="-511" visible="true" lat="44.892532003268" lon="-72.44497425111">
    <!-- conflict: "654 Ballground Road, Westfield, VT" Fuzzy match to "654 Ballground Road, , VT" -->
    <tag k="addr:city" v="Westfield"/>
    <tag k="addr:housenumber" v="654"/>
    <tag k="addr:street" v="Ballground Road"/>
    <tag k="addr:state" v="VT"/>
    <tag k="ref:vcgi:esiteid" v="754140"/>
  </node>
  <node id="-512" visible="true" lat="44.882785934235" lon="-72.430968156787">
    <!-- conflict: "52 Freedom Drive, Westfield, VT" Fuzzy match to "52 Freedom Drive, , VT" -->
    <tag k="addr:city" v="Westfield"/>
    <tag k="addr:housenumber" v="52"/>
    <tag k="addr:street" v="Freedom Drive"/>
    <tag k="addr:state" v="VT"/>
    <tag k="ref:vcgi:esiteid" v="754141"/>
  </node>
  <node id="-513" visible="true" lat="44.868746033906" lon="-72.460636673593">
    <!-- conflict: "589 Corrow Basin Road, Westfield, VT" Fuzzy match to "589 Corrow Basin Road, , VT" -->
    <tag k="addr:city" v="Westfield"/>
    <tag k="addr:housenumber" v="589"/>
    <tag k="addr:street" v="Corrow Basin Road"/>
    <tag k="addr:state" v="VT"/>
    <tag k="ref:vcgi:esiteid" v="754958"/>
  </node>
  <node id="-514" visible="true" lat="44.874685328773" lon="-72.455287593696">
    <!-- conflict: "615 Kettle Farm Road, Westfield, VT" Fuzzy match to "615 Kettle Farm Road, , VT" -->
    <tag k="addr:city" v="Westfield"/>
    <tag k="addr:housenumber" v="615"/>
    <tag k="addr:street" v="Kettle Farm Road"/>
    <tag k="addr:state" v="VT"/>
    <tag k="ref:vcgi:esiteid" v="755586"/>
  </node>
  <node id="-515" visible="true" lat="44.897441943938" lon="-72.520899086693">
    <!-- conflict: "1179 Vermont Route 242, Montgomery Center, VT" Fuzzy match to "1179 Vermont Route 242, , VT" -->
    <tag k="addr:city" v="Montgomery Center"/>
    <tag k="addr:housenumber" v="1179"/>
    <tag k="addr:street" v="Vermont Route 242"/>
    <tag k="addr:state" v="VT"/>
    <tag k="ref:vcgi:esiteid" v="756554"/>
  </node>
  <node id="-516" visible="true" lat="44.923689090424" lon="-72.430404294593">
    <!-- conflict: "2107 Kennison Road, Westfield, VT" Fuzzy match to "2107 Kennison Road, , VT" -->
    <tag k="addr:city" v="Westfield"/>
    <tag k="addr:housenumber" v="2107"/>
    <tag k="addr:street" v="Kennison Road"/>
    <tag k="addr:state" v="VT"/>
    <tag k="ref:vcgi:esiteid" v="756743"/>
  </node>
  <node id="-517" visible="true" lat="44.873549430402" lon="-72.433019565553">
    <!-- conflict: "2276 Vermont Route 100, Westfield, VT" Fuzzy match to "2276 Vermont Route 100, , VT" -->
    <tag k="addr:city" v="Westfield"/>
    <tag k="addr:housenumber" v="2276"/>
    <tag k="addr:street" v="Vermont Route 100"/>
    <tag k="addr:state" v="VT"/>
    <tag k="ref:vcgi:esiteid" v="758315"/>
  </node>
  <node id="-518" visible="true" lat="44.855840305199" lon="-72.436556075575">
    <!-- conflict: "3520 Vermont Route 100, Westfield, VT" Fuzzy match to "3520 Vermont Route 100, , VT" -->
    <tag k="addr:city" v="Westfield"/>
    <tag k="addr:housenumber" v="3520"/>
    <tag k="addr:street" v="Vermont Route 100"/>
    <tag k="addr:state" v="VT"/>
    <tag k="ref:vcgi:esiteid" v="759198"/>
  </node>
  <node id="-519" visible="true" lat="44.859848757336" lon="-72.448304810842">
    <!-- conflict: "1288 Buck Hill Road, Westfield, VT" Fuzzy match to "1288 Buck Hill Road, , VT" -->
    <tag k="addr:city" v="Westfield"/>
    <tag k="addr:housenumber" v="1288"/>
    <tag k="addr:street" v="Buck Hill Road"/>
    <tag k="addr:state" v="VT"/>
    <tag k="ref:vcgi:esiteid" v="760480"/>
  </node>
  <node id="-520" visible="true" lat="44.876291130694" lon="-72.432333971301">
    <!-- conflict: "2060 Vermont Route 100, Westfield, VT" Fuzzy match to "2060 Vermont Route 100, , VT" -->
    <tag k="addr:city" v="Westfield"/>
    <tag k="addr:housenumber" v="2060"/>
    <tag k="addr:street" v="Vermont Route 100"/>
    <tag k="addr:state" v="VT"/>
    <tag k="ref:vcgi:esiteid" v="760481"/>
  </node>
  <node id="-521" visible="true" lat="44.911302984281" lon="-72.427878770166">
    <!-- conflict: "296 Reservoir Road, Westfield, VT" Fuzzy match to "296 Reservoir Road, , VT" -->
    <tag k="addr:city" v="Westfield"/>
    <tag k="addr:housenumber" v="296"/>
    <tag k="addr:street" v="Reservoir Road"/>
    <tag k="addr:state" v="VT"/>
    <tag k="ref:vcgi:esiteid" v="761196"/>
  </node>
  <node id="-522" visible="true" lat="44.911012356915" lon="-72.429472882504">
    <!-- conflict: "386 Reservoir Road, Westfield, VT" Fuzzy match to "386 Reservoir Road, , VT" -->
    <tag k="addr:city" v="Westfield"/>
    <tag k="addr:housenumber" v="386"/>
    <tag k="addr:street" v="Reservoir Road"/>
    <tag k="addr:state" v="VT"/>
    <tag k="ref:vcgi:esiteid" v="761197"/>
  </node>
  <node id="-523" visible="true" lat="44.857710016396" lon="-72.43297401226">
    <!-- conflict: "3375 Vermont Route 100, Westfield, VT" Fuzzy match to "3375 Vermont Route 100, , VT" -->
    <tag k="addr:city" v="Westfield"/>
    <tag k="addr:housenumber" v="3375"/>
    <tag k="addr:street" v="Vermont Route 100"/>
    <tag k="addr:state" v="VT"/>
    <tag k="ref:vcgi:esiteid" v="761692"/>
  </node>
  <node id="-524" visible="true" lat="44.851521331989" lon="-72.405944841886">
    <!-- conflict: "5065 Loop Road, Westfield, VT" Fuzzy match to "5065 Loop Road, , VT" -->
    <tag k="addr:city" v="Westfield"/>
    <tag k="addr:housenumber" v="5065"/>
    <tag k="addr:street" v="Loop Road"/>
    <tag k="addr:state" v="VT"/>
    <tag k="ref:vcgi:esiteid" v="762084"/>
  </node>
  <node id="-525" visible="true" lat="44.844602461225" lon="-72.405742108863">
    <!-- conflict: "132 Carter Road, Westfield, VT" Fuzzy match to "132 Carter Road, , VT" -->
    <tag k="addr:city" v="Westfield"/>
    <tag k="addr:housenumber" v="132"/>
    <tag k="addr:street" v="Carter Road"/>
    <tag k="addr:state" v="VT"/>
    <tag k="ref:vcgi:esiteid" v="762085"/>
  </node>
  <node id="-526" visible="true" lat="44.870702158369" lon="-72.447803956025">
    <!-- conflict: "154 Kettle Farm Road, Westfield, VT" Fuzzy match to "154 Kettle Farm Road, , VT" -->
    <tag k="addr:city" v="Westfield"/>
    <tag k="addr:housenumber" v="154"/>
    <tag k="addr:street" v="Kettle Farm Road"/>
    <tag k="addr:state" v="VT"/>
    <tag k="ref:vcgi:esiteid" v="763134"/>
  </node>
  <node id="-527" visible="true" lat="44.892527278254" lon="-72.449054051236">
    <!-- conflict: "798 Ballground Road, Westfield, VT" Fuzzy match to "798 Ballground Road, , VT" -->
    <tag k="addr:city" v="Westfield"/>
    <tag k="addr:housenumber" v="798"/>
    <tag k="addr:street" v="Ballground Road"/>
    <tag k="addr:state" v="VT"/>
    <tag k="ref:vcgi:esiteid" v="763420"/>
  </node>
  <node id="-528" visible="true" lat="44.892268278751" lon="-72.450240009526">
    <!-- conflict: "862 Ballground Road, Westfield, VT" Fuzzy match to "862 Ballground Road, , VT" -->
    <tag k="addr:city" v="Westfield"/>
    <tag k="addr:housenumber" v="862"/>
    <tag k="addr:street" v="Ballground Road"/>
    <tag k="addr:state" v="VT"/>
    <tag k="ref:vcgi:esiteid" v="763421"/>
  </node>
  <node id="-529" visible="true" lat="44.857119076244" lon="-72.437869086633">
    <!-- conflict: "3518 Vermont Route 100, Westfield, VT" Fuzzy match to "3518 Vermont Route 100, , VT" -->
    <tag k="addr:city" v="Westfield"/>
    <tag k="addr:housenumber" v="3518"/>
    <tag k="addr:street" v="Vermont Route 100"/>
    <tag k="addr:state" v="VT"/>
    <tag k="ref:vcgi:esiteid" v="763958"/>
  </node>
  <node id="-530" visible="true" lat="44.893484996093" lon="-72.424262207608">
    <!-- conflict: "79 Sugarhouse Road, Westfield, VT" Fuzzy match to "79 Sugarhouse Road, , VT" -->
    <tag k="addr:city" v="Westfield"/>
    <tag k="addr:housenumber" v="79"/>
    <tag k="addr:street" v="Sugarhouse Road"/>
    <tag k="addr:state" v="VT"/>
    <tag k="ref:vcgi:esiteid" v="764939"/>
  </node>
  <node id="-531" visible="true" lat="44.890406084867" lon="-72.534373484392">
    <!-- conflict: "127 Waldhof Drive, Montgomery Center, VT" Fuzzy match to "127 Waldhof Drive, , VT" -->
    <tag k="addr:city" v="Montgomery Center"/>
    <tag k="addr:housenumber" v="127"/>
    <tag k="addr:street" v="Waldhof Drive"/>
    <tag k="addr:state" v="VT"/>
    <tag k="ref:vcgi:esiteid" v="768251"/>
  </node>
  <node id="-532" visible="true" lat="44.888791242013" lon="-72.534152492161">
    <!-- conflict: "77 Waldhof Drive, Montgomery Center, VT" Fuzzy match to "77 Waldhof Drive, , VT" -->
    <tag k="addr:city" v="Montgomery Center"/>
    <tag k="addr:housenumber" v="77"/>
    <tag k="addr:street" v="Waldhof Drive"/>
    <tag k="addr:state" v="VT"/>
    <tag k="ref:vcgi:esiteid" v="772706"/>
  </node>
  <node id="-533" visible="true" lat="44.913856454985" lon="-72.510185638277">
    <!-- conflict: "2571 Vermont Route 242, Montgomery Center, VT" Fuzzy match to "2571 Vermont Route 242, , VT" -->
    <tag k="addr:city" v="Montgomery Center"/>
    <tag k="addr:housenumber" v="2571"/>
    <tag k="addr:street" v="Vermont Route 242"/>
    <tag k="addr:state" v="VT"/>
    <tag k="ref:vcgi:esiteid" v="800152"/>
  </node>
  <node id="-536" visible="true" lat="44.842489576078" lon="-72.471451148954">
    <!-- conflict: "322 Legal Trail 4, Westfield, VT" Fuzzy match to "322 Legal Trail 4, , VT" -->
    <tag k="addr:city" v="Westfield"/>
    <tag k="addr:housenumber" v="322"/>
    <tag k="addr:street" v="Legal Trail 4"/>
    <tag k="addr:state" v="VT"/>
    <tag k="ref:vcgi:esiteid" v="900261"/>
  </node>
  <node id="-538" visible="true" lat="44.843625181134" lon="-72.457018826466">
    <!-- conflict: "462 Trumpass Road, Westfield, VT" Fuzzy match to "462 Trumpass Road, , VT" -->
    <tag k="addr:city" v="Westfield"/>
    <tag k="addr:housenumber" v="462"/>
    <tag k="addr:street" v="Trumpass Road"/>
    <tag k="addr:state" v="VT"/>
    <tag k="ref:vcgi:esiteid" v="900263"/>
  </node>
  <node id="-547" visible="true" lat="44.883877489897" lon="-72.495252024873">
    <!-- conflict: "2783 Corrow Basin Road, Westfield, VT" Fuzzy match to "2783 Corrow Basin Road, , VT" -->
    <tag k="addr:city" v="Westfield"/>
    <tag k="addr:housenumber" v="2783"/>
    <tag k="addr:street" v="Corrow Basin Road"/>
    <tag k="addr:state" v="VT"/>
    <tag k="ref:vcgi:esiteid" v="900282"/>
  </node>
  <node id="-551" visible="true" lat="44.920975573917" lon="-72.429933743879">
    <!-- conflict: "38 Bonnies Way, Westfield, VT" Fuzzy match to "38 Bonnies Way, , VT" -->
    <tag k="addr:city" v="Westfield"/>
    <tag k="addr:housenumber" v="38"/>
    <tag k="addr:street" v="Bonnies Way"/>
    <tag k="addr:state" v="VT"/>
    <tag k="ref:vcgi:esiteid" v="900289"/>
  </node>
  <node id="-552" visible="true" lat="44.920782569974" lon="-72.431315890336">
    <!-- conflict: "16 Bonnies Way, Westfield, VT" Fuzzy match to "16 Bonnies Way, , VT" -->
    <tag k="addr:city" v="Westfield"/>
    <tag k="addr:housenumber" v="16"/>
    <tag k="addr:street" v="Bonnies Way"/>
    <tag k="addr:state" v="VT"/>
    <tag k="ref:vcgi:esiteid" v="900291"/>
  </node>
</osm>
