<?xml version="1.0" encoding="UTF-8"?>
<osm version="0.6" generator="JOSM" upload="false">
  <node id="-516" visible="true" lat="43.88961430612" lon="-72.224630895226">
    <tag k="addr:city" v="Fairlee"/>
    <tag k="addr:housenumber" v="20"/>
    <tag k="addr:street" v="Passumpsic Point"/>
    <tag k="addr:state" v="VT"/>
    <tag k="ref:vcgi:esiteid" v="500078"/>
  </node>
  <node id="-579" visible="true" lat="43.90002730424" lon="-72.214555959106">
    <tag k="addr:city" v="Fairlee"/>
    <tag k="addr:housenumber" v="2752"/>
    <tag k="addr:street" v="244"/>
    <tag k="addr:state" v="VT"/>
    <tag k="ref:vcgi:esiteid" v="656706"/>
  </node>
</osm>
