<?xml version="1.0" encoding="UTF-8"?>
<osm version="0.6" generator="JOSM" upload="false">
  <node id="-101" visible="true" lat="43.664185002394" lon="-73.074668006994">
    <!-- conflict: "4296 Whipple Hollow Road, Florence, VT" Fuzzy match to "4296 Whipple Hollow Road, West Rutland, VT" -->
    <tag k="addr:city" v="Florence"/>
    <tag k="addr:housenumber" v="4296"/>
    <tag k="addr:street" v="Whipple Hollow Road"/>
    <tag k="addr:state" v="VT"/>
    <tag k="ref:vcgi:esiteid" v="279169"/>
  </node>
  <node id="-102" visible="true" lat="43.663772558568" lon="-73.075257306352">
    <!-- conflict: "4277 Whipple Hollow Road, Florence, VT" Fuzzy match to "4277 Whipple Hollow Road, West Rutland, VT" -->
    <tag k="addr:city" v="Florence"/>
    <tag k="addr:housenumber" v="4277"/>
    <tag k="addr:street" v="Whipple Hollow Road"/>
    <tag k="addr:state" v="VT"/>
    <tag k="ref:vcgi:esiteid" v="279170"/>
  </node>
  <node id="-103" visible="true" lat="43.660957981858" lon="-73.067940584545">
    <!-- conflict: "356 Bristols Road, Florence, VT" Fuzzy match to "356 Bristols Road, West Rutland, VT" -->
    <tag k="addr:city" v="Florence"/>
    <tag k="addr:housenumber" v="356"/>
    <tag k="addr:street" v="Bristols Road"/>
    <tag k="addr:state" v="VT"/>
    <tag k="ref:vcgi:esiteid" v="279171"/>
  </node>
  <node id="-104" visible="true" lat="43.660707097092" lon="-73.067649885216">
    <!-- conflict: "370 Bristols Road, Florence, VT" Fuzzy match to "370 Bristols Road, West Rutland, VT" -->
    <tag k="addr:city" v="Florence"/>
    <tag k="addr:housenumber" v="370"/>
    <tag k="addr:street" v="Bristols Road"/>
    <tag k="addr:state" v="VT"/>
    <tag k="ref:vcgi:esiteid" v="279172"/>
  </node>
  <node id="-105" visible="true" lat="43.661666066001" lon="-73.07437168342">
    <!-- conflict: "4067 Whipple Hollow Road, Florence, VT" Fuzzy match to "4067 Whipple Hollow Road, West Rutland, VT" -->
    <tag k="addr:city" v="Florence"/>
    <tag k="addr:housenumber" v="4067"/>
    <tag k="addr:street" v="Whipple Hollow Road"/>
    <tag k="addr:state" v="VT"/>
    <tag k="ref:vcgi:esiteid" v="279173"/>
  </node>
  <node id="-106" visible="true" lat="43.658870745235" lon="-73.072886440792">
    <!-- conflict: "3926 Whipple Hollow Road, Florence, VT" Fuzzy match to "3926 Whipple Hollow Road, West Rutland, VT" -->
    <tag k="addr:city" v="Florence"/>
    <tag k="addr:housenumber" v="3926"/>
    <tag k="addr:street" v="Whipple Hollow Road"/>
    <tag k="addr:state" v="VT"/>
    <tag k="ref:vcgi:esiteid" v="279174"/>
  </node>
  <node id="-107" visible="true" lat="43.656483912586" lon="-73.07037487052">
    <!-- conflict: "3776 Whipple Hollow Road, Florence, VT" Fuzzy match to "3776 Whipple Hollow Road, West Rutland, VT" -->
    <tag k="addr:city" v="Florence"/>
    <tag k="addr:housenumber" v="3776"/>
    <tag k="addr:street" v="Whipple Hollow Road"/>
    <tag k="addr:state" v="VT"/>
    <tag k="ref:vcgi:esiteid" v="279175"/>
  </node>
  <node id="-108" visible="true" lat="43.65612672781" lon="-73.075223203927">
    <!-- conflict: "3707 Whipple Hollow Road, Florence, VT" Fuzzy match to "3707 Whipple Hollow Road, West Rutland, VT" -->
    <tag k="addr:city" v="Florence"/>
    <tag k="addr:housenumber" v="3707"/>
    <tag k="addr:street" v="Whipple Hollow Road"/>
    <tag k="addr:state" v="VT"/>
    <tag k="ref:vcgi:esiteid" v="279176"/>
  </node>
  <node id="-109" visible="true" lat="43.654877924047" lon="-73.086297420909">
    <!-- conflict: "1057 State Forest Road, Florence, VT" Fuzzy match to "1057 State Forest Road, West Rutland, VT" -->
    <tag k="addr:city" v="Florence"/>
    <tag k="addr:housenumber" v="1057"/>
    <tag k="addr:street" v="State Forest Road"/>
    <tag k="addr:state" v="VT"/>
    <tag k="ref:vcgi:esiteid" v="279177"/>
  </node>
  <node id="-110" visible="true" lat="43.65473934253" lon="-73.07434681343">
    <!-- conflict: "3639 Whipple Hollow Road, Florence, VT" Fuzzy match to "3639 Whipple Hollow Road, West Rutland, VT" -->
    <tag k="addr:city" v="Florence"/>
    <tag k="addr:housenumber" v="3639"/>
    <tag k="addr:street" v="Whipple Hollow Road"/>
    <tag k="addr:state" v="VT"/>
    <tag k="ref:vcgi:esiteid" v="279178"/>
  </node>
  <node id="-111" visible="true" lat="43.654515528755" lon="-73.076272393634">
    <!-- conflict: "155 State Forest Road, Florence, VT" Fuzzy match to "155 State Forest Road, West Rutland, VT" -->
    <tag k="addr:city" v="Florence"/>
    <tag k="addr:housenumber" v="155"/>
    <tag k="addr:street" v="State Forest Road"/>
    <tag k="addr:state" v="VT"/>
    <tag k="ref:vcgi:esiteid" v="279179"/>
  </node>
  <node id="-112" visible="true" lat="43.652928743007" lon="-73.082531086675">
    <!-- conflict: "748 State Forest Road, Florence, VT" Fuzzy match to "748 State Forest Road, West Rutland, VT" -->
    <tag k="addr:city" v="Florence"/>
    <tag k="addr:housenumber" v="748"/>
    <tag k="addr:street" v="State Forest Road"/>
    <tag k="addr:state" v="VT"/>
    <tag k="ref:vcgi:esiteid" v="279180"/>
  </node>
  <node id="-113" visible="true" lat="43.654092096908" lon="-73.073571586336">
    <!-- conflict: "3600 Whipple Hollow Road, Florence, VT" Fuzzy match to "3600 Whipple Hollow Road, West Rutland, VT" -->
    <tag k="addr:city" v="Florence"/>
    <tag k="addr:housenumber" v="3600"/>
    <tag k="addr:street" v="Whipple Hollow Road"/>
    <tag k="addr:state" v="VT"/>
    <tag k="ref:vcgi:esiteid" v="279181"/>
  </node>
  <node id="-114" visible="true" lat="43.652472615693" lon="-73.073224215039">
    <!-- conflict: "3474 Whipple Hollow Road, Florence, VT" Fuzzy match to "3474 Whipple Hollow Road, West Rutland, VT" -->
    <tag k="addr:city" v="Florence"/>
    <tag k="addr:housenumber" v="3474"/>
    <tag k="addr:street" v="Whipple Hollow Road"/>
    <tag k="addr:state" v="VT"/>
    <tag k="ref:vcgi:esiteid" v="279182"/>
  </node>
  <node id="-115" visible="true" lat="43.65211227001" lon="-73.083665279005">
    <!-- conflict: "835 State Forest Road, Florence, VT" Fuzzy match to "835 State Forest Road, West Rutland, VT" -->
    <tag k="addr:city" v="Florence"/>
    <tag k="addr:housenumber" v="835"/>
    <tag k="addr:street" v="State Forest Road"/>
    <tag k="addr:state" v="VT"/>
    <tag k="ref:vcgi:esiteid" v="279183"/>
  </node>
  <node id="-116" visible="true" lat="43.651818538321" lon="-73.074830437225">
    <!-- conflict: "3463 Whipple Hollow Road, Florence, VT" Fuzzy match to "3463 Whipple Hollow Road, West Rutland, VT" -->
    <tag k="addr:city" v="Florence"/>
    <tag k="addr:housenumber" v="3463"/>
    <tag k="addr:street" v="Whipple Hollow Road"/>
    <tag k="addr:state" v="VT"/>
    <tag k="ref:vcgi:esiteid" v="279184"/>
  </node>
  <node id="-117" visible="true" lat="43.651757501245" lon="-73.082848934112">
    <!-- conflict: "799 State Forest Road, Florence, VT" Fuzzy match to "799 State Forest Road, West Rutland, VT" -->
    <tag k="addr:city" v="Florence"/>
    <tag k="addr:housenumber" v="799"/>
    <tag k="addr:street" v="State Forest Road"/>
    <tag k="addr:state" v="VT"/>
    <tag k="ref:vcgi:esiteid" v="279185"/>
  </node>
  <node id="-118" visible="true" lat="43.651901023477" lon="-73.073170163586">
    <!-- conflict: "3436 Whipple Hollow Road, Florence, VT" Fuzzy match to "3436 Whipple Hollow Road, West Rutland, VT" -->
    <tag k="addr:city" v="Florence"/>
    <tag k="addr:housenumber" v="3436"/>
    <tag k="addr:street" v="Whipple Hollow Road"/>
    <tag k="addr:state" v="VT"/>
    <tag k="ref:vcgi:esiteid" v="279186"/>
  </node>
  <node id="-119" visible="true" lat="43.651559138394" lon="-73.07361736422">
    <!-- conflict: "3427 Whipple Hollow Road, Florence, VT" Fuzzy match to "3427 Whipple Hollow Road, West Rutland, VT" -->
    <tag k="addr:city" v="Florence"/>
    <tag k="addr:housenumber" v="3427"/>
    <tag k="addr:street" v="Whipple Hollow Road"/>
    <tag k="addr:state" v="VT"/>
    <tag k="ref:vcgi:esiteid" v="279187"/>
  </node>
  <node id="-120" visible="true" lat="43.650769495561" lon="-73.071877859699">
    <!-- conflict: "3346 Whipple Hollow Road, Florence, VT" Fuzzy match to "3346 Whipple Hollow Road, West Rutland, VT" -->
    <tag k="addr:city" v="Florence"/>
    <tag k="addr:housenumber" v="3346"/>
    <tag k="addr:street" v="Whipple Hollow Road"/>
    <tag k="addr:state" v="VT"/>
    <tag k="ref:vcgi:esiteid" v="279188"/>
  </node>
  <node id="-121" visible="true" lat="43.650594019508" lon="-73.072762870233">
    <!-- conflict: "3344 Whipple Hollow Road, Florence, VT" Fuzzy match to "3344 Whipple Hollow Road, West Rutland, VT" -->
    <tag k="addr:city" v="Florence"/>
    <tag k="addr:housenumber" v="3344"/>
    <tag k="addr:street" v="Whipple Hollow Road"/>
    <tag k="addr:state" v="VT"/>
    <tag k="ref:vcgi:esiteid" v="279189"/>
  </node>
  <node id="-122" visible="true" lat="43.650243067341" lon="-73.071275139188">
    <!-- conflict: "3330 Whipple Hollow Road, Florence, VT" Fuzzy match to "3330 Whipple Hollow Road, West Rutland, VT" -->
    <tag k="addr:city" v="Florence"/>
    <tag k="addr:housenumber" v="3330"/>
    <tag k="addr:street" v="Whipple Hollow Road"/>
    <tag k="addr:state" v="VT"/>
    <tag k="ref:vcgi:esiteid" v="279190"/>
  </node>
  <node id="-123" visible="true" lat="43.649533534057" lon="-73.072686575353">
    <!-- conflict: "3282 Whipple Hollow Road, Florence, VT" Fuzzy match to "3282 Whipple Hollow Road, West Rutland, VT" -->
    <tag k="addr:city" v="Florence"/>
    <tag k="addr:housenumber" v="3282"/>
    <tag k="addr:street" v="Whipple Hollow Road"/>
    <tag k="addr:state" v="VT"/>
    <tag k="ref:vcgi:esiteid" v="279191"/>
  </node>
  <node id="-124" visible="true" lat="43.648030541957" lon="-73.071961783561">
    <!-- conflict: "3170 Whipple Hollow Road, Florence, VT" Fuzzy match to "3170 Whipple Hollow Road, West Rutland, VT" -->
    <tag k="addr:city" v="Florence"/>
    <tag k="addr:housenumber" v="3170"/>
    <tag k="addr:street" v="Whipple Hollow Road"/>
    <tag k="addr:state" v="VT"/>
    <tag k="ref:vcgi:esiteid" v="279192"/>
  </node>
  <node id="-125" visible="true" lat="43.646397853019" lon="-73.072427176533">
    <!-- conflict: "3075 Whipple Hollow Road, Florence, VT" Fuzzy match to "3075 Whipple Hollow Road, West Rutland, VT" -->
    <tag k="addr:city" v="Florence"/>
    <tag k="addr:housenumber" v="3075"/>
    <tag k="addr:street" v="Whipple Hollow Road"/>
    <tag k="addr:state" v="VT"/>
    <tag k="ref:vcgi:esiteid" v="279193"/>
  </node>
  <node id="-126" visible="true" lat="43.644398949839" lon="-73.069756887528">
    <!-- conflict: "2891 Whipple Hollow Road, Florence, VT" Fuzzy match to "2891 Whipple Hollow Road, West Rutland, VT" -->
    <tag k="addr:city" v="Florence"/>
    <tag k="addr:housenumber" v="2891"/>
    <tag k="addr:street" v="Whipple Hollow Road"/>
    <tag k="addr:state" v="VT"/>
    <tag k="ref:vcgi:esiteid" v="279194"/>
  </node>
  <node id="-127" visible="true" lat="43.643357538169" lon="-73.069558523041">
    <!-- conflict: "2811 Whipple Hollow Road, Florence, VT" Fuzzy match to "2811 Whipple Hollow Road, West Rutland, VT" -->
    <tag k="addr:city" v="Florence"/>
    <tag k="addr:housenumber" v="2811"/>
    <tag k="addr:street" v="Whipple Hollow Road"/>
    <tag k="addr:state" v="VT"/>
    <tag k="ref:vcgi:esiteid" v="279195"/>
  </node>
  <node id="-129" visible="true" lat="43.637055897255" lon="-73.068070848578">
    <!-- conflict: "2345 Whipple Hollow Road, Florence, VT" Fuzzy match to "2345 Whipple Hollow Road, West Rutland, VT" -->
    <tag k="addr:city" v="Florence"/>
    <tag k="addr:housenumber" v="2345"/>
    <tag k="addr:street" v="Whipple Hollow Road"/>
    <tag k="addr:state" v="VT"/>
    <tag k="ref:vcgi:esiteid" v="279197"/>
  </node>
  <node id="-130" visible="true" lat="43.63642635759" lon="-73.067478552261">
    <!-- conflict: "2302 Whipple Hollow Road, Florence, VT" Fuzzy match to "2302 Whipple Hollow Road, West Rutland, VT" -->
    <tag k="addr:city" v="Florence"/>
    <tag k="addr:housenumber" v="2302"/>
    <tag k="addr:street" v="Whipple Hollow Road"/>
    <tag k="addr:state" v="VT"/>
    <tag k="ref:vcgi:esiteid" v="279198"/>
  </node>
  <node id="-131" visible="true" lat="43.636339700156" lon="-73.067854044045">
    <!-- conflict: "2301 Whipple Hollow Road, Florence, VT" Fuzzy match to "2301 Whipple Hollow Road, West Rutland, VT" -->
    <tag k="addr:city" v="Florence"/>
    <tag k="addr:housenumber" v="2301"/>
    <tag k="addr:street" v="Whipple Hollow Road"/>
    <tag k="addr:state" v="VT"/>
    <tag k="ref:vcgi:esiteid" v="279199"/>
  </node>
  <node id="-132" visible="true" lat="43.634260325179" lon="-73.068325280872">
    <!-- conflict: "2155 Whipple Hollow Road, Florence, VT" Fuzzy match to "2155 Whipple Hollow Road, West Rutland, VT" -->
    <tag k="addr:city" v="Florence"/>
    <tag k="addr:housenumber" v="2155"/>
    <tag k="addr:street" v="Whipple Hollow Road"/>
    <tag k="addr:state" v="VT"/>
    <tag k="ref:vcgi:esiteid" v="279200"/>
  </node>
  <node id="-133" visible="true" lat="43.633937520463" lon="-73.068449373003">
    <!-- conflict: "2117 Whipple Hollow Road, Florence, VT" Fuzzy match to "2117 Whipple Hollow Road, West Rutland, VT" -->
    <tag k="addr:city" v="Florence"/>
    <tag k="addr:housenumber" v="2117"/>
    <tag k="addr:street" v="Whipple Hollow Road"/>
    <tag k="addr:state" v="VT"/>
    <tag k="ref:vcgi:esiteid" v="279201"/>
  </node>
  <node id="-134" visible="true" lat="43.633160208288" lon="-73.069739463206">
    <!-- conflict: "2071 Whipple Hollow Road, Florence, VT" Fuzzy match to "2071 Whipple Hollow Road, West Rutland, VT" -->
    <tag k="addr:city" v="Florence"/>
    <tag k="addr:housenumber" v="2071"/>
    <tag k="addr:street" v="Whipple Hollow Road"/>
    <tag k="addr:state" v="VT"/>
    <tag k="ref:vcgi:esiteid" v="279202"/>
  </node>
  <node id="-155" visible="true" lat="43.624474976721" lon="-73.078121364751">
    <!-- conflict: "1010 Tuckaway Pond Lane, West Rutland, VT" No match in OSM, but a different address exists <5m away: "1010 Hang Gliding Road, West Rutland, VT" -->
    <tag k="addr:city" v="West Rutland"/>
    <tag k="addr:housenumber" v="1010"/>
    <tag k="addr:street" v="Tuckaway Pond Lane"/>
    <tag k="addr:state" v="VT"/>
    <tag k="ref:vcgi:esiteid" v="279223"/>
  </node>
  <node id="-269" visible="true" lat="43.60625310873" lon="-73.085178256261">
    <!-- conflict: "1040 Castleton Road, Castleton, VT" Fuzzy match to "1040 Castleton Road, West Rutland, VT" -->
    <tag k="addr:city" v="Castleton"/>
    <tag k="addr:housenumber" v="1040"/>
    <tag k="addr:street" v="Castleton Road"/>
    <tag k="addr:state" v="VT"/>
    <tag k="ref:vcgi:esiteid" v="279346"/>
  </node>
  <node id="-275" visible="true" lat="43.60577327894" lon="-73.083838068549">
    <!-- conflict: "992 Castleton Road, Castleton, VT" Fuzzy match to "992 Castleton Road, West Rutland, VT" -->
    <tag k="addr:city" v="Castleton"/>
    <tag k="addr:housenumber" v="992"/>
    <tag k="addr:street" v="Castleton Road"/>
    <tag k="addr:state" v="VT"/>
    <tag k="ref:vcgi:esiteid" v="279353"/>
  </node>
  <node id="-276" visible="true" lat="43.605529667873" lon="-73.083084671243">
    <!-- conflict: "952 Castleton Road, Castleton, VT" Fuzzy match to "952 Castleton Road, West Rutland, VT" -->
    <tag k="addr:city" v="Castleton"/>
    <tag k="addr:housenumber" v="952"/>
    <tag k="addr:street" v="Castleton Road"/>
    <tag k="addr:state" v="VT"/>
    <tag k="ref:vcgi:esiteid" v="279354"/>
  </node>
  <node id="-286" visible="true" lat="43.60507008432" lon="-73.084258985247">
    <!-- conflict: "949 Castleton Road, Castleton, VT" Fuzzy match to "949 Castleton Road, West Rutland, VT" -->
    <tag k="addr:city" v="Castleton"/>
    <tag k="addr:housenumber" v="949"/>
    <tag k="addr:street" v="Castleton Road"/>
    <tag k="addr:state" v="VT"/>
    <tag k="ref:vcgi:esiteid" v="279366"/>
  </node>
  <node id="-290" visible="true" lat="43.605089522616" lon="-73.083016564085">
    <!-- conflict: "933 Castleton Road, Castleton, VT" Fuzzy match to "933 Castleton Road, West Rutland, VT" -->
    <tag k="addr:city" v="Castleton"/>
    <tag k="addr:housenumber" v="933"/>
    <tag k="addr:street" v="Castleton Road"/>
    <tag k="addr:state" v="VT"/>
    <tag k="ref:vcgi:esiteid" v="279370"/>
  </node>
  <node id="-304" visible="true" lat="43.604482167572" lon="-73.077875944868">
    <!-- conflict: "670 Castleton Road, Castleton, VT" Fuzzy match to "670 Castleton Road, West Rutland, VT" -->
    <tag k="addr:city" v="Castleton"/>
    <tag k="addr:housenumber" v="670"/>
    <tag k="addr:street" v="Castleton Road"/>
    <tag k="addr:state" v="VT"/>
    <tag k="ref:vcgi:esiteid" v="279384"/>
  </node>
  <node id="-317" visible="true" lat="43.604251175916" lon="-73.079392386747">
    <!-- conflict: "737 Castleton Road, Castleton, VT" Fuzzy match to "737 Castleton Road, West Rutland, VT" -->
    <tag k="addr:city" v="Castleton"/>
    <tag k="addr:housenumber" v="737"/>
    <tag k="addr:street" v="Castleton Road"/>
    <tag k="addr:state" v="VT"/>
    <tag k="ref:vcgi:esiteid" v="279398"/>
  </node>
  <node id="-320" visible="true" lat="43.604164190231" lon="-73.078380956909">
    <!-- conflict: "695 Castleton Road, Castleton, VT" Fuzzy match to "695 Castleton Road, West Rutland, VT" -->
    <tag k="addr:city" v="Castleton"/>
    <tag k="addr:housenumber" v="695"/>
    <tag k="addr:street" v="Castleton Road"/>
    <tag k="addr:state" v="VT"/>
    <tag k="ref:vcgi:esiteid" v="279401"/>
  </node>
  <node id="-323" visible="true" lat="43.603867784062" lon="-73.068322558793">
    <!-- conflict: "159 Castleton Road, Castleton, VT" Fuzzy match to "159 Castleton Road, West Rutland, VT" -->
    <tag k="addr:city" v="Castleton"/>
    <tag k="addr:housenumber" v="159"/>
    <tag k="addr:street" v="Castleton Road"/>
    <tag k="addr:state" v="VT"/>
    <tag k="ref:vcgi:esiteid" v="279404"/>
  </node>
  <node id="-343" visible="true" lat="43.602948442791" lon="-73.074647329514">
    <!-- conflict: "437 Castleton Road, Castleton, VT" Fuzzy match to "437 Castleton Road, West Rutland, VT" -->
    <tag k="addr:city" v="Castleton"/>
    <tag k="addr:housenumber" v="437"/>
    <tag k="addr:street" v="Castleton Road"/>
    <tag k="addr:state" v="VT"/>
    <tag k="ref:vcgi:esiteid" v="279426"/>
  </node>
  <node id="-994" visible="true" lat="43.662675419325" lon="-73.076563259246">
    <!-- conflict: "4247 Whipple Hollow Road, Florence, VT" Fuzzy match to "4247 Whipple Hollow Road, West Rutland, VT" -->
    <tag k="addr:city" v="Florence"/>
    <tag k="addr:housenumber" v="4247"/>
    <tag k="addr:street" v="Whipple Hollow Road"/>
    <tag k="addr:state" v="VT"/>
    <tag k="ref:vcgi:esiteid" v="280131"/>
  </node>
  <node id="-997" visible="true" lat="43.623545153857" lon="-73.084929955633">
    <!-- conflict: "1730 Tuckaway Pond Lane, West Rutland, VT" No match in OSM, but a different address exists <5m away: "1730 Hang Gliding Road, West Rutland, VT" -->
    <tag k="addr:city" v="West Rutland"/>
    <tag k="addr:housenumber" v="1730"/>
    <tag k="addr:street" v="Tuckaway Pond Lane"/>
    <tag k="addr:state" v="VT"/>
    <tag k="ref:vcgi:esiteid" v="280134"/>
  </node>
  <node id="-999" visible="true" lat="43.662712028349" lon="-73.074137449497">
    <!-- conflict: "4144 Whipple Hollow Road, Florence, VT" Fuzzy match to "4144 Whipple Hollow Road, West Rutland, VT" -->
    <tag k="addr:city" v="Florence"/>
    <tag k="addr:housenumber" v="4144"/>
    <tag k="addr:street" v="Whipple Hollow Road"/>
    <tag k="addr:state" v="VT"/>
    <tag k="ref:vcgi:esiteid" v="280136"/>
  </node>
  <node id="-1013" visible="true" lat="43.642336674027" lon="-73.068525884172">
    <!-- conflict: "2762 Whipple Hollow Road, Florence, VT" Fuzzy match to "2762 Whipple Hollow Road, West Rutland, VT" -->
    <tag k="addr:city" v="Florence"/>
    <tag k="addr:housenumber" v="2762"/>
    <tag k="addr:street" v="Whipple Hollow Road"/>
    <tag k="addr:state" v="VT"/>
    <tag k="ref:vcgi:esiteid" v="280150"/>
  </node>
  <node id="-1014" visible="true" lat="43.661693308162" lon="-73.072716910979">
    <!-- conflict: "65 Bristols Road, Florence, VT" Fuzzy match to "65 Bristols Road, West Rutland, VT" -->
    <tag k="addr:city" v="Florence"/>
    <tag k="addr:housenumber" v="65"/>
    <tag k="addr:street" v="Bristols Road"/>
    <tag k="addr:state" v="VT"/>
    <tag k="ref:vcgi:esiteid" v="280151"/>
  </node>
  <node id="-1033" visible="true" lat="43.66218626844" lon="-73.073981062484">
    <!-- conflict: "4086 Whipple Hollow Road, Florence, VT" Fuzzy match to "4086 Whipple Hollow Road, West Rutland, VT" -->
    <tag k="addr:city" v="Florence"/>
    <tag k="addr:housenumber" v="4086"/>
    <tag k="addr:street" v="Whipple Hollow Road"/>
    <tag k="addr:state" v="VT"/>
    <tag k="ref:vcgi:esiteid" v="280174"/>
  </node>
  <node id="-1047" visible="true" lat="43.652775269815" lon="-73.074571859026">
    <!-- conflict: "3475 Whipple Hollow Road, Florence, VT" Fuzzy match to "3475 Whipple Hollow Road, West Rutland, VT" -->
    <tag k="addr:city" v="Florence"/>
    <tag k="addr:housenumber" v="3475"/>
    <tag k="addr:street" v="Whipple Hollow Road"/>
    <tag k="addr:state" v="VT"/>
    <tag k="ref:vcgi:esiteid" v="311804"/>
  </node>
  <node id="-1051" visible="true" lat="43.65200643203" lon="-73.072433398476">
    <!-- conflict: "3456 Whipple Hollow Road, Florence, VT" Fuzzy match to "3456 Whipple Hollow Road, West Rutland, VT" -->
    <tag k="addr:city" v="Florence"/>
    <tag k="addr:housenumber" v="3456"/>
    <tag k="addr:street" v="Whipple Hollow Road"/>
    <tag k="addr:state" v="VT"/>
    <tag k="ref:vcgi:esiteid" v="311808"/>
  </node>
  <node id="-1053" visible="true" lat="43.656135103043" lon="-73.076746546585">
    <!-- conflict: "152 State Forest Road, Florence, VT" Fuzzy match to "152 State Forest Road, West Rutland, VT" -->
    <tag k="addr:city" v="Florence"/>
    <tag k="addr:housenumber" v="152"/>
    <tag k="addr:street" v="State Forest Road"/>
    <tag k="addr:state" v="VT"/>
    <tag k="ref:vcgi:esiteid" v="326475"/>
  </node>
  <node id="-1093" visible="true" lat="43.604475544712" lon="-73.080668316901">
    <!-- conflict: "799 Castleton Road, Castleton, VT" Fuzzy match to "799 Castleton Road, West Rutland, VT" -->
    <tag k="addr:city" v="Castleton"/>
    <tag k="addr:housenumber" v="799"/>
    <tag k="addr:street" v="Castleton Road"/>
    <tag k="addr:state" v="VT"/>
    <tag k="ref:vcgi:esiteid" v="755356"/>
  </node>
</osm>
