<?xml version="1.0" encoding="UTF-8"?>
<osm version="0.6" generator="JOSM" upload="false">
  <node id="-898" visible="true" lat="43.50264267" lon="-72.47256618">
    <tag k="addr:housenumber" v="2746"/>
    <tag k="addr:street" v="Brownsville-Hartland Road"/>
    <tag k="addr:state" v="VT"/>
    <tag k="ref:vcgi:esiteid" v="655249"/>
  </node>
  <node id="-906" visible="true" lat="43.50718238" lon="-72.4556858">
    <tag k="addr:housenumber" v="41"/>
    <tag k="addr:street" v="Bald Hill Road"/>
    <tag k="addr:state" v="VT"/>
    <tag k="ref:vcgi:esiteid" v="656592"/>
  </node>
  <node id="-907" visible="true" lat="43.50801933" lon="-72.45276923">
    <tag k="addr:housenumber" v="394"/>
    <tag k="addr:street" v="Weeden Hill Road"/>
    <tag k="addr:state" v="VT"/>
    <tag k="ref:vcgi:esiteid" v="656593"/>
  </node>
  <node id="-908" visible="true" lat="43.48156138" lon="-72.46588599">
    <tag k="addr:housenumber" v="156"/>
    <tag k="addr:street" v="Edson Burke Road"/>
    <tag k="addr:state" v="VT"/>
    <tag k="ref:vcgi:esiteid" v="656594"/>
  </node>
</osm>
