<?xml version="1.0" encoding="UTF-8"?>
<osm version="0.6" generator="JOSM" upload="false">
  <node id="-1639" visible="true" lat="44.151105317928" lon="-72.530632987964">
    <tag k="addr:city" v="Williamstown"/>
    <tag k="addr:housenumber" v="55"/>
    <tag k="addr:street" v="Bluebird Road"/>
    <tag k="addr:state" v="VT"/>
    <tag k="ref:vcgi:esiteid" v="656645"/>
  </node>
  <node id="-1640" visible="true" lat="44.103244582721" lon="-72.605904676537">
    <tag k="addr:city" v="Williamstown"/>
    <tag k="addr:housenumber" v="143"/>
    <tag k="addr:street" v="Emzaga Drive"/>
    <tag k="addr:state" v="VT"/>
    <tag k="ref:vcgi:esiteid" v="656646"/>
  </node>
  <node id="-1641" visible="true" lat="44.117097755147" lon="-72.538392670154">
    <tag k="addr:city" v="Williamstown"/>
    <tag k="addr:housenumber" v="105"/>
    <tag k="addr:street" v="Business Center Road"/>
    <tag k="addr:state" v="VT"/>
    <tag k="ref:vcgi:esiteid" v="656649"/>
  </node>
  <node id="-1829" visible="true" lat="44.129127580323" lon="-72.494176375299">
    <tag k="addr:city" v="Williamstown"/>
    <tag k="addr:housenumber" v="21"/>
    <tag k="addr:street" v="Adams Road"/>
    <tag k="addr:state" v="VT"/>
    <tag k="ref:vcgi:esiteid" v="773790"/>
  </node>
</osm>
