<?xml version="1.0" encoding="UTF-8"?>
<osm version="0.6" generator="JOSM" upload="false">
  <node id="-1072" visible="true" lat="44.452439812901" lon="-73.068718061936">
    <!-- conflict: "32 Breezy Meadow, Williston, VT" Fuzzy match to "32 Breezy Meadows, Williston, VT" -->
    <tag k="addr:city" v="Williston"/>
    <tag k="addr:housenumber" v="32"/>
    <tag k="addr:street" v="Breezy Meadow"/>
    <tag k="addr:state" v="VT"/>
    <tag k="ref:vcgi:esiteid" v="289611"/>
  </node>
  <node id="-1201" visible="true" lat="44.450163961579" lon="-73.111362302395">
    <!-- conflict: "2200 Williston Road, Williston, VT" No match in OSM, but a different address exists <5m away: "2200 Essex Road, Williston, VT" -->
    <tag k="addr:city" v="Williston"/>
    <tag k="addr:housenumber" v="2200"/>
    <tag k="addr:street" v="Williston Road"/>
    <tag k="addr:state" v="VT"/>
    <tag k="ref:vcgi:esiteid" v="289775"/>
  </node>
  <node id="-1788" visible="true" lat="44.437860945138" lon="-73.068935929773">
    <!-- conflict: "8099 Country Club Road, Williston, VT" No match in OSM, but a different address exists <5m away: "8099 Williston Road, Williston, VT" -->
    <tag k="addr:city" v="Williston"/>
    <tag k="addr:housenumber" v="8099"/>
    <tag k="addr:street" v="Country Club Road"/>
    <tag k="addr:state" v="VT"/>
    <tag k="ref:vcgi:esiteid" v="290526"/>
  </node>
  <node id="-1790" visible="true" lat="44.437718450444" lon="-73.068435020607">
    <!-- conflict: "21 Country Club Road, Williston, VT" No match in OSM, but a different address exists <5m away: "21 North Williston Road, Williston, VT" -->
    <tag k="addr:city" v="Williston"/>
    <tag k="addr:housenumber" v="21"/>
    <tag k="addr:street" v="Country Club Road"/>
    <tag k="addr:state" v="VT"/>
    <tag k="ref:vcgi:esiteid" v="290529"/>
  </node>
  <node id="-1792" visible="true" lat="44.437591196398" lon="-73.069921083087">
    <!-- conflict: "8052 Country Club Road, Williston, VT" No match in OSM, but a different address exists <5m away: "8052 Williston Road, Williston, VT" -->
    <tag k="addr:city" v="Williston"/>
    <tag k="addr:housenumber" v="8052"/>
    <tag k="addr:street" v="Country Club Road"/>
    <tag k="addr:state" v="VT"/>
    <tag k="ref:vcgi:esiteid" v="290532"/>
  </node>
  <node id="-2543" visible="true" lat="44.452464698111" lon="-73.067911988718">
    <!-- conflict: "27 Breezy Meadow, Williston, VT" Fuzzy match to "27 Breezy Meadows, Williston, VT" -->
    <tag k="addr:city" v="Williston"/>
    <tag k="addr:housenumber" v="27"/>
    <tag k="addr:street" v="Breezy Meadow"/>
    <tag k="addr:state" v="VT"/>
    <tag k="ref:vcgi:esiteid" v="291347"/>
  </node>
  <node id="-2591" visible="true" lat="44.444216305248" lon="-73.077109693968">
    <!-- conflict: "66 Valley Road, Williston, VT" No match in OSM, but a different address exists <5m away: "66 Germaine Court, Williston, VT" -->
    <tag k="addr:city" v="Williston"/>
    <tag k="addr:housenumber" v="66"/>
    <tag k="addr:street" v="Valley Road"/>
    <tag k="addr:state" v="VT"/>
    <tag k="ref:vcgi:esiteid" v="291401"/>
  </node>
  <node id="-2604" visible="true" lat="44.370800069486" lon="-73.081903836718">
    <!-- conflict: "277 Dimick Road, Hinesburg, VT" Fuzzy match to "277 Dimick Road, Williston, VT" -->
    <tag k="addr:city" v="Hinesburg"/>
    <tag k="addr:housenumber" v="277"/>
    <tag k="addr:street" v="Dimick Road"/>
    <tag k="addr:state" v="VT"/>
    <tag k="ref:vcgi:esiteid" v="291418"/>
  </node>
  <node id="-3082" visible="true" lat="44.451696319884" lon="-73.068842865244">
    <!-- conflict: "36 Breezy Meadow, Williston, VT" Fuzzy match to "36 Breezy Meadows, Williston, VT" -->
    <tag k="addr:city" v="Williston"/>
    <tag k="addr:housenumber" v="36"/>
    <tag k="addr:street" v="Breezy Meadow"/>
    <tag k="addr:state" v="VT"/>
    <tag k="ref:vcgi:esiteid" v="291943"/>
  </node>
  <node id="-3145" visible="true" lat="44.403120789544" lon="-73.119880799886">
    <!-- conflict: "325 Butternut Road, Williston, VT" No match in OSM, but a different address exists <5m away: "413 Butternut Road, Williston, VT" -->
    <tag k="addr:city" v="Williston"/>
    <tag k="addr:housenumber" v="325"/>
    <tag k="addr:street" v="Butternut Road"/>
    <tag k="addr:state" v="VT"/>
    <tag k="ref:vcgi:esiteid" v="292007"/>
  </node>
  <node id="-3641" visible="true" lat="44.437806011976" lon="-73.068413198133">
    <!-- conflict: "25 Country Club Road, Williston, VT" No match in OSM, but a different address exists <5m away: "25 North Williston Road, Williston, VT" -->
    <tag k="addr:city" v="Williston"/>
    <tag k="addr:housenumber" v="25"/>
    <tag k="addr:street" v="Country Club Road"/>
    <tag k="addr:state" v="VT"/>
    <tag k="ref:vcgi:esiteid" v="292527"/>
  </node>
  <node id="-4270" visible="true" lat="44.438047025752" lon="-73.068750160805">
    <!-- conflict: "8101 Country Club Road, Williston, VT" No match in OSM, but a different address exists <5m away: "8101 Williston Road, Williston, VT" -->
    <tag k="addr:city" v="Williston"/>
    <tag k="addr:housenumber" v="8101"/>
    <tag k="addr:street" v="Country Club Road"/>
    <tag k="addr:state" v="VT"/>
    <tag k="ref:vcgi:esiteid" v="450187"/>
  </node>
  <node id="-4428" visible="true" lat="44.452165430603" lon="-73.068594049835">
    <!-- conflict: "34 Breezy Meadow, Williston, VT" Fuzzy match to "34 Breezy Meadows, Williston, VT" -->
    <tag k="addr:city" v="Williston"/>
    <tag k="addr:housenumber" v="34"/>
    <tag k="addr:street" v="Breezy Meadow"/>
    <tag k="addr:state" v="VT"/>
    <tag k="ref:vcgi:esiteid" v="700012"/>
  </node>
  <node id="-4731" visible="true" lat="44.456945747628" lon="-73.128977991313">
    <!-- conflict: "20 Williston Road, Williston, VT" No match in OSM, but a different address exists <5m away: "4840 Williston Road, Williston, VT" -->
    <tag k="addr:city" v="Williston"/>
    <tag k="addr:housenumber" v="20"/>
    <tag k="addr:street" v="Williston Road"/>
    <tag k="addr:state" v="VT"/>
    <tag k="ref:vcgi:esiteid" v="770266"/>
  </node>
</osm>
