<?xml version="1.0" encoding="UTF-8"?>
<osm version="0.6" generator="JOSM" upload="false">
  <node id="-101" visible="true" lat="43.228890854366" lon="-72.724190951575">
    <!-- conflict: "173 Horsenail Hill Road, Chester, VT" Fuzzy match to "173 Horsenail Hill Road, , VT" -->
    <tag k="addr:city" v="Chester"/>
    <tag k="addr:housenumber" v="173"/>
    <tag k="addr:street" v="Horsenail Hill Road"/>
    <tag k="addr:state" v="VT"/>
    <tag k="ref:vcgi:esiteid" v="294943"/>
  </node>
  <node id="-102" visible="true" lat="43.228207786626" lon="-72.72113919032">
    <!-- conflict: "63 Town Highway 4, Chester, VT" Fuzzy match to "63 Town Highway 4, Windham, VT" -->
    <tag k="addr:city" v="Chester"/>
    <tag k="addr:housenumber" v="63"/>
    <tag k="addr:street" v="Town Highway 4"/>
    <tag k="addr:state" v="VT"/>
    <tag k="ref:vcgi:esiteid" v="294944"/>
  </node>
  <node id="-103" visible="true" lat="43.227986253248" lon="-72.709847580818">
    <!-- conflict: "418 Howard Hill Road, Chester, VT" Fuzzy match to "418 Howard Hill Road, Windham, VT" -->
    <tag k="addr:city" v="Chester"/>
    <tag k="addr:housenumber" v="418"/>
    <tag k="addr:street" v="Howard Hill Road"/>
    <tag k="addr:state" v="VT"/>
    <tag k="ref:vcgi:esiteid" v="294945"/>
  </node>
  <node id="-104" visible="true" lat="43.227940755444" lon="-72.722764253587">
    <!-- conflict: "274 Horsenail Hill Road, Chester, VT" Fuzzy match to "274 Horsenail Hill Road, , VT" -->
    <tag k="addr:city" v="Chester"/>
    <tag k="addr:housenumber" v="274"/>
    <tag k="addr:street" v="Horsenail Hill Road"/>
    <tag k="addr:state" v="VT"/>
    <tag k="ref:vcgi:esiteid" v="294946"/>
  </node>
  <node id="-105" visible="true" lat="43.227489971464" lon="-72.712596008783">
    <!-- conflict: "365 Howard Hill Road, Chester, VT" Fuzzy match to "365 Howard Hill Road, Windham, VT" -->
    <tag k="addr:city" v="Chester"/>
    <tag k="addr:housenumber" v="365"/>
    <tag k="addr:street" v="Howard Hill Road"/>
    <tag k="addr:state" v="VT"/>
    <tag k="ref:vcgi:esiteid" v="294947"/>
  </node>
  <node id="-106" visible="true" lat="43.22689110872" lon="-72.726347354638">
    <!-- conflict: "7508 Vermont Route 11, Londonderry, VT" Fuzzy match to "7508 Vermont Route 11, Windham, VT" -->
    <tag k="addr:city" v="Londonderry"/>
    <tag k="addr:housenumber" v="7508"/>
    <tag k="addr:street" v="Vermont Route 11"/>
    <tag k="addr:state" v="VT"/>
    <tag k="ref:vcgi:esiteid" v="294948"/>
  </node>
  <node id="-107" visible="true" lat="43.226786868153" lon="-72.721944852352">
    <!-- conflict: "370 Horsenail Hill Road, Chester, VT" Fuzzy match to "370 Horsenail Hill Road, Windham, VT" -->
    <tag k="addr:city" v="Chester"/>
    <tag k="addr:housenumber" v="370"/>
    <tag k="addr:street" v="Horsenail Hill Road"/>
    <tag k="addr:state" v="VT"/>
    <tag k="ref:vcgi:esiteid" v="294949"/>
  </node>
  <node id="-108" visible="true" lat="43.22654050479" lon="-72.72484613774">
    <!-- conflict: "7510 Vermont Route 11, Londonderry, VT" Fuzzy match to "7510 Vermont Route 11, Windham, VT" -->
    <tag k="addr:city" v="Londonderry"/>
    <tag k="addr:housenumber" v="7510"/>
    <tag k="addr:street" v="Vermont Route 11"/>
    <tag k="addr:state" v="VT"/>
    <tag k="ref:vcgi:esiteid" v="294950"/>
  </node>
  <node id="-109" visible="true" lat="43.22617274453" lon="-72.721652204873">
    <!-- conflict: "412 Horsenail Hill Road, Chester, VT" Fuzzy match to "412 Horsenail Hill Road, Windham, VT" -->
    <tag k="addr:city" v="Chester"/>
    <tag k="addr:housenumber" v="412"/>
    <tag k="addr:street" v="Horsenail Hill Road"/>
    <tag k="addr:state" v="VT"/>
    <tag k="ref:vcgi:esiteid" v="294951"/>
  </node>
  <node id="-110" visible="true" lat="43.226222281539" lon="-72.720741484029">
    <!-- conflict: "451 Horsenail Hill Road, Chester, VT" Fuzzy match to "451 Horsenail Hill Road, Windham, VT" -->
    <tag k="addr:city" v="Chester"/>
    <tag k="addr:housenumber" v="451"/>
    <tag k="addr:street" v="Horsenail Hill Road"/>
    <tag k="addr:state" v="VT"/>
    <tag k="ref:vcgi:esiteid" v="294952"/>
  </node>
  <node id="-111" visible="true" lat="43.225873190519" lon="-72.727380036808">
    <!-- conflict: "7452 Vermont Route 11, Londonderry, VT" Fuzzy match to "7452 Vermont Route 11, Windham, VT" -->
    <tag k="addr:city" v="Londonderry"/>
    <tag k="addr:housenumber" v="7452"/>
    <tag k="addr:street" v="Vermont Route 11"/>
    <tag k="addr:state" v="VT"/>
    <tag k="ref:vcgi:esiteid" v="294953"/>
  </node>
  <node id="-112" visible="true" lat="43.225842705721" lon="-72.721612104021">
    <!-- conflict: "436 Horsenail Hill Road, Chester, VT" Fuzzy match to "436 Horsenail Hill Road, Windham, VT" -->
    <tag k="addr:city" v="Chester"/>
    <tag k="addr:housenumber" v="436"/>
    <tag k="addr:street" v="Horsenail Hill Road"/>
    <tag k="addr:state" v="VT"/>
    <tag k="ref:vcgi:esiteid" v="294954"/>
  </node>
  <node id="-113" visible="true" lat="43.225320040877" lon="-72.721348517786">
    <!-- conflict: "474 Horsenail Hill Road, Chester, VT" Fuzzy match to "474 Horsenail Hill Road, Windham, VT" -->
    <tag k="addr:city" v="Chester"/>
    <tag k="addr:housenumber" v="474"/>
    <tag k="addr:street" v="Horsenail Hill Road"/>
    <tag k="addr:state" v="VT"/>
    <tag k="ref:vcgi:esiteid" v="294955"/>
  </node>
  <node id="-114" visible="true" lat="43.225447437687" lon="-72.720197262019">
    <!-- conflict: "483 Horsenail Hill Road, Chester, VT" Fuzzy match to "483 Horsenail Hill Road, Windham, VT" -->
    <tag k="addr:city" v="Chester"/>
    <tag k="addr:housenumber" v="483"/>
    <tag k="addr:street" v="Horsenail Hill Road"/>
    <tag k="addr:state" v="VT"/>
    <tag k="ref:vcgi:esiteid" v="294956"/>
  </node>
  <node id="-115" visible="true" lat="43.2250393932" lon="-72.721684831773">
    <!-- conflict: "492 Horsenail Hill Road, Chester, VT" Fuzzy match to "492 Horsenail Hill Road, Windham, VT" -->
    <tag k="addr:city" v="Chester"/>
    <tag k="addr:housenumber" v="492"/>
    <tag k="addr:street" v="Horsenail Hill Road"/>
    <tag k="addr:state" v="VT"/>
    <tag k="ref:vcgi:esiteid" v="294957"/>
  </node>
  <node id="-116" visible="true" lat="43.224820352987" lon="-72.721213654982">
    <!-- conflict: "510 Horsenail Hill Road, Chester, VT" Fuzzy match to "510 Horsenail Hill Road, Windham, VT" -->
    <tag k="addr:city" v="Chester"/>
    <tag k="addr:housenumber" v="510"/>
    <tag k="addr:street" v="Horsenail Hill Road"/>
    <tag k="addr:state" v="VT"/>
    <tag k="ref:vcgi:esiteid" v="294958"/>
  </node>
  <node id="-117" visible="true" lat="43.224563197086" lon="-72.721088708189">
    <!-- conflict: "532 Horsenail Hill Road, Chester, VT" Fuzzy match to "532 Horsenail Hill Road, Windham, VT" -->
    <tag k="addr:city" v="Chester"/>
    <tag k="addr:housenumber" v="532"/>
    <tag k="addr:street" v="Horsenail Hill Road"/>
    <tag k="addr:state" v="VT"/>
    <tag k="ref:vcgi:esiteid" v="294959"/>
  </node>
  <node id="-118" visible="true" lat="43.223368934596" lon="-72.720983420173">
    <!-- conflict: "616 Horsenail Hill Road, Chester, VT" Fuzzy match to "616 Horsenail Hill Road, Windham, VT" -->
    <tag k="addr:city" v="Chester"/>
    <tag k="addr:housenumber" v="616"/>
    <tag k="addr:street" v="Horsenail Hill Road"/>
    <tag k="addr:state" v="VT"/>
    <tag k="ref:vcgi:esiteid" v="294960"/>
  </node>
  <node id="-119" visible="true" lat="43.223073872647" lon="-72.700954334298">
    <!-- conflict: "6186 Popple Dungeon Road, Chester, VT" Fuzzy match to "6186 Popple Dungeon Road, Windham, VT" -->
    <tag k="addr:city" v="Chester"/>
    <tag k="addr:housenumber" v="6186"/>
    <tag k="addr:street" v="Popple Dungeon Road"/>
    <tag k="addr:state" v="VT"/>
    <tag k="ref:vcgi:esiteid" v="294961"/>
  </node>
  <node id="-120" visible="true" lat="43.223103303022" lon="-72.708681429066">
    <!-- conflict: "6558 Popple Dungeon Road, Chester, VT" Fuzzy match to "6558 Popple Dungeon Road, Windham, VT" -->
    <tag k="addr:city" v="Chester"/>
    <tag k="addr:housenumber" v="6558"/>
    <tag k="addr:street" v="Popple Dungeon Road"/>
    <tag k="addr:state" v="VT"/>
    <tag k="ref:vcgi:esiteid" v="294962"/>
  </node>
  <node id="-121" visible="true" lat="43.223035055836" lon="-72.706834071482">
    <!-- conflict: "6463 Popple Dungeon Road, Chester, VT" Fuzzy match to "6463 Popple Dungeon Road, Windham, VT" -->
    <tag k="addr:city" v="Chester"/>
    <tag k="addr:housenumber" v="6463"/>
    <tag k="addr:street" v="Popple Dungeon Road"/>
    <tag k="addr:state" v="VT"/>
    <tag k="ref:vcgi:esiteid" v="294963"/>
  </node>
  <node id="-122" visible="true" lat="43.22161389503" lon="-72.703500804795">
    <!-- conflict: "6247 Popple Dungeon Road, Chester, VT" Fuzzy match to "6247 Popple Dungeon Road, , VT" -->
    <tag k="addr:city" v="Chester"/>
    <tag k="addr:housenumber" v="6247"/>
    <tag k="addr:street" v="Popple Dungeon Road"/>
    <tag k="addr:state" v="VT"/>
    <tag k="ref:vcgi:esiteid" v="294964"/>
  </node>
  <node id="-123" visible="true" lat="43.222611530145" lon="-72.703776410772">
    <!-- conflict: "6305 Popple Dungeon Road, Chester, VT" Fuzzy match to "6305 Popple Dungeon Road, Windham, VT" -->
    <tag k="addr:city" v="Chester"/>
    <tag k="addr:housenumber" v="6305"/>
    <tag k="addr:street" v="Popple Dungeon Road"/>
    <tag k="addr:state" v="VT"/>
    <tag k="ref:vcgi:esiteid" v="294965"/>
  </node>
  <node id="-124" visible="true" lat="43.222430380881" lon="-72.699054522918">
    <!-- conflict: "6028 Popple Dungeon Road, Chester, VT" Fuzzy match to "6028 Popple Dungeon Road, Windham, VT" -->
    <tag k="addr:city" v="Chester"/>
    <tag k="addr:housenumber" v="6028"/>
    <tag k="addr:street" v="Popple Dungeon Road"/>
    <tag k="addr:state" v="VT"/>
    <tag k="ref:vcgi:esiteid" v="294966"/>
  </node>
  <node id="-125" visible="true" lat="43.22371137602" lon="-72.693350591444">
    <!-- conflict: "5718 Popple Dungeon Road, Chester, VT" Fuzzy match to "5718 Popple Dungeon Road, Windham, VT" -->
    <tag k="addr:city" v="Chester"/>
    <tag k="addr:housenumber" v="5718"/>
    <tag k="addr:street" v="Popple Dungeon Road"/>
    <tag k="addr:state" v="VT"/>
    <tag k="ref:vcgi:esiteid" v="294967"/>
  </node>
  <node id="-126" visible="true" lat="43.222256564349" lon="-72.713078554525">
    <!-- conflict: "6802 Popple Dungeon Road, Chester, VT" Fuzzy match to "6802 Popple Dungeon Road, Windham, VT" -->
    <tag k="addr:city" v="Chester"/>
    <tag k="addr:housenumber" v="6802"/>
    <tag k="addr:street" v="Popple Dungeon Road"/>
    <tag k="addr:state" v="VT"/>
    <tag k="ref:vcgi:esiteid" v="294968"/>
  </node>
  <node id="-127" visible="true" lat="43.222122706375" lon="-72.70929417744">
    <!-- conflict: "6651 Popple Dungeon Road, Chester, VT" Fuzzy match to "6651 Popple Dungeon Road, Windham, VT" -->
    <tag k="addr:city" v="Chester"/>
    <tag k="addr:housenumber" v="6651"/>
    <tag k="addr:street" v="Popple Dungeon Road"/>
    <tag k="addr:state" v="VT"/>
    <tag k="ref:vcgi:esiteid" v="294969"/>
  </node>
  <node id="-128" visible="true" lat="43.221729419097" lon="-72.712008835387">
    <!-- conflict: "6743 Popple Dungeon Road, Chester, VT" Fuzzy match to "6743 Popple Dungeon Road, Windham, VT" -->
    <tag k="addr:city" v="Chester"/>
    <tag k="addr:housenumber" v="6743"/>
    <tag k="addr:street" v="Popple Dungeon Road"/>
    <tag k="addr:state" v="VT"/>
    <tag k="ref:vcgi:esiteid" v="294970"/>
  </node>
  <node id="-129" visible="true" lat="43.221748959589" lon="-72.704875389577">
    <!-- conflict: "197 Edson Drive, Chester, VT" Fuzzy match to "197 Edson Drive, Windham, VT" -->
    <tag k="addr:city" v="Chester"/>
    <tag k="addr:housenumber" v="197"/>
    <tag k="addr:street" v="Edson Drive"/>
    <tag k="addr:state" v="VT"/>
    <tag k="ref:vcgi:esiteid" v="294971"/>
  </node>
  <node id="-130" visible="true" lat="43.221772834792" lon="-72.712938972077">
    <!-- conflict: "6791 Popple Dungeon Road, Chester, VT" Fuzzy match to "6791 Popple Dungeon Road, Windham, VT" -->
    <tag k="addr:city" v="Chester"/>
    <tag k="addr:housenumber" v="6791"/>
    <tag k="addr:street" v="Popple Dungeon Road"/>
    <tag k="addr:state" v="VT"/>
    <tag k="ref:vcgi:esiteid" v="294972"/>
  </node>
  <node id="-131" visible="true" lat="43.221406180271" lon="-72.703789940859">
    <!-- conflict: "257 Edson Drive, Chester, VT" Fuzzy match to "257 Edson Drive, Windham, VT" -->
    <tag k="addr:city" v="Chester"/>
    <tag k="addr:housenumber" v="257"/>
    <tag k="addr:street" v="Edson Drive"/>
    <tag k="addr:state" v="VT"/>
    <tag k="ref:vcgi:esiteid" v="294973"/>
  </node>
  <node id="-132" visible="true" lat="43.221230295584" lon="-72.719704318203">
    <!-- conflict: "7142 Popple Dungeon Road, Chester, VT" Fuzzy match to "7142 Popple Dungeon Road, Windham, VT" -->
    <tag k="addr:city" v="Chester"/>
    <tag k="addr:housenumber" v="7142"/>
    <tag k="addr:street" v="Popple Dungeon Road"/>
    <tag k="addr:state" v="VT"/>
    <tag k="ref:vcgi:esiteid" v="294974"/>
  </node>
  <node id="-133" visible="true" lat="43.220934537055" lon="-72.708954049485">
    <!-- conflict: "72 Edson Drive, Chester, VT" Fuzzy match to "72 Edson Drive, Windham, VT" -->
    <tag k="addr:city" v="Chester"/>
    <tag k="addr:housenumber" v="72"/>
    <tag k="addr:street" v="Edson Drive"/>
    <tag k="addr:state" v="VT"/>
    <tag k="ref:vcgi:esiteid" v="294975"/>
  </node>
  <node id="-134" visible="true" lat="43.220431976039" lon="-72.735114159234">
    <!-- conflict: "39 Scott Pet Road, Chester, VT" Fuzzy match to "39 Scott Pet Road, , VT" -->
    <tag k="addr:city" v="Chester"/>
    <tag k="addr:housenumber" v="39"/>
    <tag k="addr:street" v="Scott Pet Road"/>
    <tag k="addr:state" v="VT"/>
    <tag k="ref:vcgi:esiteid" v="294976"/>
  </node>
  <node id="-135" visible="true" lat="43.22064883038" lon="-72.716233155913">
    <!-- conflict: "7073 Popple Dungeon Road, Chester, VT" Fuzzy match to "7073 Popple Dungeon Road, Windham, VT" -->
    <tag k="addr:city" v="Chester"/>
    <tag k="addr:housenumber" v="7073"/>
    <tag k="addr:street" v="Popple Dungeon Road"/>
    <tag k="addr:state" v="VT"/>
    <tag k="ref:vcgi:esiteid" v="294977"/>
  </node>
  <node id="-136" visible="true" lat="43.220072176219" lon="-72.720900827282">
    <!-- conflict: "22 White Road, Chester, VT" Fuzzy match to "22 White Road, Windham, VT" -->
    <tag k="addr:city" v="Chester"/>
    <tag k="addr:housenumber" v="22"/>
    <tag k="addr:street" v="White Road"/>
    <tag k="addr:state" v="VT"/>
    <tag k="ref:vcgi:esiteid" v="294978"/>
  </node>
  <node id="-137" visible="true" lat="43.219247059945" lon="-72.728890658649">
    <!-- conflict: "420 Scott Pet Road, Chester, VT" Fuzzy match to "420 Scott Pet Road, , VT" -->
    <tag k="addr:city" v="Chester"/>
    <tag k="addr:housenumber" v="420"/>
    <tag k="addr:street" v="Scott Pet Road"/>
    <tag k="addr:state" v="VT"/>
    <tag k="ref:vcgi:esiteid" v="294979"/>
  </node>
  <node id="-138" visible="true" lat="43.219042426825" lon="-72.726755463594">
    <!-- conflict: "536 Scott Pet Road, Chester, VT" Fuzzy match to "536 Scott Pet Road, Windham, VT" -->
    <tag k="addr:city" v="Chester"/>
    <tag k="addr:housenumber" v="536"/>
    <tag k="addr:street" v="Scott Pet Road"/>
    <tag k="addr:state" v="VT"/>
    <tag k="ref:vcgi:esiteid" v="294980"/>
  </node>
  <node id="-139" visible="true" lat="43.218980031092" lon="-72.725396393976">
    <!-- conflict: "612 Scott Pet Road, Chester, VT" Fuzzy match to "612 Scott Pet Road, , VT" -->
    <tag k="addr:city" v="Chester"/>
    <tag k="addr:housenumber" v="612"/>
    <tag k="addr:street" v="Scott Pet Road"/>
    <tag k="addr:state" v="VT"/>
    <tag k="ref:vcgi:esiteid" v="294981"/>
  </node>
  <node id="-140" visible="true" lat="43.218934255506" lon="-72.729840710901">
    <!-- conflict: "410 Scott Pet Road, Chester, VT" Fuzzy match to "410 Scott Pet Road, Windham, VT" -->
    <tag k="addr:city" v="Chester"/>
    <tag k="addr:housenumber" v="410"/>
    <tag k="addr:street" v="Scott Pet Road"/>
    <tag k="addr:state" v="VT"/>
    <tag k="ref:vcgi:esiteid" v="294982"/>
  </node>
  <node id="-141" visible="true" lat="43.218987700584" lon="-72.731658943502">
    <!-- conflict: "274 Scott Pet Road, Chester, VT" Fuzzy match to "274 Scott Pet Road, Windham, VT" -->
    <tag k="addr:city" v="Chester"/>
    <tag k="addr:housenumber" v="274"/>
    <tag k="addr:street" v="Scott Pet Road"/>
    <tag k="addr:state" v="VT"/>
    <tag k="ref:vcgi:esiteid" v="294983"/>
  </node>
  <node id="-142" visible="true" lat="43.218952123047" lon="-72.721467691663">
    <!-- conflict: "841 Scott Pet Road, Chester, VT" Fuzzy match to "841 Scott Pet Road, Windham, VT" -->
    <tag k="addr:city" v="Chester"/>
    <tag k="addr:housenumber" v="841"/>
    <tag k="addr:street" v="Scott Pet Road"/>
    <tag k="addr:state" v="VT"/>
    <tag k="ref:vcgi:esiteid" v="294984"/>
  </node>
  <node id="-143" visible="true" lat="43.218585510555" lon="-72.723514408848">
    <!-- conflict: "678 Scott Pet Road, Chester, VT" Fuzzy match to "678 Scott Pet Road, Windham, VT" -->
    <tag k="addr:city" v="Chester"/>
    <tag k="addr:housenumber" v="678"/>
    <tag k="addr:street" v="Scott Pet Road"/>
    <tag k="addr:state" v="VT"/>
    <tag k="ref:vcgi:esiteid" v="294985"/>
  </node>
  <node id="-144" visible="true" lat="43.21619837074" lon="-72.721982846305">
    <!-- conflict: "290 White Road, Chester, VT" Fuzzy match to "290 White Road, Windham, VT" -->
    <tag k="addr:city" v="Chester"/>
    <tag k="addr:housenumber" v="290"/>
    <tag k="addr:street" v="White Road"/>
    <tag k="addr:state" v="VT"/>
    <tag k="ref:vcgi:esiteid" v="294986"/>
  </node>
  <node id="-145" visible="true" lat="43.216140171675" lon="-72.723937073206">
    <!-- conflict: "286 White Road, Chester, VT" Fuzzy match to "286 White Road, , VT" -->
    <tag k="addr:city" v="Chester"/>
    <tag k="addr:housenumber" v="286"/>
    <tag k="addr:street" v="White Road"/>
    <tag k="addr:state" v="VT"/>
    <tag k="ref:vcgi:esiteid" v="294987"/>
  </node>
  <node id="-146" visible="true" lat="43.215145634941" lon="-72.720119318263">
    <!-- conflict: "391 White Road, Chester, VT" Fuzzy match to "391 White Road, Windham, VT" -->
    <tag k="addr:city" v="Chester"/>
    <tag k="addr:housenumber" v="391"/>
    <tag k="addr:street" v="White Road"/>
    <tag k="addr:state" v="VT"/>
    <tag k="ref:vcgi:esiteid" v="294988"/>
  </node>
  <node id="-147" visible="true" lat="43.214417652913" lon="-72.719537017537">
    <!-- conflict: "449 White Road, Chester, VT" Fuzzy match to "449 White Road, Windham, VT" -->
    <tag k="addr:city" v="Chester"/>
    <tag k="addr:housenumber" v="449"/>
    <tag k="addr:street" v="White Road"/>
    <tag k="addr:state" v="VT"/>
    <tag k="ref:vcgi:esiteid" v="294989"/>
  </node>
  <node id="-148" visible="true" lat="43.212826923062" lon="-72.717240567575">
    <!-- conflict: "589 White Road, Chester, VT" Fuzzy match to "589 White Road, , VT" -->
    <tag k="addr:city" v="Chester"/>
    <tag k="addr:housenumber" v="589"/>
    <tag k="addr:street" v="White Road"/>
    <tag k="addr:state" v="VT"/>
    <tag k="ref:vcgi:esiteid" v="294990"/>
  </node>
  <node id="-149" visible="true" lat="43.211903669384" lon="-72.71137950174">
    <!-- conflict: "166 Hidden Newton Road, Chester, VT" Fuzzy match to "166 Hidden Newton Road, Windham, VT" -->
    <tag k="addr:city" v="Chester"/>
    <tag k="addr:housenumber" v="166"/>
    <tag k="addr:street" v="Hidden Newton Road"/>
    <tag k="addr:state" v="VT"/>
    <tag k="ref:vcgi:esiteid" v="294991"/>
  </node>
  <node id="-150" visible="true" lat="43.211404957749" lon="-72.714142433503">
    <!-- conflict: "53 Hidden Newton Road, Chester, VT" Fuzzy match to "53 Hidden Newton Road, Windham, VT" -->
    <tag k="addr:city" v="Chester"/>
    <tag k="addr:housenumber" v="53"/>
    <tag k="addr:street" v="Hidden Newton Road"/>
    <tag k="addr:state" v="VT"/>
    <tag k="ref:vcgi:esiteid" v="294992"/>
  </node>
  <node id="-151" visible="true" lat="43.211089730117" lon="-72.721339554027">
    <!-- conflict: "951 Hitchcock Hill Road, Chester, VT" Fuzzy match to "951 Hitchcock Hill Road, Windham, VT" -->
    <tag k="addr:city" v="Chester"/>
    <tag k="addr:housenumber" v="951"/>
    <tag k="addr:street" v="Hitchcock Hill Road"/>
    <tag k="addr:state" v="VT"/>
    <tag k="ref:vcgi:esiteid" v="294993"/>
  </node>
  <node id="-152" visible="true" lat="43.210845745503" lon="-72.712356715241">
    <!-- conflict: "56 Hidden Newton Road, Chester, VT" Fuzzy match to "56 Hidden Newton Road, Windham, VT" -->
    <tag k="addr:city" v="Chester"/>
    <tag k="addr:housenumber" v="56"/>
    <tag k="addr:street" v="Hidden Newton Road"/>
    <tag k="addr:state" v="VT"/>
    <tag k="ref:vcgi:esiteid" v="294994"/>
  </node>
  <node id="-153" visible="true" lat="43.210743814544" lon="-72.715174945472">
    <!-- conflict: "794 White Road, Chester, VT" Fuzzy match to "794 White Road, , VT" -->
    <tag k="addr:city" v="Chester"/>
    <tag k="addr:housenumber" v="794"/>
    <tag k="addr:street" v="White Road"/>
    <tag k="addr:state" v="VT"/>
    <tag k="ref:vcgi:esiteid" v="294995"/>
  </node>
  <node id="-156" visible="true" lat="43.210236438739" lon="-72.712780883641">
    <!-- conflict: "977 White Road, Chester, VT" Fuzzy match to "977 White Road, Windham, VT" -->
    <tag k="addr:city" v="Chester"/>
    <tag k="addr:housenumber" v="977"/>
    <tag k="addr:street" v="White Road"/>
    <tag k="addr:state" v="VT"/>
    <tag k="ref:vcgi:esiteid" v="294998"/>
  </node>
  <node id="-158" visible="true" lat="43.20853047799" lon="-72.707518335523">
    <!-- conflict: "1033 White Road, Chester, VT" Fuzzy match to "1033 White Road, , VT" -->
    <tag k="addr:city" v="Chester"/>
    <tag k="addr:housenumber" v="1033"/>
    <tag k="addr:street" v="White Road"/>
    <tag k="addr:state" v="VT"/>
    <tag k="ref:vcgi:esiteid" v="295000"/>
  </node>
  <node id="-164" visible="true" lat="43.206507486808" lon="-72.709341167693">
    <!-- conflict: "1220 White Road, Chester, VT" Fuzzy match to "1220 White Road, Windham, VT" -->
    <tag k="addr:city" v="Chester"/>
    <tag k="addr:housenumber" v="1220"/>
    <tag k="addr:street" v="White Road"/>
    <tag k="addr:state" v="VT"/>
    <tag k="ref:vcgi:esiteid" v="295006"/>
  </node>
  <node id="-174" visible="true" lat="43.204530692286" lon="-72.704693650726">
    <!-- conflict: "1483 White Road, Chester, VT" Fuzzy match to "1483 White Road, Windham, VT" -->
    <tag k="addr:city" v="Chester"/>
    <tag k="addr:housenumber" v="1483"/>
    <tag k="addr:street" v="White Road"/>
    <tag k="addr:state" v="VT"/>
    <tag k="ref:vcgi:esiteid" v="295016"/>
  </node>
  <node id="-187" visible="true" lat="43.200702099608" lon="-72.729879997092">
    <!-- conflict: "1355 Route 121, Windham, VT" Fuzzy match to "1355 Route 121, , VT" -->
    <tag k="addr:city" v="Windham"/>
    <tag k="addr:housenumber" v="1355"/>
    <tag k="addr:street" v="Route 121"/>
    <tag k="addr:state" v="VT"/>
    <tag k="ref:vcgi:esiteid" v="295029"/>
  </node>
  <node id="-190" visible="true" lat="43.200343416951" lon="-72.729235921473">
    <!-- conflict: "1449 Route 121, Windham, VT" Fuzzy match to "1449 Route 121, , VT" -->
    <tag k="addr:city" v="Windham"/>
    <tag k="addr:housenumber" v="1449"/>
    <tag k="addr:street" v="Route 121"/>
    <tag k="addr:state" v="VT"/>
    <tag k="ref:vcgi:esiteid" v="295032"/>
  </node>
  <node id="-193" visible="true" lat="43.199490255234" lon="-72.694644506853">
    <!-- conflict: "2105 White Road, Chester, VT" Fuzzy match to "2105 White Road, Windham, VT" -->
    <tag k="addr:city" v="Chester"/>
    <tag k="addr:housenumber" v="2105"/>
    <tag k="addr:street" v="White Road"/>
    <tag k="addr:state" v="VT"/>
    <tag k="ref:vcgi:esiteid" v="295035"/>
  </node>
  <node id="-200" visible="true" lat="43.199044716314" lon="-72.693556899583">
    <!-- conflict: "2181 White Road, Chester, VT" Fuzzy match to "2181 White Road, Windham, VT" -->
    <tag k="addr:city" v="Chester"/>
    <tag k="addr:housenumber" v="2181"/>
    <tag k="addr:street" v="White Road"/>
    <tag k="addr:state" v="VT"/>
    <tag k="ref:vcgi:esiteid" v="295042"/>
  </node>
  <node id="-208" visible="true" lat="43.198376387669" lon="-72.692258091194">
    <!-- conflict: "2253 White Road, Chester, VT" Fuzzy match to "2253 White Road, Windham, VT" -->
    <tag k="addr:city" v="Chester"/>
    <tag k="addr:housenumber" v="2253"/>
    <tag k="addr:street" v="White Road"/>
    <tag k="addr:state" v="VT"/>
    <tag k="ref:vcgi:esiteid" v="295050"/>
  </node>
  <node id="-210" visible="true" lat="43.19803934387" lon="-72.727694182591">
    <!-- conflict: "34 Timber Ridge Road, Windham, VT" Fuzzy match to "34 Timber Ridge Road, , VT" -->
    <tag k="addr:city" v="Windham"/>
    <tag k="addr:housenumber" v="34"/>
    <tag k="addr:street" v="Timber Ridge Road"/>
    <tag k="addr:state" v="VT"/>
    <tag k="ref:vcgi:esiteid" v="295052"/>
  </node>
  <node id="-211" visible="true" lat="43.197935225268" lon="-72.726570699399">
    <!-- conflict: "31 Timber Ridge Road, Windham, VT" Fuzzy match to "31 Timber Ridge Road, , VT" -->
    <tag k="addr:city" v="Windham"/>
    <tag k="addr:housenumber" v="31"/>
    <tag k="addr:street" v="Timber Ridge Road"/>
    <tag k="addr:state" v="VT"/>
    <tag k="ref:vcgi:esiteid" v="295053"/>
  </node>
  <node id="-217" visible="true" lat="43.197131369531" lon="-72.728395867593">
    <!-- conflict: "166 Timber Ridge Road, Windham, VT" Fuzzy match to "166 Timber Ridge Road, , VT" -->
    <tag k="addr:city" v="Windham"/>
    <tag k="addr:housenumber" v="166"/>
    <tag k="addr:street" v="Timber Ridge Road"/>
    <tag k="addr:state" v="VT"/>
    <tag k="ref:vcgi:esiteid" v="295059"/>
  </node>
  <node id="-218" visible="true" lat="43.197009134068" lon="-72.727794754134">
    <!-- conflict: "98 Timber Ridge Road, Windham, VT" Fuzzy match to "98 Timber Ridge Road, , VT" -->
    <tag k="addr:city" v="Windham"/>
    <tag k="addr:housenumber" v="98"/>
    <tag k="addr:street" v="Timber Ridge Road"/>
    <tag k="addr:state" v="VT"/>
    <tag k="ref:vcgi:esiteid" v="295060"/>
  </node>
  <node id="-233" visible="true" lat="43.195047216051" lon="-72.734272097995">
    <!-- conflict: "1021 Birch Hill Road, Windham, VT" Fuzzy match to "1021 Birch Hill Road, , VT" -->
    <tag k="addr:city" v="Windham"/>
    <tag k="addr:housenumber" v="1021"/>
    <tag k="addr:street" v="Birch Hill Road"/>
    <tag k="addr:state" v="VT"/>
    <tag k="ref:vcgi:esiteid" v="295075"/>
  </node>
  <node id="-238" visible="true" lat="43.194577408243" lon="-72.703904380688">
    <!-- conflict: "130 Dillon Drive, Windham, VT" Fuzzy match to "130 Dillon Drive, , VT" -->
    <tag k="addr:city" v="Windham"/>
    <tag k="addr:housenumber" v="130"/>
    <tag k="addr:street" v="Dillon Drive"/>
    <tag k="addr:state" v="VT"/>
    <tag k="ref:vcgi:esiteid" v="295080"/>
  </node>
  <node id="-239" visible="true" lat="43.194652120168" lon="-72.701662512985">
    <!-- conflict: "184 Dillon Drive, Windham, VT" Fuzzy match to "184 Dillon Drive, , VT" -->
    <tag k="addr:city" v="Windham"/>
    <tag k="addr:housenumber" v="184"/>
    <tag k="addr:street" v="Dillon Drive"/>
    <tag k="addr:state" v="VT"/>
    <tag k="ref:vcgi:esiteid" v="295081"/>
  </node>
  <node id="-244" visible="true" lat="43.193065679645" lon="-72.722247050938">
    <!-- conflict: "7937 Windham Hill Road, Windham, VT" Fuzzy match to "7937 Windham Hill Road, , VT" -->
    <tag k="addr:city" v="Windham"/>
    <tag k="addr:housenumber" v="7937"/>
    <tag k="addr:street" v="Windham Hill Road"/>
    <tag k="addr:state" v="VT"/>
    <tag k="ref:vcgi:esiteid" v="295087"/>
  </node>
  <node id="-249" visible="true" lat="43.191751361079" lon="-72.730749173741">
    <!-- conflict: "566 Glebe Mountain Road, Windham, VT" Fuzzy match to "566 Glebe Mountain Road, , VT" -->
    <tag k="addr:city" v="Windham"/>
    <tag k="addr:housenumber" v="566"/>
    <tag k="addr:street" v="Glebe Mountain Road"/>
    <tag k="addr:state" v="VT"/>
    <tag k="ref:vcgi:esiteid" v="295092"/>
  </node>
  <node id="-250" visible="true" lat="43.191292541155" lon="-72.728715184014">
    <!-- conflict: "473 Glebe Mountain Road, Windham, VT" Fuzzy match to "473 Glebe Mountain Road, , VT" -->
    <tag k="addr:city" v="Windham"/>
    <tag k="addr:housenumber" v="473"/>
    <tag k="addr:street" v="Glebe Mountain Road"/>
    <tag k="addr:state" v="VT"/>
    <tag k="ref:vcgi:esiteid" v="295093"/>
  </node>
  <node id="-251" visible="true" lat="43.190617800077" lon="-72.72097775073">
    <!-- conflict: "7798 Windham Hill Road, Windham, VT" Fuzzy match to "7798 Windham Hill Road, , VT" -->
    <tag k="addr:city" v="Windham"/>
    <tag k="addr:housenumber" v="7798"/>
    <tag k="addr:street" v="Windham Hill Road"/>
    <tag k="addr:state" v="VT"/>
    <tag k="ref:vcgi:esiteid" v="295094"/>
  </node>
  <node id="-261" visible="true" lat="43.18525428554" lon="-72.721429104964">
    <!-- conflict: "7393 Windham Hill Road, Windham, VT" Fuzzy match to "7393 Windham Hill Road, , VT" -->
    <tag k="addr:city" v="Windham"/>
    <tag k="addr:housenumber" v="7393"/>
    <tag k="addr:street" v="Windham Hill Road"/>
    <tag k="addr:state" v="VT"/>
    <tag k="ref:vcgi:esiteid" v="295104"/>
  </node>
  <node id="-284" visible="true" lat="43.175348489926" lon="-72.726179344706">
    <!-- conflict: "6626 Windham Hill Road, Windham, VT" Fuzzy match to "6626 Windham Hill Road, , VT" -->
    <tag k="addr:city" v="Windham"/>
    <tag k="addr:housenumber" v="6626"/>
    <tag k="addr:street" v="Windham Hill Road"/>
    <tag k="addr:state" v="VT"/>
    <tag k="ref:vcgi:esiteid" v="295130"/>
  </node>
  <node id="-285" visible="true" lat="43.175400108408" lon="-72.734948096412">
    <!-- conflict: "542 Old Farm Road, Windham, VT" Fuzzy match to "542 Old Farm Road, , VT" -->
    <tag k="addr:city" v="Windham"/>
    <tag k="addr:housenumber" v="542"/>
    <tag k="addr:street" v="Old Farm Road"/>
    <tag k="addr:state" v="VT"/>
    <tag k="ref:vcgi:esiteid" v="295131"/>
  </node>
  <node id="-291" visible="true" lat="43.169730210713" lon="-72.716111186842">
    <!-- conflict: "306 Woodburn Road, Windham, VT" Fuzzy match to "306 Woodburn Road, , VT" -->
    <tag k="addr:city" v="Windham"/>
    <tag k="addr:housenumber" v="306"/>
    <tag k="addr:street" v="Woodburn Road"/>
    <tag k="addr:state" v="VT"/>
    <tag k="ref:vcgi:esiteid" v="295138"/>
  </node>
  <node id="-298" visible="true" lat="43.167834281926" lon="-72.716976270583">
    <!-- conflict: "147 Woodburn Road, Windham, VT" Fuzzy match to "147 Woodburn Road, , VT" -->
    <tag k="addr:city" v="Windham"/>
    <tag k="addr:housenumber" v="147"/>
    <tag k="addr:street" v="Woodburn Road"/>
    <tag k="addr:state" v="VT"/>
    <tag k="ref:vcgi:esiteid" v="295145"/>
  </node>
  <node id="-302" visible="true" lat="43.165821073653" lon="-72.725313693213">
    <!-- conflict: "5940 Windham Hill Road, Windham, VT" Fuzzy match to "5940 Windham Hill Road, , VT" -->
    <tag k="addr:city" v="Windham"/>
    <tag k="addr:housenumber" v="5940"/>
    <tag k="addr:street" v="Windham Hill Road"/>
    <tag k="addr:state" v="VT"/>
    <tag k="ref:vcgi:esiteid" v="295150"/>
  </node>
  <node id="-307" visible="true" lat="43.164645410457" lon="-72.724572448219">
    <!-- conflict: "5852 Windham Hill Road, Windham, VT" Fuzzy match to "5852 Windham Hill Road, , VT" -->
    <tag k="addr:city" v="Windham"/>
    <tag k="addr:housenumber" v="5852"/>
    <tag k="addr:street" v="Windham Hill Road"/>
    <tag k="addr:state" v="VT"/>
    <tag k="ref:vcgi:esiteid" v="295156"/>
  </node>
  <node id="-321" visible="true" lat="43.160674211099" lon="-72.710353703985">
    <!-- conflict: "950 Abbott Road, Windham, VT" Fuzzy match to "950 Abbott Road, , VT" -->
    <tag k="addr:city" v="Windham"/>
    <tag k="addr:housenumber" v="950"/>
    <tag k="addr:street" v="Abbott Road"/>
    <tag k="addr:state" v="VT"/>
    <tag k="ref:vcgi:esiteid" v="295170"/>
  </node>
  <node id="-326" visible="true" lat="43.15836814331" lon="-72.729840052767">
    <!-- conflict: "1353 Burbee Pond Road, Windham, VT" Fuzzy match to "1353 Burbee Pond Road, , VT" -->
    <tag k="addr:city" v="Windham"/>
    <tag k="addr:housenumber" v="1353"/>
    <tag k="addr:street" v="Burbee Pond Road"/>
    <tag k="addr:state" v="VT"/>
    <tag k="ref:vcgi:esiteid" v="295175"/>
  </node>
  <node id="-332" visible="true" lat="43.157109316547" lon="-72.730360310467">
    <!-- conflict: "1351 Burbee Pond Road, Windham, VT" Fuzzy match to "1351 Burbee Pond Road, , VT" -->
    <tag k="addr:city" v="Windham"/>
    <tag k="addr:housenumber" v="1351"/>
    <tag k="addr:street" v="Burbee Pond Road"/>
    <tag k="addr:state" v="VT"/>
    <tag k="ref:vcgi:esiteid" v="295181"/>
  </node>
  <node id="-337" visible="true" lat="43.156602184515" lon="-72.756167192381">
    <!-- conflict: "718 Golding Road, Windham, VT" Fuzzy match to "718 Golding Road, , VT" -->
    <tag k="addr:city" v="Windham"/>
    <tag k="addr:housenumber" v="718"/>
    <tag k="addr:street" v="Golding Road"/>
    <tag k="addr:state" v="VT"/>
    <tag k="ref:vcgi:esiteid" v="295186"/>
  </node>
  <node id="-338" visible="true" lat="43.156209156471" lon="-72.748895437018">
    <!-- conflict: "376 Golding Road, Windham, VT" Fuzzy match to "376 Golding Road, , VT" -->
    <tag k="addr:city" v="Windham"/>
    <tag k="addr:housenumber" v="376"/>
    <tag k="addr:street" v="Golding Road"/>
    <tag k="addr:state" v="VT"/>
    <tag k="ref:vcgi:esiteid" v="295187"/>
  </node>
  <node id="-341" visible="true" lat="43.155938823978" lon="-72.750898199611">
    <!-- conflict: "454 Golding Road, Windham, VT" Fuzzy match to "454 Golding Road, , VT" -->
    <tag k="addr:city" v="Windham"/>
    <tag k="addr:housenumber" v="454"/>
    <tag k="addr:street" v="Golding Road"/>
    <tag k="addr:state" v="VT"/>
    <tag k="ref:vcgi:esiteid" v="295190"/>
  </node>
  <node id="-343" visible="true" lat="43.15582714174" lon="-72.723307971543">
    <!-- conflict: "5245 Windham Hill Road, Windham, VT" Fuzzy match to "5245 Windham Hill Road, , VT" -->
    <tag k="addr:city" v="Windham"/>
    <tag k="addr:housenumber" v="5245"/>
    <tag k="addr:street" v="Windham Hill Road"/>
    <tag k="addr:state" v="VT"/>
    <tag k="ref:vcgi:esiteid" v="295192"/>
  </node>
  <node id="-345" visible="true" lat="43.155505872177" lon="-72.722342523789">
    <!-- conflict: "5204 Windham Hill Road, Windham, VT" Fuzzy match to "5204 Windham Hill Road, , VT" -->
    <tag k="addr:city" v="Windham"/>
    <tag k="addr:housenumber" v="5204"/>
    <tag k="addr:street" v="Windham Hill Road"/>
    <tag k="addr:state" v="VT"/>
    <tag k="ref:vcgi:esiteid" v="295194"/>
  </node>
  <node id="-347" visible="true" lat="43.155135804733" lon="-72.747536656817">
    <!-- conflict: "278 Golding Road, Windham, VT" Fuzzy match to "278 Golding Road, , VT" -->
    <tag k="addr:city" v="Windham"/>
    <tag k="addr:housenumber" v="278"/>
    <tag k="addr:street" v="Golding Road"/>
    <tag k="addr:state" v="VT"/>
    <tag k="ref:vcgi:esiteid" v="295196"/>
  </node>
  <node id="-348" visible="true" lat="43.155335956739" lon="-72.723258815649">
    <!-- conflict: "5203 Windham Hill Road, Windham, VT" Fuzzy match to "5203 Windham Hill Road, , VT" -->
    <tag k="addr:city" v="Windham"/>
    <tag k="addr:housenumber" v="5203"/>
    <tag k="addr:street" v="Windham Hill Road"/>
    <tag k="addr:state" v="VT"/>
    <tag k="ref:vcgi:esiteid" v="295197"/>
  </node>
  <node id="-351" visible="true" lat="43.154752382892" lon="-72.720491672359">
    <!-- conflict: "5042 Windham Hill Road, Windham, VT" Fuzzy match to "5042 Windham Hill Road, , VT" -->
    <tag k="addr:city" v="Windham"/>
    <tag k="addr:housenumber" v="5042"/>
    <tag k="addr:street" v="Windham Hill Road"/>
    <tag k="addr:state" v="VT"/>
    <tag k="ref:vcgi:esiteid" v="295200"/>
  </node>
  <node id="-357" visible="true" lat="43.152805029318" lon="-72.719904255007">
    <!-- conflict: "4980 Windham Hill Road, Windham, VT" Fuzzy match to "4980 Windham Hill Road, , VT" -->
    <tag k="addr:city" v="Windham"/>
    <tag k="addr:housenumber" v="4980"/>
    <tag k="addr:street" v="Windham Hill Road"/>
    <tag k="addr:state" v="VT"/>
    <tag k="ref:vcgi:esiteid" v="295206"/>
  </node>
  <node id="-359" visible="true" lat="43.152668347526" lon="-72.743835460792">
    <!-- conflict: "875 West Windham Road, Windham, VT" Fuzzy match to "875 West Windham Road, , VT" -->
    <tag k="addr:city" v="Windham"/>
    <tag k="addr:housenumber" v="875"/>
    <tag k="addr:street" v="West Windham Road"/>
    <tag k="addr:state" v="VT"/>
    <tag k="ref:vcgi:esiteid" v="295208"/>
  </node>
  <node id="-368" visible="true" lat="43.151185217926" lon="-72.736710785246">
    <!-- conflict: "457 West Windham Road, Windham, VT" Fuzzy match to "457 West Windham Road, , VT" -->
    <tag k="addr:city" v="Windham"/>
    <tag k="addr:housenumber" v="457"/>
    <tag k="addr:street" v="West Windham Road"/>
    <tag k="addr:state" v="VT"/>
    <tag k="ref:vcgi:esiteid" v="295217"/>
  </node>
  <node id="-369" visible="true" lat="43.150717382551" lon="-72.71940466141">
    <!-- conflict: "4856 Windham Hill Road, Windham, VT" Fuzzy match to "4856 Windham Hill Road, , VT" -->
    <tag k="addr:city" v="Windham"/>
    <tag k="addr:housenumber" v="4856"/>
    <tag k="addr:street" v="Windham Hill Road"/>
    <tag k="addr:state" v="VT"/>
    <tag k="ref:vcgi:esiteid" v="295218"/>
  </node>
  <node id="-372" visible="true" lat="43.149544740206" lon="-72.703930033586">
    <!-- conflict: "1810 Abbott Road, Windham, VT" Fuzzy match to "1810 Abbott Road, , VT" -->
    <tag k="addr:city" v="Windham"/>
    <tag k="addr:housenumber" v="1810"/>
    <tag k="addr:street" v="Abbott Road"/>
    <tag k="addr:state" v="VT"/>
    <tag k="ref:vcgi:esiteid" v="295221"/>
  </node>
  <node id="-376" visible="true" lat="43.148839191938" lon="-72.723429831684">
    <!-- conflict: "4575 Windham Hill Road, Windham, VT" Fuzzy match to "4575 Windham Hill Road, , VT" -->
    <tag k="addr:city" v="Windham"/>
    <tag k="addr:housenumber" v="4575"/>
    <tag k="addr:street" v="Windham Hill Road"/>
    <tag k="addr:state" v="VT"/>
    <tag k="ref:vcgi:esiteid" v="295225"/>
  </node>
  <node id="-377" visible="true" lat="43.148657715416" lon="-72.703346836467">
    <!-- conflict: "1876 Abbott Road, Windham, VT" Fuzzy match to "1876 Abbott Road, , VT" -->
    <tag k="addr:city" v="Windham"/>
    <tag k="addr:housenumber" v="1876"/>
    <tag k="addr:street" v="Abbott Road"/>
    <tag k="addr:state" v="VT"/>
    <tag k="ref:vcgi:esiteid" v="295226"/>
  </node>
  <node id="-378" visible="true" lat="43.14818621257" lon="-72.720841165019">
    <!-- conflict: "4677 Windham Hill Road, Windham, VT" Fuzzy match to "4677 Windham Hill Road, , VT" -->
    <tag k="addr:city" v="Windham"/>
    <tag k="addr:housenumber" v="4677"/>
    <tag k="addr:street" v="Windham Hill Road"/>
    <tag k="addr:state" v="VT"/>
    <tag k="ref:vcgi:esiteid" v="295227"/>
  </node>
  <node id="-379" visible="true" lat="43.147364609988" lon="-72.703360777745">
    <!-- conflict: "2008 Abbott Road, Windham, VT" Fuzzy match to "2008 Abbott Road, , VT" -->
    <tag k="addr:city" v="Windham"/>
    <tag k="addr:housenumber" v="2008"/>
    <tag k="addr:street" v="Abbott Road"/>
    <tag k="addr:state" v="VT"/>
    <tag k="ref:vcgi:esiteid" v="295228"/>
  </node>
  <node id="-383" visible="true" lat="43.145592473956" lon="-72.72913455214">
    <!-- conflict: "544 Burbee Pond Road, Windham, VT" Fuzzy match to "544 Burbee Pond Road, , VT" -->
    <tag k="addr:city" v="Windham"/>
    <tag k="addr:housenumber" v="544"/>
    <tag k="addr:street" v="Burbee Pond Road"/>
    <tag k="addr:state" v="VT"/>
    <tag k="ref:vcgi:esiteid" v="295232"/>
  </node>
  <node id="-386" visible="true" lat="43.144638059545" lon="-72.728951790028">
    <!-- conflict: "531 Burbee Pond Road, Windham, VT" Fuzzy match to "531 Burbee Pond Road, , VT" -->
    <tag k="addr:city" v="Windham"/>
    <tag k="addr:housenumber" v="531"/>
    <tag k="addr:street" v="Burbee Pond Road"/>
    <tag k="addr:state" v="VT"/>
    <tag k="ref:vcgi:esiteid" v="295235"/>
  </node>
  <node id="-388" visible="true" lat="43.143776179347" lon="-72.71956920804">
    <!-- conflict: "4364 Windham Hill Road, Windham, VT" Fuzzy match to "4364 Windham Hill Road, , VT" -->
    <tag k="addr:city" v="Windham"/>
    <tag k="addr:housenumber" v="4364"/>
    <tag k="addr:street" v="Windham Hill Road"/>
    <tag k="addr:state" v="VT"/>
    <tag k="ref:vcgi:esiteid" v="295237"/>
  </node>
  <node id="-390" visible="true" lat="43.143248648037" lon="-72.722691721818">
    <!-- conflict: "185 Burbee Pond Road, Windham, VT" Fuzzy match to "185 Burbee Pond Road, , VT" -->
    <tag k="addr:city" v="Windham"/>
    <tag k="addr:housenumber" v="185"/>
    <tag k="addr:street" v="Burbee Pond Road"/>
    <tag k="addr:state" v="VT"/>
    <tag k="ref:vcgi:esiteid" v="295239"/>
  </node>
  <node id="-391" visible="true" lat="43.143321631806" lon="-72.696178951465">
    <!-- conflict: "1222 Wheeler Road, Windham, VT" Fuzzy match to "1222 Wheeler Road, , VT" -->
    <tag k="addr:city" v="Windham"/>
    <tag k="addr:housenumber" v="1222"/>
    <tag k="addr:street" v="Wheeler Road"/>
    <tag k="addr:state" v="VT"/>
    <tag k="ref:vcgi:esiteid" v="295240"/>
  </node>
  <node id="-392" visible="true" lat="43.143364504568" lon="-72.728156752513">
    <!-- conflict: "1777 Old Cheney Road, Windham, VT" Fuzzy match to "1777 Old Cheney Road, , VT" -->
    <tag k="addr:city" v="Windham"/>
    <tag k="addr:housenumber" v="1777"/>
    <tag k="addr:street" v="Old Cheney Road"/>
    <tag k="addr:state" v="VT"/>
    <tag k="ref:vcgi:esiteid" v="295241"/>
  </node>
  <node id="-393" visible="true" lat="43.143292606971" lon="-72.762719400418">
    <!-- conflict: "544 Toad Road, Windham, VT" Fuzzy match to "544 Toad Road, , VT" -->
    <tag k="addr:city" v="Windham"/>
    <tag k="addr:housenumber" v="544"/>
    <tag k="addr:street" v="Toad Road"/>
    <tag k="addr:state" v="VT"/>
    <tag k="ref:vcgi:esiteid" v="295242"/>
  </node>
  <node id="-394" visible="true" lat="43.142798535722" lon="-72.705842006574">
    <!-- conflict: "693 Wheeler Road, Windham, VT" Fuzzy match to "693 Wheeler Road, , VT" -->
    <tag k="addr:city" v="Windham"/>
    <tag k="addr:housenumber" v="693"/>
    <tag k="addr:street" v="Wheeler Road"/>
    <tag k="addr:state" v="VT"/>
    <tag k="ref:vcgi:esiteid" v="295243"/>
  </node>
  <node id="-399" visible="true" lat="43.141909084638" lon="-72.72816672202">
    <!-- conflict: "1683 Old Cheney Road, Windham, VT" Fuzzy match to "1683 Old Cheney Road, , VT" -->
    <tag k="addr:city" v="Windham"/>
    <tag k="addr:housenumber" v="1683"/>
    <tag k="addr:street" v="Old Cheney Road"/>
    <tag k="addr:state" v="VT"/>
    <tag k="ref:vcgi:esiteid" v="295248"/>
  </node>
  <node id="-403" visible="true" lat="43.141001593904" lon="-72.7266242956">
    <!-- conflict: "1612 Old Cheney Road, Windham, VT" Fuzzy match to "1612 Old Cheney Road, , VT" -->
    <tag k="addr:city" v="Windham"/>
    <tag k="addr:housenumber" v="1612"/>
    <tag k="addr:street" v="Old Cheney Road"/>
    <tag k="addr:state" v="VT"/>
    <tag k="ref:vcgi:esiteid" v="295252"/>
  </node>
  <node id="-406" visible="true" lat="43.14070174214" lon="-72.702841778911">
    <!-- conflict: "902 Wheeler Road, Windham, VT" Fuzzy match to "902 Wheeler Road, , VT" -->
    <tag k="addr:city" v="Windham"/>
    <tag k="addr:housenumber" v="902"/>
    <tag k="addr:street" v="Wheeler Road"/>
    <tag k="addr:state" v="VT"/>
    <tag k="ref:vcgi:esiteid" v="295255"/>
  </node>
  <node id="-411" visible="true" lat="43.138108695848" lon="-72.710057007174">
    <!-- conflict: "342 Wheeler Road, Windham, VT" Fuzzy match to "342 Wheeler Road, , VT" -->
    <tag k="addr:city" v="Windham"/>
    <tag k="addr:housenumber" v="342"/>
    <tag k="addr:street" v="Wheeler Road"/>
    <tag k="addr:state" v="VT"/>
    <tag k="ref:vcgi:esiteid" v="295260"/>
  </node>
  <node id="-412" visible="true" lat="43.137784238315" lon="-72.727335040485">
    <!-- conflict: "1401 Old Cheney Road, Windham, VT" Fuzzy match to "1401 Old Cheney Road, , VT" -->
    <tag k="addr:city" v="Windham"/>
    <tag k="addr:housenumber" v="1401"/>
    <tag k="addr:street" v="Old Cheney Road"/>
    <tag k="addr:state" v="VT"/>
    <tag k="ref:vcgi:esiteid" v="295261"/>
  </node>
  <node id="-414" visible="true" lat="43.133796138114" lon="-72.72604941819">
    <!-- conflict: "1113 Old Cheney Road, Windham, VT" Fuzzy match to "1113 Old Cheney Road, , VT" -->
    <tag k="addr:city" v="Windham"/>
    <tag k="addr:housenumber" v="1113"/>
    <tag k="addr:street" v="Old Cheney Road"/>
    <tag k="addr:state" v="VT"/>
    <tag k="ref:vcgi:esiteid" v="295263"/>
  </node>
  <node id="-423" visible="true" lat="43.131779813137" lon="-72.724230678746">
    <!-- conflict: "956 Old Cheney Road, Windham, VT" Fuzzy match to "956 Old Cheney Road, , VT" -->
    <tag k="addr:city" v="Windham"/>
    <tag k="addr:housenumber" v="956"/>
    <tag k="addr:street" v="Old Cheney Road"/>
    <tag k="addr:state" v="VT"/>
    <tag k="ref:vcgi:esiteid" v="295272"/>
  </node>
  <node id="-430" visible="true" lat="43.129152496279" lon="-72.708593463584">
    <!-- conflict: "179 Chase Road, Windham, VT" Fuzzy match to "179 Chase Road, , VT" -->
    <tag k="addr:city" v="Windham"/>
    <tag k="addr:housenumber" v="179"/>
    <tag k="addr:street" v="Chase Road"/>
    <tag k="addr:state" v="VT"/>
    <tag k="ref:vcgi:esiteid" v="295279"/>
  </node>
  <node id="-434" visible="true" lat="43.128544986027" lon="-72.7051174516">
    <!-- conflict: "338 Chase Road, Windham, VT" Fuzzy match to "338 Chase Road, , VT" -->
    <tag k="addr:city" v="Windham"/>
    <tag k="addr:housenumber" v="338"/>
    <tag k="addr:street" v="Chase Road"/>
    <tag k="addr:state" v="VT"/>
    <tag k="ref:vcgi:esiteid" v="295283"/>
  </node>
  <node id="-436" visible="true" lat="43.128289402588" lon="-72.711213339233">
    <!-- conflict: "27 Chase Road, Windham, VT" Fuzzy match to "27 Chase Road, , VT" -->
    <tag k="addr:city" v="Windham"/>
    <tag k="addr:housenumber" v="27"/>
    <tag k="addr:street" v="Chase Road"/>
    <tag k="addr:state" v="VT"/>
    <tag k="ref:vcgi:esiteid" v="295285"/>
  </node>
  <node id="-437" visible="true" lat="43.128766742951" lon="-72.709915780297">
    <!-- conflict: "87 Chase Road, Windham, VT" Fuzzy match to "87 Chase Road, , VT" -->
    <tag k="addr:city" v="Windham"/>
    <tag k="addr:housenumber" v="87"/>
    <tag k="addr:street" v="Chase Road"/>
    <tag k="addr:state" v="VT"/>
    <tag k="ref:vcgi:esiteid" v="295286"/>
  </node>
  <node id="-445" visible="true" lat="43.21829651084" lon="-72.72205820983">
    <!-- conflict: "120 White Road, Chester, VT" Fuzzy match to "120 White Road, Windham, VT" -->
    <tag k="addr:city" v="Chester"/>
    <tag k="addr:housenumber" v="120"/>
    <tag k="addr:street" v="White Road"/>
    <tag k="addr:state" v="VT"/>
    <tag k="ref:vcgi:esiteid" v="295294"/>
  </node>
  <node id="-446" visible="true" lat="43.221679777762" lon="-72.700086213392">
    <!-- conflict: "6147 Popple Dungeon Road, Chester, VT" Fuzzy match to "6147 Popple Dungeon Road, Windham, VT" -->
    <tag k="addr:city" v="Chester"/>
    <tag k="addr:housenumber" v="6147"/>
    <tag k="addr:street" v="Popple Dungeon Road"/>
    <tag k="addr:state" v="VT"/>
    <tag k="ref:vcgi:esiteid" v="295295"/>
  </node>
  <node id="-447" visible="true" lat="43.222068396588" lon="-72.705477906832">
    <!-- conflict: "6397 Popple Dungeon Road, Chester, VT" Fuzzy match to "6397 Popple Dungeon Road, Windham, VT" -->
    <tag k="addr:city" v="Chester"/>
    <tag k="addr:housenumber" v="6397"/>
    <tag k="addr:street" v="Popple Dungeon Road"/>
    <tag k="addr:state" v="VT"/>
    <tag k="ref:vcgi:esiteid" v="295296"/>
  </node>
  <node id="-448" visible="true" lat="43.213370207931" lon="-72.737686256492">
    <!-- conflict: "339 Route 121, Londonderry, VT" Fuzzy match to "339 Route 121, , VT" -->
    <tag k="addr:city" v="Londonderry"/>
    <tag k="addr:housenumber" v="339"/>
    <tag k="addr:street" v="Route 121"/>
    <tag k="addr:state" v="VT"/>
    <tag k="ref:vcgi:esiteid" v="295297"/>
  </node>
  <node id="-449" visible="true" lat="43.155179724276" lon="-72.741183223906">
    <!-- conflict: "171 Ingalls Road, Windham, VT" Fuzzy match to "171 Ingalls Road, , VT" -->
    <tag k="addr:city" v="Windham"/>
    <tag k="addr:housenumber" v="171"/>
    <tag k="addr:street" v="Ingalls Road"/>
    <tag k="addr:state" v="VT"/>
    <tag k="ref:vcgi:esiteid" v="295298"/>
  </node>
  <node id="-450" visible="true" lat="43.151356879229" lon="-72.735688445603">
    <!-- conflict: "403 West Windham Road, Windham, VT" Fuzzy match to "403 West Windham Road, , VT" -->
    <tag k="addr:city" v="Windham"/>
    <tag k="addr:housenumber" v="403"/>
    <tag k="addr:street" v="West Windham Road"/>
    <tag k="addr:state" v="VT"/>
    <tag k="ref:vcgi:esiteid" v="295299"/>
  </node>
  <node id="-452" visible="true" lat="43.158815953334" lon="-72.709319565764">
    <!-- conflict: "1114 Abbott Road, Windham, VT" Fuzzy match to "1114 Abbott Road, , VT" -->
    <tag k="addr:city" v="Windham"/>
    <tag k="addr:housenumber" v="1114"/>
    <tag k="addr:street" v="Abbott Road"/>
    <tag k="addr:state" v="VT"/>
    <tag k="ref:vcgi:esiteid" v="295301"/>
  </node>
  <node id="-457" visible="true" lat="43.145208279891" lon="-72.724252446663">
    <!-- conflict: "236 Burbee Pond Road, Windham, VT" Fuzzy match to "236 Burbee Pond Road, , VT" -->
    <tag k="addr:city" v="Windham"/>
    <tag k="addr:housenumber" v="236"/>
    <tag k="addr:street" v="Burbee Pond Road"/>
    <tag k="addr:state" v="VT"/>
    <tag k="ref:vcgi:esiteid" v="295306"/>
  </node>
  <node id="-458" visible="true" lat="43.199671049625" lon="-72.726993122193">
    <!-- conflict: "1603 Route 121, Windham, VT" Fuzzy match to "1603 Route 121, , VT" -->
    <tag k="addr:city" v="Windham"/>
    <tag k="addr:housenumber" v="1603"/>
    <tag k="addr:street" v="Route 121"/>
    <tag k="addr:state" v="VT"/>
    <tag k="ref:vcgi:esiteid" v="295307"/>
  </node>
  <node id="-460" visible="true" lat="43.1569481103" lon="-72.723876513852">
    <!-- conflict: "5305 Windham Hill Road, Windham, VT" Fuzzy match to "5305 Windham Hill Road, , VT" -->
    <tag k="addr:city" v="Windham"/>
    <tag k="addr:housenumber" v="5305"/>
    <tag k="addr:street" v="Windham Hill Road"/>
    <tag k="addr:state" v="VT"/>
    <tag k="ref:vcgi:esiteid" v="295309"/>
  </node>
  <node id="-461" visible="true" lat="43.141967849776" lon="-72.726205900725">
    <!-- conflict: "375 Burbee Pond Road, Windham, VT" Fuzzy match to "375 Burbee Pond Road, , VT" -->
    <tag k="addr:city" v="Windham"/>
    <tag k="addr:housenumber" v="375"/>
    <tag k="addr:street" v="Burbee Pond Road"/>
    <tag k="addr:state" v="VT"/>
    <tag k="ref:vcgi:esiteid" v="295311"/>
  </node>
  <node id="-462" visible="true" lat="43.143012962306" lon="-72.71720496312">
    <!-- conflict: "4240 Windham Hill Road, Windham, VT" Fuzzy match to "4240 Windham Hill Road, , VT" -->
    <tag k="addr:city" v="Windham"/>
    <tag k="addr:housenumber" v="4240"/>
    <tag k="addr:street" v="Windham Hill Road"/>
    <tag k="addr:state" v="VT"/>
    <tag k="ref:vcgi:esiteid" v="295312"/>
  </node>
  <node id="-470" visible="true" lat="43.195321274703" lon="-72.72533535896">
    <!-- conflict: "50 Hemlock Road, Windham, VT" Fuzzy match to "50 Hemlock Road, , VT" -->
    <tag k="addr:city" v="Windham"/>
    <tag k="addr:housenumber" v="50"/>
    <tag k="addr:street" v="Hemlock Road"/>
    <tag k="addr:state" v="VT"/>
    <tag k="ref:vcgi:esiteid" v="295320"/>
  </node>
  <node id="-471" visible="true" lat="43.195928716023" lon="-72.725347034434">
    <!-- conflict: "83 Hemlock Road, Windham, VT" Fuzzy match to "83 Hemlock Road, , VT" -->
    <tag k="addr:city" v="Windham"/>
    <tag k="addr:housenumber" v="83"/>
    <tag k="addr:street" v="Hemlock Road"/>
    <tag k="addr:state" v="VT"/>
    <tag k="ref:vcgi:esiteid" v="295321"/>
  </node>
  <node id="-476" visible="true" lat="43.217564776595" lon="-72.722390411932">
    <!-- conflict: "268 White Road, Chester, VT" Fuzzy match to "268 White Road, , VT" -->
    <tag k="addr:city" v="Chester"/>
    <tag k="addr:housenumber" v="268"/>
    <tag k="addr:street" v="White Road"/>
    <tag k="addr:state" v="VT"/>
    <tag k="ref:vcgi:esiteid" v="295326"/>
  </node>
  <node id="-477" visible="true" lat="43.217152864682" lon="-72.721832405366">
    <!-- conflict: "264 White Road, Chester, VT" Fuzzy match to "264 White Road, , VT" -->
    <tag k="addr:city" v="Chester"/>
    <tag k="addr:housenumber" v="264"/>
    <tag k="addr:street" v="White Road"/>
    <tag k="addr:state" v="VT"/>
    <tag k="ref:vcgi:esiteid" v="295327"/>
  </node>
  <node id="-478" visible="true" lat="43.216818929104" lon="-72.721847330072">
    <!-- conflict: "266 White Road, Chester, VT" Fuzzy match to "266 White Road, , VT" -->
    <tag k="addr:city" v="Chester"/>
    <tag k="addr:housenumber" v="266"/>
    <tag k="addr:street" v="White Road"/>
    <tag k="addr:state" v="VT"/>
    <tag k="ref:vcgi:esiteid" v="295328"/>
  </node>
  <node id="-479" visible="true" lat="43.151131780698" lon="-72.72132693217">
    <!-- conflict: "4841 Windham Hill Road, Windham, VT" Fuzzy match to "4841 Windham Hill Road, , VT" -->
    <tag k="addr:city" v="Windham"/>
    <tag k="addr:housenumber" v="4841"/>
    <tag k="addr:street" v="Windham Hill Road"/>
    <tag k="addr:state" v="VT"/>
    <tag k="ref:vcgi:esiteid" v="295329"/>
  </node>
  <node id="-480" visible="true" lat="43.170219958308" lon="-72.716678525533">
    <!-- conflict: "315 Woodburn Road, Windham, VT" Fuzzy match to "315 Woodburn Road, , VT" -->
    <tag k="addr:city" v="Windham"/>
    <tag k="addr:housenumber" v="315"/>
    <tag k="addr:street" v="Woodburn Road"/>
    <tag k="addr:state" v="VT"/>
    <tag k="ref:vcgi:esiteid" v="295330"/>
  </node>
  <node id="-481" visible="true" lat="43.221226630402" lon="-72.703081536242">
    <!-- conflict: "277 Edson Drive, Chester, VT" Fuzzy match to "277 Edson Drive, Windham, VT" -->
    <tag k="addr:city" v="Chester"/>
    <tag k="addr:housenumber" v="277"/>
    <tag k="addr:street" v="Edson Drive"/>
    <tag k="addr:state" v="VT"/>
    <tag k="ref:vcgi:esiteid" v="295331"/>
  </node>
  <node id="-483" visible="true" lat="43.136358147049" lon="-72.725273235282">
    <!-- conflict: "1300 Old Cheney Road, Windham, VT" Fuzzy match to "1300 Old Cheney Road, , VT" -->
    <tag k="addr:city" v="Windham"/>
    <tag k="addr:housenumber" v="1300"/>
    <tag k="addr:street" v="Old Cheney Road"/>
    <tag k="addr:state" v="VT"/>
    <tag k="ref:vcgi:esiteid" v="295334"/>
  </node>
  <node id="-484" visible="true" lat="43.223787332256" lon="-72.718943581627">
    <!-- conflict: "655 Horsenail Hill Road, Chester, VT" Fuzzy match to "655 Horsenail Hill Road, Windham, VT" -->
    <tag k="addr:city" v="Chester"/>
    <tag k="addr:housenumber" v="655"/>
    <tag k="addr:street" v="Horsenail Hill Road"/>
    <tag k="addr:state" v="VT"/>
    <tag k="ref:vcgi:esiteid" v="295335"/>
  </node>
  <node id="-485" visible="true" lat="43.220896403557" lon="-72.721775184218">
    <!-- conflict: "736 Horsenail Hill Road, Chester, VT" Fuzzy match to "736 Horsenail Hill Road, Windham, VT" -->
    <tag k="addr:city" v="Chester"/>
    <tag k="addr:housenumber" v="736"/>
    <tag k="addr:street" v="Horsenail Hill Road"/>
    <tag k="addr:state" v="VT"/>
    <tag k="ref:vcgi:esiteid" v="295336"/>
  </node>
  <node id="-487" visible="true" lat="43.219929026837" lon="-72.721873487685">
    <!-- conflict: "792 Horsenail Hill Road, Chester, VT" Fuzzy match to "792 Horsenail Hill Road, Windham, VT" -->
    <tag k="addr:city" v="Chester"/>
    <tag k="addr:housenumber" v="792"/>
    <tag k="addr:street" v="Horsenail Hill Road"/>
    <tag k="addr:state" v="VT"/>
    <tag k="ref:vcgi:esiteid" v="295338"/>
  </node>
  <node id="-488" visible="true" lat="43.219262498183" lon="-72.72818781644">
    <!-- conflict: "458 Scott Pet Road, Chester, VT" Fuzzy match to "458 Scott Pet Road, , VT" -->
    <tag k="addr:city" v="Chester"/>
    <tag k="addr:housenumber" v="458"/>
    <tag k="addr:street" v="Scott Pet Road"/>
    <tag k="addr:state" v="VT"/>
    <tag k="ref:vcgi:esiteid" v="295339"/>
  </node>
  <node id="-489" visible="true" lat="43.221817115519" lon="-72.721449633842">
    <!-- conflict: "700 Horsenail Hill Road, Chester, VT" Fuzzy match to "700 Horsenail Hill Road, Windham, VT" -->
    <tag k="addr:city" v="Chester"/>
    <tag k="addr:housenumber" v="700"/>
    <tag k="addr:street" v="Horsenail Hill Road"/>
    <tag k="addr:state" v="VT"/>
    <tag k="ref:vcgi:esiteid" v="295340"/>
  </node>
  <node id="-490" visible="true" lat="43.22413359709" lon="-72.69723168632">
    <!-- conflict: "5970 Popple Dungeon Road, Chester, VT" Fuzzy match to "5970 Popple Dungeon Road, Windham, VT" -->
    <tag k="addr:city" v="Chester"/>
    <tag k="addr:housenumber" v="5970"/>
    <tag k="addr:street" v="Popple Dungeon Road"/>
    <tag k="addr:state" v="VT"/>
    <tag k="ref:vcgi:esiteid" v="295341"/>
  </node>
  <node id="-491" visible="true" lat="43.195231393496" lon="-72.715680618553">
    <!-- conflict: "2198 Route 121, Windham, VT" Fuzzy match to "2198 Route 121, , VT" -->
    <tag k="addr:city" v="Windham"/>
    <tag k="addr:housenumber" v="2198"/>
    <tag k="addr:street" v="Route 121"/>
    <tag k="addr:state" v="VT"/>
    <tag k="ref:vcgi:esiteid" v="295343"/>
  </node>
  <node id="-494" visible="true" lat="43.221656850529" lon="-72.715248481198">
    <!-- conflict: "6905 Popple Dungeon Road, Chester, VT" Fuzzy match to "6905 Popple Dungeon Road, Windham, VT" -->
    <tag k="addr:city" v="Chester"/>
    <tag k="addr:housenumber" v="6905"/>
    <tag k="addr:street" v="Popple Dungeon Road"/>
    <tag k="addr:state" v="VT"/>
    <tag k="ref:vcgi:esiteid" v="295346"/>
  </node>
  <node id="-495" visible="true" lat="43.221063327308" lon="-72.692576774483">
    <!-- conflict: "5721 Popple Dungeon Road, Chester, VT" Fuzzy match to "5721 Popple Dungeon Road, Windham, VT" -->
    <tag k="addr:city" v="Chester"/>
    <tag k="addr:housenumber" v="5721"/>
    <tag k="addr:street" v="Popple Dungeon Road"/>
    <tag k="addr:state" v="VT"/>
    <tag k="ref:vcgi:esiteid" v="295347"/>
  </node>
  <node id="-496" visible="true" lat="43.133203246964" lon="-72.724100933615">
    <!-- conflict: "1094 Old Cheney Road, Windham, VT" Fuzzy match to "1094 Old Cheney Road, , VT" -->
    <tag k="addr:city" v="Windham"/>
    <tag k="addr:housenumber" v="1094"/>
    <tag k="addr:street" v="Old Cheney Road"/>
    <tag k="addr:state" v="VT"/>
    <tag k="ref:vcgi:esiteid" v="295348"/>
  </node>
  <node id="-499" visible="true" lat="43.161659303973" lon="-72.72467924354">
    <!-- conflict: "5655 Windham Hill Road, Windham, VT" Fuzzy match to "5655 Windham Hill Road, , VT" -->
    <tag k="addr:city" v="Windham"/>
    <tag k="addr:housenumber" v="5655"/>
    <tag k="addr:street" v="Windham Hill Road"/>
    <tag k="addr:state" v="VT"/>
    <tag k="ref:vcgi:esiteid" v="295351"/>
  </node>
  <node id="-500" visible="true" lat="43.195712183761" lon="-72.726826681277">
    <!-- conflict: "113 Spruce Road, Windham, VT" Fuzzy match to "113 Spruce Road, , VT" -->
    <tag k="addr:city" v="Windham"/>
    <tag k="addr:housenumber" v="113"/>
    <tag k="addr:street" v="Spruce Road"/>
    <tag k="addr:state" v="VT"/>
    <tag k="ref:vcgi:esiteid" v="295352"/>
  </node>
  <node id="-503" visible="true" lat="43.134300272047" lon="-72.72487694881">
    <!-- conflict: "1150 Old Cheney Road, Windham, VT" Fuzzy match to "1150 Old Cheney Road, , VT" -->
    <tag k="addr:city" v="Windham"/>
    <tag k="addr:housenumber" v="1150"/>
    <tag k="addr:street" v="Old Cheney Road"/>
    <tag k="addr:state" v="VT"/>
    <tag k="ref:vcgi:esiteid" v="295355"/>
  </node>
  <node id="-504" visible="true" lat="43.222439438759" lon="-72.717387967408">
    <!-- conflict: "7048 Popple Dungeon Road, Chester, VT" Fuzzy match to "7048 Popple Dungeon Road, Windham, VT" -->
    <tag k="addr:city" v="Chester"/>
    <tag k="addr:housenumber" v="7048"/>
    <tag k="addr:street" v="Popple Dungeon Road"/>
    <tag k="addr:state" v="VT"/>
    <tag k="ref:vcgi:esiteid" v="295356"/>
  </node>
  <node id="-505" visible="true" lat="43.223515329056" lon="-72.717542642196">
    <!-- conflict: "7050 Popple Dungeon Road, Chester, VT" Fuzzy match to "7050 Popple Dungeon Road, Windham, VT" -->
    <tag k="addr:city" v="Chester"/>
    <tag k="addr:housenumber" v="7050"/>
    <tag k="addr:street" v="Popple Dungeon Road"/>
    <tag k="addr:state" v="VT"/>
    <tag k="ref:vcgi:esiteid" v="295357"/>
  </node>
  <node id="-509" visible="true" lat="43.201442276542" lon="-72.731792671349">
    <!-- conflict: "1203 Route 121, Windham, VT" Fuzzy match to "1203 Route 121, , VT" -->
    <tag k="addr:city" v="Windham"/>
    <tag k="addr:housenumber" v="1203"/>
    <tag k="addr:street" v="Route 121"/>
    <tag k="addr:state" v="VT"/>
    <tag k="ref:vcgi:esiteid" v="295361"/>
  </node>
  <node id="-510" visible="true" lat="43.164102040212" lon="-72.725618355174">
    <!-- conflict: "5855 Windham Hill Road, Windham, VT" Fuzzy match to "5855 Windham Hill Road, , VT" -->
    <tag k="addr:city" v="Windham"/>
    <tag k="addr:housenumber" v="5855"/>
    <tag k="addr:street" v="Windham Hill Road"/>
    <tag k="addr:state" v="VT"/>
    <tag k="ref:vcgi:esiteid" v="295362"/>
  </node>
  <node id="-512" visible="true" lat="43.127087996157" lon="-72.697024710267">
    <!-- conflict: "820 Chase Road, Windham, VT" Fuzzy match to "820 Chase Road, , VT" -->
    <tag k="addr:city" v="Windham"/>
    <tag k="addr:housenumber" v="820"/>
    <tag k="addr:street" v="Chase Road"/>
    <tag k="addr:state" v="VT"/>
    <tag k="ref:vcgi:esiteid" v="306234"/>
  </node>
  <node id="-513" visible="true" lat="43.1354595272" lon="-72.717473878733">
    <!-- conflict: "3709 Windham Hill Road, Windham, VT" Fuzzy match to "3709 Windham Hill Road, , VT" -->
    <tag k="addr:city" v="Windham"/>
    <tag k="addr:housenumber" v="3709"/>
    <tag k="addr:street" v="Windham Hill Road"/>
    <tag k="addr:state" v="VT"/>
    <tag k="ref:vcgi:esiteid" v="307539"/>
  </node>
  <node id="-514" visible="true" lat="43.210388135249" lon="-72.717930462892">
    <!-- conflict: "1044 Hitchcock Hill Road, Chester, VT" Fuzzy match to "1044 Hitchcock Hill Road, , VT" -->
    <tag k="addr:city" v="Chester"/>
    <tag k="addr:housenumber" v="1044"/>
    <tag k="addr:street" v="Hitchcock Hill Road"/>
    <tag k="addr:state" v="VT"/>
    <tag k="ref:vcgi:esiteid" v="310037"/>
  </node>
  <node id="-515" visible="true" lat="43.2222003101" lon="-72.687031121009">
    <!-- conflict: "5491 Popple Dungeon Road, Chester, VT" Fuzzy match to "5491 Popple Dungeon Road, Windham, VT" -->
    <tag k="addr:city" v="Chester"/>
    <tag k="addr:housenumber" v="5491"/>
    <tag k="addr:street" v="Popple Dungeon Road"/>
    <tag k="addr:state" v="VT"/>
    <tag k="ref:vcgi:esiteid" v="310038"/>
  </node>
  <node id="-516" visible="true" lat="43.197519178209" lon="-72.727723065522">
    <!-- conflict: "48 Timber Ridge Road, Windham, VT" Fuzzy match to "48 Timber Ridge Road, , VT" -->
    <tag k="addr:city" v="Windham"/>
    <tag k="addr:housenumber" v="48"/>
    <tag k="addr:street" v="Timber Ridge Road"/>
    <tag k="addr:state" v="VT"/>
    <tag k="ref:vcgi:esiteid" v="310772"/>
  </node>
  <node id="-518" visible="true" lat="43.218935947102" lon="-72.730395503938">
    <!-- conflict: "328 Scott Pet Road, Chester, VT" Fuzzy match to "328 Scott Pet Road, , VT" -->
    <tag k="addr:city" v="Chester"/>
    <tag k="addr:housenumber" v="328"/>
    <tag k="addr:street" v="Scott Pet Road"/>
    <tag k="addr:state" v="VT"/>
    <tag k="ref:vcgi:esiteid" v="315259"/>
  </node>
  <node id="-521" visible="true" lat="43.221919674484" lon="-72.718965552633">
    <!-- conflict: "7090 Popple Dungeon Road, Chester, VT" Fuzzy match to "7090 Popple Dungeon Road, Windham, VT" -->
    <tag k="addr:city" v="Chester"/>
    <tag k="addr:housenumber" v="7090"/>
    <tag k="addr:street" v="Popple Dungeon Road"/>
    <tag k="addr:state" v="VT"/>
    <tag k="ref:vcgi:esiteid" v="327653"/>
  </node>
  <node id="-522" visible="true" lat="43.207377467647" lon="-72.708664990149">
    <!-- conflict: "1177 White Road, Chester, VT" Fuzzy match to "1177 White Road, Windham, VT" -->
    <tag k="addr:city" v="Chester"/>
    <tag k="addr:housenumber" v="1177"/>
    <tag k="addr:street" v="White Road"/>
    <tag k="addr:state" v="VT"/>
    <tag k="ref:vcgi:esiteid" v="328318"/>
  </node>
  <node id="-523" visible="true" lat="43.141112783463" lon="-72.708145080751">
    <!-- conflict: "594 Wheeler Road, Windham, VT" Fuzzy match to "594 Wheeler Road, , VT" -->
    <tag k="addr:city" v="Windham"/>
    <tag k="addr:housenumber" v="594"/>
    <tag k="addr:street" v="Wheeler Road"/>
    <tag k="addr:state" v="VT"/>
    <tag k="ref:vcgi:esiteid" v="330058"/>
  </node>
  <node id="-524" visible="true" lat="43.215802533609" lon="-72.715778325943">
    <!-- conflict: "300 Fairway Meadows, Chester, VT" Fuzzy match to "300 Fairway Meadows, Windham, VT" -->
    <tag k="addr:city" v="Chester"/>
    <tag k="addr:housenumber" v="300"/>
    <tag k="addr:street" v="Fairway Meadows"/>
    <tag k="addr:state" v="VT"/>
    <tag k="ref:vcgi:esiteid" v="331119"/>
  </node>
  <node id="-526" visible="true" lat="43.227033304372" lon="-72.706711843899">
    <!-- conflict: "308 Howard Hill Road, Chester, VT" Fuzzy match to "308 Howard Hill Road, , VT" -->
    <tag k="addr:city" v="Chester"/>
    <tag k="addr:housenumber" v="308"/>
    <tag k="addr:street" v="Howard Hill Road"/>
    <tag k="addr:state" v="VT"/>
    <tag k="ref:vcgi:esiteid" v="336531"/>
  </node>
  <node id="-528" visible="true" lat="43.14179338166" lon="-72.717362981841">
    <!-- conflict: "4228 Windham Hill Road, Windham, VT" Fuzzy match to "4228 Windham Hill Road, , VT" -->
    <tag k="addr:city" v="Windham"/>
    <tag k="addr:housenumber" v="4228"/>
    <tag k="addr:street" v="Windham Hill Road"/>
    <tag k="addr:state" v="VT"/>
    <tag k="ref:vcgi:esiteid" v="341580"/>
  </node>
  <node id="-531" visible="true" lat="43.136301105154" lon="-72.72639549236">
    <!-- conflict: "1275 Old Cheney Road, Windham, VT" Fuzzy match to "1275 Old Cheney Road, , VT" -->
    <tag k="addr:city" v="Windham"/>
    <tag k="addr:housenumber" v="1275"/>
    <tag k="addr:street" v="Old Cheney Road"/>
    <tag k="addr:state" v="VT"/>
    <tag k="ref:vcgi:esiteid" v="342582"/>
  </node>
  <node id="-535" visible="true" lat="43.217438942417" lon="-72.71979420103">
    <!-- conflict: "90 Fairway Meadows, Chester, VT" Fuzzy match to "90 Fairway Meadows, Windham, VT" -->
    <tag k="addr:city" v="Chester"/>
    <tag k="addr:housenumber" v="90"/>
    <tag k="addr:street" v="Fairway Meadows"/>
    <tag k="addr:state" v="VT"/>
    <tag k="ref:vcgi:esiteid" v="445963"/>
  </node>
  <node id="-536" visible="true" lat="43.205177525797" lon="-72.706796693162">
    <!-- conflict: "1376 White Road, Chester, VT" Fuzzy match to "1376 White Road, Windham, VT" -->
    <tag k="addr:city" v="Chester"/>
    <tag k="addr:housenumber" v="1376"/>
    <tag k="addr:street" v="White Road"/>
    <tag k="addr:state" v="VT"/>
    <tag k="ref:vcgi:esiteid" v="446070"/>
  </node>
  <node id="-537" visible="true" lat="43.151955275634" lon="-72.722313605329">
    <!-- conflict: "4983 Windham Hill Road, Windham, VT" Fuzzy match to "4983 Windham Hill Road, , VT" -->
    <tag k="addr:city" v="Windham"/>
    <tag k="addr:housenumber" v="4983"/>
    <tag k="addr:street" v="Windham Hill Road"/>
    <tag k="addr:state" v="VT"/>
    <tag k="ref:vcgi:esiteid" v="448199"/>
  </node>
  <node id="-538" visible="true" lat="43.142605883799" lon="-72.727726088594">
    <!-- conflict: "1751 Old Cheney Road, Windham, VT" Fuzzy match to "1751 Old Cheney Road, , VT" -->
    <tag k="addr:city" v="Windham"/>
    <tag k="addr:housenumber" v="1751"/>
    <tag k="addr:street" v="Old Cheney Road"/>
    <tag k="addr:state" v="VT"/>
    <tag k="ref:vcgi:esiteid" v="449578"/>
  </node>
  <node id="-540" visible="true" lat="43.193755270003" lon="-72.729698961507">
    <!-- conflict: "431 Glebe Mountain Road, Windham, VT" Fuzzy match to "431 Glebe Mountain Road, , VT" -->
    <tag k="addr:city" v="Windham"/>
    <tag k="addr:housenumber" v="431"/>
    <tag k="addr:street" v="Glebe Mountain Road"/>
    <tag k="addr:state" v="VT"/>
    <tag k="ref:vcgi:esiteid" v="451374"/>
  </node>
  <node id="-541" visible="true" lat="43.228211620768" lon="-72.728795120992">
    <!-- conflict: "7511 Vermont Route 11, Londonderry, VT" Fuzzy match to "7511 Vermont Route 11, Windham, VT" -->
    <tag k="addr:city" v="Londonderry"/>
    <tag k="addr:housenumber" v="7511"/>
    <tag k="addr:street" v="Vermont Route 11"/>
    <tag k="addr:state" v="VT"/>
    <tag k="ref:vcgi:esiteid" v="452648"/>
  </node>
  <node id="-543" visible="true" lat="43.219335707397" lon="-72.70390978754">
    <!-- conflict: "200 Edson Drive, Chester, VT" Fuzzy match to "200 Edson Drive, , VT" -->
    <tag k="addr:city" v="Chester"/>
    <tag k="addr:housenumber" v="200"/>
    <tag k="addr:street" v="Edson Drive"/>
    <tag k="addr:state" v="VT"/>
    <tag k="ref:vcgi:esiteid" v="454513"/>
  </node>
  <node id="-544" visible="true" lat="43.158557387032" lon="-72.730719150882">
    <!-- conflict: "1355 Burbee Pond Road, Windham, VT" Fuzzy match to "1355 Burbee Pond Road, , VT" -->
    <tag k="addr:city" v="Windham"/>
    <tag k="addr:housenumber" v="1355"/>
    <tag k="addr:street" v="Burbee Pond Road"/>
    <tag k="addr:state" v="VT"/>
    <tag k="ref:vcgi:esiteid" v="454514"/>
  </node>
  <node id="-546" visible="true" lat="43.220268121398" lon="-72.707718217041">
    <!-- conflict: "70 Edson Drive, Chester, VT" Fuzzy match to "70 Edson Drive, , VT" -->
    <tag k="addr:city" v="Chester"/>
    <tag k="addr:housenumber" v="70"/>
    <tag k="addr:street" v="Edson Drive"/>
    <tag k="addr:state" v="VT"/>
    <tag k="ref:vcgi:esiteid" v="610871"/>
  </node>
  <node id="-547" visible="true" lat="43.215614215237" lon="-72.719352185686">
    <!-- conflict: "361 White Road, Chester, VT" Fuzzy match to "361 White Road, Windham, VT" -->
    <tag k="addr:city" v="Chester"/>
    <tag k="addr:housenumber" v="361"/>
    <tag k="addr:street" v="White Road"/>
    <tag k="addr:state" v="VT"/>
    <tag k="ref:vcgi:esiteid" v="612060"/>
  </node>
  <node id="-548" visible="true" lat="43.216463196329" lon="-72.7200900518">
    <!-- conflict: "267 White Road, Chester, VT" Fuzzy match to "267 White Road, Windham, VT" -->
    <tag k="addr:city" v="Chester"/>
    <tag k="addr:housenumber" v="267"/>
    <tag k="addr:street" v="White Road"/>
    <tag k="addr:state" v="VT"/>
    <tag k="ref:vcgi:esiteid" v="612061"/>
  </node>
  <node id="-550" visible="true" lat="43.197681483882" lon="-72.733278922613">
    <!-- conflict: "732 Birch Hill Road, Windham, VT" Fuzzy match to "732 Birch Hill Road, , VT" -->
    <tag k="addr:city" v="Windham"/>
    <tag k="addr:housenumber" v="732"/>
    <tag k="addr:street" v="Birch Hill Road"/>
    <tag k="addr:state" v="VT"/>
    <tag k="ref:vcgi:esiteid" v="613051"/>
  </node>
  <node id="-555" visible="true" lat="43.21944504136" lon="-72.700571839081">
    <!-- conflict: "377 Edson Drive, Chester, VT" Fuzzy match to "377 Edson Drive, , VT" -->
    <tag k="addr:city" v="Chester"/>
    <tag k="addr:housenumber" v="377"/>
    <tag k="addr:street" v="Edson Drive"/>
    <tag k="addr:state" v="VT"/>
    <tag k="ref:vcgi:esiteid" v="617460"/>
  </node>
  <node id="-556" visible="true" lat="43.154141611597" lon="-72.70759005168">
    <!-- conflict: "1400 Abbott Road, Windham, VT" Fuzzy match to "1400 Abbott Road, , VT" -->
    <tag k="addr:city" v="Windham"/>
    <tag k="addr:housenumber" v="1400"/>
    <tag k="addr:street" v="Abbott Road"/>
    <tag k="addr:state" v="VT"/>
    <tag k="ref:vcgi:esiteid" v="618046"/>
  </node>
  <node id="-570" visible="true" lat="43.150383952279" lon="-72.720769955599">
    <!-- conflict: "4817 Windham Hill Road, Windham, VT" Fuzzy match to "4817 Windham Hill Road, , VT" -->
    <tag k="addr:city" v="Windham"/>
    <tag k="addr:housenumber" v="4817"/>
    <tag k="addr:street" v="Windham Hill Road"/>
    <tag k="addr:state" v="VT"/>
    <tag k="ref:vcgi:esiteid" v="750254"/>
  </node>
  <node id="-572" visible="true" lat="43.218308044468" lon="-72.719251007056">
    <!-- conflict: "95 Fairway Meadows, Chester, VT" Fuzzy match to "95 Fairway Meadows, Windham, VT" -->
    <tag k="addr:city" v="Chester"/>
    <tag k="addr:housenumber" v="95"/>
    <tag k="addr:street" v="Fairway Meadows"/>
    <tag k="addr:state" v="VT"/>
    <tag k="ref:vcgi:esiteid" v="751725"/>
  </node>
  <node id="-573" visible="true" lat="43.151278041043" lon="-72.749422705691">
    <!-- conflict: "1163 West Windham Road, Windham, VT" Fuzzy match to "1163 West Windham Road, , VT" -->
    <tag k="addr:city" v="Windham"/>
    <tag k="addr:housenumber" v="1163"/>
    <tag k="addr:street" v="West Windham Road"/>
    <tag k="addr:state" v="VT"/>
    <tag k="ref:vcgi:esiteid" v="752166"/>
  </node>
  <node id="-574" visible="true" lat="43.196432893886" lon="-72.726860821799">
    <!-- conflict: "97 Spruce Road, Windham, VT" Fuzzy match to "97 Spruce Road, , VT" -->
    <tag k="addr:city" v="Windham"/>
    <tag k="addr:housenumber" v="97"/>
    <tag k="addr:street" v="Spruce Road"/>
    <tag k="addr:state" v="VT"/>
    <tag k="ref:vcgi:esiteid" v="752538"/>
  </node>
  <node id="-575" visible="true" lat="43.190088485084" lon="-72.729009138183">
    <!-- conflict: "757 Glebe Mountain Road, Windham, VT" Fuzzy match to "757 Glebe Mountain Road, , VT" -->
    <tag k="addr:city" v="Windham"/>
    <tag k="addr:housenumber" v="757"/>
    <tag k="addr:street" v="Glebe Mountain Road"/>
    <tag k="addr:state" v="VT"/>
    <tag k="ref:vcgi:esiteid" v="753146"/>
  </node>
  <node id="-576" visible="true" lat="43.232522753671" lon="-72.728659363957">
    <!-- conflict: "7851 Vermont Route 11, Chester, VT" Fuzzy match to "7851 Vermont Route 11, , VT" -->
    <tag k="addr:city" v="Chester"/>
    <tag k="addr:housenumber" v="7851"/>
    <tag k="addr:street" v="Vermont Route 11"/>
    <tag k="addr:state" v="VT"/>
    <tag k="ref:vcgi:esiteid" v="756088"/>
  </node>
  <node id="-577" visible="true" lat="43.131969473966" lon="-72.711005303842">
    <!-- conflict: "120 Farr Lane, Windham, VT" Fuzzy match to "120 Farr Lane, , VT" -->
    <tag k="addr:city" v="Windham"/>
    <tag k="addr:housenumber" v="120"/>
    <tag k="addr:street" v="Farr Lane"/>
    <tag k="addr:state" v="VT"/>
    <tag k="ref:vcgi:esiteid" v="758273"/>
  </node>
  <node id="-578" visible="true" lat="43.135552804589" lon="-72.723517391458">
    <!-- conflict: "1224 Old Cheney Road, Windham, VT" Fuzzy match to "1224 Old Cheney Road, , VT" -->
    <tag k="addr:city" v="Windham"/>
    <tag k="addr:housenumber" v="1224"/>
    <tag k="addr:street" v="Old Cheney Road"/>
    <tag k="addr:state" v="VT"/>
    <tag k="ref:vcgi:esiteid" v="758731"/>
  </node>
  <node id="-581" visible="true" lat="43.173713794192" lon="-72.71557803604">
    <!-- conflict: "646 Woodburn Road, Windham, VT" Fuzzy match to "646 Woodburn Road, , VT" -->
    <tag k="addr:city" v="Windham"/>
    <tag k="addr:housenumber" v="646"/>
    <tag k="addr:street" v="Woodburn Road"/>
    <tag k="addr:state" v="VT"/>
    <tag k="ref:vcgi:esiteid" v="762433"/>
  </node>
  <node id="-582" visible="true" lat="43.151433921459" lon="-72.748524489202">
    <!-- conflict: "1139 West Windham Road, Windham, VT" Fuzzy match to "1139 West Windham Road, , VT" -->
    <tag k="addr:city" v="Windham"/>
    <tag k="addr:housenumber" v="1139"/>
    <tag k="addr:street" v="West Windham Road"/>
    <tag k="addr:state" v="VT"/>
    <tag k="ref:vcgi:esiteid" v="766325"/>
  </node>
  <node id="-583" visible="true" lat="43.212484528191" lon="-72.723353321153">
    <!-- conflict: "1095 Hitchcock Hill Road, Chester, VT" Fuzzy match to "1095 Hitchcock Hill Road, , VT" -->
    <tag k="addr:city" v="Chester"/>
    <tag k="addr:housenumber" v="1095"/>
    <tag k="addr:street" v="Hitchcock Hill Road"/>
    <tag k="addr:state" v="VT"/>
    <tag k="ref:vcgi:esiteid" v="766653"/>
  </node>
  <node id="-585" visible="true" lat="43.221859983034" lon="-72.720015593755">
    <!-- conflict: "717 Horsenail Hill Road, Chester, VT" Fuzzy match to "717 Horsenail Hill Road, , VT" -->
    <tag k="addr:city" v="Chester"/>
    <tag k="addr:housenumber" v="717"/>
    <tag k="addr:street" v="Horsenail Hill Road"/>
    <tag k="addr:state" v="VT"/>
    <tag k="ref:vcgi:esiteid" v="767169"/>
  </node>
  <node id="-586" visible="true" lat="43.16516138579" lon="-72.73582832766">
    <!-- conflict: "890 Ingalls Road, Windham, VT" Fuzzy match to "890 Ingalls Road, , VT" -->
    <tag k="addr:city" v="Windham"/>
    <tag k="addr:housenumber" v="890"/>
    <tag k="addr:street" v="Ingalls Road"/>
    <tag k="addr:state" v="VT"/>
    <tag k="ref:vcgi:esiteid" v="767524"/>
  </node>
  <node id="-587" visible="true" lat="43.149336002012" lon="-72.769632171949">
    <!-- conflict: "1144 Toad Road, Windham, VT" Fuzzy match to "1144 Toad Road, , VT" -->
    <tag k="addr:city" v="Windham"/>
    <tag k="addr:housenumber" v="1144"/>
    <tag k="addr:street" v="Toad Road"/>
    <tag k="addr:state" v="VT"/>
    <tag k="ref:vcgi:esiteid" v="768287"/>
  </node>
  <node id="-588" visible="true" lat="43.168044486945" lon="-72.716153015714">
    <!-- conflict: "172 Woodburn Road, Windham, VT" Fuzzy match to "172 Woodburn Road, , VT" -->
    <tag k="addr:city" v="Windham"/>
    <tag k="addr:housenumber" v="172"/>
    <tag k="addr:street" v="Woodburn Road"/>
    <tag k="addr:state" v="VT"/>
    <tag k="ref:vcgi:esiteid" v="769477"/>
  </node>
  <node id="-589" visible="true" lat="43.212131652658" lon="-72.710705975611">
    <!-- conflict: "150 Hidden Newton Road, Chester, VT" Fuzzy match to "150 Hidden Newton Road, , VT" -->
    <tag k="addr:city" v="Chester"/>
    <tag k="addr:housenumber" v="150"/>
    <tag k="addr:street" v="Hidden Newton Road"/>
    <tag k="addr:state" v="VT"/>
    <tag k="ref:vcgi:esiteid" v="770300"/>
  </node>
  <node id="-590" visible="true" lat="43.21246964768" lon="-72.712229926961">
    <!-- conflict: "129 Hidden Newton Road, Chester, VT" Fuzzy match to "129 Hidden Newton Road, , VT" -->
    <tag k="addr:city" v="Chester"/>
    <tag k="addr:housenumber" v="129"/>
    <tag k="addr:street" v="Hidden Newton Road"/>
    <tag k="addr:state" v="VT"/>
    <tag k="ref:vcgi:esiteid" v="770301"/>
  </node>
  <node id="-591" visible="true" lat="43.141433324769" lon="-72.711717143047">
    <!-- conflict: "409 Wheeler Road, Windham, VT" Fuzzy match to "409 Wheeler Road, , VT" -->
    <tag k="addr:city" v="Windham"/>
    <tag k="addr:housenumber" v="409"/>
    <tag k="addr:street" v="Wheeler Road"/>
    <tag k="addr:state" v="VT"/>
    <tag k="ref:vcgi:esiteid" v="771470"/>
  </node>
  <node id="-592" visible="true" lat="43.135932698387" lon="-72.726421172987">
    <!-- conflict: "1273 Old Cheney Road, Windham, VT" Fuzzy match to "1273 Old Cheney Road, , VT" -->
    <tag k="addr:city" v="Windham"/>
    <tag k="addr:housenumber" v="1273"/>
    <tag k="addr:street" v="Old Cheney Road"/>
    <tag k="addr:state" v="VT"/>
    <tag k="ref:vcgi:esiteid" v="772593"/>
  </node>
  <node id="-594" visible="true" lat="43.165877686642" lon="-72.72488108041">
    <!-- conflict: "5934 Windham Hill Road, Windham, VT" Fuzzy match to "5934 Windham Hill Road, , VT" -->
    <tag k="addr:city" v="Windham"/>
    <tag k="addr:housenumber" v="5934"/>
    <tag k="addr:street" v="Windham Hill Road"/>
    <tag k="addr:state" v="VT"/>
    <tag k="ref:vcgi:esiteid" v="1050244"/>
  </node>
  <node id="-595" visible="true" lat="43.149193512873" lon="-72.755796528136">
    <!-- conflict: "1560 West Windham Road, Windham, VT" Fuzzy match to "1560 West Windham Road, , VT" -->
    <tag k="addr:city" v="Windham"/>
    <tag k="addr:housenumber" v="1560"/>
    <tag k="addr:street" v="West Windham Road"/>
    <tag k="addr:state" v="VT"/>
    <tag k="ref:vcgi:esiteid" v="1050245"/>
  </node>
  <node id="-596" visible="true" lat="43.22139192853" lon="-72.713593553686">
    <!-- conflict: "6825 Popple Dungeon Road, Chester, VT" Fuzzy match to "6825 Popple Dungeon Road, , VT" -->
    <tag k="addr:city" v="Chester"/>
    <tag k="addr:housenumber" v="6825"/>
    <tag k="addr:street" v="Popple Dungeon Road"/>
    <tag k="addr:state" v="VT"/>
    <tag k="ref:vcgi:esiteid" v="1050359"/>
  </node>
  <node id="-597" visible="true" lat="43.228639070829" lon="-72.727467949335">
    <!-- conflict: "4 Horsenail Hill Road, Londonderry, VT" Fuzzy match to "4 Horsenail Hill Road, Windham, VT" -->
    <tag k="addr:city" v="Londonderry"/>
    <tag k="addr:housenumber" v="4"/>
    <tag k="addr:street" v="Horsenail Hill Road"/>
    <tag k="addr:state" v="VT"/>
    <tag k="ref:vcgi:esiteid" v="1050360"/>
  </node>
</osm>
