<?xml version="1.0" encoding="UTF-8"?>
<osm version="0.6" generator="JOSM" upload="false">
  <node id="-1870" visible="true" lat="43.19947273" lon="-72.87248565">
    <tag k="addr:housenumber" v="7"/>
    <tag k="addr:street" v="Read Road"/>
    <tag k="addr:state" v="VT"/>
    <tag k="ref:vcgi:esiteid" v="656568"/>
  </node>
  <node id="-1871" visible="true" lat="43.19913055" lon="-72.87238324">
    <tag k="addr:housenumber" v="3"/>
    <tag k="addr:street" v="Read Road"/>
    <tag k="addr:state" v="VT"/>
    <tag k="ref:vcgi:esiteid" v="656569"/>
  </node>
  <node id="-1872" visible="true" lat="43.19896277" lon="-72.87266626">
    <tag k="addr:housenumber" v="5"/>
    <tag k="addr:street" v="Read Road"/>
    <tag k="addr:state" v="VT"/>
    <tag k="ref:vcgi:esiteid" v="656570"/>
  </node>
  <node id="-1873" visible="true" lat="43.2016969" lon="-72.87559572">
    <tag k="addr:housenumber" v="22"/>
    <tag k="addr:street" v="Read Road"/>
    <tag k="addr:state" v="VT"/>
    <tag k="ref:vcgi:esiteid" v="656572"/>
  </node>
  <node id="-1875" visible="true" lat="43.19977619" lon="-72.87256539">
    <tag k="addr:housenumber" v="9"/>
    <tag k="addr:street" v="Read Road"/>
    <tag k="addr:state" v="VT"/>
    <tag k="ref:vcgi:esiteid" v="750958"/>
  </node>
  <node id="-1919" visible="true" lat="43.20179629" lon="-72.87536753">
    <tag k="addr:housenumber" v="20"/>
    <tag k="addr:street" v="Read Road"/>
    <tag k="addr:state" v="VT"/>
    <tag k="ref:vcgi:esiteid" v="772961"/>
  </node>
</osm>
