<?xml version="1.0" encoding="UTF-8"?>
<osm version="0.6" generator="JOSM" upload="false">
  <node id="-1071" visible="true" lat="44.623146692717" lon="-72.46035299361">
    <tag k="addr:city" v="Wolcott"/>
    <tag k="addr:housenumber" v="99"/>
    <tag k="addr:street" v="Valley View Farm Road"/>
    <tag k="addr:state" v="VT"/>
    <tag k="ref:vcgi:esiteid" v="773173"/>
  </node>
  <node id="-1072" visible="true" lat="44.576415198925" lon="-72.477351284477">
    <tag k="addr:city" v="Wolcott"/>
    <tag k="addr:housenumber" v="1479"/>
    <tag k="addr:street" v="North Wolcott Road"/>
    <tag k="addr:state" v="VT"/>
    <tag k="ref:vcgi:esiteid" v="773400"/>
  </node>
  <node id="-1073" visible="true" lat="44.571920731998" lon="-72.519315475752">
    <tag k="addr:city" v="Morrisville"/>
    <tag k="addr:housenumber" v="471"/>
    <tag k="addr:street" v="15"/>
    <tag k="addr:state" v="VT"/>
    <tag k="ref:vcgi:esiteid" v="773424"/>
  </node>
  <node id="-1074" visible="true" lat="44.613662903752" lon="-72.428636563433">
    <tag k="addr:city" v="Wolcott"/>
    <tag k="addr:housenumber" v="4801"/>
    <tag k="addr:street" v="Town Hill Road"/>
    <tag k="addr:state" v="VT"/>
    <tag k="ref:vcgi:esiteid" v="773824"/>
  </node>
  <node id="-1076" visible="true" lat="44.555281381894" lon="-72.469944571137">
    <tag k="addr:city" v="Wolcott"/>
    <tag k="addr:housenumber" v="306"/>
    <tag k="addr:street" v="Town Hill Road"/>
    <tag k="addr:state" v="VT"/>
    <tag k="ref:vcgi:esiteid" v="773903"/>
  </node>
</osm>
