<?xml version="1.0" encoding="UTF-8"?>
<osm version="0.6" generator="JOSM" upload="false">
  <node id="-483" visible="true" lat="44.893650546874" lon="-73.304481369453">
    <!-- multiple: "1580 Vermont Route 129, Alburgh, VT" Multiple exact matches in OSM. -->
    <tag k="addr:city" v="Alburgh"/>
    <tag k="addr:housenumber" v="1580"/>
    <tag k="addr:street" v="Vermont Route 129"/>
    <tag k="addr:state" v="VT"/>
    <tag k="ref:vcgi:esiteid" v="2089"/>
  </node>
  <node id="-686" visible="true" lat="44.98181829075" lon="-73.298010246036">
    <!-- multiple: "353 North Main Street, Alburgh, VT" Multiple exact matches in OSM. -->
    <tag k="addr:city" v="Alburgh"/>
    <tag k="addr:housenumber" v="353"/>
    <tag k="addr:street" v="North Main Street"/>
    <tag k="addr:state" v="VT"/>
    <tag k="ref:vcgi:esiteid" v="2298"/>
  </node>
  <node id="-693" visible="true" lat="44.97899979225" lon="-73.298064326335">
    <!-- multiple: "45 Champlain Street, Alburgh, VT" Multiple exact matches in OSM. -->
    <tag k="addr:city" v="Alburgh"/>
    <tag k="addr:housenumber" v="45"/>
    <tag k="addr:street" v="Champlain Street"/>
    <tag k="addr:state" v="VT"/>
    <tag k="ref:vcgi:esiteid" v="2305"/>
  </node>
  <node id="-1221" visible="true" lat="44.858089852508" lon="-73.289514944014">
    <!-- multiple: "218 Poor Farm Road, Alburgh, VT" Multiple exact matches in OSM. -->
    <tag k="addr:city" v="Alburgh"/>
    <tag k="addr:housenumber" v="218"/>
    <tag k="addr:street" v="Poor Farm Road"/>
    <tag k="addr:state" v="VT"/>
    <tag k="ref:vcgi:esiteid" v="2880"/>
  </node>
  <node id="-1222" visible="true" lat="44.858185221464" lon="-73.289492056545">
    <!-- multiple: "218 Poor Farm Road, Alburgh, VT" Multiple exact matches in OSM. -->
    <tag k="addr:city" v="Alburgh"/>
    <tag k="addr:housenumber" v="218"/>
    <tag k="addr:street" v="Poor Farm Road"/>
    <tag k="addr:state" v="VT"/>
    <tag k="ref:vcgi:esiteid" v="2881"/>
  </node>
  <node id="-1223" visible="true" lat="44.85828440199" lon="-73.289461538726">
    <!-- multiple: "218 Poor Farm Road, Alburgh, VT" Multiple exact matches in OSM. -->
    <tag k="addr:city" v="Alburgh"/>
    <tag k="addr:housenumber" v="218"/>
    <tag k="addr:street" v="Poor Farm Road"/>
    <tag k="addr:state" v="VT"/>
    <tag k="ref:vcgi:esiteid" v="2882"/>
  </node>
  <node id="-1224" visible="true" lat="44.858402658651" lon="-73.289438651349">
    <!-- multiple: "218 Poor Farm Road, Alburgh, VT" Multiple exact matches in OSM. -->
    <tag k="addr:city" v="Alburgh"/>
    <tag k="addr:housenumber" v="218"/>
    <tag k="addr:street" v="Poor Farm Road"/>
    <tag k="addr:state" v="VT"/>
    <tag k="ref:vcgi:esiteid" v="2883"/>
  </node>
  <node id="-1225" visible="true" lat="44.858517099986" lon="-73.289400503843">
    <!-- multiple: "218 Poor Farm Road, Alburgh, VT" Multiple exact matches in OSM. -->
    <tag k="addr:city" v="Alburgh"/>
    <tag k="addr:housenumber" v="218"/>
    <tag k="addr:street" v="Poor Farm Road"/>
    <tag k="addr:state" v="VT"/>
    <tag k="ref:vcgi:esiteid" v="2884"/>
  </node>
  <node id="-1226" visible="true" lat="44.858644280458" lon="-73.289351889759">
    <!-- multiple: "218 Poor Farm Road, Alburgh, VT" Multiple exact matches in OSM. -->
    <tag k="addr:city" v="Alburgh"/>
    <tag k="addr:housenumber" v="218"/>
    <tag k="addr:street" v="Poor Farm Road"/>
    <tag k="addr:state" v="VT"/>
    <tag k="ref:vcgi:esiteid" v="2885"/>
  </node>
  <node id="-1227" visible="true" lat="44.858819408056" lon="-73.289316644788">
    <!-- multiple: "218 Poor Farm Road, Alburgh, VT" Multiple exact matches in OSM. -->
    <tag k="addr:city" v="Alburgh"/>
    <tag k="addr:housenumber" v="218"/>
    <tag k="addr:street" v="Poor Farm Road"/>
    <tag k="addr:state" v="VT"/>
    <tag k="ref:vcgi:esiteid" v="2886"/>
  </node>
  <node id="-1228" visible="true" lat="44.858933849152" lon="-73.289255608841">
    <!-- multiple: "218 Poor Farm Road, Alburgh, VT" Multiple exact matches in OSM. -->
    <tag k="addr:city" v="Alburgh"/>
    <tag k="addr:housenumber" v="218"/>
    <tag k="addr:street" v="Poor Farm Road"/>
    <tag k="addr:state" v="VT"/>
    <tag k="ref:vcgi:esiteid" v="2887"/>
  </node>
  <node id="-1345" visible="true" lat="44.920175079477" lon="-73.27497250132">
    <!-- multiple: "19 Goose Point, Alburgh, VT" Multiple exact matches in OSM. -->
    <tag k="addr:city" v="Alburgh"/>
    <tag k="addr:housenumber" v="19"/>
    <tag k="addr:street" v="Goose Point"/>
    <tag k="addr:state" v="VT"/>
    <tag k="ref:vcgi:esiteid" v="3009"/>
  </node>
  <node id="-1354" visible="true" lat="44.902967250992" lon="-73.273000307376">
    <!-- multiple: "20 Bruleys Trailer Park, Alburgh, VT" Multiple exact matches in OSM. -->
    <tag k="addr:city" v="Alburgh"/>
    <tag k="addr:housenumber" v="20"/>
    <tag k="addr:street" v="Bruleys Trailer Park"/>
    <tag k="addr:state" v="VT"/>
    <tag k="ref:vcgi:esiteid" v="3018"/>
  </node>
  <node id="-1356" visible="true" lat="44.903193553911" lon="-73.273078439526">
    <!-- multiple: "18 Bruleys Trailer Park, Alburgh, VT" Multiple exact matches in OSM. -->
    <tag k="addr:city" v="Alburgh"/>
    <tag k="addr:housenumber" v="18"/>
    <tag k="addr:street" v="Bruleys Trailer Park"/>
    <tag k="addr:state" v="VT"/>
    <tag k="ref:vcgi:esiteid" v="3020"/>
  </node>
  <node id="-1730" visible="true" lat="44.964108684894" lon="-73.243672304249">
    <!-- multiple: "6 H Street, Alburgh, VT" Multiple exact matches in OSM. -->
    <tag k="addr:city" v="Alburgh"/>
    <tag k="addr:housenumber" v="6"/>
    <tag k="addr:street" v="H Street"/>
    <tag k="addr:state" v="VT"/>
    <tag k="ref:vcgi:esiteid" v="333510"/>
  </node>
  <node id="-1835" visible="true" lat="44.964289420325" lon="-73.243652671713">
    <!-- multiple: "6 H Street, Alburgh, VT" Multiple exact matches in OSM. -->
    <tag k="addr:city" v="Alburgh"/>
    <tag k="addr:housenumber" v="6"/>
    <tag k="addr:street" v="H Street"/>
    <tag k="addr:state" v="VT"/>
    <tag k="ref:vcgi:esiteid" v="339669"/>
  </node>
  <node id="-2097" visible="true" lat="44.902292991721" lon="-73.273028349009">
    <!-- multiple: "20 Bruleys Trailer Park, Alburgh, VT" Multiple exact matches in OSM. -->
    <tag k="addr:city" v="Alburgh"/>
    <tag k="addr:housenumber" v="20"/>
    <tag k="addr:street" v="Bruleys Trailer Park"/>
    <tag k="addr:state" v="VT"/>
    <tag k="ref:vcgi:esiteid" v="618590"/>
  </node>
  <node id="-2123" visible="true" lat="44.90331115724" lon="-73.273082850763">
    <!-- multiple: "18 Bruleys Trailer Park, Alburgh, VT" Multiple exact matches in OSM. -->
    <tag k="addr:city" v="Alburgh"/>
    <tag k="addr:housenumber" v="18"/>
    <tag k="addr:street" v="Bruleys Trailer Park"/>
    <tag k="addr:state" v="VT"/>
    <tag k="ref:vcgi:esiteid" v="620848"/>
  </node>
</osm>
