<?xml version="1.0" encoding="UTF-8"?>
<osm version="0.6" generator="JOSM" upload="false">
  <node id="-208" visible="true" lat="44.857828482656" lon="-73.289622121523">
    <!-- offset: "218 Poor Farm Road, Alburgh, VT" Significant offset - 111.7m -->
    <tag k="addr:city" v="Alburgh"/>
    <tag k="addr:housenumber" v="218"/>
    <tag k="addr:street" v="Poor Farm Road"/>
    <tag k="addr:state" v="VT"/>
    <tag k="ref:vcgi:esiteid" v="1808"/>
  </node>
  <node id="-1344" visible="true" lat="44.923252187054" lon="-73.273681064847">
    <!-- offset: "19 Goose Point, Alburgh, VT" Significant offset - 357.9m -->
    <tag k="addr:city" v="Alburgh"/>
    <tag k="addr:housenumber" v="19"/>
    <tag k="addr:street" v="Goose Point"/>
    <tag k="addr:state" v="VT"/>
    <tag k="ref:vcgi:esiteid" v="3008"/>
  </node>
  <node id="-2076" visible="true" lat="44.862744649486" lon="-73.287256353242">
    <!-- offset: "193 Poor Farm Road, Alburgh, VT" Significant offset - 200.4m -->
    <tag k="addr:city" v="Alburgh"/>
    <tag k="addr:housenumber" v="193"/>
    <tag k="addr:street" v="Poor Farm Road"/>
    <tag k="addr:state" v="VT"/>
    <tag k="ref:vcgi:esiteid" v="618563"/>
  </node>
</osm>
