<?xml version="1.0" encoding="UTF-8"?>
<osm version="0.6" generator="JOSM" upload="false">
  <node id="-418" visible="true" lat="43.241116410486" lon="-72.690046935818">
    <!-- offset: "805 Williams Road, Chester, VT" Significant offset - 491.4m -->
    <tag k="addr:city" v="Chester"/>
    <tag k="addr:housenumber" v="805"/>
    <tag k="addr:street" v="Williams Road"/>
    <tag k="addr:state" v="VT"/>
    <tag k="ref:vcgi:esiteid" v="3594"/>
  </node>
  <node id="-711" visible="true" lat="43.312291686353" lon="-72.682162309886">
    <!-- offset: "596 Steinle Road, Chester, VT" Significant offset - 535.7m -->
    <tag k="addr:city" v="Chester"/>
    <tag k="addr:housenumber" v="596"/>
    <tag k="addr:street" v="Steinle Road"/>
    <tag k="addr:state" v="VT"/>
    <tag k="ref:vcgi:esiteid" v="756734"/>
  </node>
</osm>
