<?xml version="1.0" encoding="UTF-8"?>
<osm version="0.6" generator="JOSM" upload="false">
  <node id="-1414" visible="true" lat="43.05781224664" lon="-73.139908207363">
    <!-- duplicates-in-different-towns: "152 Prouty Hill Road, East Arlington, VT"  ignoring town mismatch for duplicate housenumber/street when matching to esiteid 342649: "152 Prouty Hill Road, , VT" -->
    <tag k="addr:city" v="East Arlington"/>
    <tag k="addr:housenumber" v="152"/>
    <tag k="addr:street" v="Prouty Hill Road"/>
    <tag k="addr:state" v="VT"/>
    <tag k="ref:vcgi:esiteid" v="339970"/>
  </node>
  <node id="-1452" visible="true" lat="43.121157561236" lon="-73.210056483566">
    <!-- duplicates-in-different-towns: "219 Shamrock Hill, Arlington, VT"  ignoring town mismatch for duplicate housenumber/street when matching to esiteid 217225: "219 Shamrock Hill, Sandgate, VT" -->
    <tag k="addr:city" v="Arlington"/>
    <tag k="addr:housenumber" v="219"/>
    <tag k="addr:street" v="Shamrock Hill"/>
    <tag k="addr:state" v="VT"/>
    <tag k="ref:vcgi:esiteid" v="613099"/>
  </node>
  <node id="-1791" visible="true" lat="43.104939162879" lon="-73.135923036083">
    <!-- duplicates-in-different-towns: "103 Private Hill Road, Arlington, VT"  ignoring town mismatch for duplicate housenumber/street when matching to esiteid 313306: "103 Private Hill Road, Sunderland, VT" -->
    <tag k="addr:city" v="Arlington"/>
    <tag k="addr:housenumber" v="103"/>
    <tag k="addr:street" v="Private Hill Road"/>
    <tag k="addr:state" v="VT"/>
    <tag k="ref:vcgi:esiteid" v="773814"/>
  </node>
</osm>
