<?xml version="1.0" encoding="UTF-8"?>
<osm version="0.6" generator="JOSM" upload="false">
  <node id="-290" visible="true" lat="44.790666900277" lon="-72.798479213701">
    <tag k="addr:city" v="Bakersfield"/>
    <tag k="addr:housenumber" v="618"/>
    <tag k="addr:street" v="Main Street North"/>
    <tag k="addr:state" v="VT"/>
    <tag k="ref:vcgi:esiteid" v="5403"/>
  </node>
  <node id="-291" visible="true" lat="44.790408444454" lon="-72.798461204176">
    <tag k="addr:city" v="Bakersfield"/>
    <tag k="addr:housenumber" v="604"/>
    <tag k="addr:street" v="Main Street North"/>
    <tag k="addr:state" v="VT"/>
    <tag k="ref:vcgi:esiteid" v="5404"/>
  </node>
  <node id="-293" visible="true" lat="44.790059567079" lon="-72.799752605703">
    <tag k="addr:city" v="Bakersfield"/>
    <tag k="addr:housenumber" v="515"/>
    <tag k="addr:street" v="Main Street North"/>
    <tag k="addr:state" v="VT"/>
    <tag k="ref:vcgi:esiteid" v="5407"/>
  </node>
  <node id="-295" visible="true" lat="44.789945125146" lon="-72.798804855276">
    <tag k="addr:city" v="Bakersfield"/>
    <tag k="addr:housenumber" v="568"/>
    <tag k="addr:street" v="Main Street North"/>
    <tag k="addr:state" v="VT"/>
    <tag k="ref:vcgi:esiteid" v="5409"/>
  </node>
  <node id="-299" visible="true" lat="44.789548397024" lon="-72.798928630842">
    <tag k="addr:city" v="Bakersfield"/>
    <tag k="addr:housenumber" v="536"/>
    <tag k="addr:street" v="Main Street North"/>
    <tag k="addr:state" v="VT"/>
    <tag k="ref:vcgi:esiteid" v="5413"/>
  </node>
  <node id="-300" visible="true" lat="44.789569192796" lon="-72.799518349898">
    <tag k="addr:city" v="Bakersfield"/>
    <tag k="addr:housenumber" v="513"/>
    <tag k="addr:street" v="Main Street North"/>
    <tag k="addr:state" v="VT"/>
    <tag k="ref:vcgi:esiteid" v="5414"/>
  </node>
  <node id="-302" visible="true" lat="44.789182504231" lon="-72.799075591123">
    <tag k="addr:city" v="Bakersfield"/>
    <tag k="addr:housenumber" v="508"/>
    <tag k="addr:street" v="Main Street North"/>
    <tag k="addr:state" v="VT"/>
    <tag k="ref:vcgi:esiteid" v="5416"/>
  </node>
  <node id="-304" visible="true" lat="44.788825607557" lon="-72.7992709576">
    <tag k="addr:city" v="Bakersfield"/>
    <tag k="addr:housenumber" v="484"/>
    <tag k="addr:street" v="Main Street North"/>
    <tag k="addr:state" v="VT"/>
    <tag k="ref:vcgi:esiteid" v="5418"/>
  </node>
  <node id="-307" visible="true" lat="44.788758753634" lon="-72.802125350002">
    <tag k="addr:city" v="Bakersfield"/>
    <tag k="addr:housenumber" v="5061"/>
    <tag k="addr:street" v="Egypt Road"/>
    <tag k="addr:state" v="VT"/>
    <tag k="ref:vcgi:esiteid" v="5421"/>
  </node>
  <node id="-313" visible="true" lat="44.788571833108" lon="-72.801980388988">
    <tag k="addr:city" v="Bakersfield"/>
    <tag k="addr:housenumber" v="5077"/>
    <tag k="addr:street" v="Egypt Road"/>
    <tag k="addr:state" v="VT"/>
    <tag k="ref:vcgi:esiteid" v="5427"/>
  </node>
  <node id="-314" visible="true" lat="44.788510507616" lon="-72.799506659863">
    <tag k="addr:city" v="Bakersfield"/>
    <tag k="addr:housenumber" v="462"/>
    <tag k="addr:street" v="Main Street North"/>
    <tag k="addr:state" v="VT"/>
    <tag k="ref:vcgi:esiteid" v="5429"/>
  </node>
  <node id="-320" visible="true" lat="44.788333056372" lon="-72.800046732481">
    <tag k="addr:city" v="Bakersfield"/>
    <tag k="addr:housenumber" v="425"/>
    <tag k="addr:street" v="Main Street North"/>
    <tag k="addr:state" v="VT"/>
    <tag k="ref:vcgi:esiteid" v="5437"/>
  </node>
  <node id="-321" visible="true" lat="44.788139656923" lon="-72.801878962048">
    <tag k="addr:city" v="Bakersfield"/>
    <tag k="addr:housenumber" v="5094"/>
    <tag k="addr:street" v="Egypt Road"/>
    <tag k="addr:state" v="VT"/>
    <tag k="ref:vcgi:esiteid" v="5438"/>
  </node>
  <node id="-323" visible="true" lat="44.787984371021" lon="-72.800469769935">
    <tag k="addr:city" v="Bakersfield"/>
    <tag k="addr:housenumber" v="5165"/>
    <tag k="addr:street" v="Egypt Road"/>
    <tag k="addr:state" v="VT"/>
    <tag k="ref:vcgi:esiteid" v="5440"/>
  </node>
  <node id="-324" visible="true" lat="44.788160179532" lon="-72.800181683637">
    <tag k="addr:city" v="Bakersfield"/>
    <tag k="addr:housenumber" v="409"/>
    <tag k="addr:street" v="Main Street North"/>
    <tag k="addr:state" v="VT"/>
    <tag k="ref:vcgi:esiteid" v="5442"/>
  </node>
  <node id="-325" visible="true" lat="44.787932600419" lon="-72.799642393654">
    <tag k="addr:city" v="Bakersfield"/>
    <tag k="addr:housenumber" v="418"/>
    <tag k="addr:street" v="Main Street North"/>
    <tag k="addr:state" v="VT"/>
    <tag k="ref:vcgi:esiteid" v="5444"/>
  </node>
  <node id="-327" visible="true" lat="44.787812709112" lon="-72.801431073107">
    <tag k="addr:city" v="Bakersfield"/>
    <tag k="addr:housenumber" v="5116"/>
    <tag k="addr:street" v="Egypt Road"/>
    <tag k="addr:state" v="VT"/>
    <tag k="ref:vcgi:esiteid" v="5446"/>
  </node>
  <node id="-330" visible="true" lat="44.787683009292" lon="-72.800423991971">
    <tag k="addr:city" v="Bakersfield"/>
    <tag k="addr:housenumber" v="5172"/>
    <tag k="addr:street" v="Egypt Road"/>
    <tag k="addr:state" v="VT"/>
    <tag k="ref:vcgi:esiteid" v="5449"/>
  </node>
  <node id="-334" visible="true" lat="44.787427136636" lon="-72.799588822608">
    <tag k="addr:city" v="Bakersfield"/>
    <tag k="addr:housenumber" v="380"/>
    <tag k="addr:street" v="Main Street North"/>
    <tag k="addr:state" v="VT"/>
    <tag k="ref:vcgi:esiteid" v="5453"/>
  </node>
  <node id="-341" visible="true" lat="44.787043751281" lon="-72.800037458839">
    <tag k="addr:city" v="Bakersfield"/>
    <tag k="addr:housenumber" v="352"/>
    <tag k="addr:street" v="Main Street North"/>
    <tag k="addr:state" v="VT"/>
    <tag k="ref:vcgi:esiteid" v="5460"/>
  </node>
  <node id="-344" visible="true" lat="44.786782462029" lon="-72.800106685137">
    <tag k="addr:city" v="Bakersfield"/>
    <tag k="addr:housenumber" v="338"/>
    <tag k="addr:street" v="Main Street North"/>
    <tag k="addr:state" v="VT"/>
    <tag k="ref:vcgi:esiteid" v="5463"/>
  </node>
  <node id="-346" visible="true" lat="44.786521545644" lon="-72.80061677144">
    <tag k="addr:city" v="Bakersfield"/>
    <tag k="addr:housenumber" v="307"/>
    <tag k="addr:street" v="Main Street North"/>
    <tag k="addr:state" v="VT"/>
    <tag k="ref:vcgi:esiteid" v="5466"/>
  </node>
  <node id="-349" visible="true" lat="44.786269403051" lon="-72.800235682668">
    <tag k="addr:city" v="Bakersfield"/>
    <tag k="addr:housenumber" v="308"/>
    <tag k="addr:street" v="Main Street North"/>
    <tag k="addr:state" v="VT"/>
    <tag k="ref:vcgi:esiteid" v="5469"/>
  </node>
  <node id="-350" visible="true" lat="44.786252538755" lon="-72.800790808573">
    <tag k="addr:city" v="Bakersfield"/>
    <tag k="addr:housenumber" v="287"/>
    <tag k="addr:street" v="Main Street North"/>
    <tag k="addr:state" v="VT"/>
    <tag k="ref:vcgi:esiteid" v="5470"/>
  </node>
  <node id="-352" visible="true" lat="44.786004269312" lon="-72.800268274752">
    <tag k="addr:city" v="Bakersfield"/>
    <tag k="addr:housenumber" v="278"/>
    <tag k="addr:street" v="Main Street North"/>
    <tag k="addr:state" v="VT"/>
    <tag k="ref:vcgi:esiteid" v="5473"/>
  </node>
  <node id="-354" visible="true" lat="44.785660658256" lon="-72.800169697248">
    <tag k="addr:city" v="Bakersfield"/>
    <tag k="addr:housenumber" v="260"/>
    <tag k="addr:street" v="Main Street North"/>
    <tag k="addr:state" v="VT"/>
    <tag k="ref:vcgi:esiteid" v="5475"/>
  </node>
  <node id="-355" visible="true" lat="44.785684107016" lon="-72.800942790976">
    <tag k="addr:city" v="Bakersfield"/>
    <tag k="addr:housenumber" v="251"/>
    <tag k="addr:street" v="Main Street North"/>
    <tag k="addr:state" v="VT"/>
    <tag k="ref:vcgi:esiteid" v="5476"/>
  </node>
  <node id="-356" visible="true" lat="44.785417078235" lon="-72.800965680227">
    <tag k="addr:city" v="Bakersfield"/>
    <tag k="addr:housenumber" v="233"/>
    <tag k="addr:street" v="Main Street North"/>
    <tag k="addr:state" v="VT"/>
    <tag k="ref:vcgi:esiteid" v="5477"/>
  </node>
  <node id="-358" visible="true" lat="44.785459921042" lon="-72.800322512842">
    <tag k="addr:city" v="Bakersfield"/>
    <tag k="addr:housenumber" v="232"/>
    <tag k="addr:street" v="Main Street North"/>
    <tag k="addr:state" v="VT"/>
    <tag k="ref:vcgi:esiteid" v="5479"/>
  </node>
  <node id="-360" visible="true" lat="44.785260676327" lon="-72.802087201189">
    <tag k="addr:city" v="Bakersfield"/>
    <tag k="addr:housenumber" v="62"/>
    <tag k="addr:street" v="Avenue"/>
    <tag k="addr:state" v="VT"/>
    <tag k="ref:vcgi:esiteid" v="5481"/>
  </node>
  <node id="-362" visible="true" lat="44.785195827079" lon="-72.801713359978">
    <tag k="addr:city" v="Bakersfield"/>
    <tag k="addr:housenumber" v="42"/>
    <tag k="addr:street" v="Avenue"/>
    <tag k="addr:state" v="VT"/>
    <tag k="ref:vcgi:esiteid" v="5484"/>
  </node>
  <node id="-363" visible="true" lat="44.785127161614" lon="-72.80117930267">
    <tag k="addr:city" v="Bakersfield"/>
    <tag k="addr:housenumber" v="211"/>
    <tag k="addr:street" v="Main Street North"/>
    <tag k="addr:state" v="VT"/>
    <tag k="ref:vcgi:esiteid" v="5485"/>
  </node>
  <node id="-366" visible="true" lat="44.784997461645" lon="-72.803010357724">
    <tag k="addr:city" v="Bakersfield"/>
    <tag k="addr:housenumber" v="99"/>
    <tag k="addr:street" v="Avenue"/>
    <tag k="addr:state" v="VT"/>
    <tag k="ref:vcgi:esiteid" v="5489"/>
  </node>
  <node id="-384" visible="true" lat="44.78350693735" lon="-72.800866684581">
    <tag k="addr:city" v="Bakersfield"/>
    <tag k="addr:housenumber" v="104"/>
    <tag k="addr:street" v="Main Street North"/>
    <tag k="addr:state" v="VT"/>
    <tag k="ref:vcgi:esiteid" v="5509"/>
  </node>
  <node id="-397" visible="true" lat="44.782626556515" lon="-72.801685235693">
    <tag k="addr:city" v="Bakersfield"/>
    <tag k="addr:housenumber" v="31"/>
    <tag k="addr:street" v="Main Street North"/>
    <tag k="addr:state" v="VT"/>
    <tag k="ref:vcgi:esiteid" v="5524"/>
  </node>
  <node id="-407" visible="true" lat="44.781833304724" lon="-72.801817905597">
    <tag k="addr:city" v="Bakersfield"/>
    <tag k="addr:housenumber" v="8"/>
    <tag k="addr:street" v="Vermont Route 108 South"/>
    <tag k="addr:state" v="VT"/>
    <tag k="ref:vcgi:esiteid" v="5535"/>
  </node>
  <node id="-414" visible="true" lat="44.781735894484" lon="-72.800897014694">
    <tag k="addr:city" v="Bakersfield"/>
    <tag k="addr:housenumber" v="40"/>
    <tag k="addr:street" v="East Bakersfield Road"/>
    <tag k="addr:state" v="VT"/>
    <tag k="ref:vcgi:esiteid" v="5542"/>
  </node>
  <node id="-415" visible="true" lat="44.781805359389" lon="-72.801280726162">
    <tag k="addr:city" v="Bakersfield"/>
    <tag k="addr:housenumber" v="26"/>
    <tag k="addr:street" v="East Bakersfield Road"/>
    <tag k="addr:state" v="VT"/>
    <tag k="ref:vcgi:esiteid" v="5543"/>
  </node>
  <node id="-418" visible="true" lat="44.781512041695" lon="-72.792099782266">
    <tag k="addr:city" v="Bakersfield"/>
    <tag k="addr:housenumber" v="112"/>
    <tag k="addr:street" v="King Road"/>
    <tag k="addr:state" v="VT"/>
    <tag k="ref:vcgi:esiteid" v="5548"/>
  </node>
  <node id="-419" visible="true" lat="44.781588570606" lon="-72.802047055229">
    <tag k="addr:city" v="Bakersfield"/>
    <tag k="addr:housenumber" v="30"/>
    <tag k="addr:street" v="Vermont Route 108 South"/>
    <tag k="addr:state" v="VT"/>
    <tag k="ref:vcgi:esiteid" v="5549"/>
  </node>
  <node id="-421" visible="true" lat="44.781270502202" lon="-72.802102459044">
    <tag k="addr:city" v="Bakersfield"/>
    <tag k="addr:housenumber" v="56"/>
    <tag k="addr:street" v="Vermont Route 108 South"/>
    <tag k="addr:state" v="VT"/>
    <tag k="ref:vcgi:esiteid" v="5552"/>
  </node>
  <node id="-422" visible="true" lat="44.781326826758" lon="-72.801433977609">
    <tag k="addr:city" v="Bakersfield"/>
    <tag k="addr:housenumber" v="51"/>
    <tag k="addr:street" v="Vermont Route 108 South"/>
    <tag k="addr:state" v="VT"/>
    <tag k="ref:vcgi:esiteid" v="5553"/>
  </node>
  <node id="-424" visible="true" lat="44.780999379946" lon="-72.802148249118">
    <tag k="addr:city" v="Bakersfield"/>
    <tag k="addr:housenumber" v="70"/>
    <tag k="addr:street" v="Vermont Route 108 South"/>
    <tag k="addr:state" v="VT"/>
    <tag k="ref:vcgi:esiteid" v="5555"/>
  </node>
  <node id="-426" visible="true" lat="44.780934654438" lon="-72.792392398536">
    <tag k="addr:city" v="Bakersfield"/>
    <tag k="addr:housenumber" v="84"/>
    <tag k="addr:street" v="King Road"/>
    <tag k="addr:state" v="VT"/>
    <tag k="ref:vcgi:esiteid" v="5557"/>
  </node>
  <node id="-427" visible="true" lat="44.780877743103" lon="-72.801526220414">
    <tag k="addr:city" v="Bakersfield"/>
    <tag k="addr:housenumber" v="83"/>
    <tag k="addr:street" v="Vermont Route 108 South"/>
    <tag k="addr:state" v="VT"/>
    <tag k="ref:vcgi:esiteid" v="5558"/>
  </node>
  <node id="-428" visible="true" lat="44.780688528679" lon="-72.802230848763">
    <tag k="addr:city" v="Bakersfield"/>
    <tag k="addr:housenumber" v="92"/>
    <tag k="addr:street" v="Vermont Route 108 South"/>
    <tag k="addr:state" v="VT"/>
    <tag k="ref:vcgi:esiteid" v="5560"/>
  </node>
  <node id="-432" visible="true" lat="44.780711900349" lon="-72.790547646543">
    <tag k="addr:city" v="Bakersfield"/>
    <tag k="addr:housenumber" v="629"/>
    <tag k="addr:street" v="East Bakersfield Road"/>
    <tag k="addr:state" v="VT"/>
    <tag k="ref:vcgi:esiteid" v="5564"/>
  </node>
  <node id="-433" visible="true" lat="44.780605809702" lon="-72.801666261788">
    <tag k="addr:city" v="Bakersfield"/>
    <tag k="addr:housenumber" v="101"/>
    <tag k="addr:street" v="Vermont Route 108 South"/>
    <tag k="addr:state" v="VT"/>
    <tag k="ref:vcgi:esiteid" v="5565"/>
  </node>
  <node id="-434" visible="true" lat="44.780690988679" lon="-72.789882518893">
    <tag k="addr:city" v="Bakersfield"/>
    <tag k="addr:housenumber" v="653"/>
    <tag k="addr:street" v="East Bakersfield Road"/>
    <tag k="addr:state" v="VT"/>
    <tag k="ref:vcgi:esiteid" v="5566"/>
  </node>
  <node id="-435" visible="true" lat="44.7804884152" lon="-72.80227781695">
    <tag k="addr:city" v="Bakersfield"/>
    <tag k="addr:housenumber" v="110"/>
    <tag k="addr:street" v="Vermont Route 108 South"/>
    <tag k="addr:state" v="VT"/>
    <tag k="ref:vcgi:esiteid" v="5567"/>
  </node>
  <node id="-436" visible="true" lat="44.780492304411" lon="-72.793809304682">
    <tag k="addr:city" v="Bakersfield"/>
    <tag k="addr:housenumber" v="473"/>
    <tag k="addr:street" v="East Bakersfield Road"/>
    <tag k="addr:state" v="VT"/>
    <tag k="ref:vcgi:esiteid" v="5568"/>
  </node>
  <node id="-437" visible="true" lat="44.780428736021" lon="-72.787361590782">
    <tag k="addr:city" v="Bakersfield"/>
    <tag k="addr:housenumber" v="771"/>
    <tag k="addr:street" v="East Bakersfield Road"/>
    <tag k="addr:state" v="VT"/>
    <tag k="ref:vcgi:esiteid" v="5569"/>
  </node>
  <node id="-438" visible="true" lat="44.780556030152" lon="-72.789256324835">
    <tag k="addr:city" v="Bakersfield"/>
    <tag k="addr:housenumber" v="697"/>
    <tag k="addr:street" v="East Bakersfield Road"/>
    <tag k="addr:state" v="VT"/>
    <tag k="ref:vcgi:esiteid" v="5570"/>
  </node>
  <node id="-439" visible="true" lat="44.780335703791" lon="-72.802371736522">
    <tag k="addr:city" v="Bakersfield"/>
    <tag k="addr:housenumber" v="120"/>
    <tag k="addr:street" v="Vermont Route 108 South"/>
    <tag k="addr:state" v="VT"/>
    <tag k="ref:vcgi:esiteid" v="5571"/>
  </node>
  <node id="-440" visible="true" lat="44.780325525939" lon="-72.798379888992">
    <tag k="addr:city" v="Bakersfield"/>
    <tag k="addr:housenumber" v="208"/>
    <tag k="addr:street" v="East Bakersfield Road"/>
    <tag k="addr:state" v="VT"/>
    <tag k="ref:vcgi:esiteid" v="5572"/>
  </node>
  <node id="-441" visible="true" lat="44.780278117581" lon="-72.790676249035">
    <tag k="addr:city" v="Bakersfield"/>
    <tag k="addr:housenumber" v="620"/>
    <tag k="addr:street" v="East Bakersfield Road"/>
    <tag k="addr:state" v="VT"/>
    <tag k="ref:vcgi:esiteid" v="5575"/>
  </node>
  <node id="-443" visible="true" lat="44.780184568462" lon="-72.791221664481">
    <tag k="addr:city" v="Bakersfield"/>
    <tag k="addr:housenumber" v="16"/>
    <tag k="addr:street" v="Trobridge Road"/>
    <tag k="addr:state" v="VT"/>
    <tag k="ref:vcgi:esiteid" v="5577"/>
  </node>
  <node id="-444" visible="true" lat="44.780289216999" lon="-72.801821550952">
    <tag k="addr:city" v="Bakersfield"/>
    <tag k="addr:housenumber" v="131"/>
    <tag k="addr:street" v="Vermont Route 108 South"/>
    <tag k="addr:state" v="VT"/>
    <tag k="ref:vcgi:esiteid" v="5579"/>
  </node>
  <node id="-446" visible="true" lat="44.78006505631" lon="-72.802430523488">
    <tag k="addr:city" v="Bakersfield"/>
    <tag k="addr:housenumber" v="142"/>
    <tag k="addr:street" v="Vermont Route 108 South"/>
    <tag k="addr:state" v="VT"/>
    <tag k="ref:vcgi:esiteid" v="5581"/>
  </node>
  <node id="-447" visible="true" lat="44.77986217986" lon="-72.79113748815">
    <tag k="addr:city" v="Bakersfield"/>
    <tag k="addr:housenumber" v="36"/>
    <tag k="addr:street" v="Trobridge Road"/>
    <tag k="addr:state" v="VT"/>
    <tag k="ref:vcgi:esiteid" v="5582"/>
  </node>
  <node id="-448" visible="true" lat="44.779941402297" lon="-72.801872246144">
    <tag k="addr:city" v="Bakersfield"/>
    <tag k="addr:housenumber" v="151"/>
    <tag k="addr:street" v="Vermont Route 108 South"/>
    <tag k="addr:state" v="VT"/>
    <tag k="ref:vcgi:esiteid" v="5583"/>
  </node>
  <node id="-449" visible="true" lat="44.779938381357" lon="-72.797579250604">
    <tag k="addr:city" v="Bakersfield"/>
    <tag k="addr:housenumber" v="29"/>
    <tag k="addr:street" v="Kings Hill Road"/>
    <tag k="addr:state" v="VT"/>
    <tag k="ref:vcgi:esiteid" v="5584"/>
  </node>
  <node id="-452" visible="true" lat="44.779938479494" lon="-72.788271157012">
    <tag k="addr:city" v="Bakersfield"/>
    <tag k="addr:housenumber" v="742"/>
    <tag k="addr:street" v="East Bakersfield Road"/>
    <tag k="addr:state" v="VT"/>
    <tag k="ref:vcgi:esiteid" v="5587"/>
  </node>
  <node id="-454" visible="true" lat="44.779787539628" lon="-72.788964338516">
    <tag k="addr:city" v="Bakersfield"/>
    <tag k="addr:housenumber" v="700"/>
    <tag k="addr:street" v="East Bakersfield Road"/>
    <tag k="addr:state" v="VT"/>
    <tag k="ref:vcgi:esiteid" v="5589"/>
  </node>
  <node id="-458" visible="true" lat="44.779523369212" lon="-72.802689923121">
    <tag k="addr:city" v="Bakersfield"/>
    <tag k="addr:housenumber" v="182"/>
    <tag k="addr:street" v="Vermont Route 108 South"/>
    <tag k="addr:state" v="VT"/>
    <tag k="ref:vcgi:esiteid" v="5593"/>
  </node>
  <node id="-459" visible="true" lat="44.779610133236" lon="-72.790292942428">
    <tag k="addr:city" v="Bakersfield"/>
    <tag k="addr:housenumber" v="75"/>
    <tag k="addr:street" v="Trobridge Road"/>
    <tag k="addr:state" v="VT"/>
    <tag k="ref:vcgi:esiteid" v="5594"/>
  </node>
  <node id="-460" visible="true" lat="44.779522372785" lon="-72.797095444491">
    <tag k="addr:city" v="Bakersfield"/>
    <tag k="addr:housenumber" v="272"/>
    <tag k="addr:street" v="East Bakersfield Road"/>
    <tag k="addr:state" v="VT"/>
    <tag k="ref:vcgi:esiteid" v="5595"/>
  </node>
  <node id="-461" visible="true" lat="44.779447076946" lon="-72.801942242664">
    <tag k="addr:city" v="Bakersfield"/>
    <tag k="addr:housenumber" v="179"/>
    <tag k="addr:street" v="Vermont Route 108 South"/>
    <tag k="addr:state" v="VT"/>
    <tag k="ref:vcgi:esiteid" v="5596"/>
  </node>
  <node id="-462" visible="true" lat="44.779224842954" lon="-72.796193816231">
    <tag k="addr:city" v="Bakersfield"/>
    <tag k="addr:housenumber" v="83"/>
    <tag k="addr:street" v="Kings Hill Road"/>
    <tag k="addr:state" v="VT"/>
    <tag k="ref:vcgi:esiteid" v="5597"/>
  </node>
  <node id="-463" visible="true" lat="44.779169776164" lon="-72.794835448228">
    <tag k="addr:city" v="Bakersfield"/>
    <tag k="addr:housenumber" v="376"/>
    <tag k="addr:street" v="East Bakersfield Road"/>
    <tag k="addr:state" v="VT"/>
    <tag k="ref:vcgi:esiteid" v="5598"/>
  </node>
  <node id="-464" visible="true" lat="44.778961216834" lon="-72.802903528582">
    <tag k="addr:city" v="Bakersfield"/>
    <tag k="addr:housenumber" v="212"/>
    <tag k="addr:street" v="Vermont Route 108 South"/>
    <tag k="addr:state" v="VT"/>
    <tag k="ref:vcgi:esiteid" v="5600"/>
  </node>
  <node id="-465" visible="true" lat="44.778932283804" lon="-72.796846433165">
    <tag k="addr:city" v="Bakersfield"/>
    <tag k="addr:housenumber" v="97"/>
    <tag k="addr:street" v="Kings Hill Road"/>
    <tag k="addr:state" v="VT"/>
    <tag k="ref:vcgi:esiteid" v="5601"/>
  </node>
  <node id="-467" visible="true" lat="44.778769090659" lon="-72.802244003738">
    <tag k="addr:city" v="Bakersfield"/>
    <tag k="addr:housenumber" v="231"/>
    <tag k="addr:street" v="Vermont Route 108 South"/>
    <tag k="addr:state" v="VT"/>
    <tag k="ref:vcgi:esiteid" v="5603"/>
  </node>
  <node id="-479" visible="true" lat="44.777501544305" lon="-72.798159278137">
    <tag k="addr:city" v="Bakersfield"/>
    <tag k="addr:housenumber" v="189"/>
    <tag k="addr:street" v="Kings Hill Road"/>
    <tag k="addr:state" v="VT"/>
    <tag k="ref:vcgi:esiteid" v="5617"/>
  </node>
  <node id="-490" visible="true" lat="44.774787103327" lon="-72.790375828781">
    <tag k="addr:city" v="Bakersfield"/>
    <tag k="addr:housenumber" v="699"/>
    <tag k="addr:street" v="Kings Hill Road"/>
    <tag k="addr:state" v="VT"/>
    <tag k="ref:vcgi:esiteid" v="5630"/>
  </node>
  <node id="-607" visible="true" lat="44.780502542962" lon="-72.785232207186">
    <tag k="addr:city" v="Bakersfield"/>
    <tag k="addr:housenumber" v="802"/>
    <tag k="addr:street" v="East Bakersfield Road"/>
    <tag k="addr:state" v="VT"/>
    <tag k="ref:vcgi:esiteid" v="5753"/>
  </node>
  <node id="-613" visible="true" lat="44.781318321725" lon="-72.793025935792">
    <tag k="addr:city" v="Bakersfield"/>
    <tag k="addr:housenumber" v="63"/>
    <tag k="addr:street" v="King Road"/>
    <tag k="addr:state" v="VT"/>
    <tag k="ref:vcgi:esiteid" v="5759"/>
  </node>
  <node id="-629" visible="true" lat="44.773621419918" lon="-72.78724824961">
    <tag k="addr:city" v="Bakersfield"/>
    <tag k="addr:housenumber" v="680"/>
    <tag k="addr:street" v="Waterville Mountain Road"/>
    <tag k="addr:state" v="VT"/>
    <tag k="ref:vcgi:esiteid" v="5778"/>
  </node>
  <node id="-654" visible="true" lat="44.788294289844" lon="-72.80074903659">
    <tag k="addr:city" v="Bakersfield"/>
    <tag k="addr:housenumber" v="5139"/>
    <tag k="addr:street" v="Egypt Road"/>
    <tag k="addr:state" v="VT"/>
    <tag k="ref:vcgi:esiteid" v="5806"/>
  </node>
  <node id="-667" visible="true" lat="44.782351437765" lon="-72.801758036593">
    <tag k="addr:city" v="Bakersfield"/>
    <tag k="addr:housenumber" v="3"/>
    <tag k="addr:street" v="Main Street North"/>
    <tag k="addr:state" v="VT"/>
    <tag k="ref:vcgi:esiteid" v="5819"/>
  </node>
  <node id="-672" visible="true" lat="44.78574783385" lon="-72.800347453538">
    <tag k="addr:city" v="Bakersfield"/>
    <tag k="addr:housenumber" v="266"/>
    <tag k="addr:street" v="Main Street North"/>
    <tag k="addr:state" v="VT"/>
    <tag k="ref:vcgi:esiteid" v="5826"/>
  </node>
  <node id="-715" visible="true" lat="44.7847779837" lon="-72.797885804859">
    <tag k="addr:city" v="Bakersfield"/>
    <tag k="addr:housenumber" v="204"/>
    <tag k="addr:street" v="Main Street North"/>
    <tag k="addr:state" v="VT"/>
    <tag k="ref:vcgi:esiteid" v="328126"/>
  </node>
</osm>
