<?xml version="1.0" encoding="UTF-8"?>
<osm version="0.6" generator="JOSM" upload="false">
  <node id="-828" visible="true" lat="43.732228985142" lon="-72.637030419199">
    <!-- duplicates-in-different-towns: "371 West Road, Bethel, VT"  ignoring town mismatch for duplicate housenumber/street when matching to esiteid 757284: "371 West Road, , VT" -->
    <tag k="addr:city" v="Bethel"/>
    <tag k="addr:housenumber" v="371"/>
    <tag k="addr:street" v="West Road"/>
    <tag k="addr:state" v="VT"/>
    <tag k="ref:vcgi:esiteid" v="6689"/>
  </node>
  <node id="-866" visible="true" lat="43.738904767202" lon="-72.63532138685">
    <!-- duplicates-in-different-towns: "287 Placer Road, Bethel, VT"  ignoring town mismatch for duplicate housenumber/street when matching to esiteid 656468: "287 Placer Road, , VT" -->
    <tag k="addr:city" v="Bethel"/>
    <tag k="addr:housenumber" v="287"/>
    <tag k="addr:street" v="Placer Road"/>
    <tag k="addr:state" v="VT"/>
    <tag k="ref:vcgi:esiteid" v="365696"/>
  </node>
</osm>
