<?xml version="1.0" encoding="UTF-8"?>
<osm version="0.6" generator="JOSM" upload="false">
  <node id="-121" visible="true" lat="44.211671520261" lon="-72.521068135057">
    <!-- multiple: "7 Jones Brothers Way, Barre, VT" Multiple exact matches in OSM. -->
    <tag k="addr:city" v="Barre"/>
    <tag k="addr:housenumber" v="7"/>
    <tag k="addr:street" v="Jones Brothers Way"/>
    <tag k="addr:state" v="VT"/>
    <tag k="ref:vcgi:esiteid" v="7739"/>
  </node>
  <node id="-136" visible="true" lat="44.210968959596" lon="-72.519737342824">
    <!-- multiple: "30 Jones Brothers Way, Barre, VT" Multiple exact matches in OSM. -->
    <tag k="addr:city" v="Barre"/>
    <tag k="addr:housenumber" v="30"/>
    <tag k="addr:street" v="Jones Brothers Way"/>
    <tag k="addr:state" v="VT"/>
    <tag k="ref:vcgi:esiteid" v="7759"/>
  </node>
  <node id="-304" visible="true" lat="44.207238136355" lon="-72.513750846094">
    <!-- multiple: "520 North Main Street, Barre, VT" Multiple exact matches in OSM. -->
    <tag k="addr:city" v="Barre"/>
    <tag k="addr:housenumber" v="520"/>
    <tag k="addr:street" v="North Main Street"/>
    <tag k="addr:state" v="VT"/>
    <tag k="ref:vcgi:esiteid" v="7958"/>
  </node>
  <node id="-411" visible="true" lat="44.206216241538" lon="-72.511758084107">
    <!-- multiple: "475 North Main Street, Barre, VT" Multiple exact matches in OSM. -->
    <tag k="addr:city" v="Barre"/>
    <tag k="addr:housenumber" v="475"/>
    <tag k="addr:street" v="North Main Street"/>
    <tag k="addr:state" v="VT"/>
    <tag k="ref:vcgi:esiteid" v="8078"/>
  </node>
  <node id="-666" visible="true" lat="44.204292916734" lon="-72.508956393826">
    <!-- multiple: "425 North Main Street, Barre, VT" Multiple exact matches in OSM. -->
    <tag k="addr:city" v="Barre"/>
    <tag k="addr:housenumber" v="425"/>
    <tag k="addr:street" v="North Main Street"/>
    <tag k="addr:state" v="VT"/>
    <tag k="ref:vcgi:esiteid" v="8358"/>
  </node>
  <node id="-689" visible="true" lat="44.204076195455" lon="-72.506135219494">
    <!-- multiple: "102 Seminary Street, Barre, VT" Multiple exact matches in OSM. -->
    <tag k="addr:city" v="Barre"/>
    <tag k="addr:housenumber" v="102"/>
    <tag k="addr:street" v="Seminary Street"/>
    <tag k="addr:state" v="VT"/>
    <tag k="ref:vcgi:esiteid" v="8383"/>
  </node>
  <node id="-704" visible="true" lat="44.203854943135" lon="-72.508500331907">
    <!-- multiple: "411 North Main Street, Barre, VT" Multiple exact matches in OSM. -->
    <tag k="addr:city" v="Barre"/>
    <tag k="addr:housenumber" v="411"/>
    <tag k="addr:street" v="North Main Street"/>
    <tag k="addr:state" v="VT"/>
    <tag k="ref:vcgi:esiteid" v="8400"/>
  </node>
  <node id="-768" visible="true" lat="44.203125678701" lon="-72.513643163542">
    <!-- multiple: "16 Railroad Street, Barre, VT" Multiple exact matches in OSM. -->
    <tag k="addr:city" v="Barre"/>
    <tag k="addr:housenumber" v="16"/>
    <tag k="addr:street" v="Railroad Street"/>
    <tag k="addr:state" v="VT"/>
    <tag k="ref:vcgi:esiteid" v="8476"/>
  </node>
  <node id="-794" visible="true" lat="44.203000932864" lon="-72.507870266489">
    <!-- multiple: "393 North Main Street, Barre, VT" Multiple exact matches in OSM. -->
    <tag k="addr:city" v="Barre"/>
    <tag k="addr:housenumber" v="393"/>
    <tag k="addr:street" v="North Main Street"/>
    <tag k="addr:state" v="VT"/>
    <tag k="ref:vcgi:esiteid" v="8511"/>
  </node>
  <node id="-862" visible="true" lat="44.202273991921" lon="-72.506986901727">
    <!-- multiple: "377 North Main Street, Barre, VT" Multiple exact matches in OSM. -->
    <tag k="addr:city" v="Barre"/>
    <tag k="addr:housenumber" v="377"/>
    <tag k="addr:street" v="North Main Street"/>
    <tag k="addr:state" v="VT"/>
    <tag k="ref:vcgi:esiteid" v="8586"/>
  </node>
  <node id="-905" visible="true" lat="44.20156004976" lon="-72.50750895197">
    <!-- multiple: "350 North Main Street, Barre, VT" Multiple exact matches in OSM. -->
    <tag k="addr:city" v="Barre"/>
    <tag k="addr:housenumber" v="350"/>
    <tag k="addr:street" v="North Main Street"/>
    <tag k="addr:state" v="VT"/>
    <tag k="ref:vcgi:esiteid" v="8635"/>
  </node>
  <node id="-933" visible="true" lat="44.20145527403" lon="-72.505495435547">
    <!-- multiple: "347 North Main Street, Barre, VT" Multiple exact matches in OSM. -->
    <tag k="addr:city" v="Barre"/>
    <tag k="addr:housenumber" v="347"/>
    <tag k="addr:street" v="North Main Street"/>
    <tag k="addr:state" v="VT"/>
    <tag k="ref:vcgi:esiteid" v="8669"/>
  </node>
  <node id="-941" visible="true" lat="44.20150823747" lon="-72.503902747829">
    <!-- multiple: "79 Summer Street, Barre, VT" Multiple exact matches in OSM. -->
    <tag k="addr:city" v="Barre"/>
    <tag k="addr:housenumber" v="79"/>
    <tag k="addr:street" v="Summer Street"/>
    <tag k="addr:state" v="VT"/>
    <tag k="ref:vcgi:esiteid" v="8678"/>
  </node>
  <node id="-1013" visible="true" lat="44.200696044007" lon="-72.50634641088">
    <!-- multiple: "322 North Main Street, Barre, VT" Multiple exact matches in OSM. -->
    <tag k="addr:city" v="Barre"/>
    <tag k="addr:housenumber" v="322"/>
    <tag k="addr:street" v="North Main Street"/>
    <tag k="addr:state" v="VT"/>
    <tag k="ref:vcgi:esiteid" v="8762"/>
  </node>
  <node id="-1039" visible="true" lat="44.2005851656" lon="-72.505235644618">
    <!-- multiple: "315 North Main Street, Barre, VT" Multiple exact matches in OSM. -->
    <tag k="addr:city" v="Barre"/>
    <tag k="addr:housenumber" v="315"/>
    <tag k="addr:street" v="North Main Street"/>
    <tag k="addr:state" v="VT"/>
    <tag k="ref:vcgi:esiteid" v="8793"/>
  </node>
  <node id="-1091" visible="true" lat="44.20035141869" lon="-72.502890542876">
    <!-- multiple: "42 Summer Street, Barre, VT" Multiple exact matches in OSM. -->
    <tag k="addr:city" v="Barre"/>
    <tag k="addr:housenumber" v="42"/>
    <tag k="addr:street" v="Summer Street"/>
    <tag k="addr:state" v="VT"/>
    <tag k="ref:vcgi:esiteid" v="8850"/>
  </node>
  <node id="-1182" visible="true" lat="44.199930301579" lon="-72.507295503894">
    <!-- multiple: "20 Gable Place, Barre, VT" Multiple exact matches in OSM. -->
    <tag k="addr:city" v="Barre"/>
    <tag k="addr:housenumber" v="20"/>
    <tag k="addr:street" v="Gable Place"/>
    <tag k="addr:state" v="VT"/>
    <tag k="ref:vcgi:esiteid" v="8951"/>
  </node>
  <node id="-1212" visible="true" lat="44.199529629763" lon="-72.50457966283">
    <!-- multiple: "260 North Main Street, Barre, VT" Multiple exact matches in OSM. -->
    <tag k="addr:city" v="Barre"/>
    <tag k="addr:housenumber" v="260"/>
    <tag k="addr:street" v="North Main Street"/>
    <tag k="addr:state" v="VT"/>
    <tag k="ref:vcgi:esiteid" v="8988"/>
  </node>
  <node id="-1276" visible="true" lat="44.199141502263" lon="-72.504050931564">
    <!-- multiple: "214 North Main Street, Barre, VT" Multiple exact matches in OSM. -->
    <tag k="addr:city" v="Barre"/>
    <tag k="addr:housenumber" v="214"/>
    <tag k="addr:street" v="North Main Street"/>
    <tag k="addr:state" v="VT"/>
    <tag k="ref:vcgi:esiteid" v="9065"/>
  </node>
  <node id="-1302" visible="true" lat="44.199189132716" lon="-72.503289049808">
    <!-- multiple: "201 North Main Street, Barre, VT" Multiple exact matches in OSM. -->
    <tag k="addr:city" v="Barre"/>
    <tag k="addr:housenumber" v="201"/>
    <tag k="addr:street" v="North Main Street"/>
    <tag k="addr:state" v="VT"/>
    <tag k="ref:vcgi:esiteid" v="9092"/>
  </node>
  <node id="-1329" visible="true" lat="44.198892063692" lon="-72.503721363806">
    <!-- multiple: "210 North Main Street, Barre, VT" Multiple exact matches in OSM. -->
    <tag k="addr:city" v="Barre"/>
    <tag k="addr:housenumber" v="210"/>
    <tag k="addr:street" v="North Main Street"/>
    <tag k="addr:state" v="VT"/>
    <tag k="ref:vcgi:esiteid" v="9120"/>
  </node>
  <node id="-1341" visible="true" lat="44.198834830174" lon="-72.503620164205">
    <!-- multiple: "200 North Main Street, Barre, VT" Multiple exact matches in OSM. -->
    <tag k="addr:city" v="Barre"/>
    <tag k="addr:housenumber" v="200"/>
    <tag k="addr:street" v="North Main Street"/>
    <tag k="addr:state" v="VT"/>
    <tag k="ref:vcgi:esiteid" v="9133"/>
  </node>
  <node id="-1342" visible="true" lat="44.198885074031" lon="-72.502964207356">
    <!-- multiple: "171 North Main Street, Barre, VT" Multiple exact matches in OSM. -->
    <tag k="addr:city" v="Barre"/>
    <tag k="addr:housenumber" v="171"/>
    <tag k="addr:street" v="North Main Street"/>
    <tag k="addr:state" v="VT"/>
    <tag k="ref:vcgi:esiteid" v="9134"/>
  </node>
  <node id="-1354" visible="true" lat="44.19872647315" lon="-72.503469575458">
    <!-- multiple: "188 North Main Street, Barre, VT" Multiple exact matches in OSM. -->
    <tag k="addr:city" v="Barre"/>
    <tag k="addr:housenumber" v="188"/>
    <tag k="addr:street" v="North Main Street"/>
    <tag k="addr:state" v="VT"/>
    <tag k="ref:vcgi:esiteid" v="9151"/>
  </node>
  <node id="-1405" visible="true" lat="44.198361563884" lon="-72.503075937269">
    <!-- multiple: "168 North Main Street, Barre, VT" Multiple exact matches in OSM. -->
    <tag k="addr:city" v="Barre"/>
    <tag k="addr:housenumber" v="168"/>
    <tag k="addr:street" v="North Main Street"/>
    <tag k="addr:state" v="VT"/>
    <tag k="ref:vcgi:esiteid" v="9206"/>
  </node>
  <node id="-1414" visible="true" lat="44.198292898439" lon="-72.502961496735">
    <!-- multiple: "162 North Main Street, Barre, VT" Multiple exact matches in OSM. -->
    <tag k="addr:city" v="Barre"/>
    <tag k="addr:housenumber" v="162"/>
    <tag k="addr:street" v="North Main Street"/>
    <tag k="addr:state" v="VT"/>
    <tag k="ref:vcgi:esiteid" v="9217"/>
  </node>
  <node id="-1416" visible="true" lat="44.198408834645" lon="-72.50237725942">
    <!-- multiple: "123 North Main Street, Barre, VT" Multiple exact matches in OSM. -->
    <tag k="addr:city" v="Barre"/>
    <tag k="addr:housenumber" v="123"/>
    <tag k="addr:street" v="North Main Street"/>
    <tag k="addr:state" v="VT"/>
    <tag k="ref:vcgi:esiteid" v="9221"/>
  </node>
  <node id="-1445" visible="true" lat="44.198159437998" lon="-72.50280951076">
    <!-- multiple: "136 North Main Street, Barre, VT" Multiple exact matches in OSM. -->
    <tag k="addr:city" v="Barre"/>
    <tag k="addr:housenumber" v="136"/>
    <tag k="addr:street" v="North Main Street"/>
    <tag k="addr:state" v="VT"/>
    <tag k="ref:vcgi:esiteid" v="9255"/>
  </node>
  <node id="-1463" visible="true" lat="44.198092142809" lon="-72.502701916466">
    <!-- multiple: "124 North Main Street, Barre, VT" Multiple exact matches in OSM. -->
    <tag k="addr:city" v="Barre"/>
    <tag k="addr:housenumber" v="124"/>
    <tag k="addr:street" v="North Main Street"/>
    <tag k="addr:state" v="VT"/>
    <tag k="ref:vcgi:esiteid" v="9277"/>
  </node>
  <node id="-1473" visible="true" lat="44.197995877016" lon="-72.502583965376">
    <!-- multiple: "114 North Main Street, Barre, VT" Multiple exact matches in OSM. -->
    <tag k="addr:city" v="Barre"/>
    <tag k="addr:housenumber" v="114"/>
    <tag k="addr:street" v="North Main Street"/>
    <tag k="addr:state" v="VT"/>
    <tag k="ref:vcgi:esiteid" v="9290"/>
  </node>
  <node id="-1484" visible="true" lat="44.198178002319" lon="-72.502037928115">
    <!-- multiple: "105 North Main Street, Barre, VT" Multiple exact matches in OSM. -->
    <tag k="addr:city" v="Barre"/>
    <tag k="addr:housenumber" v="105"/>
    <tag k="addr:street" v="North Main Street"/>
    <tag k="addr:state" v="VT"/>
    <tag k="ref:vcgi:esiteid" v="9303"/>
  </node>
  <node id="-1496" visible="true" lat="44.197925855916" lon="-72.502416718957">
    <!-- multiple: "100 North Main Street, Barre, VT" Multiple exact matches in OSM. -->
    <tag k="addr:city" v="Barre"/>
    <tag k="addr:housenumber" v="100"/>
    <tag k="addr:street" v="North Main Street"/>
    <tag k="addr:state" v="VT"/>
    <tag k="ref:vcgi:esiteid" v="9316"/>
  </node>
  <node id="-1506" visible="true" lat="44.197813242561" lon="-72.502289400574">
    <!-- multiple: "94 North Main Street, Barre, VT" Multiple exact matches in OSM. -->
    <tag k="addr:city" v="Barre"/>
    <tag k="addr:housenumber" v="94"/>
    <tag k="addr:street" v="North Main Street"/>
    <tag k="addr:state" v="VT"/>
    <tag k="ref:vcgi:esiteid" v="9328"/>
  </node>
  <node id="-1526" visible="true" lat="44.197702615118" lon="-72.502220734295">
    <!-- multiple: "86 North Main Street, Barre, VT" Multiple exact matches in OSM. -->
    <tag k="addr:city" v="Barre"/>
    <tag k="addr:housenumber" v="86"/>
    <tag k="addr:street" v="North Main Street"/>
    <tag k="addr:state" v="VT"/>
    <tag k="ref:vcgi:esiteid" v="9349"/>
  </node>
  <node id="-1570" visible="true" lat="44.197417977497" lon="-72.501969321537">
    <!-- multiple: "48 North Main Street, Barre, VT" Multiple exact matches in OSM. -->
    <tag k="addr:city" v="Barre"/>
    <tag k="addr:housenumber" v="48"/>
    <tag k="addr:street" v="North Main Street"/>
    <tag k="addr:state" v="VT"/>
    <tag k="ref:vcgi:esiteid" v="9401"/>
  </node>
  <node id="-1612" visible="true" lat="44.197288307491" lon="-72.501866379992">
    <!-- multiple: "36 North Main Street, Barre, VT" Multiple exact matches in OSM. -->
    <tag k="addr:city" v="Barre"/>
    <tag k="addr:housenumber" v="36"/>
    <tag k="addr:street" v="North Main Street"/>
    <tag k="addr:state" v="VT"/>
    <tag k="ref:vcgi:esiteid" v="9448"/>
  </node>
  <node id="-1626" visible="true" lat="44.197181495264" lon="-72.50182823293">
    <!-- multiple: "14 North Main Street, Barre, VT" Multiple exact matches in OSM. -->
    <tag k="addr:city" v="Barre"/>
    <tag k="addr:housenumber" v="14"/>
    <tag k="addr:street" v="North Main Street"/>
    <tag k="addr:state" v="VT"/>
    <tag k="ref:vcgi:esiteid" v="9462"/>
  </node>
  <node id="-1643" visible="true" lat="44.19711494819" lon="-72.499816409267">
    <!-- multiple: "40 Washington Street, Barre, VT" Multiple exact matches in OSM. -->
    <tag k="addr:city" v="Barre"/>
    <tag k="addr:housenumber" v="40"/>
    <tag k="addr:street" v="Washington Street"/>
    <tag k="addr:state" v="VT"/>
    <tag k="ref:vcgi:esiteid" v="9479"/>
  </node>
  <node id="-1648" visible="true" lat="44.196859515625" lon="-72.501790836322">
    <!-- multiple: "6 North Main Street, Barre, VT" Multiple exact matches in OSM. -->
    <tag k="addr:city" v="Barre"/>
    <tag k="addr:housenumber" v="6"/>
    <tag k="addr:street" v="North Main Street"/>
    <tag k="addr:state" v="VT"/>
    <tag k="ref:vcgi:esiteid" v="9484"/>
  </node>
  <node id="-1730" visible="true" lat="44.196366962279" lon="-72.500901408117">
    <!-- multiple: "19 Church Street, Barre, VT" Multiple exact matches in OSM. -->
    <tag k="addr:city" v="Barre"/>
    <tag k="addr:housenumber" v="19"/>
    <tag k="addr:street" v="Church Street"/>
    <tag k="addr:state" v="VT"/>
    <tag k="ref:vcgi:esiteid" v="9579"/>
  </node>
  <node id="-1826" visible="true" lat="44.195809914242" lon="-72.501672611965">
    <!-- multiple: "15 South Main Street, Barre, VT" Multiple exact matches in OSM. -->
    <tag k="addr:city" v="Barre"/>
    <tag k="addr:housenumber" v="15"/>
    <tag k="addr:street" v="South Main Street"/>
    <tag k="addr:state" v="VT"/>
    <tag k="ref:vcgi:esiteid" v="9690"/>
  </node>
  <node id="-1964" visible="true" lat="44.194372504707" lon="-72.500644972313">
    <!-- multiple: "44 South Main Street, Barre, VT" Multiple exact matches in OSM. -->
    <tag k="addr:city" v="Barre"/>
    <tag k="addr:housenumber" v="44"/>
    <tag k="addr:street" v="South Main Street"/>
    <tag k="addr:state" v="VT"/>
    <tag k="ref:vcgi:esiteid" v="9847"/>
  </node>
  <node id="-2135" visible="true" lat="44.193049029373" lon="-72.500295442924">
    <!-- multiple: "74 South Main Street, Barre, VT" Multiple exact matches in OSM. -->
    <tag k="addr:city" v="Barre"/>
    <tag k="addr:housenumber" v="74"/>
    <tag k="addr:street" v="South Main Street"/>
    <tag k="addr:state" v="VT"/>
    <tag k="ref:vcgi:esiteid" v="10032"/>
  </node>
  <node id="-2266" visible="true" lat="44.191888064787" lon="-72.492552232878">
    <!-- multiple: "169 Washington Street, Barre, VT" Multiple exact matches in OSM. -->
    <tag k="addr:city" v="Barre"/>
    <tag k="addr:housenumber" v="169"/>
    <tag k="addr:street" v="Washington Street"/>
    <tag k="addr:state" v="VT"/>
    <tag k="ref:vcgi:esiteid" v="10181"/>
  </node>
  <node id="-2482" visible="true" lat="44.189848086273" lon="-72.499344348235">
    <!-- multiple: "131 South Main Street, Barre, VT" Multiple exact matches in OSM. -->
    <tag k="addr:city" v="Barre"/>
    <tag k="addr:housenumber" v="131"/>
    <tag k="addr:street" v="South Main Street"/>
    <tag k="addr:state" v="VT"/>
    <tag k="ref:vcgi:esiteid" v="10421"/>
  </node>
  <node id="-2488" visible="true" lat="44.189610787943" lon="-72.498026074925">
    <!-- multiple: "132 South Main Street, Barre, VT" Multiple exact matches in OSM. -->
    <tag k="addr:city" v="Barre"/>
    <tag k="addr:housenumber" v="132"/>
    <tag k="addr:street" v="South Main Street"/>
    <tag k="addr:state" v="VT"/>
    <tag k="ref:vcgi:esiteid" v="10432"/>
  </node>
  <node id="-2490" visible="true" lat="44.18949260591" lon="-72.487801775799">
    <!-- multiple: "320 Washington Street, Barre, VT" Multiple exact matches in OSM. -->
    <tag k="addr:city" v="Barre"/>
    <tag k="addr:housenumber" v="320"/>
    <tag k="addr:street" v="Washington Street"/>
    <tag k="addr:state" v="VT"/>
    <tag k="ref:vcgi:esiteid" v="10434"/>
  </node>
  <node id="-2581" visible="true" lat="44.186511067983" lon="-72.487607916725">
    <!-- multiple: "122 Batchelder Street, Barre, VT" Multiple exact matches in OSM. -->
    <tag k="addr:city" v="Barre"/>
    <tag k="addr:housenumber" v="122"/>
    <tag k="addr:street" v="Batchelder Street"/>
    <tag k="addr:state" v="VT"/>
    <tag k="ref:vcgi:esiteid" v="10544"/>
  </node>
  <node id="-2594" visible="true" lat="44.186257247287" lon="-72.487135738954">
    <!-- multiple: "122 Batchelder Street, Barre, VT" Multiple exact matches in OSM. -->
    <tag k="addr:city" v="Barre"/>
    <tag k="addr:housenumber" v="122"/>
    <tag k="addr:street" v="Batchelder Street"/>
    <tag k="addr:state" v="VT"/>
    <tag k="ref:vcgi:esiteid" v="10560"/>
  </node>
  <node id="-2595" visible="true" lat="44.186093725556" lon="-72.487640616121">
    <!-- multiple: "122 Batchelder Street, Barre, VT" Multiple exact matches in OSM. -->
    <tag k="addr:city" v="Barre"/>
    <tag k="addr:housenumber" v="122"/>
    <tag k="addr:street" v="Batchelder Street"/>
    <tag k="addr:state" v="VT"/>
    <tag k="ref:vcgi:esiteid" v="10561"/>
  </node>
  <node id="-2608" visible="true" lat="44.185824869646" lon="-72.486922044962">
    <!-- multiple: "122 Batchelder Street, Barre, VT" Multiple exact matches in OSM. -->
    <tag k="addr:city" v="Barre"/>
    <tag k="addr:housenumber" v="122"/>
    <tag k="addr:street" v="Batchelder Street"/>
    <tag k="addr:state" v="VT"/>
    <tag k="ref:vcgi:esiteid" v="10574"/>
  </node>
  <node id="-2657" visible="true" lat="44.184534021644" lon="-72.502010627024">
    <!-- multiple: "59 Parkside Terrace, Barre, VT" Multiple exact matches in OSM. -->
    <tag k="addr:city" v="Barre"/>
    <tag k="addr:housenumber" v="59"/>
    <tag k="addr:street" v="Parkside Terrace"/>
    <tag k="addr:state" v="VT"/>
    <tag k="ref:vcgi:esiteid" v="10628"/>
  </node>
  <node id="-2806" visible="true" lat="44.184812294257" lon="-72.504459597832">
    <!-- multiple: "50 Parkside Terrace, Barre, VT" Multiple exact matches in OSM. -->
    <tag k="addr:city" v="Barre"/>
    <tag k="addr:housenumber" v="50"/>
    <tag k="addr:street" v="Parkside Terrace"/>
    <tag k="addr:state" v="VT"/>
    <tag k="ref:vcgi:esiteid" v="10798"/>
  </node>
  <node id="-3047" visible="true" lat="44.201348134891" lon="-72.505356048886">
    <!-- multiple: "321 North Main Street, Barre, VT" Multiple exact matches in OSM. -->
    <tag k="addr:city" v="Barre"/>
    <tag k="addr:housenumber" v="321"/>
    <tag k="addr:street" v="North Main Street"/>
    <tag k="addr:state" v="VT"/>
    <tag k="ref:vcgi:esiteid" v="613082"/>
  </node>
</osm>
