<?xml version="1.0" encoding="UTF-8"?>
<osm version="0.6" generator="JOSM" upload="false">
  <node id="-1145" visible="true" lat="44.189525663819" lon="-72.485983766167">
    <!-- offset: "284 Washington Street, Barre, VT" Significant offset - 180.1m -->
    <tag k="addr:city" v="Barre"/>
    <tag k="addr:housenumber" v="284"/>
    <tag k="addr:street" v="Washington Street"/>
    <tag k="addr:state" v="VT"/>
    <tag k="ref:vcgi:esiteid" v="11970"/>
  </node>
  <node id="-1586" visible="true" lat="44.174466511128" lon="-72.503968468439">
    <!-- offset: "14 Howard Street, Barre, VT" Significant offset - 2921.2m -->
    <tag k="addr:city" v="Barre"/>
    <tag k="addr:housenumber" v="14"/>
    <tag k="addr:street" v="Howard Street"/>
    <tag k="addr:state" v="VT"/>
    <tag k="ref:vcgi:esiteid" v="12442"/>
  </node>
  <node id="-1589" visible="true" lat="44.174486954857" lon="-72.503182076687">
    <!-- offset: "9 Howard Street, Barre, VT" Significant offset - 2993.7m -->
    <tag k="addr:city" v="Barre"/>
    <tag k="addr:housenumber" v="9"/>
    <tag k="addr:street" v="Howard Street"/>
    <tag k="addr:state" v="VT"/>
    <tag k="ref:vcgi:esiteid" v="12445"/>
  </node>
  <node id="-1851" visible="true" lat="44.168159084392" lon="-72.485604221341">
    <!-- offset: "70 Websterville Road, Barre, VT" Significant offset - 354.2m -->
    <tag k="addr:city" v="Barre"/>
    <tag k="addr:housenumber" v="70"/>
    <tag k="addr:street" v="Websterville Road"/>
    <tag k="addr:state" v="VT"/>
    <tag k="ref:vcgi:esiteid" v="12735"/>
  </node>
  <node id="-3445" visible="true" lat="44.234389996364" lon="-72.487959478392">
    <!-- offset: "575 East Montpelier Road, East Montpelier, VT" Significant offset - 123m -->
    <tag k="addr:city" v="East Montpelier"/>
    <tag k="addr:housenumber" v="575"/>
    <tag k="addr:street" v="East Montpelier Road"/>
    <tag k="addr:state" v="VT"/>
    <tag k="ref:vcgi:esiteid" v="451325"/>
  </node>
</osm>
