<?xml version="1.0" encoding="UTF-8"?>
<osm version="0.6" generator="JOSM" upload="false">
  <node id="-142" visible="true" lat="44.231548080816" lon="-72.477714230831">
    <!-- duplicates-in-different-towns: "109 Mitchell Road, Barre, VT"  ignoring town mismatch for duplicate housenumber/street when matching to esiteid 10942: "109 Mitchell Road, Barre Town, VT" -->
    <tag k="addr:city" v="Barre"/>
    <tag k="addr:housenumber" v="109"/>
    <tag k="addr:street" v="Mitchell Road"/>
    <tag k="addr:state" v="VT"/>
    <tag k="ref:vcgi:esiteid" v="10948"/>
  </node>
  <node id="-409" visible="true" lat="44.21742998106" lon="-72.457278506808">
    <!-- duplicates-in-different-towns: "159 Sunset Road, Barre, VT"  ignoring town mismatch for duplicate housenumber/street when matching to esiteid 11202: "159 Sunset Road, Barre Town, VT" -->
    <tag k="addr:city" v="Barre"/>
    <tag k="addr:housenumber" v="159"/>
    <tag k="addr:street" v="Sunset Road"/>
    <tag k="addr:state" v="VT"/>
    <tag k="ref:vcgi:esiteid" v="11218"/>
  </node>
  <node id="-1370" visible="true" lat="44.181905171798" lon="-72.493897663459">
    <!-- duplicates-in-different-towns: "114 Quarry Hill Road, Barre, VT"  ignoring town mismatch for duplicate housenumber/street when matching to esiteid 12204: "114 Quarry Hill Road, Barre Town, VT" -->
    <tag k="addr:city" v="Barre"/>
    <tag k="addr:housenumber" v="114"/>
    <tag k="addr:street" v="Quarry Hill Road"/>
    <tag k="addr:state" v="VT"/>
    <tag k="ref:vcgi:esiteid" v="12206"/>
  </node>
  <node id="-1393" visible="true" lat="44.180688282031" lon="-72.524438140846">
    <!-- duplicates-in-different-towns: "19 Upper Usle Road, Barre, VT"  ignoring town mismatch for duplicate housenumber/street when matching to esiteid 12228: "19 Upper Usle Road, Barre Town, VT" -->
    <tag k="addr:city" v="Barre"/>
    <tag k="addr:housenumber" v="19"/>
    <tag k="addr:street" v="Upper Usle Road"/>
    <tag k="addr:state" v="VT"/>
    <tag k="ref:vcgi:esiteid" v="12232"/>
  </node>
  <node id="-1403" visible="true" lat="44.179680528237" lon="-72.522702655936">
    <!-- duplicates-in-different-towns: "89 Lower Usle Road, Barre, VT"  ignoring town mismatch for duplicate housenumber/street when matching to esiteid 12238: "89 Lower Usle Road, Barre Town, VT" -->
    <tag k="addr:city" v="Barre"/>
    <tag k="addr:housenumber" v="89"/>
    <tag k="addr:street" v="Lower Usle Road"/>
    <tag k="addr:state" v="VT"/>
    <tag k="ref:vcgi:esiteid" v="12245"/>
  </node>
  <node id="-1418" visible="true" lat="44.178903003548" lon="-72.495125997446">
    <!-- duplicates-in-different-towns: "170 Quarry Hill Road, Barre, VT"  ignoring town mismatch for duplicate housenumber/street when matching to esiteid 12262: "170 Quarry Hill Road, Barre Town, VT" -->
    <tag k="addr:city" v="Barre"/>
    <tag k="addr:housenumber" v="170"/>
    <tag k="addr:street" v="Quarry Hill Road"/>
    <tag k="addr:state" v="VT"/>
    <tag k="ref:vcgi:esiteid" v="12260"/>
  </node>
  <node id="-2327" visible="true" lat="44.158097249184" lon="-72.45386445313">
    <!-- duplicates-in-different-towns: "170 Mill Street, East Barre, VT"  ignoring town mismatch for duplicate housenumber/street when matching to esiteid 13253: "170 Mill Street, Barre Town, VT" -->
    <tag k="addr:city" v="East Barre"/>
    <tag k="addr:housenumber" v="170"/>
    <tag k="addr:street" v="Mill Street"/>
    <tag k="addr:state" v="VT"/>
    <tag k="ref:vcgi:esiteid" v="13251"/>
  </node>
  <node id="-2350" visible="true" lat="44.157743422643" lon="-72.453950552734">
    <!-- duplicates-in-different-towns: "170 Mill Street, East Barre, VT"  ignoring town mismatch for duplicate housenumber/street when matching to esiteid 13253: "170 Mill Street, Barre Town, VT" -->
    <tag k="addr:city" v="East Barre"/>
    <tag k="addr:housenumber" v="170"/>
    <tag k="addr:street" v="Mill Street"/>
    <tag k="addr:state" v="VT"/>
    <tag k="ref:vcgi:esiteid" v="13275"/>
  </node>
  <node id="-2404" visible="true" lat="44.156876559354" lon="-72.454380625233">
    <!-- duplicates-in-different-towns: "180 Mill Street, East Barre, VT"  ignoring town mismatch for duplicate housenumber/street when matching to esiteid 13886: "180 Mill Street, Barre Town, VT" -->
    <tag k="addr:city" v="East Barre"/>
    <tag k="addr:housenumber" v="180"/>
    <tag k="addr:street" v="Mill Street"/>
    <tag k="addr:state" v="VT"/>
    <tag k="ref:vcgi:esiteid" v="13333"/>
  </node>
  <node id="-2442" visible="true" lat="44.157293861003" lon="-72.495449422457">
    <!-- duplicates-in-different-towns: "281 Middle Road, Granitville, VT"  ignoring town mismatch for duplicate housenumber/street when matching to esiteid 13374: "281 Middle Road, Barre Town, VT" -->
    <tag k="addr:city" v="Granitville"/>
    <tag k="addr:housenumber" v="281"/>
    <tag k="addr:street" v="Middle Road"/>
    <tag k="addr:state" v="VT"/>
    <tag k="ref:vcgi:esiteid" v="13372"/>
  </node>
  <node id="-2601" visible="true" lat="44.152757895326" lon="-72.491845571891">
    <!-- duplicates-in-different-towns: "604 Graniteville Road, Granitville, VT"  ignoring town mismatch for duplicate housenumber/street when matching to esiteid 766160: "604 Graniteville Road, Barre Town, VT" -->
    <tag k="addr:city" v="Granitville"/>
    <tag k="addr:housenumber" v="604"/>
    <tag k="addr:street" v="Graniteville Road"/>
    <tag k="addr:state" v="VT"/>
    <tag k="ref:vcgi:esiteid" v="13550"/>
  </node>
  <node id="-2651" visible="true" lat="44.151185410124" lon="-72.485985976215">
    <!-- duplicates-in-different-towns: "19 McLeod Hill Road, Granitville, VT"  ignoring town mismatch for duplicate housenumber/street when matching to esiteid 13600: "19 McLeod Hill Road, Barre Town, VT" -->
    <tag k="addr:city" v="Granitville"/>
    <tag k="addr:housenumber" v="19"/>
    <tag k="addr:street" v="McLeod Hill Road"/>
    <tag k="addr:state" v="VT"/>
    <tag k="ref:vcgi:esiteid" v="13604"/>
  </node>
  <node id="-2765" visible="true" lat="44.1458928354" lon="-72.454711685791">
    <!-- duplicates-in-different-towns: "275 Lowery Road, Barre, VT"  ignoring town mismatch for duplicate housenumber/street when matching to esiteid 13725: "275 Lowery Road, Barre Town, VT" -->
    <tag k="addr:city" v="Barre"/>
    <tag k="addr:housenumber" v="275"/>
    <tag k="addr:street" v="Lowery Road"/>
    <tag k="addr:state" v="VT"/>
    <tag k="ref:vcgi:esiteid" v="13726"/>
  </node>
  <node id="-2867" visible="true" lat="44.137166752099" lon="-72.468692518639">
    <!-- duplicates-in-different-towns: "307 McCarthy Road, Granitville, VT"  ignoring town mismatch for duplicate housenumber/street when matching to esiteid 340619: "307 McCarthy Road, Williamstown, VT" -->
    <tag k="addr:city" v="Granitville"/>
    <tag k="addr:housenumber" v="307"/>
    <tag k="addr:street" v="McCarthy Road"/>
    <tag k="addr:state" v="VT"/>
    <tag k="ref:vcgi:esiteid" v="13836"/>
  </node>
  <node id="-2869" visible="true" lat="44.184731428974" lon="-72.528344432951">
    <!-- duplicates-in-different-towns: "11 Miller Road, Barre, VT"  ignoring town mismatch for duplicate housenumber/street when matching to esiteid 14217: "11 Miller Road, Barre Town, VT" -->
    <tag k="addr:city" v="Barre"/>
    <tag k="addr:housenumber" v="11"/>
    <tag k="addr:street" v="Miller Road"/>
    <tag k="addr:state" v="VT"/>
    <tag k="ref:vcgi:esiteid" v="13838"/>
  </node>
  <node id="-2912" visible="true" lat="44.156691425293" lon="-72.45472704901">
    <!-- duplicates-in-different-towns: "180 Mill Street, East Barre, VT"  ignoring town mismatch for duplicate housenumber/street when matching to esiteid 13886: "180 Mill Street, Barre Town, VT" -->
    <tag k="addr:city" v="East Barre"/>
    <tag k="addr:housenumber" v="180"/>
    <tag k="addr:street" v="Mill Street"/>
    <tag k="addr:state" v="VT"/>
    <tag k="ref:vcgi:esiteid" v="13881"/>
  </node>
  <node id="-2913" visible="true" lat="44.156629720136" lon="-72.454513122342">
    <!-- duplicates-in-different-towns: "180 Mill Street, East Barre, VT"  ignoring town mismatch for duplicate housenumber/street when matching to esiteid 13886: "180 Mill Street, Barre Town, VT" -->
    <tag k="addr:city" v="East Barre"/>
    <tag k="addr:housenumber" v="180"/>
    <tag k="addr:street" v="Mill Street"/>
    <tag k="addr:state" v="VT"/>
    <tag k="ref:vcgi:esiteid" v="13882"/>
  </node>
  <node id="-2914" visible="true" lat="44.156518892958" lon="-72.454727180917">
    <!-- duplicates-in-different-towns: "180 Mill Street, East Barre, VT"  ignoring town mismatch for duplicate housenumber/street when matching to esiteid 13886: "180 Mill Street, Barre Town, VT" -->
    <tag k="addr:city" v="East Barre"/>
    <tag k="addr:housenumber" v="180"/>
    <tag k="addr:street" v="Mill Street"/>
    <tag k="addr:state" v="VT"/>
    <tag k="ref:vcgi:esiteid" v="13883"/>
  </node>
  <node id="-2915" visible="true" lat="44.156500319501" lon="-72.454504662155">
    <!-- duplicates-in-different-towns: "180 Mill Street, East Barre, VT"  ignoring town mismatch for duplicate housenumber/street when matching to esiteid 13886: "180 Mill Street, Barre Town, VT" -->
    <tag k="addr:city" v="East Barre"/>
    <tag k="addr:housenumber" v="180"/>
    <tag k="addr:street" v="Mill Street"/>
    <tag k="addr:state" v="VT"/>
    <tag k="ref:vcgi:esiteid" v="13884"/>
  </node>
  <node id="-2916" visible="true" lat="44.156383349491" lon="-72.454770079884">
    <!-- duplicates-in-different-towns: "180 Mill Street, East Barre, VT"  ignoring town mismatch for duplicate housenumber/street when matching to esiteid 13886: "180 Mill Street, Barre Town, VT" -->
    <tag k="addr:city" v="East Barre"/>
    <tag k="addr:housenumber" v="180"/>
    <tag k="addr:street" v="Mill Street"/>
    <tag k="addr:state" v="VT"/>
    <tag k="ref:vcgi:esiteid" v="13885"/>
  </node>
  <node id="-2989" visible="true" lat="44.166906957547" lon="-72.490554296194">
    <!-- duplicates-in-different-towns: "22 Websterville Road, Barre, VT"  ignoring town mismatch for duplicate housenumber/street when matching to esiteid 900524: "22 Websterville Road, Barre Town, VT" -->
    <tag k="addr:city" v="Barre"/>
    <tag k="addr:housenumber" v="22"/>
    <tag k="addr:street" v="Websterville Road"/>
    <tag k="addr:state" v="VT"/>
    <tag k="ref:vcgi:esiteid" v="13960"/>
  </node>
  <node id="-3240" visible="true" lat="44.209623030633" lon="-72.42229133283">
    <!-- duplicates-in-different-towns: "112 Preston Road, Barre, VT"  ignoring town mismatch for duplicate housenumber/street when matching to esiteid 365548: "112 Preston Road, Barre Town, VT" -->
    <tag k="addr:city" v="Barre"/>
    <tag k="addr:housenumber" v="112"/>
    <tag k="addr:street" v="Preston Road"/>
    <tag k="addr:state" v="VT"/>
    <tag k="ref:vcgi:esiteid" v="183542"/>
  </node>
  <node id="-3241" visible="true" lat="44.137329903785" lon="-72.469067108979">
    <!-- duplicates-in-different-towns: "261 McCarthy Road, Granitville, VT"  ignoring town mismatch for duplicate housenumber/street when matching to esiteid 342505: "261 McCarthy Road, Williamstown, VT" -->
    <tag k="addr:city" v="Granitville"/>
    <tag k="addr:housenumber" v="261"/>
    <tag k="addr:street" v="McCarthy Road"/>
    <tag k="addr:state" v="VT"/>
    <tag k="ref:vcgi:esiteid" v="288309"/>
  </node>
  <node id="-3522" visible="true" lat="44.214451970599" lon="-72.511696801609">
    <!-- duplicates-in-different-towns: "85 Ivan Drive, Barre, VT"  ignoring town mismatch for duplicate housenumber/street when matching to esiteid 759182: "85 Ivan Drive, Barre Town, VT" -->
    <tag k="addr:city" v="Barre"/>
    <tag k="addr:housenumber" v="85"/>
    <tag k="addr:street" v="Ivan Drive"/>
    <tag k="addr:state" v="VT"/>
    <tag k="ref:vcgi:esiteid" v="655351"/>
  </node>
  <node id="-3574" visible="true" lat="44.224644845216" lon="-72.434407125998">
    <!-- duplicates-in-different-towns: "910 Gonyeau Road, Plainfield, VT"  ignoring town mismatch for duplicate housenumber/street when matching to esiteid 757296: "910 Gonyeau Road, , VT" -->
    <tag k="addr:city" v="Plainfield"/>
    <tag k="addr:housenumber" v="910"/>
    <tag k="addr:street" v="Gonyeau Road"/>
    <tag k="addr:state" v="VT"/>
    <tag k="ref:vcgi:esiteid" v="757297"/>
  </node>
  <node id="-3734" visible="true" lat="44.214938120248" lon="-72.511432234476">
    <!-- duplicates-in-different-towns: "69 Ivan Drive, Barre, VT"  ignoring town mismatch for duplicate housenumber/street when matching to esiteid 759180: "69 Ivan Drive, Barre Town, VT" -->
    <tag k="addr:city" v="Barre"/>
    <tag k="addr:housenumber" v="69"/>
    <tag k="addr:street" v="Ivan Drive"/>
    <tag k="addr:state" v="VT"/>
    <tag k="ref:vcgi:esiteid" v="765680"/>
  </node>
  <node id="-3737" visible="true" lat="44.169971372989" lon="-72.508460707242">
    <!-- duplicates-in-different-towns: "596 South Barre Road, Barre, VT"  ignoring town mismatch for duplicate housenumber/street when matching to esiteid 12648: "596 South Barre Road, Barre Town, VT" -->
    <tag k="addr:city" v="Barre"/>
    <tag k="addr:housenumber" v="596"/>
    <tag k="addr:street" v="South Barre Road"/>
    <tag k="addr:state" v="VT"/>
    <tag k="ref:vcgi:esiteid" v="766056"/>
  </node>
  <node id="-3738" visible="true" lat="44.169804681277" lon="-72.508518579563">
    <!-- duplicates-in-different-towns: "596 South Barre Road, Barre, VT"  ignoring town mismatch for duplicate housenumber/street when matching to esiteid 12648: "596 South Barre Road, Barre Town, VT" -->
    <tag k="addr:city" v="Barre"/>
    <tag k="addr:housenumber" v="596"/>
    <tag k="addr:street" v="South Barre Road"/>
    <tag k="addr:state" v="VT"/>
    <tag k="ref:vcgi:esiteid" v="766057"/>
  </node>
  <node id="-3739" visible="true" lat="44.169655848124" lon="-72.508588860614">
    <!-- duplicates-in-different-towns: "596 South Barre Road, Barre, VT"  ignoring town mismatch for duplicate housenumber/street when matching to esiteid 12648: "596 South Barre Road, Barre Town, VT" -->
    <tag k="addr:city" v="Barre"/>
    <tag k="addr:housenumber" v="596"/>
    <tag k="addr:street" v="South Barre Road"/>
    <tag k="addr:state" v="VT"/>
    <tag k="ref:vcgi:esiteid" v="766058"/>
  </node>
  <node id="-3740" visible="true" lat="44.169376027798" lon="-72.508903112754">
    <!-- duplicates-in-different-towns: "596 South Barre Road, Barre, VT"  ignoring town mismatch for duplicate housenumber/street when matching to esiteid 12648: "596 South Barre Road, Barre Town, VT" -->
    <tag k="addr:city" v="Barre"/>
    <tag k="addr:housenumber" v="596"/>
    <tag k="addr:street" v="South Barre Road"/>
    <tag k="addr:state" v="VT"/>
    <tag k="ref:vcgi:esiteid" v="766059"/>
  </node>
  <node id="-3741" visible="true" lat="44.169343301863" lon="-72.508696336555">
    <!-- duplicates-in-different-towns: "596 South Barre Road, Barre, VT"  ignoring town mismatch for duplicate housenumber/street when matching to esiteid 12648: "596 South Barre Road, Barre Town, VT" -->
    <tag k="addr:city" v="Barre"/>
    <tag k="addr:housenumber" v="596"/>
    <tag k="addr:street" v="South Barre Road"/>
    <tag k="addr:state" v="VT"/>
    <tag k="ref:vcgi:esiteid" v="766060"/>
  </node>
  <node id="-3742" visible="true" lat="44.169379034937" lon="-72.508510246923">
    <!-- duplicates-in-different-towns: "596 South Barre Road, Barre, VT"  ignoring town mismatch for duplicate housenumber/street when matching to esiteid 12648: "596 South Barre Road, Barre Town, VT" -->
    <tag k="addr:city" v="Barre"/>
    <tag k="addr:housenumber" v="596"/>
    <tag k="addr:street" v="South Barre Road"/>
    <tag k="addr:state" v="VT"/>
    <tag k="ref:vcgi:esiteid" v="766061"/>
  </node>
  <node id="-3743" visible="true" lat="44.169515950619" lon="-72.50858056893">
    <!-- duplicates-in-different-towns: "596 South Barre Road, Barre, VT"  ignoring town mismatch for duplicate housenumber/street when matching to esiteid 12648: "596 South Barre Road, Barre Town, VT" -->
    <tag k="addr:city" v="Barre"/>
    <tag k="addr:housenumber" v="596"/>
    <tag k="addr:street" v="South Barre Road"/>
    <tag k="addr:state" v="VT"/>
    <tag k="ref:vcgi:esiteid" v="766062"/>
  </node>
  <node id="-3744" visible="true" lat="44.169370117682" lon="-72.508340693494">
    <!-- duplicates-in-different-towns: "596 South Barre Road, Barre, VT"  ignoring town mismatch for duplicate housenumber/street when matching to esiteid 12648: "596 South Barre Road, Barre Town, VT" -->
    <tag k="addr:city" v="Barre"/>
    <tag k="addr:housenumber" v="596"/>
    <tag k="addr:street" v="South Barre Road"/>
    <tag k="addr:state" v="VT"/>
    <tag k="ref:vcgi:esiteid" v="766063"/>
  </node>
  <node id="-3745" visible="true" lat="44.169408828528" lon="-72.508125656088">
    <!-- duplicates-in-different-towns: "596 South Barre Road, Barre, VT"  ignoring town mismatch for duplicate housenumber/street when matching to esiteid 12648: "596 South Barre Road, Barre Town, VT" -->
    <tag k="addr:city" v="Barre"/>
    <tag k="addr:housenumber" v="596"/>
    <tag k="addr:street" v="South Barre Road"/>
    <tag k="addr:state" v="VT"/>
    <tag k="ref:vcgi:esiteid" v="766064"/>
  </node>
  <node id="-3746" visible="true" lat="44.16946242445" lon="-72.507865132245">
    <!-- duplicates-in-different-towns: "596 South Barre Road, Barre, VT"  ignoring town mismatch for duplicate housenumber/street when matching to esiteid 12648: "596 South Barre Road, Barre Town, VT" -->
    <tag k="addr:city" v="Barre"/>
    <tag k="addr:housenumber" v="596"/>
    <tag k="addr:street" v="South Barre Road"/>
    <tag k="addr:state" v="VT"/>
    <tag k="ref:vcgi:esiteid" v="766065"/>
  </node>
  <node id="-3747" visible="true" lat="44.169524945948" lon="-72.507658368648">
    <!-- duplicates-in-different-towns: "596 South Barre Road, Barre, VT"  ignoring town mismatch for duplicate housenumber/street when matching to esiteid 12648: "596 South Barre Road, Barre Town, VT" -->
    <tag k="addr:city" v="Barre"/>
    <tag k="addr:housenumber" v="596"/>
    <tag k="addr:street" v="South Barre Road"/>
    <tag k="addr:state" v="VT"/>
    <tag k="ref:vcgi:esiteid" v="766066"/>
  </node>
  <node id="-3748" visible="true" lat="44.169697568785" lon="-72.507923059557">
    <!-- duplicates-in-different-towns: "596 South Barre Road, Barre, VT"  ignoring town mismatch for duplicate housenumber/street when matching to esiteid 12648: "596 South Barre Road, Barre Town, VT" -->
    <tag k="addr:city" v="Barre"/>
    <tag k="addr:housenumber" v="596"/>
    <tag k="addr:street" v="South Barre Road"/>
    <tag k="addr:state" v="VT"/>
    <tag k="ref:vcgi:esiteid" v="766067"/>
  </node>
  <node id="-3749" visible="true" lat="44.169664814131" lon="-72.508092608162">
    <!-- duplicates-in-different-towns: "596 South Barre Road, Barre, VT"  ignoring town mismatch for duplicate housenumber/street when matching to esiteid 12648: "596 South Barre Road, Barre Town, VT" -->
    <tag k="addr:city" v="Barre"/>
    <tag k="addr:housenumber" v="596"/>
    <tag k="addr:street" v="South Barre Road"/>
    <tag k="addr:state" v="VT"/>
    <tag k="ref:vcgi:esiteid" v="766068"/>
  </node>
  <node id="-3750" visible="true" lat="44.169682660918" lon="-72.508270435043">
    <!-- duplicates-in-different-towns: "596 South Barre Road, Barre, VT"  ignoring town mismatch for duplicate housenumber/street when matching to esiteid 12648: "596 South Barre Road, Barre Town, VT" -->
    <tag k="addr:city" v="Barre"/>
    <tag k="addr:housenumber" v="596"/>
    <tag k="addr:street" v="South Barre Road"/>
    <tag k="addr:state" v="VT"/>
    <tag k="ref:vcgi:esiteid" v="766069"/>
  </node>
  <node id="-3751" visible="true" lat="44.169861262117" lon="-72.508162937756">
    <!-- duplicates-in-different-towns: "596 South Barre Road, Barre, VT"  ignoring town mismatch for duplicate housenumber/street when matching to esiteid 12648: "596 South Barre Road, Barre Town, VT" -->
    <tag k="addr:city" v="Barre"/>
    <tag k="addr:housenumber" v="596"/>
    <tag k="addr:street" v="South Barre Road"/>
    <tag k="addr:state" v="VT"/>
    <tag k="ref:vcgi:esiteid" v="766070"/>
  </node>
  <node id="-3752" visible="true" lat="44.169670820583" lon="-72.507306873794">
    <!-- duplicates-in-different-towns: "596 South Barre Road, Barre, VT"  ignoring town mismatch for duplicate housenumber/street when matching to esiteid 12648: "596 South Barre Road, Barre Town, VT" -->
    <tag k="addr:city" v="Barre"/>
    <tag k="addr:housenumber" v="596"/>
    <tag k="addr:street" v="South Barre Road"/>
    <tag k="addr:state" v="VT"/>
    <tag k="ref:vcgi:esiteid" v="766071"/>
  </node>
  <node id="-3753" visible="true" lat="44.16979583758" lon="-72.507273806078">
    <!-- duplicates-in-different-towns: "596 South Barre Road, Barre, VT"  ignoring town mismatch for duplicate housenumber/street when matching to esiteid 12648: "596 South Barre Road, Barre Town, VT" -->
    <tag k="addr:city" v="Barre"/>
    <tag k="addr:housenumber" v="596"/>
    <tag k="addr:street" v="South Barre Road"/>
    <tag k="addr:state" v="VT"/>
    <tag k="ref:vcgi:esiteid" v="766072"/>
  </node>
  <node id="-3754" visible="true" lat="44.169926809872" lon="-72.507211790812">
    <!-- duplicates-in-different-towns: "596 South Barre Road, Barre, VT"  ignoring town mismatch for duplicate housenumber/street when matching to esiteid 12648: "596 South Barre Road, Barre Town, VT" -->
    <tag k="addr:city" v="Barre"/>
    <tag k="addr:housenumber" v="596"/>
    <tag k="addr:street" v="South Barre Road"/>
    <tag k="addr:state" v="VT"/>
    <tag k="ref:vcgi:esiteid" v="766073"/>
  </node>
  <node id="-3755" visible="true" lat="44.17002203843" lon="-72.507546775351">
    <!-- duplicates-in-different-towns: "596 South Barre Road, Barre, VT"  ignoring town mismatch for duplicate housenumber/street when matching to esiteid 12648: "596 South Barre Road, Barre Town, VT" -->
    <tag k="addr:city" v="Barre"/>
    <tag k="addr:housenumber" v="596"/>
    <tag k="addr:street" v="South Barre Road"/>
    <tag k="addr:state" v="VT"/>
    <tag k="ref:vcgi:esiteid" v="766074"/>
  </node>
  <node id="-3756" visible="true" lat="44.169813659047" lon="-72.507848636104">
    <!-- duplicates-in-different-towns: "596 South Barre Road, Barre, VT"  ignoring town mismatch for duplicate housenumber/street when matching to esiteid 12648: "596 South Barre Road, Barre Town, VT" -->
    <tag k="addr:city" v="Barre"/>
    <tag k="addr:housenumber" v="596"/>
    <tag k="addr:street" v="South Barre Road"/>
    <tag k="addr:state" v="VT"/>
    <tag k="ref:vcgi:esiteid" v="766075"/>
  </node>
  <node id="-3757" visible="true" lat="44.17012321457" lon="-72.507939658229">
    <!-- duplicates-in-different-towns: "596 South Barre Road, Barre, VT"  ignoring town mismatch for duplicate housenumber/street when matching to esiteid 12648: "596 South Barre Road, Barre Town, VT" -->
    <tag k="addr:city" v="Barre"/>
    <tag k="addr:housenumber" v="596"/>
    <tag k="addr:street" v="South Barre Road"/>
    <tag k="addr:state" v="VT"/>
    <tag k="ref:vcgi:esiteid" v="766076"/>
  </node>
  <node id="-3759" visible="true" lat="44.152661274653" lon="-72.491350705234">
    <!-- duplicates-in-different-towns: "604 Graniteville Road, Granitville, VT"  ignoring town mismatch for duplicate housenumber/street when matching to esiteid 766160: "604 Graniteville Road, Barre Town, VT" -->
    <tag k="addr:city" v="Granitville"/>
    <tag k="addr:housenumber" v="604"/>
    <tag k="addr:street" v="Graniteville Road"/>
    <tag k="addr:state" v="VT"/>
    <tag k="ref:vcgi:esiteid" v="766159"/>
  </node>
  <node id="-3761" visible="true" lat="44.152060017731" lon="-72.491483087258">
    <!-- duplicates-in-different-towns: "604 Graniteville Road, Granitville, VT"  ignoring town mismatch for duplicate housenumber/street when matching to esiteid 766160: "604 Graniteville Road, Barre Town, VT" -->
    <tag k="addr:city" v="Granitville"/>
    <tag k="addr:housenumber" v="604"/>
    <tag k="addr:street" v="Graniteville Road"/>
    <tag k="addr:state" v="VT"/>
    <tag k="ref:vcgi:esiteid" v="766161"/>
  </node>
  <node id="-3762" visible="true" lat="44.152292167281" lon="-72.491177120771">
    <!-- duplicates-in-different-towns: "604 Graniteville Road, Granitville, VT"  ignoring town mismatch for duplicate housenumber/street when matching to esiteid 766160: "604 Graniteville Road, Barre Town, VT" -->
    <tag k="addr:city" v="Granitville"/>
    <tag k="addr:housenumber" v="604"/>
    <tag k="addr:street" v="Graniteville Road"/>
    <tag k="addr:state" v="VT"/>
    <tag k="ref:vcgi:esiteid" v="766162"/>
  </node>
  <node id="-3816" visible="true" lat="44.166765333857" lon="-72.541195471441">
    <!-- duplicates-in-different-towns: "17 Sherman Drive, Barre, VT"  ignoring town mismatch for duplicate housenumber/street when matching to esiteid 773017: "17 Sherman Drive, , VT" -->
    <tag k="addr:city" v="Barre"/>
    <tag k="addr:housenumber" v="17"/>
    <tag k="addr:street" v="Sherman Drive"/>
    <tag k="addr:state" v="VT"/>
    <tag k="ref:vcgi:esiteid" v="773016"/>
  </node>
  <node id="-3821" visible="true" lat="44.191123673378" lon="-72.53981992698">
    <!-- duplicates-in-different-towns: "211 Airport Road, Barre, VT"  ignoring town mismatch for duplicate housenumber/street when matching to esiteid 750979: "211 Airport Road, , VT" -->
    <tag k="addr:city" v="Barre"/>
    <tag k="addr:housenumber" v="211"/>
    <tag k="addr:street" v="Airport Road"/>
    <tag k="addr:state" v="VT"/>
    <tag k="ref:vcgi:esiteid" v="773410"/>
  </node>
</osm>
