<?xml version="1.0" encoding="UTF-8"?>
<osm version="0.6" generator="JOSM" upload="false">
  <node id="-1228" visible="true" lat="44.199419463248" lon="-72.504451820383">
    <!-- offset: "248 North Main Street, Barre, VT" Significant offset - 177.1m -->
    <tag k="addr:city" v="Barre"/>
    <tag k="addr:housenumber" v="248"/>
    <tag k="addr:street" v="North Main Street"/>
    <tag k="addr:state" v="VT"/>
    <tag k="ref:vcgi:esiteid" v="9008"/>
  </node>
  <node id="-1717" visible="true" lat="44.196436078039" lon="-72.500047966398">
    <!-- offset: "39 Washington Street, Barre, VT" Significant offset - 1718m -->
    <tag k="addr:city" v="Barre"/>
    <tag k="addr:housenumber" v="39"/>
    <tag k="addr:street" v="Washington Street"/>
    <tag k="addr:state" v="VT"/>
    <tag k="ref:vcgi:esiteid" v="9564"/>
  </node>
</osm>
