<?xml version="1.0" encoding="UTF-8"?>
<osm version="0.6" generator="JOSM" upload="false">
  <node id="-122" visible="true" lat="42.931810548093" lon="-73.200015480133">
    <!-- duplicates-in-different-towns: "498 Town Line Road, Bennington, VT"  ignoring town mismatch for duplicate housenumber/street when matching to esiteid 218903: "498 Town Line Road, , VT" -->
    <tag k="addr:city" v="Bennington"/>
    <tag k="addr:housenumber" v="498"/>
    <tag k="addr:street" v="Town Line Road"/>
    <tag k="addr:state" v="VT"/>
    <tag k="ref:vcgi:esiteid" v="15983"/>
  </node>
  <node id="-942" visible="true" lat="42.89779353665" lon="-73.207799154681">
    <!-- duplicates-in-different-towns: "119 Hicks Avenue, Bennington, VT"  ignoring town mismatch for duplicate housenumber/street when matching to esiteid 772294: "119 Hicks Avenue, , VT" -->
    <tag k="addr:city" v="Bennington"/>
    <tag k="addr:housenumber" v="119"/>
    <tag k="addr:street" v="Hicks Avenue"/>
    <tag k="addr:state" v="VT"/>
    <tag k="ref:vcgi:esiteid" v="16933"/>
  </node>
  <node id="-2150" visible="true" lat="42.882277677848" lon="-73.17618248771">
    <!-- duplicates-in-different-towns: "9 Caroline Drive, Bennington, VT"  ignoring town mismatch for duplicate housenumber/street when matching to esiteid 18341: "9 Caroline Drive, , VT" -->
    <tag k="addr:city" v="Bennington"/>
    <tag k="addr:housenumber" v="9"/>
    <tag k="addr:street" v="Caroline Drive"/>
    <tag k="addr:state" v="VT"/>
    <tag k="ref:vcgi:esiteid" v="18283"/>
  </node>
  <node id="-2596" visible="true" lat="42.880082024477" lon="-73.203972395821">
    <!-- duplicates-in-different-towns: "141 Main Street, Bennington, VT"  ignoring town mismatch for duplicate housenumber/street when matching to esiteid 18602: "141 Main Street, , VT" -->
    <tag k="addr:city" v="Bennington"/>
    <tag k="addr:housenumber" v="141"/>
    <tag k="addr:street" v="Main Street"/>
    <tag k="addr:state" v="VT"/>
    <tag k="ref:vcgi:esiteid" v="18783"/>
  </node>
  <node id="-2598" visible="true" lat="42.880093690593" lon="-73.20443858174">
    <!-- duplicates-in-different-towns: "141 1/2 Main Street, Bennington, VT"  ignoring town mismatch for duplicate housenumber/street when matching to esiteid 18825: "141 1/2 Main Street, , VT" -->
    <tag k="addr:city" v="Bennington"/>
    <tag k="addr:housenumber" v="141 1/2"/>
    <tag k="addr:street" v="Main Street"/>
    <tag k="addr:state" v="VT"/>
    <tag k="ref:vcgi:esiteid" v="18786"/>
  </node>
  <node id="-2661" visible="true" lat="42.879854450137" lon="-73.193679020036">
    <!-- duplicates-in-different-towns: "106 Park Street, Bennington, VT"  ignoring town mismatch for duplicate housenumber/street when matching to esiteid 18890: "106 Park Street, , VT" -->
    <tag k="addr:city" v="Bennington"/>
    <tag k="addr:housenumber" v="106"/>
    <tag k="addr:street" v="Park Street"/>
    <tag k="addr:state" v="VT"/>
    <tag k="ref:vcgi:esiteid" v="18855"/>
  </node>
  <node id="-3443" visible="true" lat="42.876772559201" lon="-73.185357739929">
    <!-- duplicates-in-different-towns: "201 Beech Street, Bennington, VT"  ignoring town mismatch for duplicate housenumber/street when matching to esiteid 19809: "201 Beech Street, , VT" -->
    <tag k="addr:city" v="Bennington"/>
    <tag k="addr:housenumber" v="201"/>
    <tag k="addr:street" v="Beech Street"/>
    <tag k="addr:state" v="VT"/>
    <tag k="ref:vcgi:esiteid" v="19721"/>
  </node>
  <node id="-3447" visible="true" lat="42.876740011666" lon="-73.184871716593">
    <!-- duplicates-in-different-towns: "201 Beech Street, Bennington, VT"  ignoring town mismatch for duplicate housenumber/street when matching to esiteid 19809: "201 Beech Street, , VT" -->
    <tag k="addr:city" v="Bennington"/>
    <tag k="addr:housenumber" v="201"/>
    <tag k="addr:street" v="Beech Street"/>
    <tag k="addr:state" v="VT"/>
    <tag k="ref:vcgi:esiteid" v="19725"/>
  </node>
  <node id="-3496" visible="true" lat="42.87641389529" lon="-73.185310789881">
    <!-- duplicates-in-different-towns: "201 Beech Street, Bennington, VT"  ignoring town mismatch for duplicate housenumber/street when matching to esiteid 19809: "201 Beech Street, , VT" -->
    <tag k="addr:city" v="Bennington"/>
    <tag k="addr:housenumber" v="201"/>
    <tag k="addr:street" v="Beech Street"/>
    <tag k="addr:state" v="VT"/>
    <tag k="ref:vcgi:esiteid" v="19778"/>
  </node>
  <node id="-3497" visible="true" lat="42.876388076611" lon="-73.184585426633">
    <!-- duplicates-in-different-towns: "201 Beech Street, Bennington, VT"  ignoring town mismatch for duplicate housenumber/street when matching to esiteid 19809: "201 Beech Street, , VT" -->
    <tag k="addr:city" v="Bennington"/>
    <tag k="addr:housenumber" v="201"/>
    <tag k="addr:street" v="Beech Street"/>
    <tag k="addr:state" v="VT"/>
    <tag k="ref:vcgi:esiteid" v="19780"/>
  </node>
  <node id="-3782" visible="true" lat="42.874880264107" lon="-73.197029368473">
    <!-- duplicates-in-different-towns: "406 South Street, Bennington, VT"  ignoring town mismatch for duplicate housenumber/street when matching to esiteid 760314: "406 South Street, , VT" -->
    <tag k="addr:city" v="Bennington"/>
    <tag k="addr:housenumber" v="406"/>
    <tag k="addr:street" v="South Street"/>
    <tag k="addr:state" v="VT"/>
    <tag k="ref:vcgi:esiteid" v="20087"/>
  </node>
  <node id="-3977" visible="true" lat="42.873524070213" lon="-73.196304941681">
    <!-- duplicates-in-different-towns: "432 Nathaniel Court, Bennington, VT"  ignoring town mismatch for duplicate housenumber/street when matching to esiteid 20342: "432 Nathaniel Court, , VT" -->
    <tag k="addr:city" v="Bennington"/>
    <tag k="addr:housenumber" v="432"/>
    <tag k="addr:street" v="Nathaniel Court"/>
    <tag k="addr:state" v="VT"/>
    <tag k="ref:vcgi:esiteid" v="20296"/>
  </node>
  <node id="-3984" visible="true" lat="42.873456339482" lon="-73.19569975184">
    <!-- duplicates-in-different-towns: "432 Nathaniel Court, Bennington, VT"  ignoring town mismatch for duplicate housenumber/street when matching to esiteid 20342: "432 Nathaniel Court, , VT" -->
    <tag k="addr:city" v="Bennington"/>
    <tag k="addr:housenumber" v="432"/>
    <tag k="addr:street" v="Nathaniel Court"/>
    <tag k="addr:state" v="VT"/>
    <tag k="ref:vcgi:esiteid" v="20305"/>
  </node>
  <node id="-5592" visible="true" lat="42.870150466106" lon="-73.151673527315">
    <!-- duplicates-in-different-towns: "1474 Burgess Road, Bennington, VT"  ignoring town mismatch for duplicate housenumber/street when matching to esiteid 1050085: "1474 Burgess Road, Woodford, VT" -->
    <tag k="addr:city" v="Bennington"/>
    <tag k="addr:housenumber" v="1474"/>
    <tag k="addr:street" v="Burgess Road"/>
    <tag k="addr:state" v="VT"/>
    <tag k="ref:vcgi:esiteid" v="336371"/>
  </node>
  <node id="-5661" visible="true" lat="42.838639200656" lon="-73.175793075515">
    <!-- duplicates-in-different-towns: "224 Niles Road, Bennington, VT"  ignoring town mismatch for duplicate housenumber/street when matching to esiteid 192500: "224 Niles Road, , VT" -->
    <tag k="addr:city" v="Bennington"/>
    <tag k="addr:housenumber" v="224"/>
    <tag k="addr:street" v="Niles Road"/>
    <tag k="addr:state" v="VT"/>
    <tag k="ref:vcgi:esiteid" v="341543"/>
  </node>
  <node id="-5949" visible="true" lat="42.932146347209" lon="-73.224133092772">
    <!-- duplicates-in-different-towns: "720 Lake Drive, North Bennington, VT"  ignoring town mismatch for duplicate housenumber/street when matching to esiteid 766501: "720 Lake Drive, , VT" -->
    <tag k="addr:city" v="North Bennington"/>
    <tag k="addr:housenumber" v="720"/>
    <tag k="addr:street" v="Lake Drive"/>
    <tag k="addr:state" v="VT"/>
    <tag k="ref:vcgi:esiteid" v="758127"/>
  </node>
  <node id="-6049" visible="true" lat="42.895157894093" lon="-73.178261489272">
    <!-- duplicates-in-different-towns: "401 Chapel Road, Bennington, VT"  ignoring town mismatch for duplicate housenumber/street when matching to esiteid 17009: "401 Chapel Road, , VT" -->
    <tag k="addr:city" v="Bennington"/>
    <tag k="addr:housenumber" v="401"/>
    <tag k="addr:street" v="Chapel Road"/>
    <tag k="addr:state" v="VT"/>
    <tag k="ref:vcgi:esiteid" v="771874"/>
  </node>
  <node id="-6059" visible="true" lat="42.846645760481" lon="-73.172800751916">
    <!-- duplicates-in-different-towns: "1801 South Stream Road, Bennington, VT"  ignoring town mismatch for duplicate housenumber/street when matching to esiteid 655654: "1801 South Stream Road, , VT" -->
    <tag k="addr:city" v="Bennington"/>
    <tag k="addr:housenumber" v="1801"/>
    <tag k="addr:street" v="South Stream Road"/>
    <tag k="addr:state" v="VT"/>
    <tag k="ref:vcgi:esiteid" v="772635"/>
  </node>
  <node id="-6062" visible="true" lat="42.875059678768" lon="-73.187609125191">
    <!-- duplicates-in-different-towns: "174 Imperial Avenue, Bennington, VT"  ignoring town mismatch for duplicate housenumber/street when matching to esiteid 773042: "174 Imperial Avenue, , VT" -->
    <tag k="addr:city" v="Bennington"/>
    <tag k="addr:housenumber" v="174"/>
    <tag k="addr:street" v="Imperial Avenue"/>
    <tag k="addr:state" v="VT"/>
    <tag k="ref:vcgi:esiteid" v="773041"/>
  </node>
  <node id="-6063" visible="true" lat="42.875064665439" lon="-73.187348048519">
    <!-- duplicates-in-different-towns: "178 Imperial Avenue, Bennington, VT"  ignoring town mismatch for duplicate housenumber/street when matching to esiteid 773043: "178 Imperial Avenue, , VT" -->
    <tag k="addr:city" v="Bennington"/>
    <tag k="addr:housenumber" v="178"/>
    <tag k="addr:street" v="Imperial Avenue"/>
    <tag k="addr:state" v="VT"/>
    <tag k="ref:vcgi:esiteid" v="773042"/>
  </node>
  <node id="-6064" visible="true" lat="42.8750521972" lon="-73.188239100723">
    <!-- duplicates-in-different-towns: "158 Imperial Avenue, Bennington, VT"  ignoring town mismatch for duplicate housenumber/street when matching to esiteid 773044: "158 Imperial Avenue, , VT" -->
    <tag k="addr:city" v="Bennington"/>
    <tag k="addr:housenumber" v="158"/>
    <tag k="addr:street" v="Imperial Avenue"/>
    <tag k="addr:state" v="VT"/>
    <tag k="ref:vcgi:esiteid" v="773043"/>
  </node>
  <node id="-6065" visible="true" lat="42.875920020353" lon="-73.188283856552">
    <!-- duplicates-in-different-towns: "110 Lafayette Street, Bennington, VT"  ignoring town mismatch for duplicate housenumber/street when matching to esiteid 773045: "110 Lafayette Street, , VT" -->
    <tag k="addr:city" v="Bennington"/>
    <tag k="addr:housenumber" v="110"/>
    <tag k="addr:street" v="Lafayette Street"/>
    <tag k="addr:state" v="VT"/>
    <tag k="ref:vcgi:esiteid" v="773044"/>
  </node>
  <node id="-6068" visible="true" lat="42.875620772389" lon="-73.187687110172">
    <!-- duplicates-in-different-towns: "41 Wentworth Way, Bennington, VT"  ignoring town mismatch for duplicate housenumber/street when matching to esiteid 773048: "41 Wentworth Way, , VT" -->
    <tag k="addr:city" v="Bennington"/>
    <tag k="addr:housenumber" v="41"/>
    <tag k="addr:street" v="Wentworth Way"/>
    <tag k="addr:state" v="VT"/>
    <tag k="ref:vcgi:esiteid" v="773047"/>
  </node>
</osm>
