<?xml version="1.0" encoding="UTF-8"?>
<osm version="0.6" generator="JOSM" upload="false">
  <node id="-100" visible="true" lat="43.761344419678" lon="-73.265355959182">
    <!-- duplicates-in-different-towns: "26 North Shore Lane, Orwell, VT"  ignoring town mismatch for duplicate housenumber/street when matching to esiteid 342307: "26 North Shore Lane, , VT" -->
    <tag k="addr:city" v="Orwell"/>
    <tag k="addr:housenumber" v="26"/>
    <tag k="addr:street" v="North Shore Lane"/>
    <tag k="addr:state" v="VT"/>
    <tag k="ref:vcgi:esiteid" v="21438"/>
  </node>
  <node id="-594" visible="true" lat="43.761327597291" lon="-73.265130173476">
    <!-- duplicates-in-different-towns: "20 North Shore Lane, Orwell, VT"  ignoring town mismatch for duplicate housenumber/street when matching to esiteid 342306: "20 North Shore Lane, , VT" -->
    <tag k="addr:city" v="Orwell"/>
    <tag k="addr:housenumber" v="20"/>
    <tag k="addr:street" v="North Shore Lane"/>
    <tag k="addr:state" v="VT"/>
    <tag k="ref:vcgi:esiteid" v="21950"/>
  </node>
  <node id="-701" visible="true" lat="43.761337128075" lon="-73.264537705875">
    <!-- duplicates-in-different-towns: "2386 Sunset Lake Road, Orwell, VT"  ignoring town mismatch for duplicate housenumber/street when matching to esiteid 184719: "2386 Sunset Lake Road, , VT" -->
    <tag k="addr:city" v="Orwell"/>
    <tag k="addr:housenumber" v="2386"/>
    <tag k="addr:street" v="Sunset Lake Road"/>
    <tag k="addr:state" v="VT"/>
    <tag k="ref:vcgi:esiteid" v="365568"/>
  </node>
</osm>
