<?xml version="1.0" encoding="UTF-8"?>
<osm version="0.6" generator="JOSM" upload="false">
  <node id="-996" visible="true" lat="44.198521606479" lon="-72.63279476355">
    <!-- offset: "45 School Street, Northfield, VT" Significant offset - 5682.5m -->
    <tag k="addr:city" v="Northfield"/>
    <tag k="addr:housenumber" v="45"/>
    <tag k="addr:street" v="School Street"/>
    <tag k="addr:state" v="VT"/>
    <tag k="ref:vcgi:esiteid" v="23658"/>
  </node>
  <node id="-1046" visible="true" lat="44.192765610066" lon="-72.656991286674">
    <!-- offset: "762 West Hill Road, Northfield, VT" Significant offset - 4614.1m -->
    <tag k="addr:city" v="Northfield"/>
    <tag k="addr:housenumber" v="762"/>
    <tag k="addr:street" v="West Hill Road"/>
    <tag k="addr:state" v="VT"/>
    <tag k="ref:vcgi:esiteid" v="23708"/>
  </node>
  <node id="-1320" visible="true" lat="44.202750066667" lon="-72.66283100192">
    <!-- offset: "1605 West Hill Road, Northfield, VT" Significant offset - 6587.6m -->
    <tag k="addr:city" v="Northfield"/>
    <tag k="addr:housenumber" v="1605"/>
    <tag k="addr:street" v="West Hill Road"/>
    <tag k="addr:state" v="VT"/>
    <tag k="ref:vcgi:esiteid" v="23996"/>
  </node>
  <node id="-1404" visible="true" lat="44.246835372753" lon="-72.590124740589">
    <!-- offset: "6598 Vermont Route 12, Montpelier, VT" Significant offset - 273.8m -->
    <tag k="addr:city" v="Montpelier"/>
    <tag k="addr:housenumber" v="6598"/>
    <tag k="addr:street" v="Vermont Route 12"/>
    <tag k="addr:state" v="VT"/>
    <tag k="ref:vcgi:esiteid" v="341856"/>
  </node>
</osm>
