<?xml version="1.0" encoding="UTF-8"?>
<osm version="0.6" generator="JOSM" upload="false">
  <node id="-516" visible="true" lat="44.42210653309" lon="-72.852455597322">
    <tag k="addr:city" v="Richmond"/>
    <tag k="addr:housenumber" v="96"/>
    <tag k="addr:street" v="Sports Club Drive"/>
    <tag k="addr:state" v="VT"/>
    <tag k="ref:vcgi:esiteid" v="25643"/>
  </node>
  <node id="-559" visible="true" lat="44.343308102779" lon="-72.942261746859">
    <tag k="addr:city" v="Huntington"/>
    <tag k="addr:housenumber" v="1925"/>
    <tag k="addr:street" v="Happy Hollow Road"/>
    <tag k="addr:state" v="VT"/>
    <tag k="ref:vcgi:esiteid" v="131564"/>
  </node>
  <node id="-574" visible="true" lat="44.343752869637" lon="-72.944103732582">
    <tag k="addr:city" v="Huntington"/>
    <tag k="addr:housenumber" v="1757"/>
    <tag k="addr:street" v="Happy Hollow Road"/>
    <tag k="addr:state" v="VT"/>
    <tag k="ref:vcgi:esiteid" v="332493"/>
  </node>
</osm>
