<?xml version="1.0" encoding="UTF-8"?>
<osm version="0.6" generator="JOSM" upload="false">
  <node id="-296" visible="true" lat="43.98030167493" lon="-72.114267671604">
    <!-- multiple: "176 Waits River Road, Bradford, VT" Multiple exact matches in OSM. -->
    <tag k="addr:city" v="Bradford"/>
    <tag k="addr:housenumber" v="176"/>
    <tag k="addr:street" v="Waits River Road"/>
    <tag k="addr:state" v="VT"/>
    <tag k="ref:vcgi:esiteid" v="25894"/>
  </node>
  <node id="-477" visible="true" lat="43.977949558522" lon="-72.115709787972">
    <!-- multiple: "156 Industrial Drive, Bradford, VT" Multiple exact matches in OSM. -->
    <tag k="addr:city" v="Bradford"/>
    <tag k="addr:housenumber" v="156"/>
    <tag k="addr:street" v="Industrial Drive"/>
    <tag k="addr:state" v="VT"/>
    <tag k="ref:vcgi:esiteid" v="26109"/>
  </node>
  <node id="-577" visible="true" lat="43.980867862376" lon="-72.116577415676">
    <!-- multiple: "286 Waits River Road, Bradford, VT" Multiple exact matches in OSM. -->
    <tag k="addr:city" v="Bradford"/>
    <tag k="addr:housenumber" v="286"/>
    <tag k="addr:street" v="Waits River Road"/>
    <tag k="addr:state" v="VT"/>
    <tag k="ref:vcgi:esiteid" v="26241"/>
  </node>
  <node id="-1397" visible="true" lat="43.989038121063" lon="-72.123121750084">
    <!-- multiple: "23 Carson Lane, Bradford, VT" Multiple exact matches in OSM. -->
    <tag k="addr:city" v="Bradford"/>
    <tag k="addr:housenumber" v="23"/>
    <tag k="addr:street" v="Carson Lane"/>
    <tag k="addr:state" v="VT"/>
    <tag k="ref:vcgi:esiteid" v="345587"/>
  </node>
</osm>
