<?xml version="1.0" encoding="UTF-8"?>
<osm version="0.6" generator="JOSM" upload="false">
  <node id="-131" visible="true" lat="44.033518645712" lon="-72.186393504293">
    <tag k="addr:city" v="Bradford"/>
    <tag k="addr:housenumber" v="18"/>
    <tag k="addr:street" v="Hatch Lane"/>
    <tag k="addr:state" v="VT"/>
    <tag k="ref:vcgi:esiteid" v="25725"/>
  </node>
  <node id="-132" visible="true" lat="44.033025150732" lon="-72.186089629021">
    <tag k="addr:city" v="Bradford"/>
    <tag k="addr:housenumber" v="381"/>
    <tag k="addr:street" v="Wrights Mountain Road"/>
    <tag k="addr:state" v="VT"/>
    <tag k="ref:vcgi:esiteid" v="25726"/>
  </node>
  <node id="-134" visible="true" lat="44.03146494006" lon="-72.186318511584">
    <tag k="addr:city" v="Bradford"/>
    <tag k="addr:housenumber" v="283"/>
    <tag k="addr:street" v="Wrights Mountain Road"/>
    <tag k="addr:state" v="VT"/>
    <tag k="ref:vcgi:esiteid" v="25729"/>
  </node>
  <node id="-135" visible="true" lat="44.031110171607" lon="-72.186143035627">
    <tag k="addr:city" v="Bradford"/>
    <tag k="addr:housenumber" v="285"/>
    <tag k="addr:street" v="Wrights Mountain Road"/>
    <tag k="addr:state" v="VT"/>
    <tag k="ref:vcgi:esiteid" v="25730"/>
  </node>
  <node id="-136" visible="true" lat="44.0307318942" lon="-72.192649477269">
    <tag k="addr:city" v="Bradford"/>
    <tag k="addr:housenumber" v="56"/>
    <tag k="addr:street" v="Chelsea Road"/>
    <tag k="addr:state" v="VT"/>
    <tag k="ref:vcgi:esiteid" v="25731"/>
  </node>
  <node id="-137" visible="true" lat="44.029173437232" lon="-72.185334685562">
    <tag k="addr:city" v="Bradford"/>
    <tag k="addr:housenumber" v="110"/>
    <tag k="addr:street" v="Wrights Mountain Road"/>
    <tag k="addr:state" v="VT"/>
    <tag k="ref:vcgi:esiteid" v="25732"/>
  </node>
  <node id="-138" visible="true" lat="44.02898157035" lon="-72.194459077922">
    <tag k="addr:city" v="Bradford"/>
    <tag k="addr:housenumber" v="237"/>
    <tag k="addr:street" v="Chelsea Road"/>
    <tag k="addr:state" v="VT"/>
    <tag k="ref:vcgi:esiteid" v="25733"/>
  </node>
  <node id="-139" visible="true" lat="44.028184297801" lon="-72.194970247721">
    <tag k="addr:city" v="Bradford"/>
    <tag k="addr:housenumber" v="241"/>
    <tag k="addr:street" v="Chelsea Road"/>
    <tag k="addr:state" v="VT"/>
    <tag k="ref:vcgi:esiteid" v="25734"/>
  </node>
  <node id="-140" visible="true" lat="44.027221380262" lon="-72.197604653627">
    <tag k="addr:city" v="Bradford"/>
    <tag k="addr:housenumber" v="423"/>
    <tag k="addr:street" v="Chelsea Road"/>
    <tag k="addr:state" v="VT"/>
    <tag k="ref:vcgi:esiteid" v="25735"/>
  </node>
  <node id="-144" visible="true" lat="44.025799221091" lon="-72.195980967887">
    <tag k="addr:city" v="Bradford"/>
    <tag k="addr:housenumber" v="1795"/>
    <tag k="addr:street" v="Hackett Hill Road"/>
    <tag k="addr:state" v="VT"/>
    <tag k="ref:vcgi:esiteid" v="25739"/>
  </node>
  <node id="-146" visible="true" lat="44.025097482736" lon="-72.196451130543">
    <tag k="addr:city" v="Bradford"/>
    <tag k="addr:housenumber" v="1701"/>
    <tag k="addr:street" v="Hackett Hill Road"/>
    <tag k="addr:state" v="VT"/>
    <tag k="ref:vcgi:esiteid" v="25741"/>
  </node>
  <node id="-149" visible="true" lat="44.022469880083" lon="-72.20111191088">
    <tag k="addr:city" v="Bradford"/>
    <tag k="addr:housenumber" v="849"/>
    <tag k="addr:street" v="Chelsea Road"/>
    <tag k="addr:state" v="VT"/>
    <tag k="ref:vcgi:esiteid" v="25744"/>
  </node>
  <node id="-151" visible="true" lat="44.021523835986" lon="-72.208008885298">
    <tag k="addr:city" v="Bradford"/>
    <tag k="addr:housenumber" v="124"/>
    <tag k="addr:street" v="Durant Road"/>
    <tag k="addr:state" v="VT"/>
    <tag k="ref:vcgi:esiteid" v="25746"/>
  </node>
  <node id="-153" visible="true" lat="44.020905853812" lon="-72.213608863368">
    <tag k="addr:city" v="Bradford"/>
    <tag k="addr:housenumber" v="1688"/>
    <tag k="addr:street" v="Chelsea Road"/>
    <tag k="addr:state" v="VT"/>
    <tag k="ref:vcgi:esiteid" v="25748"/>
  </node>
  <node id="-156" visible="true" lat="44.019872071658" lon="-72.212037207002">
    <tag k="addr:city" v="Bradford"/>
    <tag k="addr:housenumber" v="1613"/>
    <tag k="addr:street" v="Chelsea Road"/>
    <tag k="addr:state" v="VT"/>
    <tag k="ref:vcgi:esiteid" v="25751"/>
  </node>
  <node id="-157" visible="true" lat="44.019139649109" lon="-72.209488989324">
    <tag k="addr:city" v="Bradford"/>
    <tag k="addr:housenumber" v="1431"/>
    <tag k="addr:street" v="Chelsea Road"/>
    <tag k="addr:state" v="VT"/>
    <tag k="ref:vcgi:esiteid" v="25752"/>
  </node>
  <node id="-175" visible="true" lat="44.003934263356" lon="-72.201027985487">
    <tag k="addr:city" v="Bradford"/>
    <tag k="addr:housenumber" v="3765"/>
    <tag k="addr:street" v="South Road"/>
    <tag k="addr:state" v="VT"/>
    <tag k="ref:vcgi:esiteid" v="25770"/>
  </node>
  <node id="-239" visible="true" lat="43.987762625246" lon="-72.213607688134">
    <tag k="addr:city" v="Bradford"/>
    <tag k="addr:housenumber" v="310"/>
    <tag k="addr:street" v="Deerhaven Road"/>
    <tag k="addr:state" v="VT"/>
    <tag k="ref:vcgi:esiteid" v="25837"/>
  </node>
  <node id="-259" visible="true" lat="43.985787747763" lon="-72.168130025625">
    <tag k="addr:city" v="Bradford"/>
    <tag k="addr:housenumber" v="1388"/>
    <tag k="addr:street" v="South Road"/>
    <tag k="addr:state" v="VT"/>
    <tag k="ref:vcgi:esiteid" v="25857"/>
  </node>
  <node id="-294" visible="true" lat="43.980498502313" lon="-72.115078198181">
    <tag k="addr:city" v="Bradford"/>
    <tag k="addr:housenumber" v="194"/>
    <tag k="addr:street" v="Waits River Road"/>
    <tag k="addr:state" v="VT"/>
    <tag k="ref:vcgi:esiteid" v="25892"/>
  </node>
  <node id="-297" visible="true" lat="43.979927021579" lon="-72.182260433861">
    <tag k="addr:city" v="Bradford"/>
    <tag k="addr:housenumber" v="2384"/>
    <tag k="addr:street" v="Rowell Brook Road"/>
    <tag k="addr:state" v="VT"/>
    <tag k="ref:vcgi:esiteid" v="25895"/>
  </node>
  <node id="-298" visible="true" lat="43.979845942944" lon="-72.18250658451">
    <tag k="addr:city" v="Bradford"/>
    <tag k="addr:housenumber" v="2346"/>
    <tag k="addr:street" v="Rowell Brook Road"/>
    <tag k="addr:state" v="VT"/>
    <tag k="ref:vcgi:esiteid" v="25896"/>
  </node>
  <node id="-299" visible="true" lat="43.979542150694" lon="-72.113926597657">
    <tag k="addr:city" v="Bradford"/>
    <tag k="addr:housenumber" v="120"/>
    <tag k="addr:street" v="Waits River Road"/>
    <tag k="addr:state" v="VT"/>
    <tag k="ref:vcgi:esiteid" v="25897"/>
  </node>
  <node id="-300" visible="true" lat="43.979294920995" lon="-72.184472369502">
    <tag k="addr:city" v="Bradford"/>
    <tag k="addr:housenumber" v="2477"/>
    <tag k="addr:street" v="Rowell Brook Road"/>
    <tag k="addr:state" v="VT"/>
    <tag k="ref:vcgi:esiteid" v="25898"/>
  </node>
  <node id="-301" visible="true" lat="43.9788452998" lon="-72.181840748015">
    <tag k="addr:city" v="Bradford"/>
    <tag k="addr:housenumber" v="2361"/>
    <tag k="addr:street" v="Rowell Brook Road"/>
    <tag k="addr:state" v="VT"/>
    <tag k="ref:vcgi:esiteid" v="25899"/>
  </node>
  <node id="-302" visible="true" lat="43.978750105668" lon="-72.160754656826">
    <tag k="addr:city" v="Bradford"/>
    <tag k="addr:housenumber" v="405"/>
    <tag k="addr:street" v="Cross Road"/>
    <tag k="addr:state" v="VT"/>
    <tag k="ref:vcgi:esiteid" v="25900"/>
  </node>
  <node id="-303" visible="true" lat="43.977921840303" lon="-72.160500627791">
    <tag k="addr:city" v="Bradford"/>
    <tag k="addr:housenumber" v="447"/>
    <tag k="addr:street" v="Cross Road"/>
    <tag k="addr:state" v="VT"/>
    <tag k="ref:vcgi:esiteid" v="25901"/>
  </node>
  <node id="-304" visible="true" lat="43.97745167354" lon="-72.165423555037">
    <tag k="addr:city" v="Bradford"/>
    <tag k="addr:housenumber" v="1486"/>
    <tag k="addr:street" v="Rowell Brook Road"/>
    <tag k="addr:state" v="VT"/>
    <tag k="ref:vcgi:esiteid" v="25902"/>
  </node>
  <node id="-306" visible="true" lat="43.977236971759" lon="-72.165937703844">
    <tag k="addr:city" v="Bradford"/>
    <tag k="addr:housenumber" v="1477"/>
    <tag k="addr:street" v="Rowell Brook Road"/>
    <tag k="addr:state" v="VT"/>
    <tag k="ref:vcgi:esiteid" v="25904"/>
  </node>
  <node id="-307" visible="true" lat="43.976918409755" lon="-72.158410997005">
    <tag k="addr:city" v="Bradford"/>
    <tag k="addr:housenumber" v="1018"/>
    <tag k="addr:street" v="Rowell Brook Road"/>
    <tag k="addr:state" v="VT"/>
    <tag k="ref:vcgi:esiteid" v="25905"/>
  </node>
  <node id="-308" visible="true" lat="43.976098414568" lon="-72.163201434976">
    <tag k="addr:city" v="Bradford"/>
    <tag k="addr:housenumber" v="1346"/>
    <tag k="addr:street" v="Rowell Brook Road"/>
    <tag k="addr:state" v="VT"/>
    <tag k="ref:vcgi:esiteid" v="25906"/>
  </node>
  <node id="-309" visible="true" lat="43.975704093267" lon="-72.162528518616">
    <tag k="addr:city" v="Bradford"/>
    <tag k="addr:housenumber" v="1282"/>
    <tag k="addr:street" v="Rowell Brook Road"/>
    <tag k="addr:state" v="VT"/>
    <tag k="ref:vcgi:esiteid" v="25907"/>
  </node>
  <node id="-310" visible="true" lat="43.97580934107" lon="-72.162078278708">
    <tag k="addr:city" v="Bradford"/>
    <tag k="addr:housenumber" v="1234"/>
    <tag k="addr:street" v="Rowell Brook Road"/>
    <tag k="addr:state" v="VT"/>
    <tag k="ref:vcgi:esiteid" v="25908"/>
  </node>
  <node id="-311" visible="true" lat="43.9756330203" lon="-72.159905533644">
    <tag k="addr:city" v="Bradford"/>
    <tag k="addr:housenumber" v="1110"/>
    <tag k="addr:street" v="Rowell Brook Road"/>
    <tag k="addr:state" v="VT"/>
    <tag k="ref:vcgi:esiteid" v="25909"/>
  </node>
  <node id="-312" visible="true" lat="43.975335474229" lon="-72.160218340528">
    <tag k="addr:city" v="Bradford"/>
    <tag k="addr:housenumber" v="1154"/>
    <tag k="addr:street" v="Rowell Brook Road"/>
    <tag k="addr:state" v="VT"/>
    <tag k="ref:vcgi:esiteid" v="25910"/>
  </node>
  <node id="-313" visible="true" lat="43.974942121139" lon="-72.162982952208">
    <tag k="addr:city" v="Bradford"/>
    <tag k="addr:housenumber" v="1291"/>
    <tag k="addr:street" v="Rowell Brook Road"/>
    <tag k="addr:state" v="VT"/>
    <tag k="ref:vcgi:esiteid" v="25911"/>
  </node>
  <node id="-314" visible="true" lat="43.97503439974" lon="-72.159964685005">
    <tag k="addr:city" v="Bradford"/>
    <tag k="addr:housenumber" v="1145"/>
    <tag k="addr:street" v="Rowell Brook Road"/>
    <tag k="addr:state" v="VT"/>
    <tag k="ref:vcgi:esiteid" v="25912"/>
  </node>
  <node id="-315" visible="true" lat="43.974885568335" lon="-72.160547284445">
    <tag k="addr:city" v="Bradford"/>
    <tag k="addr:housenumber" v="1175"/>
    <tag k="addr:street" v="Rowell Brook Road"/>
    <tag k="addr:state" v="VT"/>
    <tag k="ref:vcgi:esiteid" v="25913"/>
  </node>
  <node id="-316" visible="true" lat="43.974717492882" lon="-72.161683183692">
    <tag k="addr:city" v="Bradford"/>
    <tag k="addr:housenumber" v="1231"/>
    <tag k="addr:street" v="Rowell Brook Road"/>
    <tag k="addr:state" v="VT"/>
    <tag k="ref:vcgi:esiteid" v="25914"/>
  </node>
  <node id="-317" visible="true" lat="43.97333944932" lon="-72.16049361702">
    <tag k="addr:city" v="Bradford"/>
    <tag k="addr:housenumber" v="113"/>
    <tag k="addr:street" v="Brushwood Road"/>
    <tag k="addr:state" v="VT"/>
    <tag k="ref:vcgi:esiteid" v="25915"/>
  </node>
  <node id="-318" visible="true" lat="43.973248274805" lon="-72.161657907679">
    <tag k="addr:city" v="Bradford"/>
    <tag k="addr:housenumber" v="130"/>
    <tag k="addr:street" v="Brushwood Road"/>
    <tag k="addr:state" v="VT"/>
    <tag k="ref:vcgi:esiteid" v="25916"/>
  </node>
  <node id="-319" visible="true" lat="43.97309841702" lon="-72.161140145458">
    <tag k="addr:city" v="Bradford"/>
    <tag k="addr:housenumber" v="141"/>
    <tag k="addr:street" v="Brushwood Road"/>
    <tag k="addr:state" v="VT"/>
    <tag k="ref:vcgi:esiteid" v="25917"/>
  </node>
  <node id="-325" visible="true" lat="44.05374361939" lon="-72.164630972303">
    <tag k="addr:city" v="Bradford"/>
    <tag k="addr:housenumber" v="2445"/>
    <tag k="addr:street" v="Wrights Mountain Road"/>
    <tag k="addr:state" v="VT"/>
    <tag k="ref:vcgi:esiteid" v="25923"/>
  </node>
  <node id="-330" visible="true" lat="44.026187269578" lon="-72.195742619918">
    <tag k="addr:city" v="Bradford"/>
    <tag k="addr:housenumber" v="1803"/>
    <tag k="addr:street" v="Hackett Hill Road"/>
    <tag k="addr:state" v="VT"/>
    <tag k="ref:vcgi:esiteid" v="25928"/>
  </node>
  <node id="-331" visible="true" lat="44.026417067947" lon="-72.195653492686">
    <tag k="addr:city" v="Bradford"/>
    <tag k="addr:housenumber" v="1813"/>
    <tag k="addr:street" v="Hackett Hill Road"/>
    <tag k="addr:state" v="VT"/>
    <tag k="ref:vcgi:esiteid" v="25929"/>
  </node>
  <node id="-332" visible="true" lat="44.029250439243" lon="-72.192144248853">
    <tag k="addr:city" v="Bradford"/>
    <tag k="addr:housenumber" v="2064"/>
    <tag k="addr:street" v="Hackett Hill Road"/>
    <tag k="addr:state" v="VT"/>
    <tag k="ref:vcgi:esiteid" v="25930"/>
  </node>
  <node id="-346" visible="true" lat="44.049420987545" lon="-72.150067540736">
    <tag k="addr:city" v="Bradford"/>
    <tag k="addr:housenumber" v="3316"/>
    <tag k="addr:street" v="Wrights Mountain Road"/>
    <tag k="addr:state" v="VT"/>
    <tag k="ref:vcgi:esiteid" v="25945"/>
  </node>
  <node id="-350" visible="true" lat="44.03237586386" lon="-72.186193219989">
    <tag k="addr:city" v="Bradford"/>
    <tag k="addr:housenumber" v="311"/>
    <tag k="addr:street" v="Wrights Mountain Road"/>
    <tag k="addr:state" v="VT"/>
    <tag k="ref:vcgi:esiteid" v="25949"/>
  </node>
  <node id="-366" visible="true" lat="43.980049912213" lon="-72.178747750674">
    <tag k="addr:city" v="Bradford"/>
    <tag k="addr:housenumber" v="2160"/>
    <tag k="addr:street" v="Rowell Brook Road"/>
    <tag k="addr:state" v="VT"/>
    <tag k="ref:vcgi:esiteid" v="25965"/>
  </node>
  <node id="-370" visible="true" lat="43.985687580922" lon="-72.12015626048">
    <tag k="addr:city" v="Bradford"/>
    <tag k="addr:housenumber" v="106"/>
    <tag k="addr:street" v="Garden Lane"/>
    <tag k="addr:state" v="VT"/>
    <tag k="ref:vcgi:esiteid" v="25969"/>
  </node>
  <node id="-372" visible="true" lat="43.975605659736" lon="-72.118790182568">
    <tag k="addr:city" v="Bradford"/>
    <tag k="addr:housenumber" v="1286"/>
    <tag k="addr:street" v="Lower Plain"/>
    <tag k="addr:state" v="VT"/>
    <tag k="ref:vcgi:esiteid" v="25971"/>
  </node>
  <node id="-389" visible="true" lat="43.994378188966" lon="-72.128389865076">
    <tag k="addr:city" v="Bradford"/>
    <tag k="addr:housenumber" v="155"/>
    <tag k="addr:street" v="Main Street"/>
    <tag k="addr:state" v="VT"/>
    <tag k="ref:vcgi:esiteid" v="25991"/>
  </node>
  <node id="-391" visible="true" lat="43.994411273149" lon="-72.128389657374">
    <tag k="addr:city" v="Bradford"/>
    <tag k="addr:housenumber" v="157"/>
    <tag k="addr:street" v="Main Street"/>
    <tag k="addr:state" v="VT"/>
    <tag k="ref:vcgi:esiteid" v="25993"/>
  </node>
  <node id="-394" visible="true" lat="43.994389890882" lon="-72.127816291681">
    <tag k="addr:city" v="Bradford"/>
    <tag k="addr:housenumber" v="164"/>
    <tag k="addr:street" v="Main Street"/>
    <tag k="addr:state" v="VT"/>
    <tag k="ref:vcgi:esiteid" v="25996"/>
  </node>
  <node id="-397" visible="true" lat="43.994614959718" lon="-72.127717109932">
    <tag k="addr:city" v="Bradford"/>
    <tag k="addr:housenumber" v="174"/>
    <tag k="addr:street" v="Main Street"/>
    <tag k="addr:state" v="VT"/>
    <tag k="ref:vcgi:esiteid" v="25999"/>
  </node>
  <node id="-402" visible="true" lat="43.989066601527" lon="-72.130743801897">
    <tag k="addr:city" v="Bradford"/>
    <tag k="addr:housenumber" v="130"/>
    <tag k="addr:street" v="Mill Street"/>
    <tag k="addr:state" v="VT"/>
    <tag k="ref:vcgi:esiteid" v="26004"/>
  </node>
  <node id="-403" visible="true" lat="43.988806426333" lon="-72.130972310304">
    <tag k="addr:city" v="Bradford"/>
    <tag k="addr:housenumber" v="146"/>
    <tag k="addr:street" v="Mill Street"/>
    <tag k="addr:state" v="VT"/>
    <tag k="ref:vcgi:esiteid" v="26005"/>
  </node>
  <node id="-406" visible="true" lat="43.984613374514" lon="-72.121738580524">
    <tag k="addr:city" v="Bradford"/>
    <tag k="addr:housenumber" v="601"/>
    <tag k="addr:street" v="Lower Plain"/>
    <tag k="addr:state" v="VT"/>
    <tag k="ref:vcgi:esiteid" v="26009"/>
  </node>
  <node id="-412" visible="true" lat="43.981063865591" lon="-72.116420594329">
    <tag k="addr:city" v="Bradford"/>
    <tag k="addr:housenumber" v="224"/>
    <tag k="addr:street" v="Waits River Road"/>
    <tag k="addr:state" v="VT"/>
    <tag k="ref:vcgi:esiteid" v="26015"/>
  </node>
  <node id="-416" visible="true" lat="43.984659422872" lon="-72.121372927572">
    <tag k="addr:city" v="Bradford"/>
    <tag k="addr:housenumber" v="611"/>
    <tag k="addr:street" v="Lower Plain"/>
    <tag k="addr:state" v="VT"/>
    <tag k="ref:vcgi:esiteid" v="26019"/>
  </node>
  <node id="-422" visible="true" lat="43.979619378458" lon="-72.17680464987">
    <tag k="addr:city" v="Bradford"/>
    <tag k="addr:housenumber" v="780"/>
    <tag k="addr:street" v="Underwood Road"/>
    <tag k="addr:state" v="VT"/>
    <tag k="ref:vcgi:esiteid" v="26025"/>
  </node>
  <node id="-437" visible="true" lat="43.981388691119" lon="-72.117642456612">
    <tag k="addr:city" v="Bradford"/>
    <tag k="addr:housenumber" v="27"/>
    <tag k="addr:street" v="Whistle Stop Way"/>
    <tag k="addr:state" v="VT"/>
    <tag k="ref:vcgi:esiteid" v="26041"/>
  </node>
  <node id="-448" visible="true" lat="44.024574628589" lon="-72.197936947365">
    <tag k="addr:city" v="Bradford"/>
    <tag k="addr:housenumber" v="1671"/>
    <tag k="addr:street" v="Hackett Hill Road"/>
    <tag k="addr:state" v="VT"/>
    <tag k="ref:vcgi:esiteid" v="26052"/>
  </node>
  <node id="-451" visible="true" lat="43.978916249014" lon="-72.181310489199">
    <tag k="addr:city" v="Bradford"/>
    <tag k="addr:housenumber" v="2287"/>
    <tag k="addr:street" v="Rowell Brook Road"/>
    <tag k="addr:state" v="VT"/>
    <tag k="ref:vcgi:esiteid" v="26077"/>
  </node>
  <node id="-453" visible="true" lat="43.973992701468" lon="-72.161164385462">
    <tag k="addr:city" v="Bradford"/>
    <tag k="addr:housenumber" v="81"/>
    <tag k="addr:street" v="Brushwood Road"/>
    <tag k="addr:state" v="VT"/>
    <tag k="ref:vcgi:esiteid" v="26080"/>
  </node>
  <node id="-454" visible="true" lat="43.977338191147" lon="-72.160531145007">
    <tag k="addr:city" v="Bradford"/>
    <tag k="addr:housenumber" v="487"/>
    <tag k="addr:street" v="Cross Road"/>
    <tag k="addr:state" v="VT"/>
    <tag k="ref:vcgi:esiteid" v="26082"/>
  </node>
  <node id="-457" visible="true" lat="43.979867690006" lon="-72.116144179054">
    <tag k="addr:city" v="Bradford"/>
    <tag k="addr:housenumber" v="267"/>
    <tag k="addr:street" v="Waits River Road"/>
    <tag k="addr:state" v="VT"/>
    <tag k="ref:vcgi:esiteid" v="26089"/>
  </node>
  <node id="-469" visible="true" lat="43.988080382378" lon="-72.12906751309">
    <tag k="addr:city" v="Bradford"/>
    <tag k="addr:housenumber" v="28"/>
    <tag k="addr:street" v="Falls View Drive"/>
    <tag k="addr:state" v="VT"/>
    <tag k="ref:vcgi:esiteid" v="26101"/>
  </node>
  <node id="-470" visible="true" lat="43.982152121189" lon="-72.123176605884">
    <tag k="addr:city" v="Bradford"/>
    <tag k="addr:housenumber" v="632"/>
    <tag k="addr:street" v="Waits River Road"/>
    <tag k="addr:state" v="VT"/>
    <tag k="ref:vcgi:esiteid" v="26102"/>
  </node>
  <node id="-471" visible="true" lat="43.982029289597" lon="-72.124923844509">
    <tag k="addr:city" v="Bradford"/>
    <tag k="addr:housenumber" v="39"/>
    <tag k="addr:street" v="Saddleback Road"/>
    <tag k="addr:state" v="VT"/>
    <tag k="ref:vcgi:esiteid" v="26103"/>
  </node>
  <node id="-474" visible="true" lat="43.989919066362" lon="-72.131920907746">
    <tag k="addr:city" v="Bradford"/>
    <tag k="addr:housenumber" v="243"/>
    <tag k="addr:street" v="South Pleasant Street"/>
    <tag k="addr:state" v="VT"/>
    <tag k="ref:vcgi:esiteid" v="26106"/>
  </node>
  <node id="-475" visible="true" lat="43.98848473945" lon="-72.134560678308">
    <tag k="addr:city" v="Bradford"/>
    <tag k="addr:housenumber" v="385"/>
    <tag k="addr:street" v="High Street"/>
    <tag k="addr:state" v="VT"/>
    <tag k="ref:vcgi:esiteid" v="26107"/>
  </node>
  <node id="-478" visible="true" lat="43.976241158376" lon="-72.11780596834">
    <tag k="addr:city" v="Bradford"/>
    <tag k="addr:housenumber" v="1233"/>
    <tag k="addr:street" v="Lower Plain"/>
    <tag k="addr:state" v="VT"/>
    <tag k="ref:vcgi:esiteid" v="26110"/>
  </node>
  <node id="-543" visible="true" lat="43.979940130077" lon="-72.115567435762">
    <tag k="addr:city" v="Bradford"/>
    <tag k="addr:housenumber" v="241"/>
    <tag k="addr:street" v="Waits River Road"/>
    <tag k="addr:state" v="VT"/>
    <tag k="ref:vcgi:esiteid" v="26206"/>
  </node>
  <node id="-550" visible="true" lat="43.992686125846" lon="-72.12949650844">
    <tag k="addr:city" v="Bradford"/>
    <tag k="addr:housenumber" v="13"/>
    <tag k="addr:street" v="Goshen Road"/>
    <tag k="addr:state" v="VT"/>
    <tag k="ref:vcgi:esiteid" v="26213"/>
  </node>
  <node id="-557" visible="true" lat="43.995629668202" lon="-72.12764081661">
    <tag k="addr:city" v="Bradford"/>
    <tag k="addr:housenumber" v="22"/>
    <tag k="addr:street" v="North Main Street"/>
    <tag k="addr:state" v="VT"/>
    <tag k="ref:vcgi:esiteid" v="26221"/>
  </node>
  <node id="-563" visible="true" lat="43.982187007277" lon="-72.122725264868">
    <tag k="addr:city" v="Bradford"/>
    <tag k="addr:housenumber" v="610"/>
    <tag k="addr:street" v="Waits River Road"/>
    <tag k="addr:state" v="VT"/>
    <tag k="ref:vcgi:esiteid" v="26227"/>
  </node>
  <node id="-574" visible="true" lat="43.98978936641" lon="-72.133729075167">
    <tag k="addr:city" v="Bradford"/>
    <tag k="addr:housenumber" v="285"/>
    <tag k="addr:street" v="High Street"/>
    <tag k="addr:state" v="VT"/>
    <tag k="ref:vcgi:esiteid" v="26238"/>
  </node>
  <node id="-576" visible="true" lat="43.981740777698" lon="-72.118875041796">
    <tag k="addr:city" v="Bradford"/>
    <tag k="addr:housenumber" v="418"/>
    <tag k="addr:street" v="Waits River Road"/>
    <tag k="addr:state" v="VT"/>
    <tag k="ref:vcgi:esiteid" v="26240"/>
  </node>
  <node id="-578" visible="true" lat="43.977363657211" lon="-72.119216355595">
    <tag k="addr:city" v="Bradford"/>
    <tag k="addr:housenumber" v="1128"/>
    <tag k="addr:street" v="Lower Plain"/>
    <tag k="addr:state" v="VT"/>
    <tag k="ref:vcgi:esiteid" v="26242"/>
  </node>
  <node id="-579" visible="true" lat="43.976933474415" lon="-72.120202591242">
    <tag k="addr:city" v="Bradford"/>
    <tag k="addr:housenumber" v="82"/>
    <tag k="addr:street" v="Lake Morey Road"/>
    <tag k="addr:state" v="VT"/>
    <tag k="ref:vcgi:esiteid" v="26243"/>
  </node>
  <node id="-620" visible="true" lat="43.995831846771" lon="-72.128068062909">
    <tag k="addr:city" v="Bradford"/>
    <tag k="addr:housenumber" v="33"/>
    <tag k="addr:street" v="North Main Street"/>
    <tag k="addr:state" v="VT"/>
    <tag k="ref:vcgi:esiteid" v="26284"/>
  </node>
  <node id="-626" visible="true" lat="43.990254758574" lon="-72.131783579163">
    <tag k="addr:city" v="Bradford"/>
    <tag k="addr:housenumber" v="217"/>
    <tag k="addr:street" v="South Pleasant Street"/>
    <tag k="addr:state" v="VT"/>
    <tag k="ref:vcgi:esiteid" v="26290"/>
  </node>
  <node id="-627" visible="true" lat="43.989886673681" lon="-72.134481849513">
    <tag k="addr:city" v="Bradford"/>
    <tag k="addr:housenumber" v="294"/>
    <tag k="addr:street" v="High Street"/>
    <tag k="addr:state" v="VT"/>
    <tag k="ref:vcgi:esiteid" v="26291"/>
  </node>
  <node id="-629" visible="true" lat="43.989478201812" lon="-72.134099273471">
    <tag k="addr:city" v="Bradford"/>
    <tag k="addr:housenumber" v="309"/>
    <tag k="addr:street" v="High Street"/>
    <tag k="addr:state" v="VT"/>
    <tag k="ref:vcgi:esiteid" v="26293"/>
  </node>
  <node id="-630" visible="true" lat="43.987728461925" lon="-72.127238543215">
    <tag k="addr:city" v="Bradford"/>
    <tag k="addr:housenumber" v="311"/>
    <tag k="addr:street" v="Plateau Acres"/>
    <tag k="addr:state" v="VT"/>
    <tag k="ref:vcgi:esiteid" v="26294"/>
  </node>
  <node id="-632" visible="true" lat="43.986692015809" lon="-72.127222405662">
    <tag k="addr:city" v="Bradford"/>
    <tag k="addr:housenumber" v="242"/>
    <tag k="addr:street" v="Plateau Acres"/>
    <tag k="addr:state" v="VT"/>
    <tag k="ref:vcgi:esiteid" v="26296"/>
  </node>
  <node id="-633" visible="true" lat="43.982261921301" lon="-72.125586156698">
    <tag k="addr:city" v="Bradford"/>
    <tag k="addr:housenumber" v="83"/>
    <tag k="addr:street" v="Saddleback Road"/>
    <tag k="addr:state" v="VT"/>
    <tag k="ref:vcgi:esiteid" v="26297"/>
  </node>
  <node id="-649" visible="true" lat="43.99525464351" lon="-72.128308015866">
    <tag k="addr:city" v="Bradford"/>
    <tag k="addr:housenumber" v="223"/>
    <tag k="addr:street" v="Main Street"/>
    <tag k="addr:state" v="VT"/>
    <tag k="ref:vcgi:esiteid" v="26313"/>
  </node>
  <node id="-739" visible="true" lat="43.991883636555" lon="-72.130898568379">
    <tag k="addr:city" v="Bradford"/>
    <tag k="addr:housenumber" v="97"/>
    <tag k="addr:street" v="South Pleasant Street"/>
    <tag k="addr:state" v="VT"/>
    <tag k="ref:vcgi:esiteid" v="26403"/>
  </node>
  <node id="-744" visible="true" lat="43.991103214416" lon="-72.131449598471">
    <tag k="addr:city" v="Bradford"/>
    <tag k="addr:housenumber" v="72"/>
    <tag k="addr:street" v="Cobblestone Alley"/>
    <tag k="addr:state" v="VT"/>
    <tag k="ref:vcgi:esiteid" v="26408"/>
  </node>
  <node id="-745" visible="true" lat="43.991076205076" lon="-72.13110247567">
    <tag k="addr:city" v="Bradford"/>
    <tag k="addr:housenumber" v="60"/>
    <tag k="addr:street" v="Cobblestone Alley"/>
    <tag k="addr:state" v="VT"/>
    <tag k="ref:vcgi:esiteid" v="26409"/>
  </node>
  <node id="-746" visible="true" lat="43.990874624694" lon="-72.133076962238">
    <tag k="addr:city" v="Bradford"/>
    <tag k="addr:housenumber" v="199"/>
    <tag k="addr:street" v="High Street"/>
    <tag k="addr:state" v="VT"/>
    <tag k="ref:vcgi:esiteid" v="26410"/>
  </node>
  <node id="-747" visible="true" lat="43.990662931563" lon="-72.130959603062">
    <tag k="addr:city" v="Bradford"/>
    <tag k="addr:housenumber" v="41"/>
    <tag k="addr:street" v="Cobblestone Alley"/>
    <tag k="addr:state" v="VT"/>
    <tag k="ref:vcgi:esiteid" v="26411"/>
  </node>
  <node id="-748" visible="true" lat="43.990636966473" lon="-72.133838796038">
    <tag k="addr:city" v="Bradford"/>
    <tag k="addr:housenumber" v="232"/>
    <tag k="addr:street" v="High Street"/>
    <tag k="addr:state" v="VT"/>
    <tag k="ref:vcgi:esiteid" v="26412"/>
  </node>
  <node id="-749" visible="true" lat="43.990544677208" lon="-72.131554696455">
    <tag k="addr:city" v="Bradford"/>
    <tag k="addr:housenumber" v="195"/>
    <tag k="addr:street" v="South Pleasant Street"/>
    <tag k="addr:state" v="VT"/>
    <tag k="ref:vcgi:esiteid" v="26413"/>
  </node>
  <node id="-750" visible="true" lat="43.990373015175" lon="-72.131753059852">
    <tag k="addr:city" v="Bradford"/>
    <tag k="addr:housenumber" v="209"/>
    <tag k="addr:street" v="South Pleasant Street"/>
    <tag k="addr:state" v="VT"/>
    <tag k="ref:vcgi:esiteid" v="26414"/>
  </node>
  <node id="-751" visible="true" lat="43.990140318781" lon="-72.131882759993">
    <tag k="addr:city" v="Bradford"/>
    <tag k="addr:housenumber" v="227"/>
    <tag k="addr:street" v="South Pleasant Street"/>
    <tag k="addr:state" v="VT"/>
    <tag k="ref:vcgi:esiteid" v="26415"/>
  </node>
  <node id="-752" visible="true" lat="43.989550250276" lon="-72.132857326665">
    <tag k="addr:city" v="Bradford"/>
    <tag k="addr:housenumber" v="266"/>
    <tag k="addr:street" v="South Pleasant Street"/>
    <tag k="addr:state" v="VT"/>
    <tag k="ref:vcgi:esiteid" v="26416"/>
  </node>
  <node id="-753" visible="true" lat="43.989392462423" lon="-72.134640874307">
    <tag k="addr:city" v="Bradford"/>
    <tag k="addr:housenumber" v="330"/>
    <tag k="addr:street" v="High Street"/>
    <tag k="addr:state" v="VT"/>
    <tag k="ref:vcgi:esiteid" v="26417"/>
  </node>
  <node id="-754" visible="true" lat="43.98921755889" lon="-72.126543839356">
    <tag k="addr:city" v="Bradford"/>
    <tag k="addr:housenumber" v="404"/>
    <tag k="addr:street" v="Plateau Acres"/>
    <tag k="addr:state" v="VT"/>
    <tag k="ref:vcgi:esiteid" v="26418"/>
  </node>
  <node id="-757" visible="true" lat="43.988739861381" lon="-72.126818557282">
    <tag k="addr:city" v="Bradford"/>
    <tag k="addr:housenumber" v="383"/>
    <tag k="addr:street" v="Plateau Acres"/>
    <tag k="addr:state" v="VT"/>
    <tag k="ref:vcgi:esiteid" v="26421"/>
  </node>
  <node id="-758" visible="true" lat="43.988187798345" lon="-72.12775066441">
    <tag k="addr:city" v="Bradford"/>
    <tag k="addr:housenumber" v="30"/>
    <tag k="addr:street" v="Plateau Acres West"/>
    <tag k="addr:state" v="VT"/>
    <tag k="ref:vcgi:esiteid" v="26422"/>
  </node>
  <node id="-759" visible="true" lat="43.988009291167" lon="-72.128106127659">
    <tag k="addr:city" v="Bradford"/>
    <tag k="addr:housenumber" v="50"/>
    <tag k="addr:street" v="Plateau Acres West"/>
    <tag k="addr:state" v="VT"/>
    <tag k="ref:vcgi:esiteid" v="26423"/>
  </node>
  <node id="-760" visible="true" lat="43.987397119381" lon="-72.126818493254">
    <tag k="addr:city" v="Bradford"/>
    <tag k="addr:housenumber" v="278"/>
    <tag k="addr:street" v="Plateau Acres"/>
    <tag k="addr:state" v="VT"/>
    <tag k="ref:vcgi:esiteid" v="26424"/>
  </node>
  <node id="-761" visible="true" lat="43.987370847503" lon="-72.127915473794">
    <tag k="addr:city" v="Bradford"/>
    <tag k="addr:housenumber" v="265"/>
    <tag k="addr:street" v="Plateau Acres"/>
    <tag k="addr:state" v="VT"/>
    <tag k="ref:vcgi:esiteid" v="26425"/>
  </node>
  <node id="-762" visible="true" lat="43.987022589588" lon="-72.128004559324">
    <tag k="addr:city" v="Bradford"/>
    <tag k="addr:housenumber" v="259"/>
    <tag k="addr:street" v="Plateau Acres"/>
    <tag k="addr:state" v="VT"/>
    <tag k="ref:vcgi:esiteid" v="26426"/>
  </node>
  <node id="-763" visible="true" lat="43.986959611255" lon="-72.12230866327">
    <tag k="addr:city" v="Bradford"/>
    <tag k="addr:housenumber" v="449"/>
    <tag k="addr:street" v="Lower Plain"/>
    <tag k="addr:state" v="VT"/>
    <tag k="ref:vcgi:esiteid" v="26427"/>
  </node>
  <node id="-764" visible="true" lat="43.98673517684" lon="-72.127607007419">
    <tag k="addr:city" v="Bradford"/>
    <tag k="addr:housenumber" v="226"/>
    <tag k="addr:street" v="Plateau Acres"/>
    <tag k="addr:state" v="VT"/>
    <tag k="ref:vcgi:esiteid" v="26428"/>
  </node>
  <node id="-769" visible="true" lat="43.982512442527" lon="-72.126102653893">
    <tag k="addr:city" v="Bradford"/>
    <tag k="addr:housenumber" v="105"/>
    <tag k="addr:street" v="Saddleback Road"/>
    <tag k="addr:state" v="VT"/>
    <tag k="ref:vcgi:esiteid" v="26433"/>
  </node>
  <node id="-770" visible="true" lat="43.982386381786" lon="-72.124861327394">
    <tag k="addr:city" v="Bradford"/>
    <tag k="addr:housenumber" v="44"/>
    <tag k="addr:street" v="Saddleback Road"/>
    <tag k="addr:state" v="VT"/>
    <tag k="ref:vcgi:esiteid" v="26434"/>
  </node>
  <node id="-771" visible="true" lat="43.981903109464" lon="-72.124198715546">
    <tag k="addr:city" v="Bradford"/>
    <tag k="addr:housenumber" v="653"/>
    <tag k="addr:street" v="Waits River Road"/>
    <tag k="addr:state" v="VT"/>
    <tag k="ref:vcgi:esiteid" v="26435"/>
  </node>
  <node id="-772" visible="true" lat="43.981336256313" lon="-72.122169517695">
    <tag k="addr:city" v="Bradford"/>
    <tag k="addr:housenumber" v="573"/>
    <tag k="addr:street" v="Waits River Road"/>
    <tag k="addr:state" v="VT"/>
    <tag k="ref:vcgi:esiteid" v="26436"/>
  </node>
  <node id="-773" visible="true" lat="43.981285058119" lon="-72.117238003027">
    <tag k="addr:city" v="Bradford"/>
    <tag k="addr:housenumber" v="22"/>
    <tag k="addr:street" v="Whistle Stop Way"/>
    <tag k="addr:state" v="VT"/>
    <tag k="ref:vcgi:esiteid" v="26437"/>
  </node>
  <node id="-812" visible="true" lat="43.989375462843" lon="-72.126929598132">
    <tag k="addr:city" v="Bradford"/>
    <tag k="addr:housenumber" v="428"/>
    <tag k="addr:street" v="Plateau Acres"/>
    <tag k="addr:state" v="VT"/>
    <tag k="ref:vcgi:esiteid" v="26476"/>
  </node>
  <node id="-816" visible="true" lat="43.9957097786" lon="-72.128083321202">
    <tag k="addr:city" v="Bradford"/>
    <tag k="addr:housenumber" v="25"/>
    <tag k="addr:street" v="North Main Street"/>
    <tag k="addr:state" v="VT"/>
    <tag k="ref:vcgi:esiteid" v="26480"/>
  </node>
  <node id="-817" visible="true" lat="43.990789928269" lon="-72.131475137237">
    <tag k="addr:city" v="Bradford"/>
    <tag k="addr:housenumber" v="63"/>
    <tag k="addr:street" v="Cobblestone Alley"/>
    <tag k="addr:state" v="VT"/>
    <tag k="ref:vcgi:esiteid" v="26481"/>
  </node>
  <node id="-818" visible="true" lat="43.988187193977" lon="-72.134240244699">
    <tag k="addr:city" v="Bradford"/>
    <tag k="addr:housenumber" v="395"/>
    <tag k="addr:street" v="High Street"/>
    <tag k="addr:state" v="VT"/>
    <tag k="ref:vcgi:esiteid" v="26482"/>
  </node>
  <node id="-819" visible="true" lat="43.982166360698" lon="-72.117724241354">
    <tag k="addr:city" v="Bradford"/>
    <tag k="addr:housenumber" v="92"/>
    <tag k="addr:street" v="Whistle Stop Way"/>
    <tag k="addr:state" v="VT"/>
    <tag k="ref:vcgi:esiteid" v="26483"/>
  </node>
  <node id="-831" visible="true" lat="43.990853667533" lon="-72.130631540022">
    <tag k="addr:city" v="Bradford"/>
    <tag k="addr:housenumber" v="30"/>
    <tag k="addr:street" v="Cobblestone Alley"/>
    <tag k="addr:state" v="VT"/>
    <tag k="ref:vcgi:esiteid" v="26495"/>
  </node>
  <node id="-832" visible="true" lat="43.990571240362" lon="-72.130696522066">
    <tag k="addr:city" v="Bradford"/>
    <tag k="addr:housenumber" v="25"/>
    <tag k="addr:street" v="Cobblestone Alley"/>
    <tag k="addr:state" v="VT"/>
    <tag k="ref:vcgi:esiteid" v="26496"/>
  </node>
  <node id="-834" visible="true" lat="43.988754875617" lon="-72.12468508938">
    <tag k="addr:city" v="Bradford"/>
    <tag k="addr:housenumber" v="368"/>
    <tag k="addr:street" v="Lower Plain"/>
    <tag k="addr:state" v="VT"/>
    <tag k="ref:vcgi:esiteid" v="26498"/>
  </node>
  <node id="-840" visible="true" lat="43.981563976103" lon="-72.122697076967">
    <tag k="addr:city" v="Bradford"/>
    <tag k="addr:housenumber" v="587"/>
    <tag k="addr:street" v="Waits River Road"/>
    <tag k="addr:state" v="VT"/>
    <tag k="ref:vcgi:esiteid" v="26504"/>
  </node>
  <node id="-841" visible="true" lat="43.981084697119" lon="-72.120994313259">
    <tag k="addr:city" v="Bradford"/>
    <tag k="addr:housenumber" v="515"/>
    <tag k="addr:street" v="Waits River Road"/>
    <tag k="addr:state" v="VT"/>
    <tag k="ref:vcgi:esiteid" v="26505"/>
  </node>
  <node id="-842" visible="true" lat="43.977128180625" lon="-72.119478937414">
    <tag k="addr:city" v="Bradford"/>
    <tag k="addr:housenumber" v="42"/>
    <tag k="addr:street" v="Lake Morey Road"/>
    <tag k="addr:state" v="VT"/>
    <tag k="ref:vcgi:esiteid" v="26506"/>
  </node>
  <node id="-843" visible="true" lat="43.987405897913" lon="-72.122929331139">
    <tag k="addr:city" v="Bradford"/>
    <tag k="addr:housenumber" v="417"/>
    <tag k="addr:street" v="Lower Plain"/>
    <tag k="addr:state" v="VT"/>
    <tag k="ref:vcgi:esiteid" v="26507"/>
  </node>
  <node id="-846" visible="true" lat="43.985562814751" lon="-72.122103766376">
    <tag k="addr:city" v="Bradford"/>
    <tag k="addr:housenumber" v="14"/>
    <tag k="addr:street" v="Garden Lane"/>
    <tag k="addr:state" v="VT"/>
    <tag k="ref:vcgi:esiteid" v="26510"/>
  </node>
  <node id="-847" visible="true" lat="43.985604120736" lon="-72.121755120697">
    <tag k="addr:city" v="Bradford"/>
    <tag k="addr:housenumber" v="30"/>
    <tag k="addr:street" v="Garden Lane"/>
    <tag k="addr:state" v="VT"/>
    <tag k="ref:vcgi:esiteid" v="26511"/>
  </node>
  <node id="-857" visible="true" lat="43.996310768248" lon="-72.127891790286">
    <tag k="addr:city" v="Bradford"/>
    <tag k="addr:housenumber" v="63"/>
    <tag k="addr:street" v="North Main Street"/>
    <tag k="addr:state" v="VT"/>
    <tag k="ref:vcgi:esiteid" v="26521"/>
  </node>
  <node id="-865" visible="true" lat="43.987175579617" lon="-72.123596410771">
    <tag k="addr:city" v="Bradford"/>
    <tag k="addr:housenumber" v="414"/>
    <tag k="addr:street" v="Lower Plain"/>
    <tag k="addr:state" v="VT"/>
    <tag k="ref:vcgi:esiteid" v="26529"/>
  </node>
  <node id="-866" visible="true" lat="43.977592539637" lon="-72.119292652131">
    <tag k="addr:city" v="Bradford"/>
    <tag k="addr:housenumber" v="1112"/>
    <tag k="addr:street" v="Lower Plain"/>
    <tag k="addr:state" v="VT"/>
    <tag k="ref:vcgi:esiteid" v="26530"/>
  </node>
  <node id="-869" visible="true" lat="44.031152132937" lon="-72.191353913368">
    <tag k="addr:city" v="Bradford"/>
    <tag k="addr:housenumber" v="6028"/>
    <tag k="addr:street" v="Waits River Road"/>
    <tag k="addr:state" v="VT"/>
    <tag k="ref:vcgi:esiteid" v="26533"/>
  </node>
  <node id="-895" visible="true" lat="44.028601445664" lon="-72.187474254865">
    <tag k="addr:city" v="Bradford"/>
    <tag k="addr:housenumber" v="5786"/>
    <tag k="addr:street" v="Waits River Road"/>
    <tag k="addr:state" v="VT"/>
    <tag k="ref:vcgi:esiteid" v="26561"/>
  </node>
  <node id="-988" visible="true" lat="43.996163727169" lon="-72.128113837721">
    <tag k="addr:city" v="Bradford"/>
    <tag k="addr:housenumber" v="53"/>
    <tag k="addr:street" v="North Main Street"/>
    <tag k="addr:state" v="VT"/>
    <tag k="ref:vcgi:esiteid" v="26654"/>
  </node>
  <node id="-1010" visible="true" lat="43.990823148222" lon="-72.133721446005">
    <tag k="addr:city" v="Bradford"/>
    <tag k="addr:housenumber" v="220"/>
    <tag k="addr:street" v="High Street"/>
    <tag k="addr:state" v="VT"/>
    <tag k="ref:vcgi:esiteid" v="26676"/>
  </node>
  <node id="-1012" visible="true" lat="43.990567564418" lon="-72.133225535291">
    <tag k="addr:city" v="Bradford"/>
    <tag k="addr:housenumber" v="225"/>
    <tag k="addr:street" v="High Street"/>
    <tag k="addr:state" v="VT"/>
    <tag k="ref:vcgi:esiteid" v="26678"/>
  </node>
  <node id="-1013" visible="true" lat="43.990441849075" lon="-72.133944319866">
    <tag k="addr:city" v="Bradford"/>
    <tag k="addr:housenumber" v="246"/>
    <tag k="addr:street" v="High Street"/>
    <tag k="addr:state" v="VT"/>
    <tag k="ref:vcgi:esiteid" v="26679"/>
  </node>
  <node id="-1015" visible="true" lat="43.990440486025" lon="-72.133435760472">
    <tag k="addr:city" v="Bradford"/>
    <tag k="addr:housenumber" v="241"/>
    <tag k="addr:street" v="High Street"/>
    <tag k="addr:state" v="VT"/>
    <tag k="ref:vcgi:esiteid" v="26681"/>
  </node>
  <node id="-1018" visible="true" lat="43.990178465658" lon="-72.133515451727">
    <tag k="addr:city" v="Bradford"/>
    <tag k="addr:housenumber" v="255"/>
    <tag k="addr:street" v="High Street"/>
    <tag k="addr:state" v="VT"/>
    <tag k="ref:vcgi:esiteid" v="26684"/>
  </node>
  <node id="-1019" visible="true" lat="43.990202754217" lon="-72.134188856365">
    <tag k="addr:city" v="Bradford"/>
    <tag k="addr:housenumber" v="272"/>
    <tag k="addr:street" v="High Street"/>
    <tag k="addr:state" v="VT"/>
    <tag k="ref:vcgi:esiteid" v="26685"/>
  </node>
  <node id="-1021" visible="true" lat="43.988501454902" lon="-72.1259847799">
    <tag k="addr:city" v="Bradford"/>
    <tag k="addr:housenumber" v="376"/>
    <tag k="addr:street" v="Plateau Acres"/>
    <tag k="addr:state" v="VT"/>
    <tag k="ref:vcgi:esiteid" v="26687"/>
  </node>
  <node id="-1022" visible="true" lat="43.988334434922" lon="-72.127293483757">
    <tag k="addr:city" v="Bradford"/>
    <tag k="addr:housenumber" v="14"/>
    <tag k="addr:street" v="Plateau Acres West"/>
    <tag k="addr:state" v="VT"/>
    <tag k="ref:vcgi:esiteid" v="26688"/>
  </node>
  <node id="-1023" visible="true" lat="43.98816114635" lon="-72.125849684301">
    <tag k="addr:city" v="Bradford"/>
    <tag k="addr:housenumber" v="350"/>
    <tag k="addr:street" v="Plateau Acres"/>
    <tag k="addr:state" v="VT"/>
    <tag k="ref:vcgi:esiteid" v="26689"/>
  </node>
  <node id="-1027" visible="true" lat="43.98765016455" lon="-72.126565509253">
    <tag k="addr:city" v="Bradford"/>
    <tag k="addr:housenumber" v="318"/>
    <tag k="addr:street" v="Plateau Acres"/>
    <tag k="addr:state" v="VT"/>
    <tag k="ref:vcgi:esiteid" v="26693"/>
  </node>
  <node id="-1029" visible="true" lat="43.987561100144" lon="-72.12752820144">
    <tag k="addr:city" v="Bradford"/>
    <tag k="addr:housenumber" v="279"/>
    <tag k="addr:street" v="Plateau Acres"/>
    <tag k="addr:state" v="VT"/>
    <tag k="ref:vcgi:esiteid" v="26695"/>
  </node>
  <node id="-1031" visible="true" lat="43.981893181492" lon="-72.121542737627">
    <tag k="addr:city" v="Bradford"/>
    <tag k="addr:housenumber" v="530"/>
    <tag k="addr:street" v="Waits River Road"/>
    <tag k="addr:state" v="VT"/>
    <tag k="ref:vcgi:esiteid" v="26698"/>
  </node>
  <node id="-1034" visible="true" lat="43.977235578824" lon="-72.121339906551">
    <tag k="addr:city" v="Bradford"/>
    <tag k="addr:housenumber" v="144"/>
    <tag k="addr:street" v="Lake Morey Road"/>
    <tag k="addr:state" v="VT"/>
    <tag k="ref:vcgi:esiteid" v="26701"/>
  </node>
  <node id="-1035" visible="true" lat="43.976928401297" lon="-72.119043894424">
    <tag k="addr:city" v="Bradford"/>
    <tag k="addr:housenumber" v="41"/>
    <tag k="addr:street" v="Lake Morey Road"/>
    <tag k="addr:state" v="VT"/>
    <tag k="ref:vcgi:esiteid" v="26702"/>
  </node>
  <node id="-1036" visible="true" lat="43.976544735185" lon="-72.12066754566">
    <tag k="addr:city" v="Bradford"/>
    <tag k="addr:housenumber" v="113"/>
    <tag k="addr:street" v="Lake Morey Road"/>
    <tag k="addr:state" v="VT"/>
    <tag k="ref:vcgi:esiteid" v="26703"/>
  </node>
  <node id="-1055" visible="true" lat="44.049951089977" lon="-72.151752225632">
    <tag k="addr:city" v="Bradford"/>
    <tag k="addr:housenumber" v="3236"/>
    <tag k="addr:street" v="Wrights Mountain Road"/>
    <tag k="addr:state" v="VT"/>
    <tag k="ref:vcgi:esiteid" v="26722"/>
  </node>
  <node id="-1094" visible="true" lat="43.997613311958" lon="-72.126069160994">
    <tag k="addr:city" v="Bradford"/>
    <tag k="addr:housenumber" v="186"/>
    <tag k="addr:street" v="North Main Street"/>
    <tag k="addr:state" v="VT"/>
    <tag k="ref:vcgi:esiteid" v="26762"/>
  </node>
  <node id="-1096" visible="true" lat="43.997483738867" lon="-72.127277231962">
    <tag k="addr:city" v="Bradford"/>
    <tag k="addr:housenumber" v="145"/>
    <tag k="addr:street" v="North Main Street"/>
    <tag k="addr:state" v="VT"/>
    <tag k="ref:vcgi:esiteid" v="26764"/>
  </node>
  <node id="-1101" visible="true" lat="43.992397065835" lon="-72.130657070134">
    <tag k="addr:city" v="Bradford"/>
    <tag k="addr:housenumber" v="59"/>
    <tag k="addr:street" v="South Pleasant Street"/>
    <tag k="addr:state" v="VT"/>
    <tag k="ref:vcgi:esiteid" v="26769"/>
  </node>
  <node id="-1102" visible="true" lat="43.992249845388" lon="-72.130349252057">
    <tag k="addr:city" v="Bradford"/>
    <tag k="addr:housenumber" v="63"/>
    <tag k="addr:street" v="South Pleasant Street"/>
    <tag k="addr:state" v="VT"/>
    <tag k="ref:vcgi:esiteid" v="26770"/>
  </node>
  <node id="-1103" visible="true" lat="43.986506352603" lon="-72.122122191637">
    <tag k="addr:city" v="Bradford"/>
    <tag k="addr:housenumber" v="487"/>
    <tag k="addr:street" v="Lower Plain"/>
    <tag k="addr:state" v="VT"/>
    <tag k="ref:vcgi:esiteid" v="26771"/>
  </node>
  <node id="-1107" visible="true" lat="43.983119790016" lon="-72.126450393415">
    <tag k="addr:city" v="Bradford"/>
    <tag k="addr:housenumber" v="146"/>
    <tag k="addr:street" v="Saddleback Road"/>
    <tag k="addr:state" v="VT"/>
    <tag k="ref:vcgi:esiteid" v="26775"/>
  </node>
  <node id="-1108" visible="true" lat="43.982176026129" lon="-72.118041299222">
    <tag k="addr:city" v="Bradford"/>
    <tag k="addr:housenumber" v="102"/>
    <tag k="addr:street" v="Whistle Stop Way"/>
    <tag k="addr:state" v="VT"/>
    <tag k="ref:vcgi:esiteid" v="26776"/>
  </node>
  <node id="-1110" visible="true" lat="43.981830579897" lon="-72.117512225927">
    <tag k="addr:city" v="Bradford"/>
    <tag k="addr:housenumber" v="71"/>
    <tag k="addr:street" v="Whistle Stop Way"/>
    <tag k="addr:state" v="VT"/>
    <tag k="ref:vcgi:esiteid" v="26778"/>
  </node>
  <node id="-1111" visible="true" lat="43.98186858415" lon="-72.117899535867">
    <tag k="addr:city" v="Bradford"/>
    <tag k="addr:housenumber" v="105"/>
    <tag k="addr:street" v="Whistle Stop Way"/>
    <tag k="addr:state" v="VT"/>
    <tag k="ref:vcgi:esiteid" v="26779"/>
  </node>
  <node id="-1112" visible="true" lat="43.981635156236" lon="-72.117988616999">
    <tag k="addr:city" v="Bradford"/>
    <tag k="addr:housenumber" v="28"/>
    <tag k="addr:street" v="Railroad Way"/>
    <tag k="addr:state" v="VT"/>
    <tag k="ref:vcgi:esiteid" v="26780"/>
  </node>
  <node id="-1113" visible="true" lat="43.981343878703" lon="-72.117912008849">
    <tag k="addr:city" v="Bradford"/>
    <tag k="addr:housenumber" v="29"/>
    <tag k="addr:street" v="Railroad Way"/>
    <tag k="addr:state" v="VT"/>
    <tag k="ref:vcgi:esiteid" v="26781"/>
  </node>
  <node id="-1114" visible="true" lat="43.98066236161" lon="-72.120768238484">
    <tag k="addr:city" v="Bradford"/>
    <tag k="addr:housenumber" v="888"/>
    <tag k="addr:street" v="Lower Plain"/>
    <tag k="addr:state" v="VT"/>
    <tag k="ref:vcgi:esiteid" v="26782"/>
  </node>
  <node id="-1126" visible="true" lat="43.981211926654" lon="-72.11768322651">
    <tag k="addr:city" v="Bradford"/>
    <tag k="addr:housenumber" v="15"/>
    <tag k="addr:street" v="Whistle Stop Way"/>
    <tag k="addr:state" v="VT"/>
    <tag k="ref:vcgi:esiteid" v="26794"/>
  </node>
  <node id="-1132" visible="true" lat="43.995535668655" lon="-72.128293108651">
    <tag k="addr:city" v="Bradford"/>
    <tag k="addr:housenumber" v="9"/>
    <tag k="addr:street" v="North Main Street"/>
    <tag k="addr:state" v="VT"/>
    <tag k="ref:vcgi:esiteid" v="26800"/>
  </node>
  <node id="-1134" visible="true" lat="43.984127371935" lon="-72.123997847859">
    <tag k="addr:city" v="Bradford"/>
    <tag k="addr:housenumber" v="588"/>
    <tag k="addr:street" v="Lower Plain"/>
    <tag k="addr:state" v="VT"/>
    <tag k="ref:vcgi:esiteid" v="26802"/>
  </node>
  <node id="-1135" visible="true" lat="43.975337414168" lon="-72.118335358804">
    <tag k="addr:city" v="Bradford"/>
    <tag k="addr:housenumber" v="1284"/>
    <tag k="addr:street" v="Lower Plain"/>
    <tag k="addr:state" v="VT"/>
    <tag k="ref:vcgi:esiteid" v="26803"/>
  </node>
  <node id="-1137" visible="true" lat="43.998329026442" lon="-72.11816532165">
    <tag k="addr:city" v="Bradford"/>
    <tag k="addr:housenumber" v="272"/>
    <tag k="addr:street" v="Depot Street"/>
    <tag k="addr:state" v="VT"/>
    <tag k="ref:vcgi:esiteid" v="26805"/>
  </node>
  <node id="-1139" visible="true" lat="44.007919586546" lon="-72.113797710753">
    <tag k="addr:city" v="Bradford"/>
    <tag k="addr:housenumber" v="36"/>
    <tag k="addr:street" v="Oxbow Drive"/>
    <tag k="addr:state" v="VT"/>
    <tag k="ref:vcgi:esiteid" v="26807"/>
  </node>
  <node id="-1145" visible="true" lat="43.988369087655" lon="-72.123183027204">
    <tag k="addr:city" v="Bradford"/>
    <tag k="addr:housenumber" v="345"/>
    <tag k="addr:street" v="Lower Plain"/>
    <tag k="addr:state" v="VT"/>
    <tag k="ref:vcgi:esiteid" v="26813"/>
  </node>
  <node id="-1146" visible="true" lat="43.986426088159" lon="-72.123284905617">
    <tag k="addr:city" v="Bradford"/>
    <tag k="addr:housenumber" v="490"/>
    <tag k="addr:street" v="Lower Plain"/>
    <tag k="addr:state" v="VT"/>
    <tag k="ref:vcgi:esiteid" v="26814"/>
  </node>
  <node id="-1147" visible="true" lat="43.985569278239" lon="-72.122787306465">
    <tag k="addr:city" v="Bradford"/>
    <tag k="addr:housenumber" v="536"/>
    <tag k="addr:street" v="Lower Plain"/>
    <tag k="addr:state" v="VT"/>
    <tag k="ref:vcgi:esiteid" v="26815"/>
  </node>
  <node id="-1148" visible="true" lat="43.975534766469" lon="-72.11377803027">
    <tag k="addr:city" v="Bradford"/>
    <tag k="addr:housenumber" v="293"/>
    <tag k="addr:street" v="Industrial Drive"/>
    <tag k="addr:state" v="VT"/>
    <tag k="ref:vcgi:esiteid" v="26816"/>
  </node>
  <node id="-1153" visible="true" lat="43.988831876651" lon="-72.130242439907">
    <tag k="addr:city" v="Bradford"/>
    <tag k="addr:housenumber" v="131"/>
    <tag k="addr:street" v="Mill Street"/>
    <tag k="addr:state" v="VT"/>
    <tag k="ref:vcgi:esiteid" v="26821"/>
  </node>
  <node id="-1155" visible="true" lat="43.997286062849" lon="-72.126179490899">
    <tag k="addr:city" v="Bradford"/>
    <tag k="addr:housenumber" v="172"/>
    <tag k="addr:street" v="North Main Street"/>
    <tag k="addr:state" v="VT"/>
    <tag k="ref:vcgi:esiteid" v="26823"/>
  </node>
  <node id="-1156" visible="true" lat="43.982164763781" lon="-72.12033181205">
    <tag k="addr:city" v="Bradford"/>
    <tag k="addr:housenumber" v="799"/>
    <tag k="addr:street" v="Lower Plain"/>
    <tag k="addr:state" v="VT"/>
    <tag k="ref:vcgi:esiteid" v="26824"/>
  </node>
  <node id="-1162" visible="true" lat="43.972481742424" lon="-72.116224049537">
    <tag k="addr:city" v="Bradford"/>
    <tag k="addr:housenumber" v="1483"/>
    <tag k="addr:street" v="Lower Plain"/>
    <tag k="addr:state" v="VT"/>
    <tag k="ref:vcgi:esiteid" v="26830"/>
  </node>
  <node id="-1165" visible="true" lat="43.980670229006" lon="-72.119600237711">
    <tag k="addr:city" v="Bradford"/>
    <tag k="addr:housenumber" v="901"/>
    <tag k="addr:street" v="Lower Plain"/>
    <tag k="addr:state" v="VT"/>
    <tag k="ref:vcgi:esiteid" v="26833"/>
  </node>
  <node id="-1172" visible="true" lat="43.987969695946" lon="-72.123166765473">
    <tag k="addr:city" v="Bradford"/>
    <tag k="addr:housenumber" v="379"/>
    <tag k="addr:street" v="Lower Plain"/>
    <tag k="addr:state" v="VT"/>
    <tag k="ref:vcgi:esiteid" v="26840"/>
  </node>
  <node id="-1173" visible="true" lat="43.976729080913" lon="-72.11742417603">
    <tag k="addr:city" v="Bradford"/>
    <tag k="addr:housenumber" v="1209"/>
    <tag k="addr:street" v="Lower Plain"/>
    <tag k="addr:state" v="VT"/>
    <tag k="ref:vcgi:esiteid" v="26841"/>
  </node>
  <node id="-1179" visible="true" lat="43.987583930929" lon="-72.122510125599">
    <tag k="addr:city" v="Bradford"/>
    <tag k="addr:housenumber" v="423"/>
    <tag k="addr:street" v="Lower Plain"/>
    <tag k="addr:state" v="VT"/>
    <tag k="ref:vcgi:esiteid" v="26847"/>
  </node>
  <node id="-1180" visible="true" lat="43.987293595855" lon="-72.122459789407">
    <tag k="addr:city" v="Bradford"/>
    <tag k="addr:housenumber" v="429"/>
    <tag k="addr:street" v="Lower Plain"/>
    <tag k="addr:state" v="VT"/>
    <tag k="ref:vcgi:esiteid" v="26848"/>
  </node>
  <node id="-1181" visible="true" lat="44.028519961869" lon="-72.18612192935">
    <tag k="addr:city" v="Bradford"/>
    <tag k="addr:housenumber" v="5644"/>
    <tag k="addr:street" v="Waits River Road"/>
    <tag k="addr:state" v="VT"/>
    <tag k="ref:vcgi:esiteid" v="26849"/>
  </node>
  <node id="-1187" visible="true" lat="43.98927246707" lon="-72.131236626502">
    <tag k="addr:city" v="Bradford"/>
    <tag k="addr:housenumber" v="307"/>
    <tag k="addr:street" v="South Main Street"/>
    <tag k="addr:state" v="VT"/>
    <tag k="ref:vcgi:esiteid" v="26857"/>
  </node>
  <node id="-1189" visible="true" lat="43.987527249864" lon="-72.134110545289">
    <tag k="addr:city" v="Bradford"/>
    <tag k="addr:housenumber" v="501"/>
    <tag k="addr:street" v="South Main Street"/>
    <tag k="addr:state" v="VT"/>
    <tag k="ref:vcgi:esiteid" v="26859"/>
  </node>
  <node id="-1191" visible="true" lat="43.989099783512" lon="-72.131690230918">
    <tag k="addr:city" v="Bradford"/>
    <tag k="addr:housenumber" v="335"/>
    <tag k="addr:street" v="South Main Street"/>
    <tag k="addr:state" v="VT"/>
    <tag k="ref:vcgi:esiteid" v="26861"/>
  </node>
  <node id="-1192" visible="true" lat="43.987042784065" lon="-72.133446785388">
    <tag k="addr:city" v="Bradford"/>
    <tag k="addr:housenumber" v="503"/>
    <tag k="addr:street" v="South Main Street"/>
    <tag k="addr:state" v="VT"/>
    <tag k="ref:vcgi:esiteid" v="26862"/>
  </node>
  <node id="-1194" visible="true" lat="43.99162189067" lon="-72.129629653513">
    <tag k="addr:city" v="Bradford"/>
    <tag k="addr:housenumber" v="137"/>
    <tag k="addr:street" v="South Main Street"/>
    <tag k="addr:state" v="VT"/>
    <tag k="ref:vcgi:esiteid" v="26864"/>
  </node>
  <node id="-1195" visible="true" lat="43.991335879173" lon="-72.129691814865">
    <tag k="addr:city" v="Bradford"/>
    <tag k="addr:housenumber" v="149"/>
    <tag k="addr:street" v="South Main Street"/>
    <tag k="addr:state" v="VT"/>
    <tag k="ref:vcgi:esiteid" v="26865"/>
  </node>
  <node id="-1197" visible="true" lat="43.99299168491" lon="-72.128535755669">
    <tag k="addr:city" v="Bradford"/>
    <tag k="addr:housenumber" v="21"/>
    <tag k="addr:street" v="South Main Street"/>
    <tag k="addr:state" v="VT"/>
    <tag k="ref:vcgi:esiteid" v="26867"/>
  </node>
  <node id="-1198" visible="true" lat="43.987523434135" lon="-72.133881662485">
    <tag k="addr:city" v="Bradford"/>
    <tag k="addr:housenumber" v="493"/>
    <tag k="addr:street" v="South Main Street"/>
    <tag k="addr:state" v="VT"/>
    <tag k="ref:vcgi:esiteid" v="26868"/>
  </node>
  <node id="-1199" visible="true" lat="43.989959442758" lon="-72.130346931231">
    <tag k="addr:city" v="Bradford"/>
    <tag k="addr:housenumber" v="245"/>
    <tag k="addr:street" v="South Main Street"/>
    <tag k="addr:state" v="VT"/>
    <tag k="ref:vcgi:esiteid" v="26869"/>
  </node>
  <node id="-1200" visible="true" lat="43.988531588387" lon="-72.132781672407">
    <tag k="addr:city" v="Bradford"/>
    <tag k="addr:housenumber" v="407"/>
    <tag k="addr:street" v="South Main Street"/>
    <tag k="addr:state" v="VT"/>
    <tag k="ref:vcgi:esiteid" v="26870"/>
  </node>
  <node id="-1203" visible="true" lat="43.991099083527" lon="-72.129801721541">
    <tag k="addr:city" v="Bradford"/>
    <tag k="addr:housenumber" v="157"/>
    <tag k="addr:street" v="South Main Street"/>
    <tag k="addr:state" v="VT"/>
    <tag k="ref:vcgi:esiteid" v="26873"/>
  </node>
  <node id="-1205" visible="true" lat="43.988141416435" lon="-72.133027168894">
    <tag k="addr:city" v="Bradford"/>
    <tag k="addr:housenumber" v="437"/>
    <tag k="addr:street" v="South Main Street"/>
    <tag k="addr:state" v="VT"/>
    <tag k="ref:vcgi:esiteid" v="26875"/>
  </node>
  <node id="-1206" visible="true" lat="43.990680789128" lon="-72.129911407553">
    <tag k="addr:city" v="Bradford"/>
    <tag k="addr:housenumber" v="191"/>
    <tag k="addr:street" v="South Main Street"/>
    <tag k="addr:state" v="VT"/>
    <tag k="ref:vcgi:esiteid" v="26876"/>
  </node>
  <node id="-1207" visible="true" lat="43.992511948238" lon="-72.130183681382">
    <tag k="addr:city" v="Bradford"/>
    <tag k="addr:housenumber" v="68"/>
    <tag k="addr:street" v="South Main Street"/>
    <tag k="addr:state" v="VT"/>
    <tag k="ref:vcgi:esiteid" v="26877"/>
  </node>
  <node id="-1208" visible="true" lat="43.989343161197" lon="-72.131959048953">
    <tag k="addr:city" v="Bradford"/>
    <tag k="addr:housenumber" v="340"/>
    <tag k="addr:street" v="South Main Street"/>
    <tag k="addr:state" v="VT"/>
    <tag k="ref:vcgi:esiteid" v="26881"/>
  </node>
  <node id="-1209" visible="true" lat="43.989851936048" lon="-72.131087226814">
    <tag k="addr:city" v="Bradford"/>
    <tag k="addr:housenumber" v="312"/>
    <tag k="addr:street" v="South Main Street"/>
    <tag k="addr:state" v="VT"/>
    <tag k="ref:vcgi:esiteid" v="26882"/>
  </node>
  <node id="-1210" visible="true" lat="43.989320583659" lon="-72.13212045824">
    <tag k="addr:city" v="Bradford"/>
    <tag k="addr:housenumber" v="354"/>
    <tag k="addr:street" v="South Main Street"/>
    <tag k="addr:state" v="VT"/>
    <tag k="ref:vcgi:esiteid" v="26883"/>
  </node>
  <node id="-1212" visible="true" lat="43.99006418027" lon="-72.130940796594">
    <tag k="addr:city" v="Bradford"/>
    <tag k="addr:housenumber" v="246"/>
    <tag k="addr:street" v="South Main Street"/>
    <tag k="addr:state" v="VT"/>
    <tag k="ref:vcgi:esiteid" v="26885"/>
  </node>
  <node id="-1213" visible="true" lat="43.989182778184" lon="-72.132406523639">
    <tag k="addr:city" v="Bradford"/>
    <tag k="addr:housenumber" v="366"/>
    <tag k="addr:street" v="South Main Street"/>
    <tag k="addr:state" v="VT"/>
    <tag k="ref:vcgi:esiteid" v="26886"/>
  </node>
  <node id="-1215" visible="true" lat="43.988683850555" lon="-72.136768745584">
    <tag k="addr:city" v="Bradford"/>
    <tag k="addr:housenumber" v="50"/>
    <tag k="addr:street" v="Munn Road"/>
    <tag k="addr:state" v="VT"/>
    <tag k="ref:vcgi:esiteid" v="26888"/>
  </node>
  <node id="-1216" visible="true" lat="43.989587602634" lon="-72.131482187736">
    <tag k="addr:city" v="Bradford"/>
    <tag k="addr:housenumber" v="324"/>
    <tag k="addr:street" v="South Main Street"/>
    <tag k="addr:state" v="VT"/>
    <tag k="ref:vcgi:esiteid" v="26889"/>
  </node>
  <node id="-1217" visible="true" lat="43.992215514803" lon="-72.129716012285">
    <tag k="addr:city" v="Bradford"/>
    <tag k="addr:housenumber" v="94"/>
    <tag k="addr:street" v="South Main Street"/>
    <tag k="addr:state" v="VT"/>
    <tag k="ref:vcgi:esiteid" v="26890"/>
  </node>
  <node id="-1218" visible="true" lat="43.992029302441" lon="-72.129856800114">
    <tag k="addr:city" v="Bradford"/>
    <tag k="addr:housenumber" v="108"/>
    <tag k="addr:street" v="South Main Street"/>
    <tag k="addr:state" v="VT"/>
    <tag k="ref:vcgi:esiteid" v="26891"/>
  </node>
  <node id="-1219" visible="true" lat="43.991944428504" lon="-72.130298578523">
    <tag k="addr:city" v="Bradford"/>
    <tag k="addr:housenumber" v="128"/>
    <tag k="addr:street" v="South Main Street"/>
    <tag k="addr:state" v="VT"/>
    <tag k="ref:vcgi:esiteid" v="26892"/>
  </node>
  <node id="-1220" visible="true" lat="43.99165880327" lon="-72.130146173952">
    <tag k="addr:city" v="Bradford"/>
    <tag k="addr:housenumber" v="134"/>
    <tag k="addr:street" v="South Main Street"/>
    <tag k="addr:state" v="VT"/>
    <tag k="ref:vcgi:esiteid" v="26893"/>
  </node>
  <node id="-1222" visible="true" lat="43.98877485465" lon="-72.133167664274">
    <tag k="addr:city" v="Bradford"/>
    <tag k="addr:housenumber" v="408"/>
    <tag k="addr:street" v="South Main Street"/>
    <tag k="addr:state" v="VT"/>
    <tag k="ref:vcgi:esiteid" v="26895"/>
  </node>
  <node id="-1223" visible="true" lat="43.990409141401" lon="-72.130784205349">
    <tag k="addr:city" v="Bradford"/>
    <tag k="addr:housenumber" v="230"/>
    <tag k="addr:street" v="South Main Street"/>
    <tag k="addr:state" v="VT"/>
    <tag k="ref:vcgi:esiteid" v="26896"/>
  </node>
  <node id="-1225" visible="true" lat="43.988477110447" lon="-72.133477304562">
    <tag k="addr:city" v="Bradford"/>
    <tag k="addr:housenumber" v="422"/>
    <tag k="addr:street" v="South Main Street"/>
    <tag k="addr:state" v="VT"/>
    <tag k="ref:vcgi:esiteid" v="26898"/>
  </node>
  <node id="-1226" visible="true" lat="43.988175749179" lon="-72.133828255792">
    <tag k="addr:city" v="Bradford"/>
    <tag k="addr:housenumber" v="464"/>
    <tag k="addr:street" v="South Main Street"/>
    <tag k="addr:state" v="VT"/>
    <tag k="ref:vcgi:esiteid" v="26899"/>
  </node>
  <node id="-1229" visible="true" lat="43.992417044638" lon="-72.129632466461">
    <tag k="addr:city" v="Bradford"/>
    <tag k="addr:housenumber" v="64"/>
    <tag k="addr:street" v="South Main Street"/>
    <tag k="addr:state" v="VT"/>
    <tag k="ref:vcgi:esiteid" v="26902"/>
  </node>
  <node id="-1230" visible="true" lat="43.991452575373" lon="-72.130150886701">
    <tag k="addr:city" v="Bradford"/>
    <tag k="addr:housenumber" v="146"/>
    <tag k="addr:street" v="South Main Street"/>
    <tag k="addr:state" v="VT"/>
    <tag k="ref:vcgi:esiteid" v="26903"/>
  </node>
  <node id="-1231" visible="true" lat="43.990298926219" lon="-72.130855224553">
    <tag k="addr:city" v="Bradford"/>
    <tag k="addr:housenumber" v="234"/>
    <tag k="addr:street" v="South Main Street"/>
    <tag k="addr:state" v="VT"/>
    <tag k="ref:vcgi:esiteid" v="26904"/>
  </node>
  <node id="-1232" visible="true" lat="43.98843385879" lon="-72.130896021232">
    <tag k="addr:city" v="Bradford"/>
    <tag k="addr:housenumber" v="84"/>
    <tag k="addr:street" v="Maple Street"/>
    <tag k="addr:state" v="VT"/>
    <tag k="ref:vcgi:esiteid" v="26907"/>
  </node>
  <node id="-1233" visible="true" lat="43.988363737765" lon="-72.131906249589">
    <tag k="addr:city" v="Bradford"/>
    <tag k="addr:housenumber" v="38"/>
    <tag k="addr:street" v="Maple Street"/>
    <tag k="addr:state" v="VT"/>
    <tag k="ref:vcgi:esiteid" v="26908"/>
  </node>
  <node id="-1234" visible="true" lat="43.988299761302" lon="-72.131599042542">
    <tag k="addr:city" v="Bradford"/>
    <tag k="addr:housenumber" v="52"/>
    <tag k="addr:street" v="Maple Street"/>
    <tag k="addr:state" v="VT"/>
    <tag k="ref:vcgi:esiteid" v="26909"/>
  </node>
  <node id="-1235" visible="true" lat="43.988564932006" lon="-72.13234909799">
    <tag k="addr:city" v="Bradford"/>
    <tag k="addr:housenumber" v="6"/>
    <tag k="addr:street" v="Maple Street"/>
    <tag k="addr:state" v="VT"/>
    <tag k="ref:vcgi:esiteid" v="26910"/>
  </node>
  <node id="-1236" visible="true" lat="43.988302295958" lon="-72.131090555892">
    <tag k="addr:city" v="Bradford"/>
    <tag k="addr:housenumber" v="74"/>
    <tag k="addr:street" v="Maple Street"/>
    <tag k="addr:state" v="VT"/>
    <tag k="ref:vcgi:esiteid" v="26911"/>
  </node>
  <node id="-1237" visible="true" lat="43.988835692393" lon="-72.132058237472">
    <tag k="addr:city" v="Bradford"/>
    <tag k="addr:housenumber" v="13"/>
    <tag k="addr:street" v="Maple Street"/>
    <tag k="addr:state" v="VT"/>
    <tag k="ref:vcgi:esiteid" v="26912"/>
  </node>
  <node id="-1238" visible="true" lat="43.988808989381" lon="-72.131852242873">
    <tag k="addr:city" v="Bradford"/>
    <tag k="addr:housenumber" v="21"/>
    <tag k="addr:street" v="Maple Street"/>
    <tag k="addr:state" v="VT"/>
    <tag k="ref:vcgi:esiteid" v="26913"/>
  </node>
  <node id="-1239" visible="true" lat="43.988640010785" lon="-72.13157078827">
    <tag k="addr:city" v="Bradford"/>
    <tag k="addr:housenumber" v="37"/>
    <tag k="addr:street" v="Maple Street"/>
    <tag k="addr:state" v="VT"/>
    <tag k="ref:vcgi:esiteid" v="26914"/>
  </node>
  <node id="-1246" visible="true" lat="44.029857618136" lon="-72.184282098513">
    <tag k="addr:city" v="Bradford"/>
    <tag k="addr:housenumber" v="5546"/>
    <tag k="addr:street" v="Waits River Road"/>
    <tag k="addr:state" v="VT"/>
    <tag k="ref:vcgi:esiteid" v="26922"/>
  </node>
  <node id="-1252" visible="true" lat="43.980551233865" lon="-72.113400783954">
    <tag k="addr:city" v="Bradford"/>
    <tag k="addr:housenumber" v="40"/>
    <tag k="addr:street" v="Waits River Road"/>
    <tag k="addr:state" v="VT"/>
    <tag k="ref:vcgi:esiteid" v="26929"/>
  </node>
  <node id="-1257" visible="true" lat="43.989606470326" lon="-72.134596736628">
    <tag k="addr:city" v="Bradford"/>
    <tag k="addr:housenumber" v="304"/>
    <tag k="addr:street" v="High Street"/>
    <tag k="addr:state" v="VT"/>
    <tag k="ref:vcgi:esiteid" v="26934"/>
  </node>
  <node id="-1264" visible="true" lat="43.988792474048" lon="-72.127410674718">
    <tag k="addr:city" v="Bradford"/>
    <tag k="addr:housenumber" v="550"/>
    <tag k="addr:street" v="Plateau Acres"/>
    <tag k="addr:state" v="VT"/>
    <tag k="ref:vcgi:esiteid" v="26941"/>
  </node>
  <node id="-1271" visible="true" lat="44.032198036334" lon="-72.187625173068">
    <tag k="addr:city" v="Bradford"/>
    <tag k="addr:housenumber" v="108"/>
    <tag k="addr:street" v="Hatch Lane"/>
    <tag k="addr:state" v="VT"/>
    <tag k="ref:vcgi:esiteid" v="26948"/>
  </node>
  <node id="-1279" visible="true" lat="43.978222502075" lon="-72.162916232146">
    <tag k="addr:city" v="Bradford"/>
    <tag k="addr:housenumber" v="450"/>
    <tag k="addr:street" v="Cross Road"/>
    <tag k="addr:state" v="VT"/>
    <tag k="ref:vcgi:esiteid" v="26956"/>
  </node>
  <node id="-1280" visible="true" lat="43.984621546092" lon="-72.127520263181">
    <tag k="addr:city" v="Bradford"/>
    <tag k="addr:housenumber" v="16"/>
    <tag k="addr:street" v="Plateau Acres"/>
    <tag k="addr:state" v="VT"/>
    <tag k="ref:vcgi:esiteid" v="26957"/>
  </node>
  <node id="-1282" visible="true" lat="43.98872836949" lon="-72.127901373737">
    <tag k="addr:city" v="Bradford"/>
    <tag k="addr:housenumber" v="542"/>
    <tag k="addr:street" v="Plateau Acres"/>
    <tag k="addr:state" v="VT"/>
    <tag k="ref:vcgi:esiteid" v="26959"/>
  </node>
  <node id="-1283" visible="true" lat="43.989298270817" lon="-72.125904559773">
    <tag k="addr:city" v="Bradford"/>
    <tag k="addr:housenumber" v="396"/>
    <tag k="addr:street" v="Plateau Acres"/>
    <tag k="addr:state" v="VT"/>
    <tag k="ref:vcgi:esiteid" v="26960"/>
  </node>
  <node id="-1291" visible="true" lat="43.980123015185" lon="-72.181319127174">
    <tag k="addr:city" v="Bradford"/>
    <tag k="addr:housenumber" v="2308"/>
    <tag k="addr:street" v="Rowell Brook Road"/>
    <tag k="addr:state" v="VT"/>
    <tag k="ref:vcgi:esiteid" v="26968"/>
  </node>
  <node id="-1299" visible="true" lat="44.028408473849" lon="-72.18651563275">
    <tag k="addr:city" v="Bradford"/>
    <tag k="addr:housenumber" v="5736"/>
    <tag k="addr:street" v="Waits River Road"/>
    <tag k="addr:state" v="VT"/>
    <tag k="ref:vcgi:esiteid" v="26976"/>
  </node>
  <node id="-1312" visible="true" lat="43.989038872742" lon="-72.134235808725">
    <tag k="addr:city" v="Bradford"/>
    <tag k="addr:housenumber" v="335"/>
    <tag k="addr:street" v="High Street"/>
    <tag k="addr:state" v="VT"/>
    <tag k="ref:vcgi:esiteid" v="26990"/>
  </node>
  <node id="-1316" visible="true" lat="43.991598833854" lon="-72.131050980442">
    <tag k="addr:city" v="Bradford"/>
    <tag k="addr:housenumber" v="105"/>
    <tag k="addr:street" v="South Pleasant Street"/>
    <tag k="addr:state" v="VT"/>
    <tag k="ref:vcgi:esiteid" v="26994"/>
  </node>
  <node id="-1323" visible="true" lat="43.975903092538" lon="-72.114902089765">
    <tag k="addr:city" v="Bradford"/>
    <tag k="addr:housenumber" v="228"/>
    <tag k="addr:street" v="Industrial Drive"/>
    <tag k="addr:state" v="VT"/>
    <tag k="ref:vcgi:esiteid" v="27001"/>
  </node>
  <node id="-1324" visible="true" lat="43.976567272879" lon="-72.115037969427">
    <tag k="addr:city" v="Bradford"/>
    <tag k="addr:housenumber" v="226"/>
    <tag k="addr:street" v="Industrial Drive"/>
    <tag k="addr:state" v="VT"/>
    <tag k="ref:vcgi:esiteid" v="27002"/>
  </node>
  <node id="-1325" visible="true" lat="43.975199286261" lon="-72.114713552125">
    <tag k="addr:city" v="Bradford"/>
    <tag k="addr:housenumber" v="330"/>
    <tag k="addr:street" v="Industrial Drive"/>
    <tag k="addr:state" v="VT"/>
    <tag k="ref:vcgi:esiteid" v="27003"/>
  </node>
  <node id="-1326" visible="true" lat="43.974671862321" lon="-72.114469542973">
    <tag k="addr:city" v="Bradford"/>
    <tag k="addr:housenumber" v="338"/>
    <tag k="addr:street" v="Industrial Drive"/>
    <tag k="addr:state" v="VT"/>
    <tag k="ref:vcgi:esiteid" v="27004"/>
  </node>
  <node id="-1333" visible="true" lat="44.034523578398" lon="-72.187585237934">
    <tag k="addr:city" v="Bradford"/>
    <tag k="addr:housenumber" v="501"/>
    <tag k="addr:street" v="Wrights Mountain Road"/>
    <tag k="addr:state" v="VT"/>
    <tag k="ref:vcgi:esiteid" v="27011"/>
  </node>
  <node id="-1338" visible="true" lat="43.977895735504" lon="-72.158184964064">
    <tag k="addr:city" v="Bradford"/>
    <tag k="addr:housenumber" v="1024"/>
    <tag k="addr:street" v="Rowell Brook Road"/>
    <tag k="addr:state" v="VT"/>
    <tag k="ref:vcgi:esiteid" v="306300"/>
  </node>
  <node id="-1339" visible="true" lat="43.976543071212" lon="-72.1593194257">
    <tag k="addr:city" v="Bradford"/>
    <tag k="addr:housenumber" v="1062"/>
    <tag k="addr:street" v="Rowell Brook Road"/>
    <tag k="addr:state" v="VT"/>
    <tag k="ref:vcgi:esiteid" v="306301"/>
  </node>
  <node id="-1340" visible="true" lat="43.97402276051" lon="-72.163128047264">
    <tag k="addr:city" v="Bradford"/>
    <tag k="addr:housenumber" v="128"/>
    <tag k="addr:street" v="Brushwood Road"/>
    <tag k="addr:state" v="VT"/>
    <tag k="ref:vcgi:esiteid" v="306779"/>
  </node>
  <node id="-1350" visible="true" lat="44.031846657815" lon="-72.186262626286">
    <tag k="addr:city" v="Bradford"/>
    <tag k="addr:housenumber" v="309"/>
    <tag k="addr:street" v="Wrights Mountain Road"/>
    <tag k="addr:state" v="VT"/>
    <tag k="ref:vcgi:esiteid" v="312189"/>
  </node>
  <node id="-1382" visible="true" lat="43.975438359753" lon="-72.163336509915">
    <tag k="addr:city" v="Bradford"/>
    <tag k="addr:housenumber" v="1293"/>
    <tag k="addr:street" v="Rowell Brook Road"/>
    <tag k="addr:state" v="VT"/>
    <tag k="ref:vcgi:esiteid" v="338529"/>
  </node>
  <node id="-1398" visible="true" lat="43.986048931027" lon="-72.128548660714">
    <tag k="addr:city" v="Bradford"/>
    <tag k="addr:housenumber" v="210"/>
    <tag k="addr:street" v="Plateau Acres"/>
    <tag k="addr:state" v="VT"/>
    <tag k="ref:vcgi:esiteid" v="345857"/>
  </node>
  <node id="-1401" visible="true" lat="44.027271423449" lon="-72.199790160909">
    <tag k="addr:city" v="Bradford"/>
    <tag k="addr:housenumber" v="540"/>
    <tag k="addr:street" v="Chelsea Road"/>
    <tag k="addr:state" v="VT"/>
    <tag k="ref:vcgi:esiteid" v="365216"/>
  </node>
  <node id="-1405" visible="true" lat="43.985486468456" lon="-72.121420256723">
    <tag k="addr:city" v="Bradford"/>
    <tag k="addr:housenumber" v="52"/>
    <tag k="addr:street" v="Garden Lane"/>
    <tag k="addr:state" v="VT"/>
    <tag k="ref:vcgi:esiteid" v="445920"/>
  </node>
  <node id="-1409" visible="true" lat="44.021901190443" lon="-72.212238957157">
    <tag k="addr:city" v="Bradford"/>
    <tag k="addr:housenumber" v="1646"/>
    <tag k="addr:street" v="Chelsea Road"/>
    <tag k="addr:state" v="VT"/>
    <tag k="ref:vcgi:esiteid" v="448131"/>
  </node>
  <node id="-1410" visible="true" lat="43.984361546772" lon="-72.122925590129">
    <tag k="addr:city" v="Bradford"/>
    <tag k="addr:housenumber" v="586"/>
    <tag k="addr:street" v="Lower Plain"/>
    <tag k="addr:state" v="VT"/>
    <tag k="ref:vcgi:esiteid" v="448132"/>
  </node>
  <node id="-1411" visible="true" lat="43.976795786094" lon="-72.164757013409">
    <tag k="addr:city" v="Bradford"/>
    <tag k="addr:housenumber" v="1429"/>
    <tag k="addr:street" v="Rowell Brook Road"/>
    <tag k="addr:state" v="VT"/>
    <tag k="ref:vcgi:esiteid" v="448427"/>
  </node>
  <node id="-1412" visible="true" lat="44.031810681095" lon="-72.1945970751">
    <tag k="addr:city" v="Bradford"/>
    <tag k="addr:housenumber" v="6197"/>
    <tag k="addr:street" v="Waits River Road"/>
    <tag k="addr:state" v="VT"/>
    <tag k="ref:vcgi:esiteid" v="448428"/>
  </node>
  <node id="-1414" visible="true" lat="43.977501151092" lon="-72.159803135294">
    <tag k="addr:city" v="Bradford"/>
    <tag k="addr:housenumber" v="467"/>
    <tag k="addr:street" v="Cross Road"/>
    <tag k="addr:state" v="VT"/>
    <tag k="ref:vcgi:esiteid" v="449692"/>
  </node>
  <node id="-1435" visible="true" lat="44.033777870417" lon="-72.18778657727">
    <tag k="addr:city" v="Bradford"/>
    <tag k="addr:housenumber" v="4"/>
    <tag k="addr:street" v="Hatch Lane"/>
    <tag k="addr:state" v="VT"/>
    <tag k="ref:vcgi:esiteid" v="753487"/>
  </node>
  <node id="-1447" visible="true" lat="43.977872656626" lon="-72.118596922533">
    <tag k="addr:city" v="Bradford"/>
    <tag k="addr:housenumber" v="1147"/>
    <tag k="addr:street" v="Lower Plain"/>
    <tag k="addr:state" v="VT"/>
    <tag k="ref:vcgi:esiteid" v="760904"/>
  </node>
  <node id="-1468" visible="true" lat="44.028348675218" lon="-72.185359264627">
    <tag k="addr:city" v="Bradford"/>
    <tag k="addr:housenumber" v="5660"/>
    <tag k="addr:street" v="Waits River Road"/>
    <tag k="addr:state" v="VT"/>
    <tag k="ref:vcgi:esiteid" v="1050874"/>
  </node>
</osm>
