<?xml version="1.0" encoding="UTF-8"?>
<osm version="0.6" generator="JOSM" upload="false">
  <node id="-773" visible="true" lat="43.908234017802" lon="-72.713975321536">
    <!-- duplicates-in-different-towns: "672 Albin Hill Road, Randolph, VT"  ignoring town mismatch for duplicate housenumber/street when matching to esiteid 615122: "672 Albin Hill Road, Rochester, VT" -->
    <tag k="addr:city" v="Randolph"/>
    <tag k="addr:housenumber" v="672"/>
    <tag k="addr:street" v="Albin Hill Road"/>
    <tag k="addr:state" v="VT"/>
    <tag k="ref:vcgi:esiteid" v="202181"/>
  </node>
</osm>
