<?xml version="1.0" encoding="UTF-8"?>
<osm version="0.6" generator="JOSM" upload="false">
  <node id="-160" visible="true" lat="42.884900928177" lon="-72.557298359868">
    <!-- multiple: "1114 Putney Road, Brattleboro, VT" Multiple exact matches in OSM. -->
    <tag k="addr:city" v="Brattleboro"/>
    <tag k="addr:housenumber" v="1114"/>
    <tag k="addr:street" v="Putney Road"/>
    <tag k="addr:state" v="VT"/>
    <tag k="ref:vcgi:esiteid" v="29708"/>
  </node>
  <node id="-184" visible="true" lat="42.88174162655" lon="-72.557956381143">
    <!-- multiple: "1007 Putney Road, Brattleboro, VT" Multiple exact matches in OSM. -->
    <tag k="addr:city" v="Brattleboro"/>
    <tag k="addr:housenumber" v="1007"/>
    <tag k="addr:street" v="Putney Road"/>
    <tag k="addr:state" v="VT"/>
    <tag k="ref:vcgi:esiteid" v="29750"/>
  </node>
  <node id="-199" visible="true" lat="42.878990998522" lon="-72.561296170367">
    <!-- multiple: "896 Putney Road, Brattleboro, VT" Multiple exact matches in OSM. -->
    <tag k="addr:city" v="Brattleboro"/>
    <tag k="addr:housenumber" v="896"/>
    <tag k="addr:street" v="Putney Road"/>
    <tag k="addr:state" v="VT"/>
    <tag k="ref:vcgi:esiteid" v="29766"/>
  </node>
  <node id="-271" visible="true" lat="42.873981118975" lon="-72.559331358511">
    <!-- multiple: "707 Putney Road, Brattleboro, VT" Multiple exact matches in OSM. -->
    <tag k="addr:city" v="Brattleboro"/>
    <tag k="addr:housenumber" v="707"/>
    <tag k="addr:street" v="Putney Road"/>
    <tag k="addr:state" v="VT"/>
    <tag k="ref:vcgi:esiteid" v="29839"/>
  </node>
  <node id="-309" visible="true" lat="42.87227204933" lon="-72.559015946713">
    <!-- multiple: "648 Putney Road, Brattleboro, VT" Multiple exact matches in OSM. -->
    <tag k="addr:city" v="Brattleboro"/>
    <tag k="addr:housenumber" v="648"/>
    <tag k="addr:street" v="Putney Road"/>
    <tag k="addr:state" v="VT"/>
    <tag k="ref:vcgi:esiteid" v="29877"/>
  </node>
  <node id="-955" visible="true" lat="42.856788715758" lon="-72.559521113751">
    <!-- multiple: "37 Putney Road, Brattleboro, VT" Multiple exact matches in OSM. -->
    <tag k="addr:city" v="Brattleboro"/>
    <tag k="addr:housenumber" v="37"/>
    <tag k="addr:street" v="Putney Road"/>
    <tag k="addr:state" v="VT"/>
    <tag k="ref:vcgi:esiteid" v="30540"/>
  </node>
  <node id="-972" visible="true" lat="42.856478715991" lon="-72.558171112268">
    <!-- multiple: "48 Walnut Street, Brattleboro, VT" Multiple exact matches in OSM. -->
    <tag k="addr:city" v="Brattleboro"/>
    <tag k="addr:housenumber" v="48"/>
    <tag k="addr:street" v="Walnut Street"/>
    <tag k="addr:state" v="VT"/>
    <tag k="ref:vcgi:esiteid" v="30557"/>
  </node>
  <node id="-1146" visible="true" lat="42.855308715565" lon="-72.607251129134">
    <!-- multiple: "151 Greenleaf Street, Brattleboro, VT" Multiple exact matches in OSM. -->
    <tag k="addr:city" v="Brattleboro"/>
    <tag k="addr:housenumber" v="151"/>
    <tag k="addr:street" v="Greenleaf Street"/>
    <tag k="addr:state" v="VT"/>
    <tag k="ref:vcgi:esiteid" v="30735"/>
  </node>
  <node id="-1402" visible="true" lat="42.853738716035" lon="-72.558331113718">
    <!-- multiple: "185 Main Street, Brattleboro, VT" Multiple exact matches in OSM. -->
    <tag k="addr:city" v="Brattleboro"/>
    <tag k="addr:housenumber" v="185"/>
    <tag k="addr:street" v="Main Street"/>
    <tag k="addr:state" v="VT"/>
    <tag k="ref:vcgi:esiteid" v="31003"/>
  </node>
  <node id="-1410" visible="true" lat="42.853570665943" lon="-72.563218618091">
    <!-- multiple: "10 Oak Street, Brattleboro, VT" Multiple exact matches in OSM. -->
    <tag k="addr:city" v="Brattleboro"/>
    <tag k="addr:housenumber" v="10"/>
    <tag k="addr:street" v="Oak Street"/>
    <tag k="addr:state" v="VT"/>
    <tag k="ref:vcgi:esiteid" v="31012"/>
  </node>
  <node id="-1546" visible="true" lat="42.852968717263" lon="-72.559821112529">
    <!-- multiple: "11 Green Street, Brattleboro, VT" Multiple exact matches in OSM. -->
    <tag k="addr:city" v="Brattleboro"/>
    <tag k="addr:housenumber" v="11"/>
    <tag k="addr:street" v="Green Street"/>
    <tag k="addr:state" v="VT"/>
    <tag k="ref:vcgi:esiteid" v="31155"/>
  </node>
  <node id="-1868" visible="true" lat="42.851686125428" lon="-72.559961151431">
    <!-- multiple: "78 Elliot Street, Brattleboro, VT" Multiple exact matches in OSM. -->
    <tag k="addr:city" v="Brattleboro"/>
    <tag k="addr:housenumber" v="78"/>
    <tag k="addr:street" v="Elliot Street"/>
    <tag k="addr:state" v="VT"/>
    <tag k="ref:vcgi:esiteid" v="31481"/>
  </node>
  <node id="-1876" visible="true" lat="42.85147871475" lon="-72.596291125094">
    <!-- multiple: "814 Western Avenue, Brattleboro, VT" Multiple exact matches in OSM. -->
    <tag k="addr:city" v="Brattleboro"/>
    <tag k="addr:housenumber" v="814"/>
    <tag k="addr:street" v="Western Avenue"/>
    <tag k="addr:state" v="VT"/>
    <tag k="ref:vcgi:esiteid" v="31489"/>
  </node>
  <node id="-1900" visible="true" lat="42.851268457041" lon="-72.598053569439">
    <!-- multiple: "860 Western Avenue, Brattleboro, VT" Multiple exact matches in OSM. -->
    <tag k="addr:city" v="Brattleboro"/>
    <tag k="addr:housenumber" v="860"/>
    <tag k="addr:street" v="Western Avenue"/>
    <tag k="addr:state" v="VT"/>
    <tag k="ref:vcgi:esiteid" v="31514"/>
  </node>
  <node id="-2088" visible="true" lat="42.850238715686" lon="-72.560231113423">
    <!-- multiple: "80 Flat Street, Brattleboro, VT" Multiple exact matches in OSM. -->
    <tag k="addr:city" v="Brattleboro"/>
    <tag k="addr:housenumber" v="80"/>
    <tag k="addr:street" v="Flat Street"/>
    <tag k="addr:state" v="VT"/>
    <tag k="ref:vcgi:esiteid" v="31706"/>
  </node>
  <node id="-2174" visible="true" lat="42.850171109285" lon="-72.558739513086">
    <!-- multiple: "19 Canal Street, Brattleboro, VT" Multiple exact matches in OSM. -->
    <tag k="addr:city" v="Brattleboro"/>
    <tag k="addr:housenumber" v="19"/>
    <tag k="addr:street" v="Canal Street"/>
    <tag k="addr:state" v="VT"/>
    <tag k="ref:vcgi:esiteid" v="31793"/>
  </node>
  <node id="-2900" visible="true" lat="42.845638715228" lon="-72.562801113412">
    <!-- multiple: "228 Canal Street, Brattleboro, VT" Multiple exact matches in OSM. -->
    <tag k="addr:city" v="Brattleboro"/>
    <tag k="addr:housenumber" v="228"/>
    <tag k="addr:street" v="Canal Street"/>
    <tag k="addr:state" v="VT"/>
    <tag k="ref:vcgi:esiteid" v="32530"/>
  </node>
  <node id="-2910" visible="true" lat="42.845588714255" lon="-72.567991115494">
    <!-- multiple: "11 Cottage Street, Brattleboro, VT" Multiple exact matches in OSM. -->
    <tag k="addr:city" v="Brattleboro"/>
    <tag k="addr:housenumber" v="11"/>
    <tag k="addr:street" v="Cottage Street"/>
    <tag k="addr:state" v="VT"/>
    <tag k="ref:vcgi:esiteid" v="32540"/>
  </node>
  <node id="-3006" visible="true" lat="42.845058715786" lon="-72.562871114522">
    <!-- multiple: "250 Canal Street, Brattleboro, VT" Multiple exact matches in OSM. -->
    <tag k="addr:city" v="Brattleboro"/>
    <tag k="addr:housenumber" v="250"/>
    <tag k="addr:street" v="Canal Street"/>
    <tag k="addr:state" v="VT"/>
    <tag k="ref:vcgi:esiteid" v="32639"/>
  </node>
  <node id="-3793" visible="true" lat="42.840631898386" lon="-72.564186478213">
    <!-- multiple: "414 Canal Street, Brattleboro, VT" Multiple exact matches in OSM. -->
    <tag k="addr:city" v="Brattleboro"/>
    <tag k="addr:housenumber" v="414"/>
    <tag k="addr:street" v="Canal Street"/>
    <tag k="addr:state" v="VT"/>
    <tag k="ref:vcgi:esiteid" v="33428"/>
  </node>
  <node id="-3803" visible="true" lat="42.84040367581" lon="-72.564983673021">
    <!-- multiple: "429 Canal Street, Brattleboro, VT" Multiple exact matches in OSM. -->
    <tag k="addr:city" v="Brattleboro"/>
    <tag k="addr:housenumber" v="429"/>
    <tag k="addr:street" v="Canal Street"/>
    <tag k="addr:state" v="VT"/>
    <tag k="ref:vcgi:esiteid" v="33438"/>
  </node>
  <node id="-3896" visible="true" lat="42.83948484297" lon="-72.565349513905">
    <!-- multiple: "469 Canal Street, Brattleboro, VT" Multiple exact matches in OSM. -->
    <tag k="addr:city" v="Brattleboro"/>
    <tag k="addr:housenumber" v="469"/>
    <tag k="addr:street" v="Canal Street"/>
    <tag k="addr:state" v="VT"/>
    <tag k="ref:vcgi:esiteid" v="33534"/>
  </node>
  <node id="-4042" visible="true" lat="42.836778713127" lon="-72.565511115033">
    <!-- multiple: "564 Canal Street, Brattleboro, VT" Multiple exact matches in OSM. -->
    <tag k="addr:city" v="Brattleboro"/>
    <tag k="addr:housenumber" v="564"/>
    <tag k="addr:street" v="Canal Street"/>
    <tag k="addr:state" v="VT"/>
    <tag k="ref:vcgi:esiteid" v="33681"/>
  </node>
  <node id="-4048" visible="true" lat="42.836747263851" lon="-72.56126819975">
    <!-- multiple: "131 Fairground Road, Brattleboro, VT" Multiple exact matches in OSM. -->
    <tag k="addr:city" v="Brattleboro"/>
    <tag k="addr:housenumber" v="131"/>
    <tag k="addr:street" v="Fairground Road"/>
    <tag k="addr:state" v="VT"/>
    <tag k="ref:vcgi:esiteid" v="33688"/>
  </node>
  <node id="-4504" visible="true" lat="42.879548720349" lon="-72.576431120704">
    <!-- multiple: "485 West River Road, Brattleboro, VT" Multiple exact matches in OSM. -->
    <tag k="addr:city" v="Brattleboro"/>
    <tag k="addr:housenumber" v="485"/>
    <tag k="addr:street" v="West River Road"/>
    <tag k="addr:state" v="VT"/>
    <tag k="ref:vcgi:esiteid" v="34163"/>
  </node>
  <node id="-4842" visible="true" lat="42.865629802447" lon="-72.615893692163">
    <!-- multiple: "328 Marlboro Road, Brattleboro, VT" Multiple exact matches in OSM. -->
    <tag k="addr:city" v="Brattleboro"/>
    <tag k="addr:housenumber" v="328"/>
    <tag k="addr:street" v="Marlboro Road"/>
    <tag k="addr:state" v="VT"/>
    <tag k="ref:vcgi:esiteid" v="34511"/>
  </node>
  <node id="-5323" visible="true" lat="42.836202249911" lon="-72.587828478145">
    <!-- multiple: "99 Stafford Farm Hill, Brattleboro, VT" Multiple exact matches in OSM. -->
    <tag k="addr:city" v="Brattleboro"/>
    <tag k="addr:housenumber" v="99"/>
    <tag k="addr:street" v="Stafford Farm Hill"/>
    <tag k="addr:state" v="VT"/>
    <tag k="ref:vcgi:esiteid" v="35008"/>
  </node>
  <node id="-6128" visible="true" lat="42.851328600357" lon="-72.557729373046">
    <!-- multiple: "50 Main Street, Brattleboro, VT" Multiple exact matches in OSM. -->
    <tag k="addr:city" v="Brattleboro"/>
    <tag k="addr:housenumber" v="50"/>
    <tag k="addr:street" v="Main Street"/>
    <tag k="addr:state" v="VT"/>
    <tag k="ref:vcgi:esiteid" v="36261"/>
  </node>
  <node id="-6232" visible="true" lat="42.853362494649" lon="-72.558107894999">
    <!-- multiple: "167 Main Street, Brattleboro, VT" Multiple exact matches in OSM. -->
    <tag k="addr:city" v="Brattleboro"/>
    <tag k="addr:housenumber" v="167"/>
    <tag k="addr:street" v="Main Street"/>
    <tag k="addr:state" v="VT"/>
    <tag k="ref:vcgi:esiteid" v="36376"/>
  </node>
  <node id="-6280" visible="true" lat="42.8519728973" lon="-72.5599490863">
    <!-- multiple: "75 Elliot Street, Brattleboro, VT" Multiple exact matches in OSM. -->
    <tag k="addr:city" v="Brattleboro"/>
    <tag k="addr:housenumber" v="75"/>
    <tag k="addr:street" v="Elliot Street"/>
    <tag k="addr:state" v="VT"/>
    <tag k="ref:vcgi:esiteid" v="36429"/>
  </node>
  <node id="-6344" visible="true" lat="42.866306684578" lon="-72.616044487342">
    <!-- multiple: "317 Marlboro Road, Brattleboro, VT" Multiple exact matches in OSM. -->
    <tag k="addr:city" v="Brattleboro"/>
    <tag k="addr:housenumber" v="317"/>
    <tag k="addr:street" v="Marlboro Road"/>
    <tag k="addr:state" v="VT"/>
    <tag k="ref:vcgi:esiteid" v="332355"/>
  </node>
</osm>
