<?xml version="1.0" encoding="UTF-8"?>
<osm version="0.6" generator="JOSM" upload="false">
  <node id="-818" visible="true" lat="44.030953130056" lon="-73.298103794797">
    <!-- duplicates-in-different-towns: "132 Town Line Road, Vergennes, VT"  ignoring town mismatch for duplicate housenumber/street when matching to esiteid 1120: "132 Town Line Road, Addison, VT" -->
    <tag k="addr:city" v="Vergennes"/>
    <tag k="addr:housenumber" v="132"/>
    <tag k="addr:street" v="Town Line Road"/>
    <tag k="addr:state" v="VT"/>
    <tag k="ref:vcgi:esiteid" v="448645"/>
  </node>
  <node id="-827" visible="true" lat="44.030114124112" lon="-73.306385592764">
    <!-- duplicates-in-different-towns: "480 Town Line Road, Vergennes, VT"  ignoring town mismatch for duplicate housenumber/street when matching to esiteid 337623: "480 Town Line Road, Addison, VT" -->
    <tag k="addr:city" v="Vergennes"/>
    <tag k="addr:housenumber" v="480"/>
    <tag k="addr:street" v="Town Line Road"/>
    <tag k="addr:state" v="VT"/>
    <tag k="ref:vcgi:esiteid" v="454624"/>
  </node>
</osm>
