<?xml version="1.0" encoding="UTF-8"?>
<osm version="0.6" generator="JOSM" upload="false">
  <node id="-795" visible="true" lat="43.945002643892" lon="-73.320667783767">
    <!-- offset: "504 North Cream Hill Road, Bridport, VT" Significant offset - 351.2m -->
    <tag k="addr:city" v="Bridport"/>
    <tag k="addr:housenumber" v="504"/>
    <tag k="addr:street" v="North Cream Hill Road"/>
    <tag k="addr:state" v="VT"/>
    <tag k="ref:vcgi:esiteid" v="307703"/>
  </node>
  <node id="-866" visible="true" lat="43.9891345651" lon="-73.398483404103">
    <!-- offset: "1578 Lake Street, Bridport, VT" Significant offset - 139.7m -->
    <tag k="addr:city" v="Bridport"/>
    <tag k="addr:housenumber" v="1578"/>
    <tag k="addr:street" v="Lake Street"/>
    <tag k="addr:state" v="VT"/>
    <tag k="ref:vcgi:esiteid" v="767947"/>
  </node>
  <node id="-875" visible="true" lat="44.031184173057" lon="-73.29290852045">
    <!-- offset: "2786 East Street, Bridport, VT" Significant offset - 101.3m -->
    <tag k="addr:city" v="Bridport"/>
    <tag k="addr:housenumber" v="2786"/>
    <tag k="addr:street" v="East Street"/>
    <tag k="addr:state" v="VT"/>
    <tag k="ref:vcgi:esiteid" v="770150"/>
  </node>
</osm>
