<?xml version="1.0" encoding="UTF-8"?>
<osm version="0.6" generator="JOSM" upload="false">
  <node id="-167" visible="true" lat="44.645270287384" lon="-71.979088266787">
    <tag k="addr:city" v="West Burke"/>
    <tag k="addr:housenumber" v="212"/>
    <tag k="addr:street" v="School Street"/>
    <tag k="addr:state" v="VT"/>
    <tag k="ref:vcgi:esiteid" v="41886"/>
  </node>
  <node id="-239" visible="true" lat="44.640748502883" lon="-71.983170596504">
    <tag k="addr:city" v="West Burke"/>
    <tag k="addr:housenumber" v="40"/>
    <tag k="addr:street" v="Depot Street"/>
    <tag k="addr:state" v="VT"/>
    <tag k="ref:vcgi:esiteid" v="41962"/>
  </node>
  <node id="-700" visible="true" lat="44.589543460565" lon="-71.942469408029">
    <tag k="addr:city" v="East Burke"/>
    <tag k="addr:housenumber" v="611"/>
    <tag k="addr:street" v="Vermont Route 114"/>
    <tag k="addr:state" v="VT"/>
    <tag k="ref:vcgi:esiteid" v="42432"/>
  </node>
  <node id="-709" visible="true" lat="44.588869793831" lon="-71.942249256532">
    <tag k="addr:city" v="East Burke"/>
    <tag k="addr:housenumber" v="603"/>
    <tag k="addr:street" v="Vermont Route 114"/>
    <tag k="addr:state" v="VT"/>
    <tag k="ref:vcgi:esiteid" v="42442"/>
  </node>
  <node id="-711" visible="true" lat="44.588454045232" lon="-71.941387290058">
    <tag k="addr:city" v="East Burke"/>
    <tag k="addr:housenumber" v="654"/>
    <tag k="addr:street" v="Vermont Route 114"/>
    <tag k="addr:state" v="VT"/>
    <tag k="ref:vcgi:esiteid" v="42444"/>
  </node>
  <node id="-725" visible="true" lat="44.588434638225" lon="-71.944853429431">
    <tag k="addr:city" v="East Burke"/>
    <tag k="addr:housenumber" v="461"/>
    <tag k="addr:street" v="Vermont Route 114"/>
    <tag k="addr:state" v="VT"/>
    <tag k="ref:vcgi:esiteid" v="42459"/>
  </node>
  <node id="-933" visible="true" lat="44.586643507822" lon="-71.944561951886">
    <tag k="addr:city" v="East Burke"/>
    <tag k="addr:housenumber" v="44"/>
    <tag k="addr:street" v="Belden Hill"/>
    <tag k="addr:state" v="VT"/>
    <tag k="ref:vcgi:esiteid" v="42673"/>
  </node>
  <node id="-1025" visible="true" lat="44.641464746071" lon="-71.967823176907">
    <tag k="addr:city" v="West Burke"/>
    <tag k="addr:housenumber" v="4136"/>
    <tag k="addr:street" v="Burke Hollow Road"/>
    <tag k="addr:state" v="VT"/>
    <tag k="ref:vcgi:esiteid" v="308698"/>
  </node>
</osm>
