<?xml version="1.0" encoding="UTF-8"?>
<osm version="0.6" generator="JOSM" upload="false">
  <node id="-693" visible="true" lat="44.520011779475" lon="-73.25665227847">
    <!-- duplicates-in-different-towns: "155 Plattsburg Avenue, North Burlington, VT"  ignoring town mismatch for duplicate housenumber/street when matching to esiteid 615775: "155 Plattsburg Avenue, Burlington, VT" -->
    <tag k="addr:city" v="North Burlington"/>
    <tag k="addr:housenumber" v="155"/>
    <tag k="addr:street" v="Plattsburg Avenue"/>
    <tag k="addr:state" v="VT"/>
    <tag k="ref:vcgi:esiteid" v="43347"/>
  </node>
  <node id="-694" visible="true" lat="44.52026406307" lon="-73.256611529591">
    <!-- duplicates-in-different-towns: "155 Plattsburg Avenue, North Burlington, VT"  ignoring town mismatch for duplicate housenumber/street when matching to esiteid 615775: "155 Plattsburg Avenue, Burlington, VT" -->
    <tag k="addr:city" v="North Burlington"/>
    <tag k="addr:housenumber" v="155"/>
    <tag k="addr:street" v="Plattsburg Avenue"/>
    <tag k="addr:state" v="VT"/>
    <tag k="ref:vcgi:esiteid" v="43348"/>
  </node>
  <node id="-695" visible="true" lat="44.520168103423" lon="-73.256981616153">
    <!-- duplicates-in-different-towns: "155 Plattsburg Avenue, North Burlington, VT"  ignoring town mismatch for duplicate housenumber/street when matching to esiteid 615775: "155 Plattsburg Avenue, Burlington, VT" -->
    <tag k="addr:city" v="North Burlington"/>
    <tag k="addr:housenumber" v="155"/>
    <tag k="addr:street" v="Plattsburg Avenue"/>
    <tag k="addr:state" v="VT"/>
    <tag k="ref:vcgi:esiteid" v="43349"/>
  </node>
  <node id="-737" visible="true" lat="44.521411551929" lon="-73.268246956597">
    <!-- duplicates-in-different-towns: "67 Northshore Drive, North Burlington, VT"  ignoring town mismatch for duplicate housenumber/street when matching to esiteid 43390: "67 Northshore Drive, Burlington, VT" -->
    <tag k="addr:city" v="North Burlington"/>
    <tag k="addr:housenumber" v="67"/>
    <tag k="addr:street" v="Northshore Drive"/>
    <tag k="addr:state" v="VT"/>
    <tag k="ref:vcgi:esiteid" v="43391"/>
  </node>
  <node id="-965" visible="true" lat="44.515052982664" lon="-73.260376424802">
    <!-- duplicates-in-different-towns: "84 West Road, North Burlington, VT"  ignoring town mismatch for duplicate housenumber/street when matching to esiteid 43618: "84 West Road, Burlington, VT" -->
    <tag k="addr:city" v="North Burlington"/>
    <tag k="addr:housenumber" v="84"/>
    <tag k="addr:street" v="West Road"/>
    <tag k="addr:state" v="VT"/>
    <tag k="ref:vcgi:esiteid" v="43619"/>
  </node>
  <node id="-1347" visible="true" lat="44.513561850843" lon="-73.241665441167">
    <!-- duplicates-in-different-towns: "355 Ethan Allen Parkway, North Burlington, VT"  ignoring town mismatch for duplicate housenumber/street when matching to esiteid 44002: "355 Ethan Allen Parkway, Burlington, VT" -->
    <tag k="addr:city" v="North Burlington"/>
    <tag k="addr:housenumber" v="355"/>
    <tag k="addr:street" v="Ethan Allen Parkway"/>
    <tag k="addr:state" v="VT"/>
    <tag k="ref:vcgi:esiteid" v="44001"/>
  </node>
  <node id="-1349" visible="true" lat="44.513024077926" lon="-73.241654901164">
    <!-- duplicates-in-different-towns: "355 Ethan Allen Parkway, North Burlington, VT"  ignoring town mismatch for duplicate housenumber/street when matching to esiteid 44002: "355 Ethan Allen Parkway, Burlington, VT" -->
    <tag k="addr:city" v="North Burlington"/>
    <tag k="addr:housenumber" v="355"/>
    <tag k="addr:street" v="Ethan Allen Parkway"/>
    <tag k="addr:state" v="VT"/>
    <tag k="ref:vcgi:esiteid" v="44003"/>
  </node>
  <node id="-1455" visible="true" lat="44.511439182594" lon="-73.243209282326">
    <!-- duplicates-in-different-towns: "282 Ethan Allen Parkway, North Burlington, VT"  ignoring town mismatch for duplicate housenumber/street when matching to esiteid 44110: "282 Ethan Allen Parkway, Burlington, VT" -->
    <tag k="addr:city" v="North Burlington"/>
    <tag k="addr:housenumber" v="282"/>
    <tag k="addr:street" v="Ethan Allen Parkway"/>
    <tag k="addr:state" v="VT"/>
    <tag k="ref:vcgi:esiteid" v="44109"/>
  </node>
  <node id="-1457" visible="true" lat="44.511481717237" lon="-73.242153780806">
    <!-- duplicates-in-different-towns: "282 Ethan Allen Parkway, North Burlington, VT"  ignoring town mismatch for duplicate housenumber/street when matching to esiteid 44110: "282 Ethan Allen Parkway, Burlington, VT" -->
    <tag k="addr:city" v="North Burlington"/>
    <tag k="addr:housenumber" v="282"/>
    <tag k="addr:street" v="Ethan Allen Parkway"/>
    <tag k="addr:state" v="VT"/>
    <tag k="ref:vcgi:esiteid" v="44111"/>
  </node>
  <node id="-1488" visible="true" lat="44.511740632386" lon="-73.250776394895">
    <!-- duplicates-in-different-towns: "1356 North Avenue, North Burlington, VT"  ignoring town mismatch for duplicate housenumber/street when matching to esiteid 768188: "1356 North Avenue, Burlington, VT" -->
    <tag k="addr:city" v="North Burlington"/>
    <tag k="addr:housenumber" v="1356"/>
    <tag k="addr:street" v="North Avenue"/>
    <tag k="addr:state" v="VT"/>
    <tag k="ref:vcgi:esiteid" v="44142"/>
  </node>
  <node id="-1585" visible="true" lat="44.513793776876" lon="-73.255496099278">
    <!-- duplicates-in-different-towns: "1489 North Avenue, North Burlington, VT"  ignoring town mismatch for duplicate housenumber/street when matching to esiteid 44238: "1489 North Avenue, Burlington, VT" -->
    <tag k="addr:city" v="North Burlington"/>
    <tag k="addr:housenumber" v="1489"/>
    <tag k="addr:street" v="North Avenue"/>
    <tag k="addr:state" v="VT"/>
    <tag k="ref:vcgi:esiteid" v="44239"/>
  </node>
  <node id="-1588" visible="true" lat="44.514011155325" lon="-73.25516385648">
    <!-- duplicates-in-different-towns: "1489 North Avenue, North Burlington, VT"  ignoring town mismatch for duplicate housenumber/street when matching to esiteid 44238: "1489 North Avenue, Burlington, VT" -->
    <tag k="addr:city" v="North Burlington"/>
    <tag k="addr:housenumber" v="1489"/>
    <tag k="addr:street" v="North Avenue"/>
    <tag k="addr:state" v="VT"/>
    <tag k="ref:vcgi:esiteid" v="44242"/>
  </node>
  <node id="-1589" visible="true" lat="44.513995014624" lon="-73.254901576914">
    <!-- duplicates-in-different-towns: "1489 North Avenue, North Burlington, VT"  ignoring town mismatch for duplicate housenumber/street when matching to esiteid 44238: "1489 North Avenue, Burlington, VT" -->
    <tag k="addr:city" v="North Burlington"/>
    <tag k="addr:housenumber" v="1489"/>
    <tag k="addr:street" v="North Avenue"/>
    <tag k="addr:state" v="VT"/>
    <tag k="ref:vcgi:esiteid" v="44243"/>
  </node>
  <node id="-2953" visible="true" lat="44.508132897933" lon="-73.231617421395">
    <!-- duplicates-in-different-towns: "1 Ethan Allen Homestead, North Burlington, VT"  ignoring town mismatch for duplicate housenumber/street when matching to esiteid 45620: "1 Ethan Allen Homestead, Burlington, VT" -->
    <tag k="addr:city" v="North Burlington"/>
    <tag k="addr:housenumber" v="1"/>
    <tag k="addr:street" v="Ethan Allen Homestead"/>
    <tag k="addr:state" v="VT"/>
    <tag k="ref:vcgi:esiteid" v="45617"/>
  </node>
  <node id="-2954" visible="true" lat="44.508546709951" lon="-73.231321201655">
    <!-- duplicates-in-different-towns: "1 Ethan Allen Homestead, North Burlington, VT"  ignoring town mismatch for duplicate housenumber/street when matching to esiteid 45620: "1 Ethan Allen Homestead, Burlington, VT" -->
    <tag k="addr:city" v="North Burlington"/>
    <tag k="addr:housenumber" v="1"/>
    <tag k="addr:street" v="Ethan Allen Homestead"/>
    <tag k="addr:state" v="VT"/>
    <tag k="ref:vcgi:esiteid" v="45618"/>
  </node>
  <node id="-2994" visible="true" lat="44.502498491585" lon="-73.238493880777">
    <!-- duplicates-in-different-towns: "914 North Avenue, North Burlington, VT"  ignoring town mismatch for duplicate housenumber/street when matching to esiteid 768238: "914 North Avenue, Burlington, VT" -->
    <tag k="addr:city" v="North Burlington"/>
    <tag k="addr:housenumber" v="914"/>
    <tag k="addr:street" v="North Avenue"/>
    <tag k="addr:state" v="VT"/>
    <tag k="ref:vcgi:esiteid" v="45658"/>
  </node>
  <node id="-3224" visible="true" lat="44.505147555602" lon="-73.242050368479">
    <!-- duplicates-in-different-towns: "1044 North Avenue, North Burlington, VT"  ignoring town mismatch for duplicate housenumber/street when matching to esiteid 365475: "1044 North Avenue, Burlington, VT" -->
    <tag k="addr:city" v="North Burlington"/>
    <tag k="addr:housenumber" v="1044"/>
    <tag k="addr:street" v="North Avenue"/>
    <tag k="addr:state" v="VT"/>
    <tag k="ref:vcgi:esiteid" v="45888"/>
  </node>
  <node id="-3231" visible="true" lat="44.505596142394" lon="-73.241132296866">
    <!-- duplicates-in-different-towns: "76 Ethan Allen Parkway, North Burlington, VT"  ignoring town mismatch for duplicate housenumber/street when matching to esiteid 45894: "76 Ethan Allen Parkway, Burlington, VT" -->
    <tag k="addr:city" v="North Burlington"/>
    <tag k="addr:housenumber" v="76"/>
    <tag k="addr:street" v="Ethan Allen Parkway"/>
    <tag k="addr:state" v="VT"/>
    <tag k="ref:vcgi:esiteid" v="45895"/>
  </node>
  <node id="-3232" visible="true" lat="44.506105138519" lon="-73.242101074389">
    <!-- duplicates-in-different-towns: "96 Ethan Allen Parkway, North Burlington, VT"  ignoring town mismatch for duplicate housenumber/street when matching to esiteid 45897: "96 Ethan Allen Parkway, Burlington, VT" -->
    <tag k="addr:city" v="North Burlington"/>
    <tag k="addr:housenumber" v="96"/>
    <tag k="addr:street" v="Ethan Allen Parkway"/>
    <tag k="addr:state" v="VT"/>
    <tag k="ref:vcgi:esiteid" v="45896"/>
  </node>
  <node id="-3234" visible="true" lat="44.506167257453" lon="-73.241335245496">
    <!-- duplicates-in-different-towns: "96 Ethan Allen Parkway, North Burlington, VT"  ignoring town mismatch for duplicate housenumber/street when matching to esiteid 45897: "96 Ethan Allen Parkway, Burlington, VT" -->
    <tag k="addr:city" v="North Burlington"/>
    <tag k="addr:housenumber" v="96"/>
    <tag k="addr:street" v="Ethan Allen Parkway"/>
    <tag k="addr:state" v="VT"/>
    <tag k="ref:vcgi:esiteid" v="45898"/>
  </node>
  <node id="-3235" visible="true" lat="44.505969643442" lon="-73.241209117045">
    <!-- duplicates-in-different-towns: "90 Ethan Allen Parkway, North Burlington, VT"  ignoring town mismatch for duplicate housenumber/street when matching to esiteid 769947: "90 Ethan Allen Parkway, Burlington, VT" -->
    <tag k="addr:city" v="North Burlington"/>
    <tag k="addr:housenumber" v="90"/>
    <tag k="addr:street" v="Ethan Allen Parkway"/>
    <tag k="addr:state" v="VT"/>
    <tag k="ref:vcgi:esiteid" v="45899"/>
  </node>
  <node id="-3544" visible="true" lat="44.497595307218" lon="-73.232342418971">
    <!-- duplicates-in-different-towns: "602 North Avenue, North Burlington, VT"  ignoring town mismatch for duplicate housenumber/street when matching to esiteid 46234: "602 North Avenue, Burlington, VT" -->
    <tag k="addr:city" v="North Burlington"/>
    <tag k="addr:housenumber" v="602"/>
    <tag k="addr:street" v="North Avenue"/>
    <tag k="addr:state" v="VT"/>
    <tag k="ref:vcgi:esiteid" v="46209"/>
  </node>
  <node id="-3545" visible="true" lat="44.497813291403" lon="-73.232096768998">
    <!-- duplicates-in-different-towns: "602 North Avenue, North Burlington, VT"  ignoring town mismatch for duplicate housenumber/street when matching to esiteid 46234: "602 North Avenue, Burlington, VT" -->
    <tag k="addr:city" v="North Burlington"/>
    <tag k="addr:housenumber" v="602"/>
    <tag k="addr:street" v="North Avenue"/>
    <tag k="addr:state" v="VT"/>
    <tag k="ref:vcgi:esiteid" v="46210"/>
  </node>
  <node id="-3579" visible="true" lat="44.497402555089" lon="-73.231637331202">
    <!-- duplicates-in-different-towns: "602 North Avenue, North Burlington, VT"  ignoring town mismatch for duplicate housenumber/street when matching to esiteid 46234: "602 North Avenue, Burlington, VT" -->
    <tag k="addr:city" v="North Burlington"/>
    <tag k="addr:housenumber" v="602"/>
    <tag k="addr:street" v="North Avenue"/>
    <tag k="addr:state" v="VT"/>
    <tag k="ref:vcgi:esiteid" v="46244"/>
  </node>
  <node id="-6284" visible="true" lat="44.479343720074" lon="-73.198077902161">
    <!-- duplicates-in-different-towns: "33 Colchester Avenue, Univeristy of Vermont, VT"  ignoring town mismatch for duplicate housenumber/street when matching to esiteid 48996: "33 Colchester Avenue, Burlington, VT" -->
    <tag k="addr:city" v="Univeristy of Vermont"/>
    <tag k="addr:housenumber" v="33"/>
    <tag k="addr:street" v="Colchester Avenue"/>
    <tag k="addr:state" v="VT"/>
    <tag k="ref:vcgi:esiteid" v="48994"/>
  </node>
  <node id="-6286" visible="true" lat="44.479787522669" lon="-73.197801093724">
    <!-- duplicates-in-different-towns: "43 Colchester Avenue, Univeristy of Vermont, VT"  ignoring town mismatch for duplicate housenumber/street when matching to esiteid 48994: "43 Colchester Avenue, Burlington, VT" -->
    <tag k="addr:city" v="Univeristy of Vermont"/>
    <tag k="addr:housenumber" v="43"/>
    <tag k="addr:street" v="Colchester Avenue"/>
    <tag k="addr:state" v="VT"/>
    <tag k="ref:vcgi:esiteid" v="48996"/>
  </node>
  <node id="-7225" visible="true" lat="44.471753246565" lon="-73.193825154699">
    <!-- duplicates-in-different-towns: "67 Spear Street, Univeristy of Vermont, VT"  ignoring town mismatch for duplicate housenumber/street when matching to esiteid 610675: "67 Spear Street, South Burlington, VT" -->
    <tag k="addr:city" v="Univeristy of Vermont"/>
    <tag k="addr:housenumber" v="67"/>
    <tag k="addr:street" v="Spear Street"/>
    <tag k="addr:state" v="VT"/>
    <tag k="ref:vcgi:esiteid" v="49966"/>
  </node>
  <node id="-7226" visible="true" lat="44.472768316917" lon="-73.193654882907">
    <!-- duplicates-in-different-towns: "31 Spear Street, Univeristy of Vermont, VT"  ignoring town mismatch for duplicate housenumber/street when matching to esiteid 610674: "31 Spear Street, South Burlington, VT" -->
    <tag k="addr:city" v="Univeristy of Vermont"/>
    <tag k="addr:housenumber" v="31"/>
    <tag k="addr:street" v="Spear Street"/>
    <tag k="addr:state" v="VT"/>
    <tag k="ref:vcgi:esiteid" v="49967"/>
  </node>
  <node id="-8852" visible="true" lat="44.455989678453" lon="-73.193669373005">
    <!-- duplicates-in-different-towns: "655 Spear Street, Univeristy of Vermont, VT"  ignoring town mismatch for duplicate housenumber/street when matching to esiteid 610677: "655 Spear Street, South Burlington, VT" -->
    <tag k="addr:city" v="Univeristy of Vermont"/>
    <tag k="addr:housenumber" v="655"/>
    <tag k="addr:street" v="Spear Street"/>
    <tag k="addr:state" v="VT"/>
    <tag k="ref:vcgi:esiteid" v="51622"/>
  </node>
  <node id="-10570" visible="true" lat="44.512431635627" lon="-73.260404097258">
    <!-- duplicates-in-different-towns: "152 Cottage Grove, North Burlington, VT"  ignoring town mismatch for duplicate housenumber/street when matching to esiteid 44439: "152 Cottage Grove, Burlington, VT" -->
    <tag k="addr:city" v="North Burlington"/>
    <tag k="addr:housenumber" v="152"/>
    <tag k="addr:street" v="Cottage Grove"/>
    <tag k="addr:state" v="VT"/>
    <tag k="ref:vcgi:esiteid" v="54046"/>
  </node>
  <node id="-12138" visible="true" lat="44.505311028941" lon="-73.241645971638">
    <!-- duplicates-in-different-towns: "1044 North Avenue, North Burlington, VT"  ignoring town mismatch for duplicate housenumber/street when matching to esiteid 365475: "1044 North Avenue, Burlington, VT" -->
    <tag k="addr:city" v="North Burlington"/>
    <tag k="addr:housenumber" v="1044"/>
    <tag k="addr:street" v="North Avenue"/>
    <tag k="addr:state" v="VT"/>
    <tag k="ref:vcgi:esiteid" v="365476"/>
  </node>
  <node id="-12156" visible="true" lat="44.469954539559" lon="-73.197501274935">
    <!-- duplicates-in-different-towns: "384 South Prospect Street, Univeristy of Vermont, VT"  ignoring town mismatch for duplicate housenumber/street when matching to esiteid 758707: "384 South Prospect Street, Burlington, VT" -->
    <tag k="addr:city" v="Univeristy of Vermont"/>
    <tag k="addr:housenumber" v="384"/>
    <tag k="addr:street" v="South Prospect Street"/>
    <tag k="addr:state" v="VT"/>
    <tag k="ref:vcgi:esiteid" v="446106"/>
  </node>
  <node id="-12316" visible="true" lat="44.520306502166" lon="-73.256788958568">
    <!-- duplicates-in-different-towns: "155 Plattsburg Avenue, North Burlington, VT"  ignoring town mismatch for duplicate housenumber/street when matching to esiteid 615775: "155 Plattsburg Avenue, Burlington, VT" -->
    <tag k="addr:city" v="North Burlington"/>
    <tag k="addr:housenumber" v="155"/>
    <tag k="addr:street" v="Plattsburg Avenue"/>
    <tag k="addr:state" v="VT"/>
    <tag k="ref:vcgi:esiteid" v="615773"/>
  </node>
  <node id="-12317" visible="true" lat="44.51988719967" lon="-73.256248370661">
    <!-- duplicates-in-different-towns: "155 Plattsburg Avenue, North Burlington, VT"  ignoring town mismatch for duplicate housenumber/street when matching to esiteid 615775: "155 Plattsburg Avenue, Burlington, VT" -->
    <tag k="addr:city" v="North Burlington"/>
    <tag k="addr:housenumber" v="155"/>
    <tag k="addr:street" v="Plattsburg Avenue"/>
    <tag k="addr:state" v="VT"/>
    <tag k="ref:vcgi:esiteid" v="615774"/>
  </node>
  <node id="-12871" visible="true" lat="44.505701017477" lon="-73.241530153219">
    <!-- duplicates-in-different-towns: "90 Ethan Allen Parkway, North Burlington, VT"  ignoring town mismatch for duplicate housenumber/street when matching to esiteid 769947: "90 Ethan Allen Parkway, Burlington, VT" -->
    <tag k="addr:city" v="North Burlington"/>
    <tag k="addr:housenumber" v="90"/>
    <tag k="addr:street" v="Ethan Allen Parkway"/>
    <tag k="addr:state" v="VT"/>
    <tag k="ref:vcgi:esiteid" v="769860"/>
  </node>
  <node id="-12872" visible="true" lat="44.505679255833" lon="-73.241652003938">
    <!-- duplicates-in-different-towns: "90 Ethan Allen Parkway, North Burlington, VT"  ignoring town mismatch for duplicate housenumber/street when matching to esiteid 769947: "90 Ethan Allen Parkway, Burlington, VT" -->
    <tag k="addr:city" v="North Burlington"/>
    <tag k="addr:housenumber" v="90"/>
    <tag k="addr:street" v="Ethan Allen Parkway"/>
    <tag k="addr:state" v="VT"/>
    <tag k="ref:vcgi:esiteid" v="769861"/>
  </node>
  <node id="-12873" visible="true" lat="44.505718459092" lon="-73.241755936619">
    <!-- duplicates-in-different-towns: "90 Ethan Allen Parkway, North Burlington, VT"  ignoring town mismatch for duplicate housenumber/street when matching to esiteid 769947: "90 Ethan Allen Parkway, Burlington, VT" -->
    <tag k="addr:city" v="North Burlington"/>
    <tag k="addr:housenumber" v="90"/>
    <tag k="addr:street" v="Ethan Allen Parkway"/>
    <tag k="addr:state" v="VT"/>
    <tag k="ref:vcgi:esiteid" v="769862"/>
  </node>
</osm>
