<?xml version="1.0" encoding="UTF-8"?>
<osm version="0.6" generator="JOSM" upload="false">
  <node id="-184" visible="true" lat="44.427712869954" lon="-72.33337516709">
    <tag k="addr:city" v="Cabot"/>
    <tag k="addr:housenumber" v="993"/>
    <tag k="addr:street" v="Coits Pond Road"/>
    <tag k="addr:state" v="VT"/>
    <tag k="ref:vcgi:esiteid" v="55612"/>
  </node>
  <node id="-237" visible="true" lat="44.419094763067" lon="-72.349227817719">
    <tag k="addr:city" v="Cabot"/>
    <tag k="addr:housenumber" v="3821"/>
    <tag k="addr:street" v="Cabot Road"/>
    <tag k="addr:state" v="VT"/>
    <tag k="ref:vcgi:esiteid" v="55665"/>
  </node>
  <node id="-413" visible="true" lat="44.403462834878" lon="-72.309525670025">
    <tag k="addr:city" v="Cabot"/>
    <tag k="addr:housenumber" v="25"/>
    <tag k="addr:street" v="Common Road"/>
    <tag k="addr:state" v="VT"/>
    <tag k="ref:vcgi:esiteid" v="55843"/>
  </node>
  <node id="-423" visible="true" lat="44.402692265661" lon="-72.31115073019">
    <tag k="addr:city" v="Cabot"/>
    <tag k="addr:housenumber" v="3109"/>
    <tag k="addr:street" v="Main Street"/>
    <tag k="addr:state" v="VT"/>
    <tag k="ref:vcgi:esiteid" v="55854"/>
  </node>
  <node id="-428" visible="true" lat="44.40238134384" lon="-72.310909040577">
    <tag k="addr:city" v="Cabot"/>
    <tag k="addr:housenumber" v="3102"/>
    <tag k="addr:street" v="Main Street"/>
    <tag k="addr:state" v="VT"/>
    <tag k="ref:vcgi:esiteid" v="55859"/>
  </node>
  <node id="-431" visible="true" lat="44.40231946151" lon="-72.311592957244">
    <tag k="addr:city" v="Cabot"/>
    <tag k="addr:housenumber" v="3075"/>
    <tag k="addr:street" v="Main Street"/>
    <tag k="addr:state" v="VT"/>
    <tag k="ref:vcgi:esiteid" v="55862"/>
  </node>
  <node id="-462" visible="true" lat="44.400440390281" lon="-72.314033053599">
    <tag k="addr:city" v="Cabot"/>
    <tag k="addr:housenumber" v="2878"/>
    <tag k="addr:street" v="Main Street"/>
    <tag k="addr:state" v="VT"/>
    <tag k="ref:vcgi:esiteid" v="55895"/>
  </node>
  <node id="-943" visible="true" lat="44.420810309214" lon="-72.35036334768">
    <tag k="addr:city" v="Cabot"/>
    <tag k="addr:housenumber" v="3715"/>
    <tag k="addr:street" v="Cabot Road"/>
    <tag k="addr:state" v="VT"/>
    <tag k="ref:vcgi:esiteid" v="611755"/>
  </node>
</osm>
