<?xml version="1.0" encoding="UTF-8"?>
<osm version="0.6" generator="JOSM" upload="false">
  <node id="-917" visible="true" lat="44.403009983135" lon="-72.302796171831">
    <!-- duplicates-in-different-towns: "40 Garden Way, Cabot, VT"  ignoring town mismatch for duplicate housenumber/street when matching to esiteid 449707: "40 Garden Way, , VT" -->
    <tag k="addr:city" v="Cabot"/>
    <tag k="addr:housenumber" v="40"/>
    <tag k="addr:street" v="Garden Way"/>
    <tag k="addr:state" v="VT"/>
    <tag k="ref:vcgi:esiteid" v="449708"/>
  </node>
  <node id="-1061" visible="true" lat="44.404033681013" lon="-72.303107964193">
    <!-- duplicates-in-different-towns: "30 Garden Way, Cabot, VT"  ignoring town mismatch for duplicate housenumber/street when matching to esiteid 449708: "30 Garden Way, , VT" -->
    <tag k="addr:city" v="Cabot"/>
    <tag k="addr:housenumber" v="30"/>
    <tag k="addr:street" v="Garden Way"/>
    <tag k="addr:state" v="VT"/>
    <tag k="ref:vcgi:esiteid" v="770934"/>
  </node>
  <node id="-1062" visible="true" lat="44.439041586651" lon="-72.26745674739">
    <!-- duplicates-in-different-towns: "995 Route 215, Cabot, VT"  ignoring town mismatch for duplicate housenumber/street when matching to esiteid 771367: "995 Route 215, , VT" -->
    <tag k="addr:city" v="Cabot"/>
    <tag k="addr:housenumber" v="995"/>
    <tag k="addr:street" v="Route 215"/>
    <tag k="addr:state" v="VT"/>
    <tag k="ref:vcgi:esiteid" v="771366"/>
  </node>
</osm>
