<?xml version="1.0" encoding="UTF-8"?>
<osm version="0.6" generator="JOSM" upload="false">
  <node id="-978" visible="true" lat="44.328064005594" lon="-72.422965253333">
    <!-- duplicates-in-different-towns: "3613 Hollister Hill Road, Marshfield, VT"  ignoring town mismatch for duplicate housenumber/street when matching to esiteid 346162: "3613 Hollister Hill Road, , VT" -->
    <tag k="addr:city" v="Marshfield"/>
    <tag k="addr:housenumber" v="3613"/>
    <tag k="addr:street" v="Hollister Hill Road"/>
    <tag k="addr:state" v="VT"/>
    <tag k="ref:vcgi:esiteid" v="346161"/>
  </node>
  <node id="-992" visible="true" lat="44.316185693259" lon="-72.463724144723">
    <!-- duplicates-in-different-towns: "888 Tucker Road, Plainfield, VT"  ignoring town mismatch for duplicate housenumber/street when matching to esiteid 453633: "888 Tucker Road, , VT" -->
    <tag k="addr:city" v="Plainfield"/>
    <tag k="addr:housenumber" v="888"/>
    <tag k="addr:street" v="Tucker Road"/>
    <tag k="addr:state" v="VT"/>
    <tag k="ref:vcgi:esiteid" v="453634"/>
  </node>
  <node id="-1081" visible="true" lat="44.342351259444" lon="-72.483360985276">
    <!-- duplicates-in-different-towns: "174 Leonard Road, Adamant, VT"  ignoring town mismatch for duplicate housenumber/street when matching to esiteid 772625: "174 Leonard Road, , VT" -->
    <tag k="addr:city" v="Adamant"/>
    <tag k="addr:housenumber" v="174"/>
    <tag k="addr:street" v="Leonard Road"/>
    <tag k="addr:state" v="VT"/>
    <tag k="ref:vcgi:esiteid" v="772624"/>
  </node>
</osm>
