<?xml version="1.0" encoding="UTF-8"?>
<osm version="0.6" generator="JOSM" upload="false">
  <node id="-622" visible="true" lat="44.644449865913" lon="-72.828773320664">
    <!-- offset: "60 Main Street, Jeffersonville, VT" Significant offset - 303.5m -->
    <tag k="addr:city" v="Jeffersonville"/>
    <tag k="addr:housenumber" v="60"/>
    <tag k="addr:street" v="Main Street"/>
    <tag k="addr:state" v="VT"/>
    <tag k="ref:vcgi:esiteid" v="57643"/>
  </node>
  <node id="-1908" visible="true" lat="44.670918315841" lon="-72.741257325361">
    <!-- offset: "3903 Plot Road, Johnson, VT" Significant offset - 1074.4m -->
    <tag k="addr:city" v="Johnson"/>
    <tag k="addr:housenumber" v="3903"/>
    <tag k="addr:street" v="Plot Road"/>
    <tag k="addr:state" v="VT"/>
    <tag k="ref:vcgi:esiteid" v="756997"/>
  </node>
</osm>
