<?xml version="1.0" encoding="UTF-8"?>
<osm version="0.6" generator="JOSM" upload="false">
  <node id="-575" visible="true" lat="43.644344859621" lon="-73.222467333892">
    <!-- duplicates-in-different-towns: "51 Clements Point Road, Fair Haven, VT"  ignoring town mismatch for duplicate housenumber/street when matching to esiteid 59758: "51 Clements Point Road, , VT" -->
    <tag k="addr:city" v="Fair Haven"/>
    <tag k="addr:housenumber" v="51"/>
    <tag k="addr:street" v="Clements Point Road"/>
    <tag k="addr:state" v="VT"/>
    <tag k="ref:vcgi:esiteid" v="59745"/>
  </node>
  <node id="-1057" visible="true" lat="43.616385928519" lon="-73.16144041703">
    <!-- duplicates-in-different-towns: "81 Cramton Road, Castleton, VT"  ignoring town mismatch for duplicate housenumber/street when matching to esiteid 60291: "81 Cramton Road, , VT" -->
    <tag k="addr:city" v="Castleton"/>
    <tag k="addr:housenumber" v="81"/>
    <tag k="addr:street" v="Cramton Road"/>
    <tag k="addr:state" v="VT"/>
    <tag k="ref:vcgi:esiteid" v="60231"/>
  </node>
  <node id="-1058" visible="true" lat="43.616245131608" lon="-73.161473700788">
    <!-- duplicates-in-different-towns: "81 Cramton Road, Castleton, VT"  ignoring town mismatch for duplicate housenumber/street when matching to esiteid 60291: "81 Cramton Road, , VT" -->
    <tag k="addr:city" v="Castleton"/>
    <tag k="addr:housenumber" v="81"/>
    <tag k="addr:street" v="Cramton Road"/>
    <tag k="addr:state" v="VT"/>
    <tag k="ref:vcgi:esiteid" v="60232"/>
  </node>
  <node id="-1060" visible="true" lat="43.616264934388" lon="-73.162183086927">
    <!-- duplicates-in-different-towns: "81 Cramton Road, Castleton, VT"  ignoring town mismatch for duplicate housenumber/street when matching to esiteid 60291: "81 Cramton Road, , VT" -->
    <tag k="addr:city" v="Castleton"/>
    <tag k="addr:housenumber" v="81"/>
    <tag k="addr:street" v="Cramton Road"/>
    <tag k="addr:state" v="VT"/>
    <tag k="ref:vcgi:esiteid" v="60234"/>
  </node>
  <node id="-1061" visible="true" lat="43.616281196374" lon="-73.161809862314">
    <!-- duplicates-in-different-towns: "81 Cramton Road, Castleton, VT"  ignoring town mismatch for duplicate housenumber/street when matching to esiteid 60291: "81 Cramton Road, , VT" -->
    <tag k="addr:city" v="Castleton"/>
    <tag k="addr:housenumber" v="81"/>
    <tag k="addr:street" v="Cramton Road"/>
    <tag k="addr:state" v="VT"/>
    <tag k="ref:vcgi:esiteid" v="60235"/>
  </node>
  <node id="-1062" visible="true" lat="43.616269629553" lon="-73.161991098659">
    <!-- duplicates-in-different-towns: "81 Cramton Road, Castleton, VT"  ignoring town mismatch for duplicate housenumber/street when matching to esiteid 60291: "81 Cramton Road, , VT" -->
    <tag k="addr:city" v="Castleton"/>
    <tag k="addr:housenumber" v="81"/>
    <tag k="addr:street" v="Cramton Road"/>
    <tag k="addr:state" v="VT"/>
    <tag k="ref:vcgi:esiteid" v="60236"/>
  </node>
  <node id="-1063" visible="true" lat="43.616262822385" lon="-73.162371924579">
    <!-- duplicates-in-different-towns: "81 Cramton Road, Castleton, VT"  ignoring town mismatch for duplicate housenumber/street when matching to esiteid 60291: "81 Cramton Road, , VT" -->
    <tag k="addr:city" v="Castleton"/>
    <tag k="addr:housenumber" v="81"/>
    <tag k="addr:street" v="Cramton Road"/>
    <tag k="addr:state" v="VT"/>
    <tag k="ref:vcgi:esiteid" v="60237"/>
  </node>
  <node id="-1064" visible="true" lat="43.616220052742" lon="-73.160392181466">
    <!-- duplicates-in-different-towns: "101 Cramton Road, Castleton, VT"  ignoring town mismatch for duplicate housenumber/street when matching to esiteid 60282: "101 Cramton Road, , VT" -->
    <tag k="addr:city" v="Castleton"/>
    <tag k="addr:housenumber" v="101"/>
    <tag k="addr:street" v="Cramton Road"/>
    <tag k="addr:state" v="VT"/>
    <tag k="ref:vcgi:esiteid" v="60238"/>
  </node>
  <node id="-1065" visible="true" lat="43.616233982651" lon="-73.162537539743">
    <!-- duplicates-in-different-towns: "81 Cramton Road, Castleton, VT"  ignoring town mismatch for duplicate housenumber/street when matching to esiteid 60291: "81 Cramton Road, , VT" -->
    <tag k="addr:city" v="Castleton"/>
    <tag k="addr:housenumber" v="81"/>
    <tag k="addr:street" v="Cramton Road"/>
    <tag k="addr:state" v="VT"/>
    <tag k="ref:vcgi:esiteid" v="60239"/>
  </node>
  <node id="-1066" visible="true" lat="43.616237700758" lon="-73.160616482449">
    <!-- duplicates-in-different-towns: "101 Cramton Road, Castleton, VT"  ignoring town mismatch for duplicate housenumber/street when matching to esiteid 60282: "101 Cramton Road, , VT" -->
    <tag k="addr:city" v="Castleton"/>
    <tag k="addr:housenumber" v="101"/>
    <tag k="addr:street" v="Cramton Road"/>
    <tag k="addr:state" v="VT"/>
    <tag k="ref:vcgi:esiteid" v="60240"/>
  </node>
  <node id="-1067" visible="true" lat="43.6162450742" lon="-73.161036732128">
    <!-- duplicates-in-different-towns: "101 Cramton Road, Castleton, VT"  ignoring town mismatch for duplicate housenumber/street when matching to esiteid 60282: "101 Cramton Road, , VT" -->
    <tag k="addr:city" v="Castleton"/>
    <tag k="addr:housenumber" v="101"/>
    <tag k="addr:street" v="Cramton Road"/>
    <tag k="addr:state" v="VT"/>
    <tag k="ref:vcgi:esiteid" v="60241"/>
  </node>
  <node id="-1068" visible="true" lat="43.616245341692" lon="-73.160830272417">
    <!-- duplicates-in-different-towns: "101 Cramton Road, Castleton, VT"  ignoring town mismatch for duplicate housenumber/street when matching to esiteid 60282: "101 Cramton Road, , VT" -->
    <tag k="addr:city" v="Castleton"/>
    <tag k="addr:housenumber" v="101"/>
    <tag k="addr:street" v="Cramton Road"/>
    <tag k="addr:state" v="VT"/>
    <tag k="ref:vcgi:esiteid" v="60242"/>
  </node>
  <node id="-1069" visible="true" lat="43.616222587584" lon="-73.160171640874">
    <!-- duplicates-in-different-towns: "101 Cramton Road, Castleton, VT"  ignoring town mismatch for duplicate housenumber/street when matching to esiteid 60282: "101 Cramton Road, , VT" -->
    <tag k="addr:city" v="Castleton"/>
    <tag k="addr:housenumber" v="101"/>
    <tag k="addr:street" v="Cramton Road"/>
    <tag k="addr:state" v="VT"/>
    <tag k="ref:vcgi:esiteid" v="60243"/>
  </node>
  <node id="-1070" visible="true" lat="43.616195379067" lon="-73.159934532152">
    <!-- duplicates-in-different-towns: "101 Cramton Road, Castleton, VT"  ignoring town mismatch for duplicate housenumber/street when matching to esiteid 60282: "101 Cramton Road, , VT" -->
    <tag k="addr:city" v="Castleton"/>
    <tag k="addr:housenumber" v="101"/>
    <tag k="addr:street" v="Cramton Road"/>
    <tag k="addr:state" v="VT"/>
    <tag k="ref:vcgi:esiteid" v="60244"/>
  </node>
  <node id="-1071" visible="true" lat="43.616106474675" lon="-73.161418698926">
    <!-- duplicates-in-different-towns: "81 Cramton Road, Castleton, VT"  ignoring town mismatch for duplicate housenumber/street when matching to esiteid 60291: "81 Cramton Road, , VT" -->
    <tag k="addr:city" v="Castleton"/>
    <tag k="addr:housenumber" v="81"/>
    <tag k="addr:street" v="Cramton Road"/>
    <tag k="addr:state" v="VT"/>
    <tag k="ref:vcgi:esiteid" v="60245"/>
  </node>
  <node id="-1072" visible="true" lat="43.61595033458" lon="-73.162776230562">
    <!-- duplicates-in-different-towns: "81 Cramton Road, Castleton, VT"  ignoring town mismatch for duplicate housenumber/street when matching to esiteid 60291: "81 Cramton Road, , VT" -->
    <tag k="addr:city" v="Castleton"/>
    <tag k="addr:housenumber" v="81"/>
    <tag k="addr:street" v="Cramton Road"/>
    <tag k="addr:state" v="VT"/>
    <tag k="ref:vcgi:esiteid" v="60246"/>
  </node>
  <node id="-1073" visible="true" lat="43.615952812847" lon="-73.160514719001">
    <!-- duplicates-in-different-towns: "101 Cramton Road, Castleton, VT"  ignoring town mismatch for duplicate housenumber/street when matching to esiteid 60282: "101 Cramton Road, , VT" -->
    <tag k="addr:city" v="Castleton"/>
    <tag k="addr:housenumber" v="101"/>
    <tag k="addr:street" v="Cramton Road"/>
    <tag k="addr:state" v="VT"/>
    <tag k="ref:vcgi:esiteid" v="60247"/>
  </node>
  <node id="-1074" visible="true" lat="43.615999494984" lon="-73.161856570136">
    <!-- duplicates-in-different-towns: "81 Cramton Road, Castleton, VT"  ignoring town mismatch for duplicate housenumber/street when matching to esiteid 60291: "81 Cramton Road, , VT" -->
    <tag k="addr:city" v="Castleton"/>
    <tag k="addr:housenumber" v="81"/>
    <tag k="addr:street" v="Cramton Road"/>
    <tag k="addr:state" v="VT"/>
    <tag k="ref:vcgi:esiteid" v="60248"/>
  </node>
  <node id="-1075" visible="true" lat="43.615980761811" lon="-73.162295724263">
    <!-- duplicates-in-different-towns: "81 Cramton Road, Castleton, VT"  ignoring town mismatch for duplicate housenumber/street when matching to esiteid 60291: "81 Cramton Road, , VT" -->
    <tag k="addr:city" v="Castleton"/>
    <tag k="addr:housenumber" v="81"/>
    <tag k="addr:street" v="Cramton Road"/>
    <tag k="addr:state" v="VT"/>
    <tag k="ref:vcgi:esiteid" v="60249"/>
  </node>
  <node id="-1076" visible="true" lat="43.615960104399" lon="-73.161411392055">
    <!-- duplicates-in-different-towns: "81 Cramton Road, Castleton, VT"  ignoring town mismatch for duplicate housenumber/street when matching to esiteid 60291: "81 Cramton Road, , VT" -->
    <tag k="addr:city" v="Castleton"/>
    <tag k="addr:housenumber" v="81"/>
    <tag k="addr:street" v="Cramton Road"/>
    <tag k="addr:state" v="VT"/>
    <tag k="ref:vcgi:esiteid" v="60250"/>
  </node>
  <node id="-1077" visible="true" lat="43.61586216598" lon="-73.161864199237">
    <!-- duplicates-in-different-towns: "81 Cramton Road, Castleton, VT"  ignoring town mismatch for duplicate housenumber/street when matching to esiteid 60291: "81 Cramton Road, , VT" -->
    <tag k="addr:city" v="Castleton"/>
    <tag k="addr:housenumber" v="81"/>
    <tag k="addr:street" v="Cramton Road"/>
    <tag k="addr:state" v="VT"/>
    <tag k="ref:vcgi:esiteid" v="60251"/>
  </node>
  <node id="-1078" visible="true" lat="43.615814588568" lon="-73.162760294468">
    <!-- duplicates-in-different-towns: "81 Cramton Road, Castleton, VT"  ignoring town mismatch for duplicate housenumber/street when matching to esiteid 60291: "81 Cramton Road, , VT" -->
    <tag k="addr:city" v="Castleton"/>
    <tag k="addr:housenumber" v="81"/>
    <tag k="addr:street" v="Cramton Road"/>
    <tag k="addr:state" v="VT"/>
    <tag k="ref:vcgi:esiteid" v="60252"/>
  </node>
  <node id="-1079" visible="true" lat="43.615831988345" lon="-73.162295724206">
    <!-- duplicates-in-different-towns: "81 Cramton Road, Castleton, VT"  ignoring town mismatch for duplicate housenumber/street when matching to esiteid 60291: "81 Cramton Road, , VT" -->
    <tag k="addr:city" v="Castleton"/>
    <tag k="addr:housenumber" v="81"/>
    <tag k="addr:street" v="Cramton Road"/>
    <tag k="addr:state" v="VT"/>
    <tag k="ref:vcgi:esiteid" v="60253"/>
  </node>
  <node id="-1080" visible="true" lat="43.615832821839" lon="-73.16139806916">
    <!-- duplicates-in-different-towns: "81 Cramton Road, Castleton, VT"  ignoring town mismatch for duplicate housenumber/street when matching to esiteid 60291: "81 Cramton Road, , VT" -->
    <tag k="addr:city" v="Castleton"/>
    <tag k="addr:housenumber" v="81"/>
    <tag k="addr:street" v="Cramton Road"/>
    <tag k="addr:state" v="VT"/>
    <tag k="ref:vcgi:esiteid" v="60254"/>
  </node>
  <node id="-1082" visible="true" lat="43.615728516728" lon="-73.161854533308">
    <!-- duplicates-in-different-towns: "81 Cramton Road, Castleton, VT"  ignoring town mismatch for duplicate housenumber/street when matching to esiteid 60291: "81 Cramton Road, , VT" -->
    <tag k="addr:city" v="Castleton"/>
    <tag k="addr:housenumber" v="81"/>
    <tag k="addr:street" v="Cramton Road"/>
    <tag k="addr:state" v="VT"/>
    <tag k="ref:vcgi:esiteid" v="60256"/>
  </node>
  <node id="-1084" visible="true" lat="43.615701004274" lon="-73.162732726151">
    <!-- duplicates-in-different-towns: "81 Cramton Road, Castleton, VT"  ignoring town mismatch for duplicate housenumber/street when matching to esiteid 60291: "81 Cramton Road, , VT" -->
    <tag k="addr:city" v="Castleton"/>
    <tag k="addr:housenumber" v="81"/>
    <tag k="addr:street" v="Cramton Road"/>
    <tag k="addr:state" v="VT"/>
    <tag k="ref:vcgi:esiteid" v="60258"/>
  </node>
  <node id="-1086" visible="true" lat="43.615699329959" lon="-73.161393865646">
    <!-- duplicates-in-different-towns: "81 Cramton Road, Castleton, VT"  ignoring town mismatch for duplicate housenumber/street when matching to esiteid 60291: "81 Cramton Road, , VT" -->
    <tag k="addr:city" v="Castleton"/>
    <tag k="addr:housenumber" v="81"/>
    <tag k="addr:street" v="Cramton Road"/>
    <tag k="addr:state" v="VT"/>
    <tag k="ref:vcgi:esiteid" v="60260"/>
  </node>
  <node id="-1088" visible="true" lat="43.615675586875" lon="-73.162280466896">
    <!-- duplicates-in-different-towns: "81 Cramton Road, Castleton, VT"  ignoring town mismatch for duplicate housenumber/street when matching to esiteid 60291: "81 Cramton Road, , VT" -->
    <tag k="addr:city" v="Castleton"/>
    <tag k="addr:housenumber" v="81"/>
    <tag k="addr:street" v="Cramton Road"/>
    <tag k="addr:state" v="VT"/>
    <tag k="ref:vcgi:esiteid" v="60262"/>
  </node>
  <node id="-1090" visible="true" lat="43.615570532416" lon="-73.16270970119">
    <!-- duplicates-in-different-towns: "81 Cramton Road, Castleton, VT"  ignoring town mismatch for duplicate housenumber/street when matching to esiteid 60291: "81 Cramton Road, , VT" -->
    <tag k="addr:city" v="Castleton"/>
    <tag k="addr:housenumber" v="81"/>
    <tag k="addr:street" v="Cramton Road"/>
    <tag k="addr:state" v="VT"/>
    <tag k="ref:vcgi:esiteid" v="60264"/>
  </node>
  <node id="-1091" visible="true" lat="43.615594351512" lon="-73.161830290336">
    <!-- duplicates-in-different-towns: "81 Cramton Road, Castleton, VT"  ignoring town mismatch for duplicate housenumber/street when matching to esiteid 60291: "81 Cramton Road, , VT" -->
    <tag k="addr:city" v="Castleton"/>
    <tag k="addr:housenumber" v="81"/>
    <tag k="addr:street" v="Cramton Road"/>
    <tag k="addr:state" v="VT"/>
    <tag k="ref:vcgi:esiteid" v="60265"/>
  </node>
  <node id="-1092" visible="true" lat="43.6155786231" lon="-73.161400504762">
    <!-- duplicates-in-different-towns: "81 Cramton Road, Castleton, VT"  ignoring town mismatch for duplicate housenumber/street when matching to esiteid 60291: "81 Cramton Road, , VT" -->
    <tag k="addr:city" v="Castleton"/>
    <tag k="addr:housenumber" v="81"/>
    <tag k="addr:street" v="Cramton Road"/>
    <tag k="addr:state" v="VT"/>
    <tag k="ref:vcgi:esiteid" v="60266"/>
  </node>
  <node id="-1094" visible="true" lat="43.615545887116" lon="-73.162272836745">
    <!-- duplicates-in-different-towns: "81 Cramton Road, Castleton, VT"  ignoring town mismatch for duplicate housenumber/street when matching to esiteid 60291: "81 Cramton Road, , VT" -->
    <tag k="addr:city" v="Castleton"/>
    <tag k="addr:housenumber" v="81"/>
    <tag k="addr:street" v="Cramton Road"/>
    <tag k="addr:state" v="VT"/>
    <tag k="ref:vcgi:esiteid" v="60268"/>
  </node>
  <node id="-1097" visible="true" lat="43.615679365819" lon="-73.160664361868">
    <!-- duplicates-in-different-towns: "101 Cramton Road, Castleton, VT"  ignoring town mismatch for duplicate housenumber/street when matching to esiteid 60282: "101 Cramton Road, , VT" -->
    <tag k="addr:city" v="Castleton"/>
    <tag k="addr:housenumber" v="101"/>
    <tag k="addr:street" v="Cramton Road"/>
    <tag k="addr:state" v="VT"/>
    <tag k="ref:vcgi:esiteid" v="60271"/>
  </node>
  <node id="-1098" visible="true" lat="43.615671736851" lon="-73.160847469548">
    <!-- duplicates-in-different-towns: "101 Cramton Road, Castleton, VT"  ignoring town mismatch for duplicate housenumber/street when matching to esiteid 60282: "101 Cramton Road, , VT" -->
    <tag k="addr:city" v="Castleton"/>
    <tag k="addr:housenumber" v="101"/>
    <tag k="addr:street" v="Cramton Road"/>
    <tag k="addr:state" v="VT"/>
    <tag k="ref:vcgi:esiteid" v="60272"/>
  </node>
  <node id="-1099" visible="true" lat="43.61566410792" lon="-73.160221856825">
    <!-- duplicates-in-different-towns: "101 Cramton Road, Castleton, VT"  ignoring town mismatch for duplicate housenumber/street when matching to esiteid 60282: "101 Cramton Road, , VT" -->
    <tag k="addr:city" v="Castleton"/>
    <tag k="addr:housenumber" v="101"/>
    <tag k="addr:street" v="Cramton Road"/>
    <tag k="addr:state" v="VT"/>
    <tag k="ref:vcgi:esiteid" v="60273"/>
  </node>
  <node id="-1100" visible="true" lat="43.615660294245" lon="-73.160412591798">
    <!-- duplicates-in-different-towns: "101 Cramton Road, Castleton, VT"  ignoring town mismatch for duplicate housenumber/street when matching to esiteid 60282: "101 Cramton Road, , VT" -->
    <tag k="addr:city" v="Castleton"/>
    <tag k="addr:housenumber" v="101"/>
    <tag k="addr:street" v="Cramton Road"/>
    <tag k="addr:state" v="VT"/>
    <tag k="ref:vcgi:esiteid" v="60274"/>
  </node>
  <node id="-1101" visible="true" lat="43.615451639869" lon="-73.161826595524">
    <!-- duplicates-in-different-towns: "81 Cramton Road, Castleton, VT"  ignoring town mismatch for duplicate housenumber/street when matching to esiteid 60291: "81 Cramton Road, , VT" -->
    <tag k="addr:city" v="Castleton"/>
    <tag k="addr:housenumber" v="81"/>
    <tag k="addr:street" v="Cramton Road"/>
    <tag k="addr:state" v="VT"/>
    <tag k="ref:vcgi:esiteid" v="60275"/>
  </node>
  <node id="-1103" visible="true" lat="43.615313639302" lon="-73.16088318367">
    <!-- duplicates-in-different-towns: "101 Cramton Road, Castleton, VT"  ignoring town mismatch for duplicate housenumber/street when matching to esiteid 60282: "101 Cramton Road, , VT" -->
    <tag k="addr:city" v="Castleton"/>
    <tag k="addr:housenumber" v="101"/>
    <tag k="addr:street" v="Cramton Road"/>
    <tag k="addr:state" v="VT"/>
    <tag k="ref:vcgi:esiteid" v="60277"/>
  </node>
  <node id="-1104" visible="true" lat="43.615426345872" lon="-73.162709835981">
    <!-- duplicates-in-different-towns: "81 Cramton Road, Castleton, VT"  ignoring town mismatch for duplicate housenumber/street when matching to esiteid 60291: "81 Cramton Road, , VT" -->
    <tag k="addr:city" v="Castleton"/>
    <tag k="addr:housenumber" v="81"/>
    <tag k="addr:street" v="Cramton Road"/>
    <tag k="addr:state" v="VT"/>
    <tag k="ref:vcgi:esiteid" v="60278"/>
  </node>
  <node id="-1105" visible="true" lat="43.615413855158" lon="-73.161391797158">
    <!-- duplicates-in-different-towns: "81 Cramton Road, Castleton, VT"  ignoring town mismatch for duplicate housenumber/street when matching to esiteid 60291: "81 Cramton Road, , VT" -->
    <tag k="addr:city" v="Castleton"/>
    <tag k="addr:housenumber" v="81"/>
    <tag k="addr:street" v="Cramton Road"/>
    <tag k="addr:state" v="VT"/>
    <tag k="ref:vcgi:esiteid" v="60279"/>
  </node>
  <node id="-1106" visible="true" lat="43.615302761961" lon="-73.160703156172">
    <!-- duplicates-in-different-towns: "101 Cramton Road, Castleton, VT"  ignoring town mismatch for duplicate housenumber/street when matching to esiteid 60282: "101 Cramton Road, , VT" -->
    <tag k="addr:city" v="Castleton"/>
    <tag k="addr:housenumber" v="101"/>
    <tag k="addr:street" v="Cramton Road"/>
    <tag k="addr:state" v="VT"/>
    <tag k="ref:vcgi:esiteid" v="60280"/>
  </node>
  <node id="-1107" visible="true" lat="43.615302761506" lon="-73.160489533716">
    <!-- duplicates-in-different-towns: "101 Cramton Road, Castleton, VT"  ignoring town mismatch for duplicate housenumber/street when matching to esiteid 60282: "101 Cramton Road, , VT" -->
    <tag k="addr:city" v="Castleton"/>
    <tag k="addr:housenumber" v="101"/>
    <tag k="addr:street" v="Cramton Road"/>
    <tag k="addr:state" v="VT"/>
    <tag k="ref:vcgi:esiteid" v="60281"/>
  </node>
  <node id="-1109" visible="true" lat="43.615404742813" lon="-73.16226520863">
    <!-- duplicates-in-different-towns: "81 Cramton Road, Castleton, VT"  ignoring town mismatch for duplicate housenumber/street when matching to esiteid 60291: "81 Cramton Road, , VT" -->
    <tag k="addr:city" v="Castleton"/>
    <tag k="addr:housenumber" v="81"/>
    <tag k="addr:street" v="Cramton Road"/>
    <tag k="addr:state" v="VT"/>
    <tag k="ref:vcgi:esiteid" v="60283"/>
  </node>
  <node id="-1110" visible="true" lat="43.615321154071" lon="-73.161823203304">
    <!-- duplicates-in-different-towns: "81 Cramton Road, Castleton, VT"  ignoring town mismatch for duplicate housenumber/street when matching to esiteid 60291: "81 Cramton Road, , VT" -->
    <tag k="addr:city" v="Castleton"/>
    <tag k="addr:housenumber" v="81"/>
    <tag k="addr:street" v="Cramton Road"/>
    <tag k="addr:state" v="VT"/>
    <tag k="ref:vcgi:esiteid" v="60284"/>
  </node>
  <node id="-1112" visible="true" lat="43.615281387964" lon="-73.162702205862">
    <!-- duplicates-in-different-towns: "81 Cramton Road, Castleton, VT"  ignoring town mismatch for duplicate housenumber/street when matching to esiteid 60291: "81 Cramton Road, , VT" -->
    <tag k="addr:city" v="Castleton"/>
    <tag k="addr:housenumber" v="81"/>
    <tag k="addr:street" v="Cramton Road"/>
    <tag k="addr:state" v="VT"/>
    <tag k="ref:vcgi:esiteid" v="60286"/>
  </node>
  <node id="-1114" visible="true" lat="43.615271229395" lon="-73.162257580059">
    <!-- duplicates-in-different-towns: "81 Cramton Road, Castleton, VT"  ignoring town mismatch for duplicate housenumber/street when matching to esiteid 60291: "81 Cramton Road, , VT" -->
    <tag k="addr:city" v="Castleton"/>
    <tag k="addr:housenumber" v="81"/>
    <tag k="addr:street" v="Cramton Road"/>
    <tag k="addr:state" v="VT"/>
    <tag k="ref:vcgi:esiteid" v="60288"/>
  </node>
  <node id="-1466" visible="true" lat="43.608277569814" lon="-73.218926856702">
    <!-- duplicates-in-different-towns: "528 Vermont Route 4A West, Castleton, VT"  ignoring town mismatch for duplicate housenumber/street when matching to esiteid 764396: "528 Vermont Route 4A West, , VT" -->
    <tag k="addr:city" v="Castleton"/>
    <tag k="addr:housenumber" v="528"/>
    <tag k="addr:street" v="Vermont Route 4A West"/>
    <tag k="addr:state" v="VT"/>
    <tag k="ref:vcgi:esiteid" v="60669"/>
  </node>
  <node id="-2102" visible="true" lat="43.627967101392" lon="-73.161799710575">
    <!-- duplicates-in-different-towns: "820 Frisbie Hill Road, Castleton, VT"  ignoring town mismatch for duplicate housenumber/street when matching to esiteid 751265: "820 Frisbie Hill Road, , VT" -->
    <tag k="addr:city" v="Castleton"/>
    <tag k="addr:housenumber" v="820"/>
    <tag k="addr:street" v="Frisbie Hill Road"/>
    <tag k="addr:state" v="VT"/>
    <tag k="ref:vcgi:esiteid" v="61328"/>
  </node>
  <node id="-2515" visible="true" lat="43.619170906253" lon="-73.221717218426">
    <!-- duplicates-in-different-towns: "361 Burke Road, Bomoseen, VT"  ignoring town mismatch for duplicate housenumber/street when matching to esiteid 773050: "361 Burke Road, , VT" -->
    <tag k="addr:city" v="Bomoseen"/>
    <tag k="addr:housenumber" v="361"/>
    <tag k="addr:street" v="Burke Road"/>
    <tag k="addr:state" v="VT"/>
    <tag k="ref:vcgi:esiteid" v="773049"/>
  </node>
</osm>
