<?xml version="1.0" encoding="UTF-8"?>
<osm version="0.6" generator="JOSM" upload="false">
  <node id="-357" visible="true" lat="43.658886873862" lon="-73.106619398801">
    <tag k="addr:city" v="Castleton"/>
    <tag k="addr:housenumber" v="2196"/>
    <tag k="addr:street" v="Grandpas Knob Road"/>
    <tag k="addr:state" v="VT"/>
    <tag k="ref:vcgi:esiteid" v="59525"/>
  </node>
  <node id="-1170" visible="true" lat="43.61253477454" lon="-73.173791344231">
    <tag k="addr:city" v="Castleton"/>
    <tag k="addr:housenumber" v="407"/>
    <tag k="addr:street" v="Main Street"/>
    <tag k="addr:state" v="VT"/>
    <tag k="ref:vcgi:esiteid" v="60350"/>
  </node>
  <node id="-1194" visible="true" lat="43.61206263149" lon="-73.177431261565">
    <tag k="addr:city" v="Castleton"/>
    <tag k="addr:housenumber" v="590"/>
    <tag k="addr:street" v="Main Street"/>
    <tag k="addr:state" v="VT"/>
    <tag k="ref:vcgi:esiteid" v="60376"/>
  </node>
  <node id="-1205" visible="true" lat="43.611927280787" lon="-73.178371571463">
    <tag k="addr:city" v="Castleton"/>
    <tag k="addr:housenumber" v="638"/>
    <tag k="addr:street" v="Main Street"/>
    <tag k="addr:state" v="VT"/>
    <tag k="ref:vcgi:esiteid" v="60387"/>
  </node>
  <node id="-1210" visible="true" lat="43.611775650114" lon="-73.176629479322">
    <tag k="addr:city" v="Castleton"/>
    <tag k="addr:housenumber" v="557"/>
    <tag k="addr:street" v="Main Street"/>
    <tag k="addr:state" v="VT"/>
    <tag k="ref:vcgi:esiteid" v="60392"/>
  </node>
  <node id="-1211" visible="true" lat="43.611644752051" lon="-73.177185084078">
    <tag k="addr:city" v="Castleton"/>
    <tag k="addr:housenumber" v="583"/>
    <tag k="addr:street" v="Main Street"/>
    <tag k="addr:state" v="VT"/>
    <tag k="ref:vcgi:esiteid" v="60393"/>
  </node>
  <node id="-1213" visible="true" lat="43.611384283696" lon="-73.208119312396">
    <tag k="addr:city" v="Castleton"/>
    <tag k="addr:housenumber" v="21"/>
    <tag k="addr:street" v="Preston Lane"/>
    <tag k="addr:state" v="VT"/>
    <tag k="ref:vcgi:esiteid" v="60396"/>
  </node>
  <node id="-1258" visible="true" lat="43.611130710537" lon="-73.182378456554">
    <tag k="addr:city" v="Castleton"/>
    <tag k="addr:housenumber" v="846"/>
    <tag k="addr:street" v="Main Street"/>
    <tag k="addr:state" v="VT"/>
    <tag k="ref:vcgi:esiteid" v="60444"/>
  </node>
  <node id="-1270" visible="true" lat="43.610982088892" lon="-73.181828345397">
    <tag k="addr:city" v="Castleton"/>
    <tag k="addr:housenumber" v="822"/>
    <tag k="addr:street" v="Main Street"/>
    <tag k="addr:state" v="VT"/>
    <tag k="ref:vcgi:esiteid" v="60457"/>
  </node>
  <node id="-1278" visible="true" lat="43.610837280648" lon="-73.182397260652">
    <tag k="addr:city" v="Castleton"/>
    <tag k="addr:housenumber" v="854"/>
    <tag k="addr:street" v="Main Street"/>
    <tag k="addr:state" v="VT"/>
    <tag k="ref:vcgi:esiteid" v="60467"/>
  </node>
  <node id="-1284" visible="true" lat="43.610779278234" lon="-73.180788659165">
    <tag k="addr:city" v="Castleton"/>
    <tag k="addr:housenumber" v="765"/>
    <tag k="addr:street" v="Main Street"/>
    <tag k="addr:state" v="VT"/>
    <tag k="ref:vcgi:esiteid" v="60473"/>
  </node>
  <node id="-1287" visible="true" lat="43.61081028359" lon="-73.182663344149">
    <tag k="addr:city" v="Castleton"/>
    <tag k="addr:housenumber" v="866"/>
    <tag k="addr:street" v="Main Street"/>
    <tag k="addr:state" v="VT"/>
    <tag k="ref:vcgi:esiteid" v="60476"/>
  </node>
  <node id="-1292" visible="true" lat="43.610710976738" lon="-73.181112275595">
    <tag k="addr:city" v="Castleton"/>
    <tag k="addr:housenumber" v="791"/>
    <tag k="addr:street" v="Main Street"/>
    <tag k="addr:state" v="VT"/>
    <tag k="ref:vcgi:esiteid" v="60481"/>
  </node>
  <node id="-1294" visible="true" lat="43.610874989721" lon="-73.18019374435">
    <tag k="addr:city" v="Castleton"/>
    <tag k="addr:housenumber" v="749"/>
    <tag k="addr:street" v="Main Street"/>
    <tag k="addr:state" v="VT"/>
    <tag k="ref:vcgi:esiteid" v="60483"/>
  </node>
  <node id="-1298" visible="true" lat="43.610802951566" lon="-73.182893756916">
    <tag k="addr:city" v="Castleton"/>
    <tag k="addr:housenumber" v="882"/>
    <tag k="addr:street" v="Main Street"/>
    <tag k="addr:state" v="VT"/>
    <tag k="ref:vcgi:esiteid" v="60487"/>
  </node>
  <node id="-1301" visible="true" lat="43.610707317735" lon="-73.183250940411">
    <tag k="addr:city" v="Castleton"/>
    <tag k="addr:housenumber" v="898"/>
    <tag k="addr:street" v="Main Street"/>
    <tag k="addr:state" v="VT"/>
    <tag k="ref:vcgi:esiteid" v="60490"/>
  </node>
  <node id="-1305" visible="true" lat="43.61051903512" lon="-73.180240227946">
    <tag k="addr:city" v="Castleton"/>
    <tag k="addr:housenumber" v="37"/>
    <tag k="addr:street" v="South Street"/>
    <tag k="addr:state" v="VT"/>
    <tag k="ref:vcgi:esiteid" v="60494"/>
  </node>
  <node id="-1306" visible="true" lat="43.610516798703" lon="-73.181413111494">
    <tag k="addr:city" v="Castleton"/>
    <tag k="addr:housenumber" v="813"/>
    <tag k="addr:street" v="Main Street"/>
    <tag k="addr:state" v="VT"/>
    <tag k="ref:vcgi:esiteid" v="60496"/>
  </node>
  <node id="-1312" visible="true" lat="43.610440503924" lon="-73.180650171986">
    <tag k="addr:city" v="Castleton"/>
    <tag k="addr:housenumber" v="42"/>
    <tag k="addr:street" v="South Street"/>
    <tag k="addr:state" v="VT"/>
    <tag k="ref:vcgi:esiteid" v="60502"/>
  </node>
  <node id="-1313" visible="true" lat="43.61046576866" lon="-73.181712619084">
    <tag k="addr:city" v="Castleton"/>
    <tag k="addr:housenumber" v="835"/>
    <tag k="addr:street" v="Main Street"/>
    <tag k="addr:state" v="VT"/>
    <tag k="ref:vcgi:esiteid" v="60503"/>
  </node>
  <node id="-1321" visible="true" lat="43.610234512255" lon="-73.180192407697">
    <tag k="addr:city" v="Castleton"/>
    <tag k="addr:housenumber" v="63"/>
    <tag k="addr:street" v="South Street"/>
    <tag k="addr:state" v="VT"/>
    <tag k="ref:vcgi:esiteid" v="60513"/>
  </node>
  <node id="-1322" visible="true" lat="43.610219253131" lon="-73.180665430522">
    <tag k="addr:city" v="Castleton"/>
    <tag k="addr:housenumber" v="58"/>
    <tag k="addr:street" v="South Street"/>
    <tag k="addr:state" v="VT"/>
    <tag k="ref:vcgi:esiteid" v="60514"/>
  </node>
  <node id="-1324" visible="true" lat="43.610129800694" lon="-73.183311699784">
    <tag k="addr:city" v="Castleton"/>
    <tag k="addr:housenumber" v="915"/>
    <tag k="addr:street" v="Main Street"/>
    <tag k="addr:state" v="VT"/>
    <tag k="ref:vcgi:esiteid" v="60516"/>
  </node>
  <node id="-1326" visible="true" lat="43.610192549334" lon="-73.183022914149">
    <tag k="addr:city" v="Castleton"/>
    <tag k="addr:housenumber" v="897"/>
    <tag k="addr:street" v="Main Street"/>
    <tag k="addr:state" v="VT"/>
    <tag k="ref:vcgi:esiteid" v="60518"/>
  </node>
  <node id="-1340" visible="true" lat="43.610043775908" lon="-73.180550989823">
    <tag k="addr:city" v="Castleton"/>
    <tag k="addr:housenumber" v="70"/>
    <tag k="addr:street" v="South Street"/>
    <tag k="addr:state" v="VT"/>
    <tag k="ref:vcgi:esiteid" v="60533"/>
  </node>
  <node id="-1341" visible="true" lat="43.610017074197" lon="-73.1834806787">
    <tag k="addr:city" v="Castleton"/>
    <tag k="addr:housenumber" v="923"/>
    <tag k="addr:street" v="Main Street"/>
    <tag k="addr:state" v="VT"/>
    <tag k="ref:vcgi:esiteid" v="60535"/>
  </node>
  <node id="-1348" visible="true" lat="43.610047437834" lon="-73.184075776257">
    <tag k="addr:city" v="Castleton"/>
    <tag k="addr:housenumber" v="949"/>
    <tag k="addr:street" v="Main Street"/>
    <tag k="addr:state" v="VT"/>
    <tag k="ref:vcgi:esiteid" v="60542"/>
  </node>
  <node id="-1355" visible="true" lat="43.609888655659" lon="-73.18266820701">
    <tag k="addr:city" v="Castleton"/>
    <tag k="addr:housenumber" v="48"/>
    <tag k="addr:street" v="Glenbrook Road"/>
    <tag k="addr:state" v="VT"/>
    <tag k="ref:vcgi:esiteid" v="60549"/>
  </node>
  <node id="-1359" visible="true" lat="43.609933293907" lon="-73.182259086554">
    <tag k="addr:city" v="Castleton"/>
    <tag k="addr:housenumber" v="51"/>
    <tag k="addr:street" v="Glenbrook Road"/>
    <tag k="addr:state" v="VT"/>
    <tag k="ref:vcgi:esiteid" v="60553"/>
  </node>
  <node id="-1362" visible="true" lat="43.609947496498" lon="-73.180022126431">
    <tag k="addr:city" v="Castleton"/>
    <tag k="addr:housenumber" v="89"/>
    <tag k="addr:street" v="South Street"/>
    <tag k="addr:state" v="VT"/>
    <tag k="ref:vcgi:esiteid" v="60556"/>
  </node>
  <node id="-1365" visible="true" lat="43.609761488546" lon="-73.180619654784">
    <tag k="addr:city" v="Castleton"/>
    <tag k="addr:housenumber" v="88"/>
    <tag k="addr:street" v="South Street"/>
    <tag k="addr:state" v="VT"/>
    <tag k="ref:vcgi:esiteid" v="60559"/>
  </node>
  <node id="-1369" visible="true" lat="43.609696638877" lon="-73.179994043452">
    <tag k="addr:city" v="Castleton"/>
    <tag k="addr:housenumber" v="97"/>
    <tag k="addr:street" v="South Street"/>
    <tag k="addr:state" v="VT"/>
    <tag k="ref:vcgi:esiteid" v="60564"/>
  </node>
  <node id="-1375" visible="true" lat="43.609742191008" lon="-73.182152648264">
    <tag k="addr:city" v="Castleton"/>
    <tag k="addr:housenumber" v="65"/>
    <tag k="addr:street" v="Glenbrook Road"/>
    <tag k="addr:state" v="VT"/>
    <tag k="ref:vcgi:esiteid" v="60570"/>
  </node>
  <node id="-1380" visible="true" lat="43.609521285598" lon="-73.180542390518">
    <tag k="addr:city" v="Castleton"/>
    <tag k="addr:housenumber" v="100"/>
    <tag k="addr:street" v="South Street"/>
    <tag k="addr:state" v="VT"/>
    <tag k="ref:vcgi:esiteid" v="60575"/>
  </node>
  <node id="-1386" visible="true" lat="43.609530908878" lon="-73.18218592588">
    <tag k="addr:city" v="Castleton"/>
    <tag k="addr:housenumber" v="77"/>
    <tag k="addr:street" v="Glenbrook Road"/>
    <tag k="addr:state" v="VT"/>
    <tag k="ref:vcgi:esiteid" v="60582"/>
  </node>
  <node id="-1391" visible="true" lat="43.609198359748" lon="-73.213365627437">
    <tag k="addr:city" v="Castleton"/>
    <tag k="addr:housenumber" v="238"/>
    <tag k="addr:street" v="Vermont Route 4A West"/>
    <tag k="addr:state" v="VT"/>
    <tag k="ref:vcgi:esiteid" v="60588"/>
  </node>
  <node id="-1392" visible="true" lat="43.609262031015" lon="-73.215349386985">
    <tag k="addr:city" v="Castleton"/>
    <tag k="addr:housenumber" v="344"/>
    <tag k="addr:street" v="Vermont Route 4A West"/>
    <tag k="addr:state" v="VT"/>
    <tag k="ref:vcgi:esiteid" v="60589"/>
  </node>
  <node id="-1393" visible="true" lat="43.609380018219" lon="-73.180062707799">
    <tag k="addr:city" v="Castleton"/>
    <tag k="addr:housenumber" v="119"/>
    <tag k="addr:street" v="South Street"/>
    <tag k="addr:state" v="VT"/>
    <tag k="ref:vcgi:esiteid" v="60590"/>
  </node>
  <node id="-1394" visible="true" lat="43.609360945994" lon="-73.182732996884">
    <tag k="addr:city" v="Castleton"/>
    <tag k="addr:housenumber" v="82"/>
    <tag k="addr:street" v="Glenbrook Road"/>
    <tag k="addr:state" v="VT"/>
    <tag k="ref:vcgi:esiteid" v="60591"/>
  </node>
  <node id="-1396" visible="true" lat="43.609350597084" lon="-73.180609168274">
    <tag k="addr:city" v="Castleton"/>
    <tag k="addr:housenumber" v="118"/>
    <tag k="addr:street" v="South Street"/>
    <tag k="addr:state" v="VT"/>
    <tag k="ref:vcgi:esiteid" v="60593"/>
  </node>
  <node id="-1399" visible="true" lat="43.609032880602" lon="-73.214669652943">
    <tag k="addr:city" v="Castleton"/>
    <tag k="addr:housenumber" v="316"/>
    <tag k="addr:street" v="Vermont Route 4A West"/>
    <tag k="addr:state" v="VT"/>
    <tag k="ref:vcgi:esiteid" v="60597"/>
  </node>
  <node id="-1403" visible="true" lat="43.609050533132" lon="-73.212928588513">
    <tag k="addr:city" v="Castleton"/>
    <tag k="addr:housenumber" v="218"/>
    <tag k="addr:street" v="Vermont Route 4A West"/>
    <tag k="addr:state" v="VT"/>
    <tag k="ref:vcgi:esiteid" v="60601"/>
  </node>
  <node id="-1404" visible="true" lat="43.609205546335" lon="-73.17994408376">
    <tag k="addr:city" v="Castleton"/>
    <tag k="addr:housenumber" v="131"/>
    <tag k="addr:street" v="South Street"/>
    <tag k="addr:state" v="VT"/>
    <tag k="ref:vcgi:esiteid" v="60602"/>
  </node>
  <node id="-1405" visible="true" lat="43.609185469236" lon="-73.180375513546">
    <tag k="addr:city" v="Castleton"/>
    <tag k="addr:housenumber" v="132"/>
    <tag k="addr:street" v="South Street"/>
    <tag k="addr:state" v="VT"/>
    <tag k="ref:vcgi:esiteid" v="60603"/>
  </node>
  <node id="-1406" visible="true" lat="43.608968030155" lon="-73.21001572032">
    <tag k="addr:city" v="Castleton"/>
    <tag k="addr:housenumber" v="82"/>
    <tag k="addr:street" v="Vermont Route 4A West"/>
    <tag k="addr:state" v="VT"/>
    <tag k="ref:vcgi:esiteid" v="60605"/>
  </node>
  <node id="-1407" visible="true" lat="43.608948956461" lon="-73.212274022359">
    <tag k="addr:city" v="Castleton"/>
    <tag k="addr:housenumber" v="18"/>
    <tag k="addr:street" v="Drake Road"/>
    <tag k="addr:state" v="VT"/>
    <tag k="ref:vcgi:esiteid" v="60606"/>
  </node>
  <node id="-1409" visible="true" lat="43.608956585506" lon="-73.207971041581">
    <tag k="addr:city" v="Castleton"/>
    <tag k="addr:housenumber" v="34"/>
    <tag k="addr:street" v="Vermont Route 30 North"/>
    <tag k="addr:state" v="VT"/>
    <tag k="ref:vcgi:esiteid" v="60608"/>
  </node>
  <node id="-1411" visible="true" lat="43.608895550892" lon="-73.213899083724">
    <tag k="addr:city" v="Castleton"/>
    <tag k="addr:housenumber" v="272"/>
    <tag k="addr:street" v="Vermont Route 4A West"/>
    <tag k="addr:state" v="VT"/>
    <tag k="ref:vcgi:esiteid" v="60610"/>
  </node>
  <node id="-1413" visible="true" lat="43.609114549587" lon="-73.182073312267">
    <tag k="addr:city" v="Castleton"/>
    <tag k="addr:housenumber" v="103"/>
    <tag k="addr:street" v="Glenbrook Road"/>
    <tag k="addr:state" v="VT"/>
    <tag k="ref:vcgi:esiteid" v="60612"/>
  </node>
  <node id="-1414" visible="true" lat="43.608906996387" lon="-73.211221163809">
    <tag k="addr:city" v="Castleton"/>
    <tag k="addr:housenumber" v="140"/>
    <tag k="addr:street" v="Vermont Route 4A West"/>
    <tag k="addr:state" v="VT"/>
    <tag k="ref:vcgi:esiteid" v="60613"/>
  </node>
  <node id="-1416" visible="true" lat="43.608869998589" lon="-73.21029464744">
    <tag k="addr:city" v="Castleton"/>
    <tag k="addr:housenumber" v="92"/>
    <tag k="addr:street" v="Vermont Route 4A West"/>
    <tag k="addr:state" v="VT"/>
    <tag k="ref:vcgi:esiteid" v="60615"/>
  </node>
  <node id="-1417" visible="true" lat="43.608872663562" lon="-73.21107620581">
    <tag k="addr:city" v="Castleton"/>
    <tag k="addr:housenumber" v="134"/>
    <tag k="addr:street" v="Vermont Route 4A West"/>
    <tag k="addr:state" v="VT"/>
    <tag k="ref:vcgi:esiteid" v="60617"/>
  </node>
  <node id="-1418" visible="true" lat="43.608916148955" lon="-73.211885537139">
    <tag k="addr:city" v="Castleton"/>
    <tag k="addr:housenumber" v="170"/>
    <tag k="addr:street" v="Vermont Route 4A West"/>
    <tag k="addr:state" v="VT"/>
    <tag k="ref:vcgi:esiteid" v="60618"/>
  </node>
  <node id="-1419" visible="true" lat="43.608888062943" lon="-73.210541203938">
    <tag k="addr:city" v="Castleton"/>
    <tag k="addr:housenumber" v="106"/>
    <tag k="addr:street" v="Vermont Route 4A West"/>
    <tag k="addr:state" v="VT"/>
    <tag k="ref:vcgi:esiteid" v="60619"/>
  </node>
  <node id="-1421" visible="true" lat="43.608574990192" lon="-73.207258151205">
    <tag k="addr:city" v="Castleton"/>
    <tag k="addr:housenumber" v="2158"/>
    <tag k="addr:street" v="Main Street"/>
    <tag k="addr:state" v="VT"/>
    <tag k="ref:vcgi:esiteid" v="60621"/>
  </node>
  <node id="-1424" visible="true" lat="43.608714871041" lon="-73.214587723356">
    <tag k="addr:city" v="Castleton"/>
    <tag k="addr:housenumber" v="312"/>
    <tag k="addr:street" v="Vermont Route 4A West"/>
    <tag k="addr:state" v="VT"/>
    <tag k="ref:vcgi:esiteid" v="60624"/>
  </node>
  <node id="-1425" visible="true" lat="43.608910014091" lon="-73.180347303353">
    <tag k="addr:city" v="Castleton"/>
    <tag k="addr:housenumber" v="146"/>
    <tag k="addr:street" v="South Street"/>
    <tag k="addr:state" v="VT"/>
    <tag k="ref:vcgi:esiteid" v="60625"/>
  </node>
  <node id="-1430" visible="true" lat="43.608811072758" lon="-73.209216526828">
    <tag k="addr:city" v="Castleton"/>
    <tag k="addr:housenumber" v="40"/>
    <tag k="addr:street" v="Vermont Route 4A West"/>
    <tag k="addr:state" v="VT"/>
    <tag k="ref:vcgi:esiteid" v="60631"/>
  </node>
  <node id="-1431" visible="true" lat="43.608794020816" lon="-73.215848945293">
    <tag k="addr:city" v="Castleton"/>
    <tag k="addr:housenumber" v="378"/>
    <tag k="addr:street" v="Vermont Route 4A West"/>
    <tag k="addr:state" v="VT"/>
    <tag k="ref:vcgi:esiteid" v="60632"/>
  </node>
  <node id="-1434" visible="true" lat="43.608708631502" lon="-73.208009190358">
    <tag k="addr:city" v="Castleton"/>
    <tag k="addr:housenumber" v="2194"/>
    <tag k="addr:street" v="Main Street"/>
    <tag k="addr:state" v="VT"/>
    <tag k="ref:vcgi:esiteid" v="60635"/>
  </node>
  <node id="-1442" visible="true" lat="43.608603541636" lon="-73.207489002734">
    <tag k="addr:city" v="Castleton"/>
    <tag k="addr:housenumber" v="2172"/>
    <tag k="addr:street" v="Main Street"/>
    <tag k="addr:state" v="VT"/>
    <tag k="ref:vcgi:esiteid" v="60643"/>
  </node>
  <node id="-1443" visible="true" lat="43.608454076334" lon="-73.211267879897">
    <tag k="addr:city" v="Castleton"/>
    <tag k="addr:housenumber" v="151"/>
    <tag k="addr:street" v="Vermont Route 4A West"/>
    <tag k="addr:state" v="VT"/>
    <tag k="ref:vcgi:esiteid" v="60645"/>
  </node>
  <node id="-1447" visible="true" lat="43.60838021657" lon="-73.210764413705">
    <tag k="addr:city" v="Castleton"/>
    <tag k="addr:housenumber" v="113"/>
    <tag k="addr:street" v="Vermont Route 4A West"/>
    <tag k="addr:state" v="VT"/>
    <tag k="ref:vcgi:esiteid" v="60650"/>
  </node>
  <node id="-1448" visible="true" lat="43.608506817074" lon="-73.206827540868">
    <tag k="addr:city" v="Castleton"/>
    <tag k="addr:housenumber" v="2138"/>
    <tag k="addr:street" v="Main Street"/>
    <tag k="addr:state" v="VT"/>
    <tag k="ref:vcgi:esiteid" v="60651"/>
  </node>
  <node id="-1450" visible="true" lat="43.608453285586" lon="-73.213487098939">
    <tag k="addr:city" v="Castleton"/>
    <tag k="addr:housenumber" v="255"/>
    <tag k="addr:street" v="Vermont Route 4A West"/>
    <tag k="addr:state" v="VT"/>
    <tag k="ref:vcgi:esiteid" v="60653"/>
  </node>
  <node id="-1451" visible="true" lat="43.608456860658" lon="-73.211907811433">
    <tag k="addr:city" v="Castleton"/>
    <tag k="addr:housenumber" v="177"/>
    <tag k="addr:street" v="Vermont Route 4A West"/>
    <tag k="addr:state" v="VT"/>
    <tag k="ref:vcgi:esiteid" v="60654"/>
  </node>
  <node id="-1452" visible="true" lat="43.608420744214" lon="-73.210248189616">
    <tag k="addr:city" v="Castleton"/>
    <tag k="addr:housenumber" v="85"/>
    <tag k="addr:street" v="Vermont Route 4A West"/>
    <tag k="addr:state" v="VT"/>
    <tag k="ref:vcgi:esiteid" v="60655"/>
  </node>
  <node id="-1454" visible="true" lat="43.608419509088" lon="-73.20928824024">
    <tag k="addr:city" v="Castleton"/>
    <tag k="addr:housenumber" v="47"/>
    <tag k="addr:street" v="Vermont Route 4A West"/>
    <tag k="addr:state" v="VT"/>
    <tag k="ref:vcgi:esiteid" v="60657"/>
  </node>
  <node id="-1455" visible="true" lat="43.608476529112" lon="-73.206167680907">
    <tag k="addr:city" v="Castleton"/>
    <tag k="addr:housenumber" v="2108"/>
    <tag k="addr:street" v="Main Street"/>
    <tag k="addr:state" v="VT"/>
    <tag k="ref:vcgi:esiteid" v="60658"/>
  </node>
  <node id="-1459" visible="true" lat="43.608377971958" lon="-73.205468813202">
    <tag k="addr:city" v="Castleton"/>
    <tag k="addr:housenumber" v="2074"/>
    <tag k="addr:street" v="Main Street"/>
    <tag k="addr:state" v="VT"/>
    <tag k="ref:vcgi:esiteid" v="60662"/>
  </node>
  <node id="-1462" visible="true" lat="43.608342419524" lon="-73.213815159375">
    <tag k="addr:city" v="Castleton"/>
    <tag k="addr:housenumber" v="275"/>
    <tag k="addr:street" v="Vermont Route 4A West"/>
    <tag k="addr:state" v="VT"/>
    <tag k="ref:vcgi:esiteid" v="60665"/>
  </node>
  <node id="-1464" visible="true" lat="43.608365307662" lon="-73.209702915948">
    <tag k="addr:city" v="Castleton"/>
    <tag k="addr:housenumber" v="63"/>
    <tag k="addr:street" v="Vermont Route 4A West"/>
    <tag k="addr:state" v="VT"/>
    <tag k="ref:vcgi:esiteid" v="60667"/>
  </node>
  <node id="-1465" visible="true" lat="43.608241336291" lon="-73.20804288173">
    <tag k="addr:city" v="Castleton"/>
    <tag k="addr:housenumber" v="2191"/>
    <tag k="addr:street" v="Main Street"/>
    <tag k="addr:state" v="VT"/>
    <tag k="ref:vcgi:esiteid" v="60668"/>
  </node>
  <node id="-1467" visible="true" lat="43.608226936268" lon="-73.210101223368">
    <tag k="addr:city" v="Castleton"/>
    <tag k="addr:housenumber" v="81"/>
    <tag k="addr:street" v="Vermont Route 4A West"/>
    <tag k="addr:state" v="VT"/>
    <tag k="ref:vcgi:esiteid" v="60670"/>
  </node>
  <node id="-1468" visible="true" lat="43.608327160817" lon="-73.20874924039">
    <tag k="addr:city" v="Castleton"/>
    <tag k="addr:housenumber" v="15"/>
    <tag k="addr:street" v="Vermont Route 4A West"/>
    <tag k="addr:state" v="VT"/>
    <tag k="ref:vcgi:esiteid" v="60671"/>
  </node>
  <node id="-1472" visible="true" lat="43.608279670779" lon="-73.207717138047">
    <tag k="addr:city" v="Castleton"/>
    <tag k="addr:housenumber" v="2175"/>
    <tag k="addr:street" v="Main Street"/>
    <tag k="addr:state" v="VT"/>
    <tag k="ref:vcgi:esiteid" v="60675"/>
  </node>
  <node id="-1474" visible="true" lat="43.608224164639" lon="-73.208260959888">
    <tag k="addr:city" v="Castleton"/>
    <tag k="addr:housenumber" v="17"/>
    <tag k="addr:street" v="Vermont Route 30 South"/>
    <tag k="addr:state" v="VT"/>
    <tag k="ref:vcgi:esiteid" v="60677"/>
  </node>
  <node id="-1475" visible="true" lat="43.608365632491" lon="-73.204773523574">
    <tag k="addr:city" v="Castleton"/>
    <tag k="addr:housenumber" v="2034"/>
    <tag k="addr:street" v="Main Street"/>
    <tag k="addr:state" v="VT"/>
    <tag k="ref:vcgi:esiteid" v="60678"/>
  </node>
  <node id="-1481" visible="true" lat="43.608166944831" lon="-73.207322542792">
    <tag k="addr:city" v="Castleton"/>
    <tag k="addr:housenumber" v="2155"/>
    <tag k="addr:street" v="Main Street"/>
    <tag k="addr:state" v="VT"/>
    <tag k="ref:vcgi:esiteid" v="60684"/>
  </node>
  <node id="-1482" visible="true" lat="43.608113537114" lon="-73.2101988269">
    <tag k="addr:city" v="Castleton"/>
    <tag k="addr:housenumber" v="87"/>
    <tag k="addr:street" v="Vermont Route 4A West"/>
    <tag k="addr:state" v="VT"/>
    <tag k="ref:vcgi:esiteid" v="60685"/>
  </node>
  <node id="-1483" visible="true" lat="43.607950824868" lon="-73.20943822653">
    <tag k="addr:city" v="Castleton"/>
    <tag k="addr:housenumber" v="49"/>
    <tag k="addr:street" v="Vermont Route 4A West"/>
    <tag k="addr:state" v="VT"/>
    <tag k="ref:vcgi:esiteid" v="60686"/>
  </node>
  <node id="-1484" visible="true" lat="43.607901831841" lon="-73.216102206657">
    <tag k="addr:city" v="Castleton"/>
    <tag k="addr:housenumber" v="395"/>
    <tag k="addr:street" v="Vermont Route 4A West"/>
    <tag k="addr:state" v="VT"/>
    <tag k="ref:vcgi:esiteid" v="60687"/>
  </node>
  <node id="-1487" visible="true" lat="43.608110451683" lon="-73.206801344571">
    <tag k="addr:city" v="Castleton"/>
    <tag k="addr:housenumber" v="2133"/>
    <tag k="addr:street" v="Main Street"/>
    <tag k="addr:state" v="VT"/>
    <tag k="ref:vcgi:esiteid" v="60690"/>
  </node>
  <node id="-1492" visible="true" lat="43.608031411099" lon="-73.202567774591">
    <tag k="addr:city" v="Castleton"/>
    <tag k="addr:housenumber" v="26"/>
    <tag k="addr:street" v="Rooney Road"/>
    <tag k="addr:state" v="VT"/>
    <tag k="ref:vcgi:esiteid" v="60695"/>
  </node>
  <node id="-1493" visible="true" lat="43.608125904145" lon="-73.203853388201">
    <tag k="addr:city" v="Castleton"/>
    <tag k="addr:housenumber" v="1992"/>
    <tag k="addr:street" v="Main Street"/>
    <tag k="addr:state" v="VT"/>
    <tag k="ref:vcgi:esiteid" v="60696"/>
  </node>
  <node id="-1508" visible="true" lat="43.607886540918" lon="-73.208258262871">
    <tag k="addr:city" v="Castleton"/>
    <tag k="addr:housenumber" v="35"/>
    <tag k="addr:street" v="Vermont Route 30 South"/>
    <tag k="addr:state" v="VT"/>
    <tag k="ref:vcgi:esiteid" v="60711"/>
  </node>
  <node id="-1522" visible="true" lat="43.607601677784" lon="-73.203897220485">
    <tag k="addr:city" v="Castleton"/>
    <tag k="addr:housenumber" v="1991"/>
    <tag k="addr:street" v="Main Street"/>
    <tag k="addr:state" v="VT"/>
    <tag k="ref:vcgi:esiteid" v="60726"/>
  </node>
  <node id="-1542" visible="true" lat="43.607560300096" lon="-73.208315920919">
    <tag k="addr:city" v="Castleton"/>
    <tag k="addr:housenumber" v="69"/>
    <tag k="addr:street" v="Vermont Route 30 South"/>
    <tag k="addr:state" v="VT"/>
    <tag k="ref:vcgi:esiteid" v="60749"/>
  </node>
  <node id="-1552" visible="true" lat="43.607254954517" lon="-73.208369965085">
    <tag k="addr:city" v="Castleton"/>
    <tag k="addr:housenumber" v="79"/>
    <tag k="addr:street" v="Vermont Route 30 South"/>
    <tag k="addr:state" v="VT"/>
    <tag k="ref:vcgi:esiteid" v="60760"/>
  </node>
  <node id="-1554" visible="true" lat="43.607103991386" lon="-73.203078821613">
    <tag k="addr:city" v="Castleton"/>
    <tag k="addr:housenumber" v="1939"/>
    <tag k="addr:street" v="Main Street"/>
    <tag k="addr:state" v="VT"/>
    <tag k="ref:vcgi:esiteid" v="60762"/>
  </node>
  <node id="-1625" visible="true" lat="43.605580414824" lon="-73.229272558647">
    <tag k="addr:city" v="Castleton"/>
    <tag k="addr:housenumber" v="105"/>
    <tag k="addr:street" v="Park Street"/>
    <tag k="addr:state" v="VT"/>
    <tag k="ref:vcgi:esiteid" v="60837"/>
  </node>
  <node id="-1627" visible="true" lat="43.605376920748" lon="-73.229781295589">
    <tag k="addr:city" v="Castleton"/>
    <tag k="addr:housenumber" v="1115"/>
    <tag k="addr:street" v="Vermont Route 4A West"/>
    <tag k="addr:state" v="VT"/>
    <tag k="ref:vcgi:esiteid" v="60839"/>
  </node>
  <node id="-1628" visible="true" lat="43.605497814959" lon="-73.22887729273">
    <tag k="addr:city" v="Castleton"/>
    <tag k="addr:housenumber" v="30"/>
    <tag k="addr:street" v="School Street"/>
    <tag k="addr:state" v="VT"/>
    <tag k="ref:vcgi:esiteid" v="60840"/>
  </node>
  <node id="-1636" visible="true" lat="43.605234152501" lon="-73.230847832334">
    <tag k="addr:city" v="Castleton"/>
    <tag k="addr:housenumber" v="1167"/>
    <tag k="addr:street" v="Vermont Route 4A West"/>
    <tag k="addr:state" v="VT"/>
    <tag k="ref:vcgi:esiteid" v="60849"/>
  </node>
  <node id="-1647" visible="true" lat="43.604765147323" lon="-73.231920334895">
    <tag k="addr:city" v="Castleton"/>
    <tag k="addr:housenumber" v="1229"/>
    <tag k="addr:street" v="Vermont Route 4A West"/>
    <tag k="addr:state" v="VT"/>
    <tag k="ref:vcgi:esiteid" v="60860"/>
  </node>
  <node id="-1649" visible="true" lat="43.604693379098" lon="-73.228452573486">
    <tag k="addr:city" v="Castleton"/>
    <tag k="addr:housenumber" v="84"/>
    <tag k="addr:street" v="School Street"/>
    <tag k="addr:state" v="VT"/>
    <tag k="ref:vcgi:esiteid" v="60862"/>
  </node>
  <node id="-1656" visible="true" lat="43.604346969631" lon="-73.227643792472">
    <tag k="addr:city" v="Castleton"/>
    <tag k="addr:housenumber" v="117"/>
    <tag k="addr:street" v="School Street"/>
    <tag k="addr:state" v="VT"/>
    <tag k="ref:vcgi:esiteid" v="60871"/>
  </node>
  <node id="-1662" visible="true" lat="43.60410428995" lon="-73.232789470727">
    <tag k="addr:city" v="Castleton"/>
    <tag k="addr:housenumber" v="54"/>
    <tag k="addr:street" v="Blissville Road"/>
    <tag k="addr:state" v="VT"/>
    <tag k="ref:vcgi:esiteid" v="60877"/>
  </node>
  <node id="-1663" visible="true" lat="43.604024181296" lon="-73.23398728624">
    <tag k="addr:city" v="Castleton"/>
    <tag k="addr:housenumber" v="1347"/>
    <tag k="addr:street" v="Vermont Route 4A West"/>
    <tag k="addr:state" v="VT"/>
    <tag k="ref:vcgi:esiteid" v="60878"/>
  </node>
  <node id="-1664" visible="true" lat="43.604001078692" lon="-73.227542568842">
    <tag k="addr:city" v="Castleton"/>
    <tag k="addr:housenumber" v="147"/>
    <tag k="addr:street" v="School Street"/>
    <tag k="addr:state" v="VT"/>
    <tag k="ref:vcgi:esiteid" v="60879"/>
  </node>
  <node id="-1671" visible="true" lat="43.603536297786" lon="-73.233233590413">
    <tag k="addr:city" v="Castleton"/>
    <tag k="addr:housenumber" v="84"/>
    <tag k="addr:street" v="Blissville Road"/>
    <tag k="addr:state" v="VT"/>
    <tag k="ref:vcgi:esiteid" v="60887"/>
  </node>
  <node id="-1677" visible="true" lat="43.603253612173" lon="-73.23856492373">
    <tag k="addr:city" v="Castleton"/>
    <tag k="addr:housenumber" v="1484"/>
    <tag k="addr:street" v="Vermont Route 4A West"/>
    <tag k="addr:state" v="VT"/>
    <tag k="ref:vcgi:esiteid" v="60893"/>
  </node>
  <node id="-1678" visible="true" lat="43.603242167184" lon="-73.235986187569">
    <tag k="addr:city" v="Castleton"/>
    <tag k="addr:housenumber" v="1465"/>
    <tag k="addr:street" v="Vermont Route 4A West"/>
    <tag k="addr:state" v="VT"/>
    <tag k="ref:vcgi:esiteid" v="60894"/>
  </node>
  <node id="-1684" visible="true" lat="43.602916619515" lon="-73.240192184614">
    <tag k="addr:city" v="Castleton"/>
    <tag k="addr:housenumber" v="1694"/>
    <tag k="addr:street" v="Vermont Route 4A West"/>
    <tag k="addr:state" v="VT"/>
    <tag k="ref:vcgi:esiteid" v="60900"/>
  </node>
  <node id="-1687" visible="true" lat="43.603020915978" lon="-73.232881022474">
    <tag k="addr:city" v="Castleton"/>
    <tag k="addr:housenumber" v="134"/>
    <tag k="addr:street" v="Blissville Road"/>
    <tag k="addr:state" v="VT"/>
    <tag k="ref:vcgi:esiteid" v="60903"/>
  </node>
  <node id="-1697" visible="true" lat="43.602497440754" lon="-73.233196147757">
    <tag k="addr:city" v="Castleton"/>
    <tag k="addr:housenumber" v="174"/>
    <tag k="addr:street" v="Blissville Road"/>
    <tag k="addr:state" v="VT"/>
    <tag k="ref:vcgi:esiteid" v="60913"/>
  </node>
  <node id="-2051" visible="true" lat="43.602414817787" lon="-73.235519391453">
    <tag k="addr:city" v="Castleton"/>
    <tag k="addr:housenumber" v="63"/>
    <tag k="addr:street" v="North David Avenue"/>
    <tag k="addr:state" v="VT"/>
    <tag k="ref:vcgi:esiteid" v="61276"/>
  </node>
  <node id="-2052" visible="true" lat="43.60212599851" lon="-73.234258277547">
    <tag k="addr:city" v="Castleton"/>
    <tag k="addr:housenumber" v="42"/>
    <tag k="addr:street" v="North David Avenue"/>
    <tag k="addr:state" v="VT"/>
    <tag k="ref:vcgi:esiteid" v="61277"/>
  </node>
  <node id="-2053" visible="true" lat="43.610406173751" lon="-73.182435451428">
    <tag k="addr:city" v="Castleton"/>
    <tag k="addr:housenumber" v="861"/>
    <tag k="addr:street" v="Main Street"/>
    <tag k="addr:state" v="VT"/>
    <tag k="ref:vcgi:esiteid" v="61278"/>
  </node>
  <node id="-2054" visible="true" lat="43.610245955071" lon="-73.182717738901">
    <tag k="addr:city" v="Castleton"/>
    <tag k="addr:housenumber" v="875"/>
    <tag k="addr:street" v="Main Street"/>
    <tag k="addr:state" v="VT"/>
    <tag k="ref:vcgi:esiteid" v="61279"/>
  </node>
  <node id="-2113" visible="true" lat="43.601977961349" lon="-73.233515985617">
    <tag k="addr:city" v="Castleton"/>
    <tag k="addr:housenumber" v="202"/>
    <tag k="addr:street" v="Blissville Road"/>
    <tag k="addr:state" v="VT"/>
    <tag k="ref:vcgi:esiteid" v="61339"/>
  </node>
  <node id="-2114" visible="true" lat="43.601844457586" lon="-73.234371726384">
    <tag k="addr:city" v="Castleton"/>
    <tag k="addr:housenumber" v="40"/>
    <tag k="addr:street" v="North David Avenue"/>
    <tag k="addr:state" v="VT"/>
    <tag k="ref:vcgi:esiteid" v="61340"/>
  </node>
  <node id="-2115" visible="true" lat="43.602467633355" lon="-73.234360349122">
    <tag k="addr:city" v="Castleton"/>
    <tag k="addr:housenumber" v="46"/>
    <tag k="addr:street" v="North David Avenue"/>
    <tag k="addr:state" v="VT"/>
    <tag k="ref:vcgi:esiteid" v="61341"/>
  </node>
  <node id="-2191" visible="true" lat="43.60763050437" lon="-73.204468453967">
    <tag k="addr:city" v="Castleton"/>
    <tag k="addr:housenumber" v="1997"/>
    <tag k="addr:street" v="Main Street"/>
    <tag k="addr:state" v="VT"/>
    <tag k="ref:vcgi:esiteid" v="61419"/>
  </node>
  <node id="-2212" visible="true" lat="43.608059977199" lon="-73.182589131661">
    <tag k="addr:city" v="Castleton"/>
    <tag k="addr:housenumber" v="112"/>
    <tag k="addr:street" v="University Drive"/>
    <tag k="addr:state" v="VT"/>
    <tag k="ref:vcgi:esiteid" v="61442"/>
  </node>
  <node id="-2269" visible="true" lat="43.608901150796" lon="-73.182998972507">
    <tag k="addr:city" v="Castleton"/>
    <tag k="addr:housenumber" v="100"/>
    <tag k="addr:street" v="University Drive"/>
    <tag k="addr:state" v="VT"/>
    <tag k="ref:vcgi:esiteid" v="328783"/>
  </node>
  <node id="-2270" visible="true" lat="43.608678438117" lon="-73.182977285688">
    <tag k="addr:city" v="Castleton"/>
    <tag k="addr:housenumber" v="104"/>
    <tag k="addr:street" v="University Drive"/>
    <tag k="addr:state" v="VT"/>
    <tag k="ref:vcgi:esiteid" v="328784"/>
  </node>
  <node id="-2271" visible="true" lat="43.608455611824" lon="-73.182974764311">
    <tag k="addr:city" v="Castleton"/>
    <tag k="addr:housenumber" v="108"/>
    <tag k="addr:street" v="University Drive"/>
    <tag k="addr:state" v="VT"/>
    <tag k="ref:vcgi:esiteid" v="328785"/>
  </node>
  <node id="-2279" visible="true" lat="43.607845789398" lon="-73.213410745324">
    <tag k="addr:city" v="Castleton"/>
    <tag k="addr:housenumber" v="251"/>
    <tag k="addr:street" v="Vermont Route 4A West"/>
    <tag k="addr:state" v="VT"/>
    <tag k="ref:vcgi:esiteid" v="332679"/>
  </node>
  <node id="-2293" visible="true" lat="43.604375394978" lon="-73.228339634454">
    <tag k="addr:city" v="Castleton"/>
    <tag k="addr:housenumber" v="98"/>
    <tag k="addr:street" v="School Street"/>
    <tag k="addr:state" v="VT"/>
    <tag k="ref:vcgi:esiteid" v="337324"/>
  </node>
  <node id="-2294" visible="true" lat="43.604083853602" lon="-73.228196840374">
    <tag k="addr:city" v="Castleton"/>
    <tag k="addr:housenumber" v="118"/>
    <tag k="addr:street" v="School Street"/>
    <tag k="addr:state" v="VT"/>
    <tag k="ref:vcgi:esiteid" v="337325"/>
  </node>
  <node id="-2296" visible="true" lat="43.604076353889" lon="-73.228844311237">
    <tag k="addr:city" v="Castleton"/>
    <tag k="addr:housenumber" v="48"/>
    <tag k="addr:street" v="Devery Lane"/>
    <tag k="addr:state" v="VT"/>
    <tag k="ref:vcgi:esiteid" v="338586"/>
  </node>
  <node id="-2302" visible="true" lat="43.609098966756" lon="-73.213943305289">
    <tag k="addr:city" v="Castleton"/>
    <tag k="addr:housenumber" v="254"/>
    <tag k="addr:street" v="Vermont Route 4A West"/>
    <tag k="addr:state" v="VT"/>
    <tag k="ref:vcgi:esiteid" v="339093"/>
  </node>
  <node id="-2308" visible="true" lat="43.607877843834" lon="-73.215859755459">
    <tag k="addr:city" v="Castleton"/>
    <tag k="addr:housenumber" v="393"/>
    <tag k="addr:street" v="Vermont Route 4A West"/>
    <tag k="addr:state" v="VT"/>
    <tag k="ref:vcgi:esiteid" v="345197"/>
  </node>
  <node id="-2311" visible="true" lat="43.609185726741" lon="-73.211703430802">
    <tag k="addr:city" v="Castleton"/>
    <tag k="addr:housenumber" v="166"/>
    <tag k="addr:street" v="Vermont Route 4A West"/>
    <tag k="addr:state" v="VT"/>
    <tag k="ref:vcgi:esiteid" v="345941"/>
  </node>
  <node id="-2417" visible="true" lat="43.612082314042" lon="-73.208155869591">
    <tag k="addr:city" v="Castleton"/>
    <tag k="addr:housenumber" v="263"/>
    <tag k="addr:street" v="Vermont Route 30 North"/>
    <tag k="addr:state" v="VT"/>
    <tag k="ref:vcgi:esiteid" v="751512"/>
  </node>
  <node id="-2434" visible="true" lat="43.605581290267" lon="-73.214310809413">
    <tag k="addr:city" v="Castleton"/>
    <tag k="addr:housenumber" v="164"/>
    <tag k="addr:street" v="Vermont Route 30 South"/>
    <tag k="addr:state" v="VT"/>
    <tag k="ref:vcgi:esiteid" v="757379"/>
  </node>
</osm>
