<?xml version="1.0" encoding="UTF-8"?>
<osm version="0.6" generator="JOSM" upload="false">
  <node id="-444" visible="true" lat="44.85125116512" lon="-71.989724262947">
    <!-- duplicates-in-different-towns: "264 West Echo Lake Road, West Charleston, VT"  ignoring town mismatch for duplicate housenumber/street when matching to esiteid 62777e: "264 West Echo Lake Road, , VT" -->
    <tag k="addr:city" v="West Charleston"/>
    <tag k="addr:housenumber" v="264"/>
    <tag k="addr:street" v="West Echo Lake Road"/>
    <tag k="addr:state" v="VT"/>
    <tag k="ref:vcgi:esiteid" v="62777"/>
  </node>
  <node id="-697" visible="true" lat="44.847728691147" lon="-72.087582957262">
    <!-- duplicates-in-different-towns: "2628 Chilafoux Road, Orleans, VT"  ignoring town mismatch for duplicate housenumber/street when matching to esiteid 750878: "2628 Chilafoux Road, , VT" -->
    <tag k="addr:city" v="Orleans"/>
    <tag k="addr:housenumber" v="2628"/>
    <tag k="addr:street" v="Chilafoux Road"/>
    <tag k="addr:state" v="VT"/>
    <tag k="ref:vcgi:esiteid" v="63042"/>
  </node>
  <node id="-865" visible="true" lat="44.855158505347" lon="-72.102438835995">
    <!-- duplicates-in-different-towns: "3513 Chilafoux Road, Orleans, VT"  ignoring town mismatch for duplicate housenumber/street when matching to esiteid 41723: "3513 Chilafoux Road, , VT" -->
    <tag k="addr:city" v="Orleans"/>
    <tag k="addr:housenumber" v="3513"/>
    <tag k="addr:street" v="Chilafoux Road"/>
    <tag k="addr:state" v="VT"/>
    <tag k="ref:vcgi:esiteid" v="617564"/>
  </node>
  <node id="-889" visible="true" lat="44.855200017742" lon="-72.102481140193">
    <!-- duplicates-in-different-towns: "3533 Chilafoux Road, Orleans, VT"  ignoring town mismatch for duplicate housenumber/street when matching to esiteid 613507: "3533 Chilafoux Road, , VT" -->
    <tag k="addr:city" v="Orleans"/>
    <tag k="addr:housenumber" v="3533"/>
    <tag k="addr:street" v="Chilafoux Road"/>
    <tag k="addr:state" v="VT"/>
    <tag k="ref:vcgi:esiteid" v="750868"/>
  </node>
  <node id="-890" visible="true" lat="44.855064629008" lon="-72.102216309673">
    <!-- duplicates-in-different-towns: "3507 Chilafoux Road, Orleans, VT"  ignoring town mismatch for duplicate housenumber/street when matching to esiteid 41334: "3507 Chilafoux Road, , VT" -->
    <tag k="addr:city" v="Orleans"/>
    <tag k="addr:housenumber" v="3507"/>
    <tag k="addr:street" v="Chilafoux Road"/>
    <tag k="addr:state" v="VT"/>
    <tag k="ref:vcgi:esiteid" v="750870"/>
  </node>
  <node id="-891" visible="true" lat="44.854729202236" lon="-72.101616097408">
    <!-- duplicates-in-different-towns: "3473 Chilafoux Road, Orleans, VT"  ignoring town mismatch for duplicate housenumber/street when matching to esiteid 41651: "3473 Chilafoux Road, , VT" -->
    <tag k="addr:city" v="Orleans"/>
    <tag k="addr:housenumber" v="3473"/>
    <tag k="addr:street" v="Chilafoux Road"/>
    <tag k="addr:state" v="VT"/>
    <tag k="ref:vcgi:esiteid" v="750871"/>
  </node>
  <node id="-892" visible="true" lat="44.854160178692" lon="-72.100583174848">
    <!-- duplicates-in-different-towns: "3415 Chilafoux Road, Orleans, VT"  ignoring town mismatch for duplicate housenumber/street when matching to esiteid 41338: "3415 Chilafoux Road, , VT" -->
    <tag k="addr:city" v="Orleans"/>
    <tag k="addr:housenumber" v="3415"/>
    <tag k="addr:street" v="Chilafoux Road"/>
    <tag k="addr:state" v="VT"/>
    <tag k="ref:vcgi:esiteid" v="750873"/>
  </node>
  <node id="-893" visible="true" lat="44.85396222599" lon="-72.100165311085">
    <!-- duplicates-in-different-towns: "3397 Chilafoux Road, Orleans, VT"  ignoring town mismatch for duplicate housenumber/street when matching to esiteid 62424: "3397 Chilafoux Road, , VT" -->
    <tag k="addr:city" v="Orleans"/>
    <tag k="addr:housenumber" v="3397"/>
    <tag k="addr:street" v="Chilafoux Road"/>
    <tag k="addr:state" v="VT"/>
    <tag k="ref:vcgi:esiteid" v="750874"/>
  </node>
  <node id="-894" visible="true" lat="44.852057081227" lon="-72.096672315639">
    <!-- duplicates-in-different-towns: "3175 Chilafoux Road, Orleans, VT"  ignoring town mismatch for duplicate housenumber/street when matching to esiteid 345503: "3175 Chilafoux Road, , VT" -->
    <tag k="addr:city" v="Orleans"/>
    <tag k="addr:housenumber" v="3175"/>
    <tag k="addr:street" v="Chilafoux Road"/>
    <tag k="addr:state" v="VT"/>
    <tag k="ref:vcgi:esiteid" v="750875"/>
  </node>
  <node id="-895" visible="true" lat="44.850773954067" lon="-72.094378458014">
    <!-- duplicates-in-different-towns: "3025 Chilafoux Road, Orleans, VT"  ignoring town mismatch for duplicate housenumber/street when matching to esiteid 41345: "3025 Chilafoux Road, , VT" -->
    <tag k="addr:city" v="Orleans"/>
    <tag k="addr:housenumber" v="3025"/>
    <tag k="addr:street" v="Chilafoux Road"/>
    <tag k="addr:state" v="VT"/>
    <tag k="ref:vcgi:esiteid" v="750876"/>
  </node>
  <node id="-896" visible="true" lat="44.849936290875" lon="-72.092827952896">
    <!-- duplicates-in-different-towns: "2907 Chilafoux Road, Orleans, VT"  ignoring town mismatch for duplicate housenumber/street when matching to esiteid 41348: "2907 Chilafoux Road, , VT" -->
    <tag k="addr:city" v="Orleans"/>
    <tag k="addr:housenumber" v="2907"/>
    <tag k="addr:street" v="Chilafoux Road"/>
    <tag k="addr:state" v="VT"/>
    <tag k="ref:vcgi:esiteid" v="750877"/>
  </node>
  <node id="-919" visible="true" lat="44.852658290564" lon="-72.097783648198">
    <!-- duplicates-in-different-towns: "3235 Chilafoux Road, Orleans, VT"  ignoring town mismatch for duplicate housenumber/street when matching to esiteid 760491: "3235 Chilafoux Road, , VT" -->
    <tag k="addr:city" v="Orleans"/>
    <tag k="addr:housenumber" v="3235"/>
    <tag k="addr:street" v="Chilafoux Road"/>
    <tag k="addr:state" v="VT"/>
    <tag k="ref:vcgi:esiteid" v="760492"/>
  </node>
  <node id="-938" visible="true" lat="44.85368692977" lon="-72.099702454559">
    <!-- duplicates-in-different-towns: "3327 Chilafoux Road, Orleans, VT"  ignoring town mismatch for duplicate housenumber/street when matching to esiteid 765296: "3327 Chilafoux Road, , VT" -->
    <tag k="addr:city" v="Orleans"/>
    <tag k="addr:housenumber" v="3327"/>
    <tag k="addr:street" v="Chilafoux Road"/>
    <tag k="addr:state" v="VT"/>
    <tag k="ref:vcgi:esiteid" v="768488"/>
  </node>
</osm>
