<?xml version="1.0" encoding="UTF-8"?>
<osm version="0.6" generator="JOSM" upload="false">
  <node id="-1736" visible="true" lat="44.351866730706" lon="-73.211142717314">
    <!-- offset: "1484 Lime Kiln Road, Charlotte, VT" Significant offset - 241.7m -->
    <tag k="addr:city" v="Charlotte"/>
    <tag k="addr:housenumber" v="1484"/>
    <tag k="addr:street" v="Lime Kiln Road"/>
    <tag k="addr:state" v="VT"/>
    <tag k="ref:vcgi:esiteid" v="64824"/>
  </node>
  <node id="-1758" visible="true" lat="44.35901212454" lon="-73.164904627766">
    <!-- offset: "2943 Shelburne Falls Road, Hinesburg, VT" Significant offset - 200.1m -->
    <tag k="addr:city" v="Hinesburg"/>
    <tag k="addr:housenumber" v="2943"/>
    <tag k="addr:street" v="Shelburne Falls Road"/>
    <tag k="addr:state" v="VT"/>
    <tag k="ref:vcgi:esiteid" v="64850"/>
  </node>
  <node id="-1978" visible="true" lat="44.354960669135" lon="-73.225727708738">
    <!-- offset: "137 McDonald Farm Road, Shelburne, VT" Significant offset - 226.9m -->
    <tag k="addr:city" v="Shelburne"/>
    <tag k="addr:housenumber" v="137"/>
    <tag k="addr:street" v="McDonald Farm Road"/>
    <tag k="addr:state" v="VT"/>
    <tag k="ref:vcgi:esiteid" v="222868"/>
  </node>
  <node id="-2092" visible="true" lat="44.350363457463" lon="-73.265523542607">
    <!-- offset: "214 Orchard Road, Charlotte, VT" Significant offset - 246.8m -->
    <tag k="addr:city" v="Charlotte"/>
    <tag k="addr:housenumber" v="214"/>
    <tag k="addr:street" v="Orchard Road"/>
    <tag k="addr:state" v="VT"/>
    <tag k="ref:vcgi:esiteid" v="341555"/>
  </node>
  <node id="-2094" visible="true" lat="44.350292411807" lon="-73.266306881108">
    <!-- offset: "248 Orchard Road, Shelburne, VT" Significant offset - 267.1m -->
    <tag k="addr:city" v="Shelburne"/>
    <tag k="addr:housenumber" v="248"/>
    <tag k="addr:street" v="Orchard Road"/>
    <tag k="addr:state" v="VT"/>
    <tag k="ref:vcgi:esiteid" v="341557"/>
  </node>
</osm>
