<?xml version="1.0" encoding="UTF-8"?>
<osm version="0.6" generator="JOSM" upload="false">
  <node id="-381" visible="true" lat="43.992317588481" lon="-72.516174478514">
    <!-- multiple: "212 Hook Road, Chelsea, VT" Multiple exact matches in OSM. -->
    <tag k="addr:city" v="Chelsea"/>
    <tag k="addr:housenumber" v="212"/>
    <tag k="addr:street" v="Hook Road"/>
    <tag k="addr:state" v="VT"/>
    <tag k="ref:vcgi:esiteid" v="65396"/>
  </node>
  <node id="-449" visible="true" lat="43.98924084443" lon="-72.447337018554">
    <!-- multiple: "296 Vermont Route 110, Chelsea, VT" Multiple exact matches in OSM. -->
    <tag k="addr:city" v="Chelsea"/>
    <tag k="addr:housenumber" v="296"/>
    <tag k="addr:street" v="Vermont Route 110"/>
    <tag k="addr:state" v="VT"/>
    <tag k="ref:vcgi:esiteid" v="65470"/>
  </node>
  <node id="-583" visible="true" lat="43.974388935949" lon="-72.429063024946">
    <!-- multiple: "30 Hall Road, Chelsea, VT" Multiple exact matches in OSM. -->
    <tag k="addr:city" v="Chelsea"/>
    <tag k="addr:housenumber" v="30"/>
    <tag k="addr:street" v="Hall Road"/>
    <tag k="addr:state" v="VT"/>
    <tag k="ref:vcgi:esiteid" v="65615"/>
  </node>
  <node id="-807" visible="true" lat="43.97490913775" lon="-72.428300993687">
    <!-- multiple: "30 Hall Road, Chelsea, VT" Multiple exact matches in OSM. -->
    <tag k="addr:city" v="Chelsea"/>
    <tag k="addr:housenumber" v="30"/>
    <tag k="addr:street" v="Hall Road"/>
    <tag k="addr:state" v="VT"/>
    <tag k="ref:vcgi:esiteid" v="333933"/>
  </node>
  <node id="-821" visible="true" lat="43.991696505228" lon="-72.515715249404">
    <!-- multiple: "212 Hook Road, Chelsea, VT" Multiple exact matches in OSM. -->
    <tag k="addr:city" v="Chelsea"/>
    <tag k="addr:housenumber" v="212"/>
    <tag k="addr:street" v="Hook Road"/>
    <tag k="addr:state" v="VT"/>
    <tag k="ref:vcgi:esiteid" v="341683"/>
  </node>
</osm>
