<?xml version="1.0" encoding="UTF-8"?>
<osm version="0.6" generator="JOSM" upload="false">
  <node id="-798" visible="true" lat="43.673987238111" lon="-72.943172505767">
    <!-- duplicates-in-different-towns: "11 Chittenden Road, Rutland, VT"  ignoring town mismatch for duplicate housenumber/street when matching to esiteid 188595: "11 Chittenden Road, , VT" -->
    <tag k="addr:city" v="Rutland"/>
    <tag k="addr:housenumber" v="11"/>
    <tag k="addr:street" v="Chittenden Road"/>
    <tag k="addr:state" v="VT"/>
    <tag k="ref:vcgi:esiteid" v="339146"/>
  </node>
  <node id="-799" visible="true" lat="43.676727321086" lon="-72.945219791323">
    <!-- duplicates-in-different-towns: "33 Chittenden Road, Rutland, VT"  ignoring town mismatch for duplicate housenumber/street when matching to esiteid 188560: "33 Chittenden Road, , VT" -->
    <tag k="addr:city" v="Rutland"/>
    <tag k="addr:housenumber" v="33"/>
    <tag k="addr:street" v="Chittenden Road"/>
    <tag k="addr:state" v="VT"/>
    <tag k="ref:vcgi:esiteid" v="339147"/>
  </node>
  <node id="-813" visible="true" lat="43.676442191145" lon="-72.944959128871">
    <!-- duplicates-in-different-towns: "31 Chittenden Road, Rutland, VT"  ignoring town mismatch for duplicate housenumber/street when matching to esiteid 345270: "31 Chittenden Road, , VT" -->
    <tag k="addr:city" v="Rutland"/>
    <tag k="addr:housenumber" v="31"/>
    <tag k="addr:street" v="Chittenden Road"/>
    <tag k="addr:state" v="VT"/>
    <tag k="ref:vcgi:esiteid" v="449618"/>
  </node>
  <node id="-814" visible="true" lat="43.676747100192" lon="-72.945232269282">
    <!-- duplicates-in-different-towns: "35 Chittenden Road, Rutland, VT"  ignoring town mismatch for duplicate housenumber/street when matching to esiteid 188562: "35 Chittenden Road, , VT" -->
    <tag k="addr:city" v="Rutland"/>
    <tag k="addr:housenumber" v="35"/>
    <tag k="addr:street" v="Chittenden Road"/>
    <tag k="addr:state" v="VT"/>
    <tag k="ref:vcgi:esiteid" v="449621"/>
  </node>
  <node id="-838" visible="true" lat="43.678368326129" lon="-72.94591357961">
    <!-- duplicates-in-different-towns: "47 Chittenden Road, Rutland, VT"  ignoring town mismatch for duplicate housenumber/street when matching to esiteid 315357: "47 Chittenden Road, , VT" -->
    <tag k="addr:city" v="Rutland"/>
    <tag k="addr:housenumber" v="47"/>
    <tag k="addr:street" v="Chittenden Road"/>
    <tag k="addr:state" v="VT"/>
    <tag k="ref:vcgi:esiteid" v="451529"/>
  </node>
  <node id="-889" visible="true" lat="43.691185468631" lon="-72.955323775003">
    <!-- duplicates-in-different-towns: "2162 Sangamon Road, Pittsford, VT"  ignoring town mismatch for duplicate housenumber/street when matching to esiteid 188800: "2162 Sangamon Road, , VT" -->
    <tag k="addr:city" v="Pittsford"/>
    <tag k="addr:housenumber" v="2162"/>
    <tag k="addr:street" v="Sangamon Road"/>
    <tag k="addr:state" v="VT"/>
    <tag k="ref:vcgi:esiteid" v="772491"/>
  </node>
</osm>
