<?xml version="1.0" encoding="UTF-8"?>
<osm version="0.6" generator="JOSM" upload="false">
  <node id="-316" visible="true" lat="44.593172311927" lon="-73.180248966331">
    <!-- multiple: "257 Jasper Mine Road, Colchester, VT" Multiple exact matches in OSM. -->
    <tag k="addr:city" v="Colchester"/>
    <tag k="addr:housenumber" v="257"/>
    <tag k="addr:street" v="Jasper Mine Road"/>
    <tag k="addr:state" v="VT"/>
    <tag k="ref:vcgi:esiteid" v="69672"/>
  </node>
  <node id="-1646" visible="true" lat="44.550883208715" lon="-73.229403140486">
    <!-- multiple: "794 West Lakeshore Drive, Colchester, VT" Multiple exact matches in OSM. -->
    <tag k="addr:city" v="Colchester"/>
    <tag k="addr:housenumber" v="794"/>
    <tag k="addr:street" v="West Lakeshore Drive"/>
    <tag k="addr:state" v="VT"/>
    <tag k="ref:vcgi:esiteid" v="71134"/>
  </node>
  <node id="-1654" visible="true" lat="44.550789424945" lon="-73.229967088299">
    <!-- multiple: "816 West Lakeshore Drive, Colchester, VT" Multiple exact matches in OSM. -->
    <tag k="addr:city" v="Colchester"/>
    <tag k="addr:housenumber" v="816"/>
    <tag k="addr:street" v="West Lakeshore Drive"/>
    <tag k="addr:state" v="VT"/>
    <tag k="ref:vcgi:esiteid" v="71143"/>
  </node>
  <node id="-1864" visible="true" lat="44.549918225203" lon="-73.163919472592">
    <!-- multiple: "3570 Roosevelt Highway, Colchester, VT" Multiple exact matches in OSM. -->
    <tag k="addr:city" v="Colchester"/>
    <tag k="addr:housenumber" v="3570"/>
    <tag k="addr:street" v="Roosevelt Highway"/>
    <tag k="addr:state" v="VT"/>
    <tag k="ref:vcgi:esiteid" v="71381"/>
  </node>
  <node id="-2033" visible="true" lat="44.548964648816" lon="-73.160183107105">
    <!-- multiple: "253 Main Street, Colchester, VT" Multiple exact matches in OSM. -->
    <tag k="addr:city" v="Colchester"/>
    <tag k="addr:housenumber" v="253"/>
    <tag k="addr:street" v="Main Street"/>
    <tag k="addr:state" v="VT"/>
    <tag k="ref:vcgi:esiteid" v="71567"/>
  </node>
  <node id="-2219" visible="true" lat="44.54777282825" lon="-73.157411095456">
    <!-- multiple: "419 Main Street, Colchester, VT" Multiple exact matches in OSM. -->
    <tag k="addr:city" v="Colchester"/>
    <tag k="addr:housenumber" v="419"/>
    <tag k="addr:street" v="Main Street"/>
    <tag k="addr:state" v="VT"/>
    <tag k="ref:vcgi:esiteid" v="71779"/>
  </node>
  <node id="-2885" visible="true" lat="44.544000937689" lon="-73.213856230178">
    <!-- multiple: "133 Blakely Road, Colchester, VT" Multiple exact matches in OSM. -->
    <tag k="addr:city" v="Colchester"/>
    <tag k="addr:housenumber" v="133"/>
    <tag k="addr:street" v="Blakely Road"/>
    <tag k="addr:state" v="VT"/>
    <tag k="ref:vcgi:esiteid" v="72541"/>
  </node>
  <node id="-2926" visible="true" lat="44.543794309424" lon="-73.214028454889">
    <!-- multiple: "131 Blakely Road, Colchester, VT" Multiple exact matches in OSM. -->
    <tag k="addr:city" v="Colchester"/>
    <tag k="addr:housenumber" v="131"/>
    <tag k="addr:street" v="Blakely Road"/>
    <tag k="addr:state" v="VT"/>
    <tag k="ref:vcgi:esiteid" v="72587"/>
  </node>
  <node id="-3445" visible="true" lat="44.541066175315" lon="-73.25555732497">
    <!-- multiple: "490 Porters Point Road, Colchester, VT" Multiple exact matches in OSM. -->
    <tag k="addr:city" v="Colchester"/>
    <tag k="addr:housenumber" v="490"/>
    <tag k="addr:street" v="Porters Point Road"/>
    <tag k="addr:state" v="VT"/>
    <tag k="ref:vcgi:esiteid" v="73168"/>
  </node>
  <node id="-3582" visible="true" lat="44.540291214875" lon="-73.209733519132">
    <!-- multiple: "425 Blakely Road, Colchester, VT" Multiple exact matches in OSM. -->
    <tag k="addr:city" v="Colchester"/>
    <tag k="addr:housenumber" v="425"/>
    <tag k="addr:street" v="Blakely Road"/>
    <tag k="addr:state" v="VT"/>
    <tag k="ref:vcgi:esiteid" v="73329"/>
  </node>
  <node id="-3770" visible="true" lat="44.538329438839" lon="-73.249720657624">
    <!-- multiple: "164 Porters Point Road, Colchester, VT" Multiple exact matches in OSM. -->
    <tag k="addr:city" v="Colchester"/>
    <tag k="addr:housenumber" v="164"/>
    <tag k="addr:street" v="Porters Point Road"/>
    <tag k="addr:state" v="VT"/>
    <tag k="ref:vcgi:esiteid" v="73542"/>
  </node>
  <node id="-3773" visible="true" lat="44.538621366037" lon="-73.207849036524">
    <!-- multiple: "609 Blakely Road, Colchester, VT" Multiple exact matches in OSM. -->
    <tag k="addr:city" v="Colchester"/>
    <tag k="addr:housenumber" v="609"/>
    <tag k="addr:street" v="Blakely Road"/>
    <tag k="addr:state" v="VT"/>
    <tag k="ref:vcgi:esiteid" v="73547"/>
  </node>
  <node id="-3819" visible="true" lat="44.53727315583" lon="-73.251233628948">
    <!-- multiple: "155 Porters Point Road, Colchester, VT" Multiple exact matches in OSM. -->
    <tag k="addr:city" v="Colchester"/>
    <tag k="addr:housenumber" v="155"/>
    <tag k="addr:street" v="Porters Point Road"/>
    <tag k="addr:state" v="VT"/>
    <tag k="ref:vcgi:esiteid" v="73601"/>
  </node>
  <node id="-3855" visible="true" lat="44.536392882173" lon="-73.246980234856">
    <!-- multiple: "25 Macrae Road, Colchester, VT" Multiple exact matches in OSM. -->
    <tag k="addr:city" v="Colchester"/>
    <tag k="addr:housenumber" v="25"/>
    <tag k="addr:street" v="Macrae Road"/>
    <tag k="addr:state" v="VT"/>
    <tag k="ref:vcgi:esiteid" v="73644"/>
  </node>
  <node id="-3858" visible="true" lat="44.536483767953" lon="-73.205998277039">
    <!-- multiple: "781 Blakely Road, Colchester, VT" Multiple exact matches in OSM. -->
    <tag k="addr:city" v="Colchester"/>
    <tag k="addr:housenumber" v="781"/>
    <tag k="addr:street" v="Blakely Road"/>
    <tag k="addr:state" v="VT"/>
    <tag k="ref:vcgi:esiteid" v="73647"/>
  </node>
  <node id="-3863" visible="true" lat="44.536322203758" lon="-73.248293944565">
    <!-- multiple: "16 Heineberg Drive, Colchester, VT" Multiple exact matches in OSM. -->
    <tag k="addr:city" v="Colchester"/>
    <tag k="addr:housenumber" v="16"/>
    <tag k="addr:street" v="Heineberg Drive"/>
    <tag k="addr:state" v="VT"/>
    <tag k="ref:vcgi:esiteid" v="73652"/>
  </node>
  <node id="-4877" visible="true" lat="44.510123095503" lon="-73.185501779501">
    <!-- multiple: "463 Mountain View Drive, Colchester, VT" Multiple exact matches in OSM. -->
    <tag k="addr:city" v="Colchester"/>
    <tag k="addr:housenumber" v="463"/>
    <tag k="addr:street" v="Mountain View Drive"/>
    <tag k="addr:state" v="VT"/>
    <tag k="ref:vcgi:esiteid" v="74844"/>
  </node>
  <node id="-4913" visible="true" lat="44.507853602621" lon="-73.179308304451">
    <!-- multiple: "414 Roosevelt Highway, Colchester, VT" Multiple exact matches in OSM. -->
    <tag k="addr:city" v="Colchester"/>
    <tag k="addr:housenumber" v="414"/>
    <tag k="addr:street" v="Roosevelt Highway"/>
    <tag k="addr:state" v="VT"/>
    <tag k="ref:vcgi:esiteid" v="74902"/>
  </node>
  <node id="-4939" visible="true" lat="44.507418178468" lon="-73.149418978923">
    <!-- multiple: "182 Hegeman Avenue, Colchester, VT" Multiple exact matches in OSM. -->
    <tag k="addr:city" v="Colchester"/>
    <tag k="addr:housenumber" v="182"/>
    <tag k="addr:street" v="Hegeman Avenue"/>
    <tag k="addr:state" v="VT"/>
    <tag k="ref:vcgi:esiteid" v="74938"/>
  </node>
  <node id="-5077" visible="true" lat="44.503306821825" lon="-73.181641743139">
    <!-- multiple: "70 Roosevelt Highway, Colchester, VT" Multiple exact matches in OSM. -->
    <tag k="addr:city" v="Colchester"/>
    <tag k="addr:housenumber" v="70"/>
    <tag k="addr:street" v="Roosevelt Highway"/>
    <tag k="addr:state" v="VT"/>
    <tag k="ref:vcgi:esiteid" v="75117"/>
  </node>
  <node id="-5358" visible="true" lat="44.498501620507" lon="-73.157339766962">
    <!-- multiple: "865 College Parkway, Colchester, VT" Multiple exact matches in OSM. -->
    <tag k="addr:city" v="Colchester"/>
    <tag k="addr:housenumber" v="865"/>
    <tag k="addr:street" v="College Parkway"/>
    <tag k="addr:state" v="VT"/>
    <tag k="ref:vcgi:esiteid" v="75445"/>
  </node>
  <node id="-5367" visible="true" lat="44.497925198108" lon="-73.158194485341">
    <!-- multiple: "807 College Parkway, Colchester, VT" Multiple exact matches in OSM. -->
    <tag k="addr:city" v="Colchester"/>
    <tag k="addr:housenumber" v="807"/>
    <tag k="addr:street" v="College Parkway"/>
    <tag k="addr:state" v="VT"/>
    <tag k="ref:vcgi:esiteid" v="75455"/>
  </node>
  <node id="-5370" visible="true" lat="44.497814051765" lon="-73.158557416765">
    <!-- multiple: "781 College Parkway, Colchester, VT" Multiple exact matches in OSM. -->
    <tag k="addr:city" v="Colchester"/>
    <tag k="addr:housenumber" v="781"/>
    <tag k="addr:street" v="College Parkway"/>
    <tag k="addr:state" v="VT"/>
    <tag k="ref:vcgi:esiteid" v="75458"/>
  </node>
  <node id="-5381" visible="true" lat="44.49648274841" lon="-73.15819288899">
    <!-- multiple: "790 College Parkway, Colchester, VT" Multiple exact matches in OSM. -->
    <tag k="addr:city" v="Colchester"/>
    <tag k="addr:housenumber" v="790"/>
    <tag k="addr:street" v="College Parkway"/>
    <tag k="addr:state" v="VT"/>
    <tag k="ref:vcgi:esiteid" v="75478"/>
  </node>
  <node id="-5558" visible="true" lat="44.508489656634" lon="-73.17904171604">
    <!-- multiple: "416 Roosevelt Highway, Colchester, VT" Multiple exact matches in OSM. -->
    <tag k="addr:city" v="Colchester"/>
    <tag k="addr:housenumber" v="416"/>
    <tag k="addr:street" v="Roosevelt Highway"/>
    <tag k="addr:state" v="VT"/>
    <tag k="ref:vcgi:esiteid" v="75697"/>
  </node>
  <node id="-5627" visible="true" lat="44.509994840077" lon="-73.184282344157">
    <!-- multiple: "356 Mountain View Drive, Colchester, VT" Multiple exact matches in OSM. -->
    <tag k="addr:city" v="Colchester"/>
    <tag k="addr:housenumber" v="356"/>
    <tag k="addr:street" v="Mountain View Drive"/>
    <tag k="addr:state" v="VT"/>
    <tag k="ref:vcgi:esiteid" v="75767"/>
  </node>
  <node id="-6138" visible="true" lat="44.529855864578" lon="-73.174701757856">
    <!-- multiple: "18 Severance Green, Colchester, VT" Multiple exact matches in OSM. -->
    <tag k="addr:city" v="Colchester"/>
    <tag k="addr:housenumber" v="18"/>
    <tag k="addr:street" v="Severance Green"/>
    <tag k="addr:state" v="VT"/>
    <tag k="ref:vcgi:esiteid" v="327668"/>
  </node>
  <node id="-6163" visible="true" lat="44.590825566698" lon="-73.190242156276">
    <!-- multiple: "274 Raymond Road, Colchester, VT" Multiple exact matches in OSM. -->
    <tag k="addr:city" v="Colchester"/>
    <tag k="addr:housenumber" v="274"/>
    <tag k="addr:street" v="Raymond Road"/>
    <tag k="addr:state" v="VT"/>
    <tag k="ref:vcgi:esiteid" v="333281"/>
  </node>
  <node id="-6350" visible="true" lat="44.529228210052" lon="-73.173413093086">
    <!-- multiple: "47 Commerce Drive, Colchester, VT" Multiple exact matches in OSM. -->
    <tag k="addr:city" v="Colchester"/>
    <tag k="addr:housenumber" v="47"/>
    <tag k="addr:street" v="Commerce Drive"/>
    <tag k="addr:state" v="VT"/>
    <tag k="ref:vcgi:esiteid" v="449666"/>
  </node>
  <node id="-6786" visible="true" lat="44.506935101535" lon="-73.180141322254">
    <!-- multiple: "18 Lower Mountain View Drive, Colchester, VT" Multiple exact matches in OSM. -->
    <tag k="addr:city" v="Colchester"/>
    <tag k="addr:housenumber" v="18"/>
    <tag k="addr:street" v="Lower Mountain View Drive"/>
    <tag k="addr:state" v="VT"/>
    <tag k="ref:vcgi:esiteid" v="756576"/>
  </node>
</osm>
