<?xml version="1.0" encoding="UTF-8"?>
<osm version="0.6" generator="JOSM" upload="false">
  <node id="-391" visible="true" lat="43.364136907895" lon="-72.995805123553">
    <tag k="addr:city" v="Danby"/>
    <tag k="addr:housenumber" v="48"/>
    <tag k="addr:street" v="Burden Drive"/>
    <tag k="addr:state" v="VT"/>
    <tag k="ref:vcgi:esiteid" v="79843"/>
  </node>
  <node id="-392" visible="true" lat="43.363625692907" lon="-72.997965776431">
    <tag k="addr:city" v="Danby"/>
    <tag k="addr:housenumber" v="1174"/>
    <tag k="addr:street" v="North Main Street"/>
    <tag k="addr:state" v="VT"/>
    <tag k="ref:vcgi:esiteid" v="79844"/>
  </node>
  <node id="-398" visible="true" lat="43.363148901618" lon="-72.995118476827">
    <tag k="addr:city" v="Danby"/>
    <tag k="addr:housenumber" v="120"/>
    <tag k="addr:street" v="Burden Drive"/>
    <tag k="addr:state" v="VT"/>
    <tag k="ref:vcgi:esiteid" v="79850"/>
  </node>
  <node id="-403" visible="true" lat="43.362580510998" lon="-72.998185494986">
    <tag k="addr:city" v="Danby"/>
    <tag k="addr:housenumber" v="1111"/>
    <tag k="addr:street" v="North Main Street"/>
    <tag k="addr:state" v="VT"/>
    <tag k="ref:vcgi:esiteid" v="79855"/>
  </node>
  <node id="-408" visible="true" lat="43.36203500884" lon="-72.997498849545">
    <tag k="addr:city" v="Danby"/>
    <tag k="addr:housenumber" v="1064"/>
    <tag k="addr:street" v="North Main Street"/>
    <tag k="addr:state" v="VT"/>
    <tag k="ref:vcgi:esiteid" v="79860"/>
  </node>
  <node id="-412" visible="true" lat="43.36167261285" lon="-72.999810556679">
    <tag k="addr:city" v="Danby"/>
    <tag k="addr:housenumber" v="1091"/>
    <tag k="addr:street" v="North Main Street"/>
    <tag k="addr:state" v="VT"/>
    <tag k="ref:vcgi:esiteid" v="79864"/>
  </node>
  <node id="-417" visible="true" lat="43.361066508424" lon="-72.996209608605">
    <tag k="addr:city" v="Danby"/>
    <tag k="addr:housenumber" v="1018"/>
    <tag k="addr:street" v="North Main Street"/>
    <tag k="addr:state" v="VT"/>
    <tag k="ref:vcgi:esiteid" v="79869"/>
  </node>
  <node id="-421" visible="true" lat="43.361069889999" lon="-72.997086862224">
    <tag k="addr:city" v="Danby"/>
    <tag k="addr:housenumber" v="996"/>
    <tag k="addr:street" v="North Main Street"/>
    <tag k="addr:state" v="VT"/>
    <tag k="ref:vcgi:esiteid" v="79873"/>
  </node>
  <node id="-423" visible="true" lat="43.36099649177" lon="-72.999273048564">
    <tag k="addr:city" v="Danby"/>
    <tag k="addr:housenumber" v="969"/>
    <tag k="addr:street" v="North Main Street"/>
    <tag k="addr:state" v="VT"/>
    <tag k="ref:vcgi:esiteid" v="79875"/>
  </node>
  <node id="-427" visible="true" lat="43.360615941584" lon="-72.996919014223">
    <tag k="addr:city" v="Danby"/>
    <tag k="addr:housenumber" v="966"/>
    <tag k="addr:street" v="North Main Street"/>
    <tag k="addr:state" v="VT"/>
    <tag k="ref:vcgi:esiteid" v="79879"/>
  </node>
  <node id="-429" visible="true" lat="43.360348913005" lon="-72.994416573083">
    <tag k="addr:city" v="Danby"/>
    <tag k="addr:housenumber" v="127"/>
    <tag k="addr:street" v="Holland Heights Road"/>
    <tag k="addr:state" v="VT"/>
    <tag k="ref:vcgi:esiteid" v="79881"/>
  </node>
  <node id="-433" visible="true" lat="43.360123845861" lon="-72.999055246264">
    <tag k="addr:city" v="Danby"/>
    <tag k="addr:housenumber" v="957"/>
    <tag k="addr:street" v="North Main Street"/>
    <tag k="addr:state" v="VT"/>
    <tag k="ref:vcgi:esiteid" v="79885"/>
  </node>
  <node id="-434" visible="true" lat="43.360020849878" lon="-72.995438912108">
    <tag k="addr:city" v="Danby"/>
    <tag k="addr:housenumber" v="81"/>
    <tag k="addr:street" v="Holland Heights Road"/>
    <tag k="addr:state" v="VT"/>
    <tag k="ref:vcgi:esiteid" v="79886"/>
  </node>
  <node id="-438" visible="true" lat="43.359587646264" lon="-72.994247048129">
    <tag k="addr:city" v="Danby"/>
    <tag k="addr:housenumber" v="134"/>
    <tag k="addr:street" v="Holland Heights Road"/>
    <tag k="addr:state" v="VT"/>
    <tag k="ref:vcgi:esiteid" v="79890"/>
  </node>
  <node id="-439" visible="true" lat="43.359510277616" lon="-73.002978119663">
    <tag k="addr:city" v="Danby"/>
    <tag k="addr:housenumber" v="875"/>
    <tag k="addr:street" v="North Main Street"/>
    <tag k="addr:state" v="VT"/>
    <tag k="ref:vcgi:esiteid" v="79891"/>
  </node>
  <node id="-454" visible="true" lat="43.357896062678" lon="-72.997170784826">
    <tag k="addr:city" v="Danby"/>
    <tag k="addr:housenumber" v="777"/>
    <tag k="addr:street" v="North Main Street"/>
    <tag k="addr:state" v="VT"/>
    <tag k="ref:vcgi:esiteid" v="79909"/>
  </node>
  <node id="-461" visible="true" lat="43.357106418901" lon="-72.996552803127">
    <tag k="addr:city" v="Danby"/>
    <tag k="addr:housenumber" v="726"/>
    <tag k="addr:street" v="North Main Street"/>
    <tag k="addr:state" v="VT"/>
    <tag k="ref:vcgi:esiteid" v="79916"/>
  </node>
  <node id="-473" visible="true" lat="43.356438848026" lon="-72.997704842251">
    <tag k="addr:city" v="Danby"/>
    <tag k="addr:housenumber" v="663"/>
    <tag k="addr:street" v="North Main Street"/>
    <tag k="addr:state" v="VT"/>
    <tag k="ref:vcgi:esiteid" v="79929"/>
  </node>
  <node id="-482" visible="true" lat="43.355541613516" lon="-72.997761941485">
    <tag k="addr:city" v="Danby"/>
    <tag k="addr:housenumber" v="613"/>
    <tag k="addr:street" v="North Main Street"/>
    <tag k="addr:state" v="VT"/>
    <tag k="ref:vcgi:esiteid" v="79940"/>
  </node>
  <node id="-489" visible="true" lat="43.355198788577" lon="-72.997044491902">
    <tag k="addr:city" v="Danby"/>
    <tag k="addr:housenumber" v="590"/>
    <tag k="addr:street" v="North Main Street"/>
    <tag k="addr:state" v="VT"/>
    <tag k="ref:vcgi:esiteid" v="79948"/>
  </node>
  <node id="-552" visible="true" lat="43.346708325851" lon="-72.999073582056">
    <tag k="addr:city" v="Danby"/>
    <tag k="addr:housenumber" v="130"/>
    <tag k="addr:street" v="Brook Road"/>
    <tag k="addr:state" v="VT"/>
    <tag k="ref:vcgi:esiteid" v="80013"/>
  </node>
  <node id="-561" visible="true" lat="43.346297461421" lon="-72.996390290345">
    <tag k="addr:city" v="Danby"/>
    <tag k="addr:housenumber" v="30"/>
    <tag k="addr:street" v="South Main Street"/>
    <tag k="addr:state" v="VT"/>
    <tag k="ref:vcgi:esiteid" v="80023"/>
  </node>
  <node id="-562" visible="true" lat="43.346167462795" lon="-72.996261262003">
    <tag k="addr:city" v="Danby"/>
    <tag k="addr:housenumber" v="34"/>
    <tag k="addr:street" v="South Main Street"/>
    <tag k="addr:state" v="VT"/>
    <tag k="ref:vcgi:esiteid" v="80024"/>
  </node>
  <node id="-566" visible="true" lat="43.346014902475" lon="-72.996197575289">
    <tag k="addr:city" v="Danby"/>
    <tag k="addr:housenumber" v="52"/>
    <tag k="addr:street" v="South Main Street"/>
    <tag k="addr:state" v="VT"/>
    <tag k="ref:vcgi:esiteid" v="80028"/>
  </node>
  <node id="-572" visible="true" lat="43.345821958949" lon="-72.99616708268">
    <tag k="addr:city" v="Danby"/>
    <tag k="addr:housenumber" v="74"/>
    <tag k="addr:street" v="South Main Street"/>
    <tag k="addr:state" v="VT"/>
    <tag k="ref:vcgi:esiteid" v="80034"/>
  </node>
  <node id="-653" visible="true" lat="43.339051454911" lon="-72.995339727995">
    <tag k="addr:city" v="Danby"/>
    <tag k="addr:housenumber" v="532"/>
    <tag k="addr:street" v="South Main Street"/>
    <tag k="addr:state" v="VT"/>
    <tag k="ref:vcgi:esiteid" v="80115"/>
  </node>
  <node id="-660" visible="true" lat="43.337971895629" lon="-72.994759894568">
    <tag k="addr:city" v="Danby"/>
    <tag k="addr:housenumber" v="622"/>
    <tag k="addr:street" v="South Main Street"/>
    <tag k="addr:state" v="VT"/>
    <tag k="ref:vcgi:esiteid" v="80122"/>
  </node>
  <node id="-689" visible="true" lat="43.330075547637" lon="-72.995903213786">
    <tag k="addr:city" v="Danby"/>
    <tag k="addr:housenumber" v="657"/>
    <tag k="addr:street" v="Quarry Hill Road"/>
    <tag k="addr:state" v="VT"/>
    <tag k="ref:vcgi:esiteid" v="80151"/>
  </node>
  <node id="-690" visible="true" lat="43.330018695199" lon="-72.996718113846">
    <tag k="addr:city" v="Danby"/>
    <tag k="addr:housenumber" v="621"/>
    <tag k="addr:street" v="Quarry Hill Road"/>
    <tag k="addr:state" v="VT"/>
    <tag k="ref:vcgi:esiteid" v="80152"/>
  </node>
  <node id="-691" visible="true" lat="43.329869475802" lon="-72.997224189485">
    <tag k="addr:city" v="Danby"/>
    <tag k="addr:housenumber" v="628"/>
    <tag k="addr:street" v="Quarry Hill Road"/>
    <tag k="addr:state" v="VT"/>
    <tag k="ref:vcgi:esiteid" v="80153"/>
  </node>
  <node id="-696" visible="true" lat="43.329177459892" lon="-72.99605087815">
    <tag k="addr:city" v="Danby"/>
    <tag k="addr:housenumber" v="669"/>
    <tag k="addr:street" v="Quarry Hill Road"/>
    <tag k="addr:state" v="VT"/>
    <tag k="ref:vcgi:esiteid" v="80158"/>
  </node>
  <node id="-697" visible="true" lat="43.328995910627" lon="-72.996903753651">
    <tag k="addr:city" v="Danby"/>
    <tag k="addr:housenumber" v="690"/>
    <tag k="addr:street" v="Quarry Hill Road"/>
    <tag k="addr:state" v="VT"/>
    <tag k="ref:vcgi:esiteid" v="80159"/>
  </node>
  <node id="-700" visible="true" lat="43.328638440018" lon="-72.996356151032">
    <tag k="addr:city" v="Danby"/>
    <tag k="addr:housenumber" v="723"/>
    <tag k="addr:street" v="Quarry Hill Road"/>
    <tag k="addr:state" v="VT"/>
    <tag k="ref:vcgi:esiteid" v="80163"/>
  </node>
  <node id="-702" visible="true" lat="43.328012121476" lon="-72.996976784991">
    <tag k="addr:city" v="Danby"/>
    <tag k="addr:housenumber" v="754"/>
    <tag k="addr:street" v="Quarry Hill Road"/>
    <tag k="addr:state" v="VT"/>
    <tag k="ref:vcgi:esiteid" v="80165"/>
  </node>
  <node id="-703" visible="true" lat="43.326900292995" lon="-72.996278398547">
    <tag k="addr:city" v="Danby"/>
    <tag k="addr:housenumber" v="831"/>
    <tag k="addr:street" v="Quarry Hill Road"/>
    <tag k="addr:state" v="VT"/>
    <tag k="ref:vcgi:esiteid" v="80166"/>
  </node>
  <node id="-704" visible="true" lat="43.327040949532" lon="-72.997717898894">
    <tag k="addr:city" v="Danby"/>
    <tag k="addr:housenumber" v="838"/>
    <tag k="addr:street" v="Quarry Hill Road"/>
    <tag k="addr:state" v="VT"/>
    <tag k="ref:vcgi:esiteid" v="80167"/>
  </node>
  <node id="-705" visible="true" lat="43.326121913154" lon="-72.997429016603">
    <tag k="addr:city" v="Danby"/>
    <tag k="addr:housenumber" v="910"/>
    <tag k="addr:street" v="Quarry Hill Road"/>
    <tag k="addr:state" v="VT"/>
    <tag k="ref:vcgi:esiteid" v="80168"/>
  </node>
  <node id="-706" visible="true" lat="43.326092710085" lon="-72.996727566233">
    <tag k="addr:city" v="Danby"/>
    <tag k="addr:housenumber" v="915"/>
    <tag k="addr:street" v="Quarry Hill Road"/>
    <tag k="addr:state" v="VT"/>
    <tag k="ref:vcgi:esiteid" v="80169"/>
  </node>
  <node id="-708" visible="true" lat="43.322800840653" lon="-73.000443792466">
    <tag k="addr:city" v="Danby"/>
    <tag k="addr:housenumber" v="1189"/>
    <tag k="addr:street" v="Quarry Hill Road"/>
    <tag k="addr:state" v="VT"/>
    <tag k="ref:vcgi:esiteid" v="80173"/>
  </node>
  <node id="-719" visible="true" lat="43.330209472636" lon="-72.997800303018">
    <tag k="addr:city" v="Danby"/>
    <tag k="addr:housenumber" v="618"/>
    <tag k="addr:street" v="Quarry Hill Road"/>
    <tag k="addr:state" v="VT"/>
    <tag k="ref:vcgi:esiteid" v="80185"/>
  </node>
  <node id="-799" visible="true" lat="43.327441198898" lon="-72.996347589523">
    <tag k="addr:city" v="Danby"/>
    <tag k="addr:housenumber" v="793"/>
    <tag k="addr:street" v="Quarry Hill Road"/>
    <tag k="addr:state" v="VT"/>
    <tag k="ref:vcgi:esiteid" v="80269"/>
  </node>
  <node id="-867" visible="true" lat="43.336146395481" lon="-72.995134865852">
    <tag k="addr:city" v="Danby"/>
    <tag k="addr:housenumber" v="51"/>
    <tag k="addr:street" v="Quarry Hill Road"/>
    <tag k="addr:state" v="VT"/>
    <tag k="ref:vcgi:esiteid" v="337264"/>
  </node>
  <node id="-873" visible="true" lat="43.34583444631" lon="-72.996833102957">
    <tag k="addr:city" v="Danby"/>
    <tag k="addr:housenumber" v="36"/>
    <tag k="addr:street" v="South Main Street"/>
    <tag k="addr:state" v="VT"/>
    <tag k="ref:vcgi:esiteid" v="342528"/>
  </node>
  <node id="-903" visible="true" lat="43.38136683539" lon="-73.121445208047">
    <tag k="addr:city" v="Pawlet"/>
    <tag k="addr:housenumber" v="1383"/>
    <tag k="addr:street" v="Kelley Hill Road"/>
    <tag k="addr:state" v="VT"/>
    <tag k="ref:vcgi:esiteid" v="700115"/>
  </node>
</osm>
