<?xml version="1.0" encoding="UTF-8"?>
<osm version="0.6" generator="JOSM" upload="false">
  <node id="-792" visible="true" lat="44.410836651325" lon="-72.143502360074">
    <!-- offset: "148 Peacham Road, Danville, VT" Significant offset - 117m -->
    <tag k="addr:city" v="Danville"/>
    <tag k="addr:housenumber" v="148"/>
    <tag k="addr:street" v="Peacham Road"/>
    <tag k="addr:state" v="VT"/>
    <tag k="ref:vcgi:esiteid" v="81009"/>
  </node>
  <node id="-890" visible="true" lat="44.409065562309" lon="-72.194895507008">
    <!-- offset: "12 Vermont Route 15, West Danville, VT" Significant offset - 6894.3m -->
    <tag k="addr:city" v="West Danville"/>
    <tag k="addr:housenumber" v="12"/>
    <tag k="addr:street" v="Vermont Route 15"/>
    <tag k="addr:state" v="VT"/>
    <tag k="ref:vcgi:esiteid" v="81112"/>
  </node>
  <node id="-1234" visible="true" lat="44.422065226168" lon="-72.115060498895">
    <!-- offset: "24 Old Stagecoach Road, Danville, VT" Significant offset - 287.1m -->
    <tag k="addr:city" v="Danville"/>
    <tag k="addr:housenumber" v="24"/>
    <tag k="addr:street" v="Old Stagecoach Road"/>
    <tag k="addr:state" v="VT"/>
    <tag k="ref:vcgi:esiteid" v="81462"/>
  </node>
</osm>
