<?xml version="1.0" encoding="UTF-8"?>
<osm version="0.6" generator="JOSM" upload="false">
  <node id="-1598" visible="true" lat="44.93214251" lon="-72.11464542">
    <!-- offset: "1385 Vermont Route 105, , VT" Significant offset - 6208.9m -->
    <tag k="addr:housenumber" v="1385"/>
    <tag k="addr:street" v="Vermont Route 105"/>
    <tag k="addr:state" v="VT"/>
    <tag k="ref:vcgi:esiteid" v="83347"/>
  </node>
  <node id="-1706" visible="true" lat="44.92323808" lon="-72.14469229">
    <!-- offset: "1725 Hinman Settler Road, , VT" Significant offset - 273.3m -->
    <tag k="addr:housenumber" v="1725"/>
    <tag k="addr:street" v="Hinman Settler Road"/>
    <tag k="addr:state" v="VT"/>
    <tag k="ref:vcgi:esiteid" v="83459"/>
  </node>
  <node id="-1951" visible="true" lat="44.90105245" lon="-72.18732855">
    <!-- offset: "2885 Glen Road, , VT" Significant offset - 167.2m -->
    <tag k="addr:housenumber" v="2885"/>
    <tag k="addr:street" v="Glen Road"/>
    <tag k="addr:state" v="VT"/>
    <tag k="ref:vcgi:esiteid" v="83712"/>
  </node>
  <node id="-2168" visible="true" lat="44.9234567" lon="-72.14760168">
    <!-- offset: "1731 Hinman Settler Road, , VT" Significant offset - 145.4m -->
    <tag k="addr:housenumber" v="1731"/>
    <tag k="addr:street" v="Hinman Settler Road"/>
    <tag k="addr:state" v="VT"/>
    <tag k="ref:vcgi:esiteid" v="83938"/>
  </node>
  <node id="-2382" visible="true" lat="44.92636299" lon="-72.11253909">
    <!-- offset: "1736 Vermont Route 105, , VT" Significant offset - 5953.2m -->
    <tag k="addr:housenumber" v="1736"/>
    <tag k="addr:street" v="Vermont Route 105"/>
    <tag k="addr:state" v="VT"/>
    <tag k="ref:vcgi:esiteid" v="84153"/>
  </node>
  <node id="-2413" visible="true" lat="44.91713653" lon="-72.07893297">
    <!-- offset: "100 Derby Gore Road, , VT" Significant offset - 382.5m -->
    <tag k="addr:housenumber" v="100"/>
    <tag k="addr:street" v="Derby Gore Road"/>
    <tag k="addr:state" v="VT"/>
    <tag k="ref:vcgi:esiteid" v="305714"/>
  </node>
  <node id="-2639" visible="true" lat="44.93596004" lon="-72.12181916">
    <!-- offset: "889 Vermont Route 105, , VT" Significant offset - 6277.6m -->
    <tag k="addr:housenumber" v="889"/>
    <tag k="addr:street" v="Vermont Route 105"/>
    <tag k="addr:state" v="VT"/>
    <tag k="ref:vcgi:esiteid" v="646582"/>
  </node>
  <node id="-2785" visible="true" lat="44.94101427" lon="-72.06747291">
    <!-- offset: "3607 Vermont Route 111, , VT" Significant offset - 763.3m -->
    <tag k="addr:housenumber" v="3607"/>
    <tag k="addr:street" v="Vermont Route 111"/>
    <tag k="addr:state" v="VT"/>
    <tag k="ref:vcgi:esiteid" v="756651"/>
  </node>
  <node id="-2860" visible="true" lat="44.98757641" lon="-72.08822926">
    <!-- offset: "1418 Herrick Road, , VT" Significant offset - 129.3m -->
    <tag k="addr:housenumber" v="1418"/>
    <tag k="addr:street" v="Herrick Road"/>
    <tag k="addr:state" v="VT"/>
    <tag k="ref:vcgi:esiteid" v="769890"/>
  </node>
  <node id="-2861" visible="true" lat="44.9901536" lon="-72.09299436">
    <!-- offset: "1420 Herrick Road, , VT" Significant offset - 167.7m -->
    <tag k="addr:housenumber" v="1420"/>
    <tag k="addr:street" v="Herrick Road"/>
    <tag k="addr:state" v="VT"/>
    <tag k="ref:vcgi:esiteid" v="769891"/>
  </node>
  <node id="-2868" visible="true" lat="44.93120065" lon="-72.14425595">
    <!-- offset: "1005 Hinman Settler Road, , VT" Significant offset - 119.7m -->
    <tag k="addr:housenumber" v="1005"/>
    <tag k="addr:street" v="Hinman Settler Road"/>
    <tag k="addr:state" v="VT"/>
    <tag k="ref:vcgi:esiteid" v="771685"/>
  </node>
</osm>
