<?xml version="1.0" encoding="UTF-8"?>
<osm version="0.6" generator="JOSM" upload="false">
  <node id="-1610" visible="true" lat="44.930962292971" lon="-72.090632523348">
    <!-- duplicates-in-different-towns: "74 Dumas Drive, Derby, VT"  ignoring town mismatch for duplicate housenumber/street when matching to esiteid 365656: "74 Dumas Drive, , VT" -->
    <tag k="addr:city" v="Derby"/>
    <tag k="addr:housenumber" v="74"/>
    <tag k="addr:street" v="Dumas Drive"/>
    <tag k="addr:state" v="VT"/>
    <tag k="ref:vcgi:esiteid" v="83360"/>
  </node>
  <node id="-1951" visible="true" lat="44.901061554628" lon="-72.187329680126">
    <!-- duplicates-in-different-towns: "2885 Glen Road, Newport, VT"  ignoring town mismatch for duplicate housenumber/street when matching to esiteid 341725: "2885 Glen Road, , VT" -->
    <tag k="addr:city" v="Newport"/>
    <tag k="addr:housenumber" v="2885"/>
    <tag k="addr:street" v="Glen Road"/>
    <tag k="addr:state" v="VT"/>
    <tag k="ref:vcgi:esiteid" v="83712"/>
  </node>
  <node id="-2413" visible="true" lat="44.917145635525" lon="-72.07893405725">
    <!-- duplicates-in-different-towns: "100 Derby Gore Road, West Charleston, VT"  ignoring town mismatch for duplicate housenumber/street when matching to esiteid 340827: "100 Derby Gore Road, , VT" -->
    <tag k="addr:city" v="West Charleston"/>
    <tag k="addr:housenumber" v="100"/>
    <tag k="addr:street" v="Derby Gore Road"/>
    <tag k="addr:state" v="VT"/>
    <tag k="ref:vcgi:esiteid" v="305714"/>
  </node>
  <node id="-2788" visible="true" lat="44.941014268016" lon="-72.067472910337">
    <!-- duplicates-in-different-towns: "3607 Vermont Route 111, Derby, VT"  ignoring town mismatch for duplicate housenumber/street when matching to esiteid 83315: "3607 Vermont Route 111, , VT" -->
    <tag k="addr:city" v="Derby"/>
    <tag k="addr:housenumber" v="3607"/>
    <tag k="addr:street" v="Vermont Route 111"/>
    <tag k="addr:state" v="VT"/>
    <tag k="ref:vcgi:esiteid" v="756651"/>
  </node>
</osm>
