<?xml version="1.0" encoding="UTF-8"?>
<osm version="0.6" generator="JOSM" upload="false">
  <node id="-218" visible="true" lat="42.937463838987" lon="-72.849659098851">
    <tag k="addr:city" v="West Dover"/>
    <tag k="addr:housenumber" v="102"/>
    <tag k="addr:street" v="Vermont Route 100"/>
    <tag k="addr:state" v="VT"/>
    <tag k="ref:vcgi:esiteid" v="85756"/>
  </node>
  <node id="-343" visible="true" lat="42.943510504864" lon="-72.861058261513">
    <tag k="addr:city" v="West Dover"/>
    <tag k="addr:housenumber" v="178"/>
    <tag k="addr:street" v="Vermont Route 100"/>
    <tag k="addr:state" v="VT"/>
    <tag k="ref:vcgi:esiteid" v="85889"/>
  </node>
  <node id="-349" visible="true" lat="42.945783689848" lon="-72.865697317156">
    <tag k="addr:city" v="West Dover"/>
    <tag k="addr:housenumber" v="1"/>
    <tag k="addr:street" v="Mountain Park Plaza"/>
    <tag k="addr:state" v="VT"/>
    <tag k="ref:vcgi:esiteid" v="85895"/>
  </node>
  <node id="-351" visible="true" lat="42.945886970329" lon="-72.866915646798">
    <tag k="addr:city" v="West Dover"/>
    <tag k="addr:housenumber" v="4"/>
    <tag k="addr:street" v="Mountain Park Plaza"/>
    <tag k="addr:state" v="VT"/>
    <tag k="ref:vcgi:esiteid" v="85898"/>
  </node>
  <node id="-553" visible="true" lat="42.949613525796" lon="-72.872353654142">
    <tag k="addr:city" v="West Dover"/>
    <tag k="addr:housenumber" v="248"/>
    <tag k="addr:street" v="Vermont Route 100"/>
    <tag k="addr:state" v="VT"/>
    <tag k="ref:vcgi:esiteid" v="86140"/>
  </node>
  <node id="-835" visible="true" lat="42.965506791023" lon="-72.892108896047">
    <tag k="addr:city" v="West Dover"/>
    <tag k="addr:housenumber" v="13"/>
    <tag k="addr:street" v="Grand Summit Way"/>
    <tag k="addr:state" v="VT"/>
    <tag k="ref:vcgi:esiteid" v="86472"/>
  </node>
  <node id="-1512" visible="true" lat="42.950356746772" lon="-72.770088821728">
    <tag k="addr:city" v="East Dover"/>
    <tag k="addr:housenumber" v="22"/>
    <tag k="addr:street" v="Dover Hill Road"/>
    <tag k="addr:state" v="VT"/>
    <tag k="ref:vcgi:esiteid" v="87200"/>
  </node>
  <node id="-1637" visible="true" lat="42.946396327345" lon="-72.865818768864">
    <tag k="addr:city" v="West Dover"/>
    <tag k="addr:housenumber" v="218"/>
    <tag k="addr:street" v="Vermont Route 100"/>
    <tag k="addr:state" v="VT"/>
    <tag k="ref:vcgi:esiteid" v="87326"/>
  </node>
  <node id="-2342" visible="true" lat="42.945231080351" lon="-72.87474103827">
    <tag k="addr:city" v="West Dover"/>
    <tag k="addr:housenumber" v="8"/>
    <tag k="addr:street" v="Whispering Brook Way"/>
    <tag k="addr:state" v="VT"/>
    <tag k="ref:vcgi:esiteid" v="318245"/>
  </node>
  <node id="-2565" visible="true" lat="42.966232662102" lon="-72.864939198481">
    <tag k="addr:city" v="West Dover"/>
    <tag k="addr:housenumber" v="95"/>
    <tag k="addr:street" v="Hathaway Trail"/>
    <tag k="addr:state" v="VT"/>
    <tag k="ref:vcgi:esiteid" v="753400"/>
  </node>
</osm>
