<?xml version="1.0" encoding="UTF-8"?>
<osm version="0.6" generator="JOSM" upload="false">
  <node id="-102" visible="true" lat="42.966510297482" lon="-72.608099797138">
    <!-- offset: "523 Holland Hill, Putney, VT" Significant offset - 480.1m -->
    <tag k="addr:city" v="Putney"/>
    <tag k="addr:housenumber" v="523"/>
    <tag k="addr:street" v="Holland Hill"/>
    <tag k="addr:state" v="VT"/>
    <tag k="ref:vcgi:esiteid" v="88974"/>
  </node>
  <node id="-109" visible="true" lat="42.965471684285" lon="-72.596849790576">
    <!-- offset: "431 Holland Hill, Putney, VT" Significant offset - 740.5m -->
    <tag k="addr:city" v="Putney"/>
    <tag k="addr:housenumber" v="431"/>
    <tag k="addr:street" v="Holland Hill"/>
    <tag k="addr:state" v="VT"/>
    <tag k="ref:vcgi:esiteid" v="88982"/>
  </node>
  <node id="-119" visible="true" lat="42.964293637884" lon="-72.534835115257">
    <!-- offset: "20 Locust Lane, Putney, VT" Significant offset - 1928.4m -->
    <tag k="addr:city" v="Putney"/>
    <tag k="addr:housenumber" v="20"/>
    <tag k="addr:street" v="Locust Lane"/>
    <tag k="addr:state" v="VT"/>
    <tag k="ref:vcgi:esiteid" v="88992"/>
  </node>
  <node id="-124" visible="true" lat="42.963960307237" lon="-72.534960645314">
    <!-- offset: "19 Locust Lane, Putney, VT" Significant offset - 1952.2m -->
    <tag k="addr:city" v="Putney"/>
    <tag k="addr:housenumber" v="19"/>
    <tag k="addr:street" v="Locust Lane"/>
    <tag k="addr:state" v="VT"/>
    <tag k="ref:vcgi:esiteid" v="88997"/>
  </node>
  <node id="-1077" visible="true" lat="42.965275908249" lon="-72.535768724464">
    <!-- offset: "154 Houghton Brook Road, Putney, VT" Significant offset - 170.1m -->
    <tag k="addr:city" v="Putney"/>
    <tag k="addr:housenumber" v="154"/>
    <tag k="addr:street" v="Houghton Brook Road"/>
    <tag k="addr:state" v="VT"/>
    <tag k="ref:vcgi:esiteid" v="454308"/>
  </node>
  <node id="-1111" visible="true" lat="42.90225439654" lon="-72.640579142075">
    <!-- offset: "671 Kelly Road, Brattleboro, VT" Significant offset - 689.5m -->
    <tag k="addr:city" v="Brattleboro"/>
    <tag k="addr:housenumber" v="671"/>
    <tag k="addr:street" v="Kelly Road"/>
    <tag k="addr:state" v="VT"/>
    <tag k="ref:vcgi:esiteid" v="759492"/>
  </node>
  <node id="-1117" visible="true" lat="42.897780686372" lon="-72.591824880634">
    <!-- offset: "487 Rice Farm Road, Brattleboro, VT" Significant offset - 287.7m -->
    <tag k="addr:city" v="Brattleboro"/>
    <tag k="addr:housenumber" v="487"/>
    <tag k="addr:street" v="Rice Farm Road"/>
    <tag k="addr:state" v="VT"/>
    <tag k="ref:vcgi:esiteid" v="764221"/>
  </node>
</osm>
