<?xml version="1.0" encoding="UTF-8"?>
<osm version="0.6" generator="JOSM" upload="false">
  <node id="-567" visible="true" lat="44.254040682225" lon="-72.786437912747">
    <tag k="addr:city" v="Moretown"/>
    <tag k="addr:housenumber" v="458"/>
    <tag k="addr:street" v="Vermont Route 100"/>
    <tag k="addr:state" v="VT"/>
    <tag k="ref:vcgi:esiteid" v="90420"/>
  </node>
  <node id="-773" visible="true" lat="44.324028246351" lon="-72.750107176038">
    <tag k="addr:city" v="Waterbury"/>
    <tag k="addr:housenumber" v="38"/>
    <tag k="addr:street" v="State Farm Road"/>
    <tag k="addr:state" v="VT"/>
    <tag k="ref:vcgi:esiteid" v="455049"/>
  </node>
</osm>
