<?xml version="1.0" encoding="UTF-8"?>
<osm version="0.6" generator="JOSM" upload="false">
  <node id="-110" visible="true" lat="44.696339913503" lon="-71.854122072939">
    <!-- offset: "315 Jack Brook Road, East Haven, VT" Significant offset - 163.5m -->
    <tag k="addr:city" v="East Haven"/>
    <tag k="addr:housenumber" v="315"/>
    <tag k="addr:street" v="Jack Brook Road"/>
    <tag k="addr:state" v="VT"/>
    <tag k="ref:vcgi:esiteid" v="90560"/>
  </node>
  <node id="-296" visible="true" lat="44.645771678594" lon="-71.85629145659">
    <!-- offset: "1145 Radar Road, East Haven, VT" Significant offset - 166.6m -->
    <tag k="addr:city" v="East Haven"/>
    <tag k="addr:housenumber" v="1145"/>
    <tag k="addr:street" v="Radar Road"/>
    <tag k="addr:state" v="VT"/>
    <tag k="ref:vcgi:esiteid" v="90753"/>
  </node>
</osm>
