<?xml version="1.0" encoding="UTF-8"?>
<osm version="0.6" generator="JOSM" upload="false">
  <node id="-1058" visible="true" lat="44.285621660379" lon="-72.445381094261">
    <!-- duplicates-in-different-towns: "190 Northwood Drive, Plainfield, VT"  ignoring town mismatch for duplicate housenumber/street when matching to esiteid 91740: "190 Northwood Drive, , VT" -->
    <tag k="addr:city" v="Plainfield"/>
    <tag k="addr:housenumber" v="190"/>
    <tag k="addr:street" v="Northwood Drive"/>
    <tag k="addr:state" v="VT"/>
    <tag k="ref:vcgi:esiteid" v="91741"/>
  </node>
  <node id="-1059" visible="true" lat="44.285168352703" lon="-72.445380131125">
    <!-- duplicates-in-different-towns: "190 Northwood Drive, Plainfield, VT"  ignoring town mismatch for duplicate housenumber/street when matching to esiteid 91740: "190 Northwood Drive, , VT" -->
    <tag k="addr:city" v="Plainfield"/>
    <tag k="addr:housenumber" v="190"/>
    <tag k="addr:street" v="Northwood Drive"/>
    <tag k="addr:state" v="VT"/>
    <tag k="ref:vcgi:esiteid" v="91742"/>
  </node>
  <node id="-1060" visible="true" lat="44.285395693123" lon="-72.441625284772">
    <!-- duplicates-in-different-towns: "190 Northwood Drive, Plainfield, VT"  ignoring town mismatch for duplicate housenumber/street when matching to esiteid 91740: "190 Northwood Drive, , VT" -->
    <tag k="addr:city" v="Plainfield"/>
    <tag k="addr:housenumber" v="190"/>
    <tag k="addr:street" v="Northwood Drive"/>
    <tag k="addr:state" v="VT"/>
    <tag k="ref:vcgi:esiteid" v="91743"/>
  </node>
  <node id="-1284" visible="true" lat="44.328328597006" lon="-72.503645558404">
    <!-- duplicates-in-different-towns: "5014 Center Road, East Montpelier, VT"  ignoring town mismatch for duplicate housenumber/street when matching to esiteid 56971: "5014 Center Road, , VT" -->
    <tag k="addr:city" v="East Montpelier"/>
    <tag k="addr:housenumber" v="5014"/>
    <tag k="addr:street" v="Center Road"/>
    <tag k="addr:state" v="VT"/>
    <tag k="ref:vcgi:esiteid" v="451047"/>
  </node>
</osm>
