<?xml version="1.0" encoding="UTF-8"?>
<osm version="0.6" generator="JOSM" upload="false">
  <node id="-101" visible="true" lat="44.235270298106" lon="-72.487008515574">
    <tag k="addr:city" v="East Montpelier"/>
    <tag k="addr:housenumber" v="575"/>
    <tag k="addr:street" v="East Montpelier Road"/>
    <tag k="addr:state" v="VT"/>
    <tag k="ref:vcgi:esiteid" v="10912"/>
  </node>
  <node id="-390" visible="true" lat="44.294534067002" lon="-72.456134375167">
    <tag k="addr:city" v="East Montpelier"/>
    <tag k="addr:housenumber" v="2290"/>
    <tag k="addr:street" v="Vermont Route 14 North"/>
    <tag k="addr:state" v="VT"/>
    <tag k="ref:vcgi:esiteid" v="91059"/>
  </node>
  <node id="-481" visible="true" lat="44.286879834537" lon="-72.495291748614">
    <tag k="addr:city" v="East Montpelier"/>
    <tag k="addr:housenumber" v="665"/>
    <tag k="addr:street" v="Vincent Flats Road"/>
    <tag k="addr:state" v="VT"/>
    <tag k="ref:vcgi:esiteid" v="91150"/>
  </node>
  <node id="-489" visible="true" lat="44.286561407806" lon="-72.543298016713">
    <tag k="addr:city" v="Montpelier"/>
    <tag k="addr:housenumber" v="1168"/>
    <tag k="addr:street" v="County Road"/>
    <tag k="addr:state" v="VT"/>
    <tag k="ref:vcgi:esiteid" v="91158"/>
  </node>
  <node id="-571" visible="true" lat="44.281285138228" lon="-72.473551324873">
    <tag k="addr:city" v="East Montpelier"/>
    <tag k="addr:housenumber" v="1005"/>
    <tag k="addr:street" v="Vermont Route 14 North"/>
    <tag k="addr:state" v="VT"/>
    <tag k="ref:vcgi:esiteid" v="91240"/>
  </node>
  <node id="-600" visible="true" lat="44.276999750067" lon="-72.530794768421">
    <tag k="addr:city" v="East Montpelier"/>
    <tag k="addr:housenumber" v="1711"/>
    <tag k="addr:street" v="Bliss Road"/>
    <tag k="addr:state" v="VT"/>
    <tag k="ref:vcgi:esiteid" v="91269"/>
  </node>
  <node id="-655" visible="true" lat="44.272876127712" lon="-72.485535458649">
    <tag k="addr:city" v="East Montpelier"/>
    <tag k="addr:housenumber" v="40"/>
    <tag k="addr:street" v="Kelton Road"/>
    <tag k="addr:state" v="VT"/>
    <tag k="ref:vcgi:esiteid" v="91324"/>
  </node>
  <node id="-656" visible="true" lat="44.272856614966" lon="-72.528410870017">
    <tag k="addr:city" v="East Montpelier"/>
    <tag k="addr:housenumber" v="1312"/>
    <tag k="addr:street" v="Bliss Road"/>
    <tag k="addr:state" v="VT"/>
    <tag k="ref:vcgi:esiteid" v="91325"/>
  </node>
  <node id="-674" visible="true" lat="44.271797444066" lon="-72.529155941847">
    <tag k="addr:city" v="East Montpelier"/>
    <tag k="addr:housenumber" v="1226"/>
    <tag k="addr:street" v="Bliss Road"/>
    <tag k="addr:state" v="VT"/>
    <tag k="ref:vcgi:esiteid" v="91343"/>
  </node>
  <node id="-686" visible="true" lat="44.27093262862" lon="-72.531154192971">
    <tag k="addr:city" v="East Montpelier"/>
    <tag k="addr:housenumber" v="1095"/>
    <tag k="addr:street" v="Bliss Road"/>
    <tag k="addr:state" v="VT"/>
    <tag k="ref:vcgi:esiteid" v="91359"/>
  </node>
  <node id="-692" visible="true" lat="44.270759659432" lon="-72.454184281942">
    <tag k="addr:city" v="East Montpelier"/>
    <tag k="addr:housenumber" v="54"/>
    <tag k="addr:street" v="Tay-Con Drive"/>
    <tag k="addr:state" v="VT"/>
    <tag k="ref:vcgi:esiteid" v="91366"/>
  </node>
  <node id="-696" visible="true" lat="44.270795651666" lon="-72.45294272164">
    <tag k="addr:city" v="East Montpelier"/>
    <tag k="addr:housenumber" v="92"/>
    <tag k="addr:street" v="Tay-Con Drive"/>
    <tag k="addr:state" v="VT"/>
    <tag k="ref:vcgi:esiteid" v="91370"/>
  </node>
  <node id="-718" visible="true" lat="44.269360941657" lon="-72.466081971516">
    <tag k="addr:city" v="East Montpelier"/>
    <tag k="addr:housenumber" v="7"/>
    <tag k="addr:street" v="Cote Drive"/>
    <tag k="addr:state" v="VT"/>
    <tag k="ref:vcgi:esiteid" v="91393"/>
  </node>
  <node id="-730" visible="true" lat="44.268300407288" lon="-72.530143783378">
    <tag k="addr:city" v="East Montpelier"/>
    <tag k="addr:housenumber" v="964"/>
    <tag k="addr:street" v="Bliss Road"/>
    <tag k="addr:state" v="VT"/>
    <tag k="ref:vcgi:esiteid" v="91407"/>
  </node>
  <node id="-731" visible="true" lat="44.268300449411" lon="-72.540063150956">
    <tag k="addr:city" v="East Montpelier"/>
    <tag k="addr:housenumber" v="825"/>
    <tag k="addr:street" v="Murray Road"/>
    <tag k="addr:state" v="VT"/>
    <tag k="ref:vcgi:esiteid" v="91408"/>
  </node>
  <node id="-738" visible="true" lat="44.267860765666" lon="-72.542768600816">
    <tag k="addr:city" v="East Montpelier"/>
    <tag k="addr:housenumber" v="705"/>
    <tag k="addr:street" v="Murray Road"/>
    <tag k="addr:state" v="VT"/>
    <tag k="ref:vcgi:esiteid" v="91416"/>
  </node>
  <node id="-741" visible="true" lat="44.267536887366" lon="-72.539161079677">
    <tag k="addr:city" v="East Montpelier"/>
    <tag k="addr:housenumber" v="885"/>
    <tag k="addr:street" v="Murray Road"/>
    <tag k="addr:state" v="VT"/>
    <tag k="ref:vcgi:esiteid" v="91419"/>
  </node>
  <node id="-749" visible="true" lat="44.266742452673" lon="-72.538058678872">
    <tag k="addr:city" v="East Montpelier"/>
    <tag k="addr:housenumber" v="940"/>
    <tag k="addr:street" v="Murray Road"/>
    <tag k="addr:state" v="VT"/>
    <tag k="ref:vcgi:esiteid" v="91427"/>
  </node>
  <node id="-756" visible="true" lat="44.266338180303" lon="-72.534914395198">
    <tag k="addr:city" v="East Montpelier"/>
    <tag k="addr:housenumber" v="1105"/>
    <tag k="addr:street" v="Murray Road"/>
    <tag k="addr:state" v="VT"/>
    <tag k="ref:vcgi:esiteid" v="91434"/>
  </node>
  <node id="-760" visible="true" lat="44.265819493276" lon="-72.535402838987">
    <tag k="addr:city" v="East Montpelier"/>
    <tag k="addr:housenumber" v="1100"/>
    <tag k="addr:street" v="Murray Road"/>
    <tag k="addr:state" v="VT"/>
    <tag k="ref:vcgi:esiteid" v="91438"/>
  </node>
  <node id="-763" visible="true" lat="44.265393652486" lon="-72.534441287681">
    <tag k="addr:city" v="East Montpelier"/>
    <tag k="addr:housenumber" v="1140"/>
    <tag k="addr:street" v="Murray Road"/>
    <tag k="addr:state" v="VT"/>
    <tag k="ref:vcgi:esiteid" v="91441"/>
  </node>
  <node id="-767" visible="true" lat="44.265261962331" lon="-72.532822672304">
    <tag k="addr:city" v="East Montpelier"/>
    <tag k="addr:housenumber" v="1225"/>
    <tag k="addr:street" v="Murray Road"/>
    <tag k="addr:state" v="VT"/>
    <tag k="ref:vcgi:esiteid" v="91445"/>
  </node>
  <node id="-773" visible="true" lat="44.264867223745" lon="-72.532160097249">
    <tag k="addr:city" v="East Montpelier"/>
    <tag k="addr:housenumber" v="734"/>
    <tag k="addr:street" v="Bliss Road"/>
    <tag k="addr:state" v="VT"/>
    <tag k="ref:vcgi:esiteid" v="91451"/>
  </node>
  <node id="-791" visible="true" lat="44.263631260756" lon="-72.535738285783">
    <tag k="addr:city" v="East Montpelier"/>
    <tag k="addr:housenumber" v="513"/>
    <tag k="addr:street" v="Bliss Road"/>
    <tag k="addr:state" v="VT"/>
    <tag k="ref:vcgi:esiteid" v="91470"/>
  </node>
  <node id="-794" visible="true" lat="44.263307535221" lon="-72.533065148239">
    <tag k="addr:city" v="East Montpelier"/>
    <tag k="addr:housenumber" v="610"/>
    <tag k="addr:street" v="Bliss Road"/>
    <tag k="addr:state" v="VT"/>
    <tag k="ref:vcgi:esiteid" v="91473"/>
  </node>
  <node id="-800" visible="true" lat="44.263284709752" lon="-72.534015759043">
    <tag k="addr:city" v="East Montpelier"/>
    <tag k="addr:housenumber" v="579"/>
    <tag k="addr:street" v="Bliss Road"/>
    <tag k="addr:state" v="VT"/>
    <tag k="ref:vcgi:esiteid" v="91479"/>
  </node>
  <node id="-804" visible="true" lat="44.262876998341" lon="-72.533617453082">
    <tag k="addr:city" v="East Montpelier"/>
    <tag k="addr:housenumber" v="580"/>
    <tag k="addr:street" v="Bliss Road"/>
    <tag k="addr:state" v="VT"/>
    <tag k="ref:vcgi:esiteid" v="91483"/>
  </node>
  <node id="-805" visible="true" lat="44.262923051971" lon="-72.534553165031">
    <tag k="addr:city" v="East Montpelier"/>
    <tag k="addr:housenumber" v="543"/>
    <tag k="addr:street" v="Bliss Road"/>
    <tag k="addr:state" v="VT"/>
    <tag k="ref:vcgi:esiteid" v="91484"/>
  </node>
  <node id="-813" visible="true" lat="44.261849757964" lon="-72.53636011019">
    <tag k="addr:city" v="East Montpelier"/>
    <tag k="addr:housenumber" v="433"/>
    <tag k="addr:street" v="Bliss Road"/>
    <tag k="addr:state" v="VT"/>
    <tag k="ref:vcgi:esiteid" v="91493"/>
  </node>
  <node id="-814" visible="true" lat="44.261944068041" lon="-72.531552210047">
    <tag k="addr:city" v="East Montpelier"/>
    <tag k="addr:housenumber" v="205"/>
    <tag k="addr:street" v="Green Road"/>
    <tag k="addr:state" v="VT"/>
    <tag k="ref:vcgi:esiteid" v="91494"/>
  </node>
  <node id="-815" visible="true" lat="44.261752516791" lon="-72.522075258165">
    <tag k="addr:city" v="East Montpelier"/>
    <tag k="addr:housenumber" v="595"/>
    <tag k="addr:street" v="Brazier Road"/>
    <tag k="addr:state" v="VT"/>
    <tag k="ref:vcgi:esiteid" v="91495"/>
  </node>
  <node id="-822" visible="true" lat="44.26124715103" lon="-72.530012415292">
    <tag k="addr:city" v="East Montpelier"/>
    <tag k="addr:housenumber" v="265"/>
    <tag k="addr:street" v="Green Road"/>
    <tag k="addr:state" v="VT"/>
    <tag k="ref:vcgi:esiteid" v="91502"/>
  </node>
  <node id="-827" visible="true" lat="44.26105634022" lon="-72.522768310552">
    <tag k="addr:city" v="East Montpelier"/>
    <tag k="addr:housenumber" v="515"/>
    <tag k="addr:street" v="Brazier Road"/>
    <tag k="addr:state" v="VT"/>
    <tag k="ref:vcgi:esiteid" v="91507"/>
  </node>
  <node id="-841" visible="true" lat="44.259842150943" lon="-72.536833078635">
    <tag k="addr:city" v="East Montpelier"/>
    <tag k="addr:housenumber" v="268"/>
    <tag k="addr:street" v="Bliss Road"/>
    <tag k="addr:state" v="VT"/>
    <tag k="ref:vcgi:esiteid" v="91522"/>
  </node>
  <node id="-844" visible="true" lat="44.25906368956" lon="-72.537189424766">
    <tag k="addr:city" v="East Montpelier"/>
    <tag k="addr:housenumber" v="254"/>
    <tag k="addr:street" v="Bliss Road"/>
    <tag k="addr:state" v="VT"/>
    <tag k="ref:vcgi:esiteid" v="91525"/>
  </node>
  <node id="-848" visible="true" lat="44.258156753995" lon="-72.514296353991">
    <tag k="addr:city" v="East Montpelier"/>
    <tag k="addr:housenumber" v="2530"/>
    <tag k="addr:street" v="Towne Hill Road"/>
    <tag k="addr:state" v="VT"/>
    <tag k="ref:vcgi:esiteid" v="91529"/>
  </node>
  <node id="-853" visible="true" lat="44.257572203244" lon="-72.516620766482">
    <tag k="addr:city" v="East Montpelier"/>
    <tag k="addr:housenumber" v="2395"/>
    <tag k="addr:street" v="Towne Hill Road"/>
    <tag k="addr:state" v="VT"/>
    <tag k="ref:vcgi:esiteid" v="91534"/>
  </node>
  <node id="-870" visible="true" lat="44.255967531899" lon="-72.534853274993">
    <tag k="addr:city" v="East Montpelier"/>
    <tag k="addr:housenumber" v="1245"/>
    <tag k="addr:street" v="Towne Hill Road"/>
    <tag k="addr:state" v="VT"/>
    <tag k="ref:vcgi:esiteid" v="91551"/>
  </node>
  <node id="-872" visible="true" lat="44.255763432104" lon="-72.536232669722">
    <tag k="addr:city" v="East Montpelier"/>
    <tag k="addr:housenumber" v="1205"/>
    <tag k="addr:street" v="Towne Hill Road"/>
    <tag k="addr:state" v="VT"/>
    <tag k="ref:vcgi:esiteid" v="91553"/>
  </node>
  <node id="-880" visible="true" lat="44.254958469828" lon="-72.521905607881">
    <tag k="addr:city" v="East Montpelier"/>
    <tag k="addr:housenumber" v="100"/>
    <tag k="addr:street" v="Brazier Road"/>
    <tag k="addr:state" v="VT"/>
    <tag k="ref:vcgi:esiteid" v="91561"/>
  </node>
  <node id="-885" visible="true" lat="44.254392890514" lon="-72.534375172561">
    <tag k="addr:city" v="East Montpelier"/>
    <tag k="addr:housenumber" v="1325"/>
    <tag k="addr:street" v="Towne Hill Road"/>
    <tag k="addr:state" v="VT"/>
    <tag k="ref:vcgi:esiteid" v="91566"/>
  </node>
  <node id="-893" visible="true" lat="44.253042390027" lon="-72.531577030953">
    <tag k="addr:city" v="East Montpelier"/>
    <tag k="addr:housenumber" v="1500"/>
    <tag k="addr:street" v="Towne Hill Road"/>
    <tag k="addr:state" v="VT"/>
    <tag k="ref:vcgi:esiteid" v="91574"/>
  </node>
  <node id="-897" visible="true" lat="44.252758900743" lon="-72.523115044579">
    <tag k="addr:city" v="East Montpelier"/>
    <tag k="addr:housenumber" v="1920"/>
    <tag k="addr:street" v="Towne Hill Road"/>
    <tag k="addr:state" v="VT"/>
    <tag k="ref:vcgi:esiteid" v="91578"/>
  </node>
  <node id="-899" visible="true" lat="44.252730181464" lon="-72.514753946444">
    <tag k="addr:city" v="East Montpelier"/>
    <tag k="addr:housenumber" v="331"/>
    <tag k="addr:street" v="Wheeler Road"/>
    <tag k="addr:state" v="VT"/>
    <tag k="ref:vcgi:esiteid" v="91580"/>
  </node>
  <node id="-903" visible="true" lat="44.252221995508" lon="-72.521855544084">
    <tag k="addr:city" v="East Montpelier"/>
    <tag k="addr:housenumber" v="1555"/>
    <tag k="addr:street" v="Gallison Hill Road"/>
    <tag k="addr:state" v="VT"/>
    <tag k="ref:vcgi:esiteid" v="91584"/>
  </node>
  <node id="-908" visible="true" lat="44.251853487004" lon="-72.526574140132">
    <tag k="addr:city" v="East Montpelier"/>
    <tag k="addr:housenumber" v="35"/>
    <tag k="addr:street" v="Maplewood Road"/>
    <tag k="addr:state" v="VT"/>
    <tag k="ref:vcgi:esiteid" v="91589"/>
  </node>
  <node id="-909" visible="true" lat="44.251917369945" lon="-72.514406629552">
    <tag k="addr:city" v="East Montpelier"/>
    <tag k="addr:housenumber" v="333"/>
    <tag k="addr:street" v="Wheeler Road"/>
    <tag k="addr:state" v="VT"/>
    <tag k="ref:vcgi:esiteid" v="91590"/>
  </node>
  <node id="-910" visible="true" lat="44.251861808601" lon="-72.515911766233">
    <tag k="addr:city" v="East Montpelier"/>
    <tag k="addr:housenumber" v="303"/>
    <tag k="addr:street" v="Wheeler Road"/>
    <tag k="addr:state" v="VT"/>
    <tag k="ref:vcgi:esiteid" v="91591"/>
  </node>
  <node id="-911" visible="true" lat="44.251915178389" lon="-72.527234187928">
    <tag k="addr:city" v="East Montpelier"/>
    <tag k="addr:housenumber" v="50"/>
    <tag k="addr:street" v="Maplewood Road"/>
    <tag k="addr:state" v="VT"/>
    <tag k="ref:vcgi:esiteid" v="91592"/>
  </node>
  <node id="-916" visible="true" lat="44.251482787326" lon="-72.526636567283">
    <tag k="addr:city" v="East Montpelier"/>
    <tag k="addr:housenumber" v="65"/>
    <tag k="addr:street" v="Maplewood Road"/>
    <tag k="addr:state" v="VT"/>
    <tag k="ref:vcgi:esiteid" v="91597"/>
  </node>
  <node id="-917" visible="true" lat="44.251298039849" lon="-72.517204938794">
    <tag k="addr:city" v="East Montpelier"/>
    <tag k="addr:housenumber" v="235"/>
    <tag k="addr:street" v="Wheeler Road"/>
    <tag k="addr:state" v="VT"/>
    <tag k="ref:vcgi:esiteid" v="91598"/>
  </node>
  <node id="-918" visible="true" lat="44.251150497399" lon="-72.527272872521">
    <tag k="addr:city" v="East Montpelier"/>
    <tag k="addr:housenumber" v="90"/>
    <tag k="addr:street" v="Maplewood Road"/>
    <tag k="addr:state" v="VT"/>
    <tag k="ref:vcgi:esiteid" v="91599"/>
  </node>
  <node id="-921" visible="true" lat="44.250849254145" lon="-72.526743367523">
    <tag k="addr:city" v="East Montpelier"/>
    <tag k="addr:housenumber" v="105"/>
    <tag k="addr:street" v="Maplewood Road"/>
    <tag k="addr:state" v="VT"/>
    <tag k="ref:vcgi:esiteid" v="91602"/>
  </node>
  <node id="-922" visible="true" lat="44.250958171579" lon="-72.519355107271">
    <tag k="addr:city" v="East Montpelier"/>
    <tag k="addr:housenumber" v="300"/>
    <tag k="addr:street" v="Schoolhouse Road"/>
    <tag k="addr:state" v="VT"/>
    <tag k="ref:vcgi:esiteid" v="91603"/>
  </node>
  <node id="-923" visible="true" lat="44.25045529205" lon="-72.526749853968">
    <tag k="addr:city" v="East Montpelier"/>
    <tag k="addr:housenumber" v="135"/>
    <tag k="addr:street" v="Maplewood Road"/>
    <tag k="addr:state" v="VT"/>
    <tag k="ref:vcgi:esiteid" v="91604"/>
  </node>
  <node id="-924" visible="true" lat="44.250428591482" lon="-72.527345948834">
    <tag k="addr:city" v="East Montpelier"/>
    <tag k="addr:housenumber" v="140"/>
    <tag k="addr:street" v="Maplewood Road"/>
    <tag k="addr:state" v="VT"/>
    <tag k="ref:vcgi:esiteid" v="91605"/>
  </node>
  <node id="-930" visible="true" lat="44.249847896136" lon="-72.520479936811">
    <tag k="addr:city" v="East Montpelier"/>
    <tag k="addr:housenumber" v="1410"/>
    <tag k="addr:street" v="Gallison Hill Road"/>
    <tag k="addr:state" v="VT"/>
    <tag k="ref:vcgi:esiteid" v="91611"/>
  </node>
  <node id="-959" visible="true" lat="44.240778902889" lon="-72.490105555012">
    <tag k="addr:city" v="East Montpelier"/>
    <tag k="addr:housenumber" v="355"/>
    <tag k="addr:street" v="Vermont Route 14 South"/>
    <tag k="addr:state" v="VT"/>
    <tag k="ref:vcgi:esiteid" v="91640"/>
  </node>
  <node id="-964" visible="true" lat="44.23836159659" lon="-72.489491623939">
    <tag k="addr:city" v="East Montpelier"/>
    <tag k="addr:housenumber" v="225"/>
    <tag k="addr:street" v="Vermont Route 14 South"/>
    <tag k="addr:state" v="VT"/>
    <tag k="ref:vcgi:esiteid" v="91645"/>
  </node>
  <node id="-967" visible="true" lat="44.237878753427" lon="-72.487806005909">
    <tag k="addr:city" v="East Montpelier"/>
    <tag k="addr:housenumber" v="150"/>
    <tag k="addr:street" v="Vermont Route 14 South"/>
    <tag k="addr:state" v="VT"/>
    <tag k="ref:vcgi:esiteid" v="91648"/>
  </node>
  <node id="-1010" visible="true" lat="44.271281974328" lon="-72.45347084565">
    <tag k="addr:city" v="East Montpelier"/>
    <tag k="addr:housenumber" v="39"/>
    <tag k="addr:street" v="Tay-Con Drive"/>
    <tag k="addr:state" v="VT"/>
    <tag k="ref:vcgi:esiteid" v="91693"/>
  </node>
  <node id="-1011" visible="true" lat="44.270129514027" lon="-72.454005462023">
    <tag k="addr:city" v="East Montpelier"/>
    <tag k="addr:housenumber" v="84"/>
    <tag k="addr:street" v="Tay-Con Drive"/>
    <tag k="addr:state" v="VT"/>
    <tag k="ref:vcgi:esiteid" v="91694"/>
  </node>
  <node id="-1013" visible="true" lat="44.254081605469" lon="-72.535373966265">
    <tag k="addr:city" v="East Montpelier"/>
    <tag k="addr:housenumber" v="1316"/>
    <tag k="addr:street" v="Towne Hill Road"/>
    <tag k="addr:state" v="VT"/>
    <tag k="ref:vcgi:esiteid" v="91696"/>
  </node>
  <node id="-1014" visible="true" lat="44.253624322165" lon="-72.530040717514">
    <tag k="addr:city" v="East Montpelier"/>
    <tag k="addr:housenumber" v="1561"/>
    <tag k="addr:street" v="Towne Hill Road"/>
    <tag k="addr:state" v="VT"/>
    <tag k="ref:vcgi:esiteid" v="91697"/>
  </node>
  <node id="-1042" visible="true" lat="44.278251855231" lon="-72.529229209736">
    <tag k="addr:city" v="East Montpelier"/>
    <tag k="addr:housenumber" v="1754"/>
    <tag k="addr:street" v="Bliss Road"/>
    <tag k="addr:state" v="VT"/>
    <tag k="ref:vcgi:esiteid" v="91725"/>
  </node>
  <node id="-1044" visible="true" lat="44.25381698849" lon="-72.530845291045">
    <tag k="addr:city" v="East Montpelier"/>
    <tag k="addr:housenumber" v="1539"/>
    <tag k="addr:street" v="Towne Hill Road"/>
    <tag k="addr:state" v="VT"/>
    <tag k="ref:vcgi:esiteid" v="91727"/>
  </node>
  <node id="-1045" visible="true" lat="44.256529128693" lon="-72.524218647548">
    <tag k="addr:city" v="East Montpelier"/>
    <tag k="addr:housenumber" v="219"/>
    <tag k="addr:street" v="Brazier Road"/>
    <tag k="addr:state" v="VT"/>
    <tag k="ref:vcgi:esiteid" v="91728"/>
  </node>
  <node id="-1121" visible="true" lat="44.269255308439" lon="-72.455471514685">
    <tag k="addr:city" v="East Montpelier"/>
    <tag k="addr:housenumber" v="90"/>
    <tag k="addr:street" v="Cookson Drive"/>
    <tag k="addr:state" v="VT"/>
    <tag k="ref:vcgi:esiteid" v="91804"/>
  </node>
  <node id="-1126" visible="true" lat="44.255374202715" lon="-72.537778368767">
    <tag k="addr:city" v="East Montpelier"/>
    <tag k="addr:housenumber" v="1186"/>
    <tag k="addr:street" v="Towne Hill Road"/>
    <tag k="addr:state" v="VT"/>
    <tag k="ref:vcgi:esiteid" v="91809"/>
  </node>
  <node id="-1128" visible="true" lat="44.25266614227" lon="-72.516756816206">
    <tag k="addr:city" v="East Montpelier"/>
    <tag k="addr:housenumber" v="317"/>
    <tag k="addr:street" v="Wheeler Road"/>
    <tag k="addr:state" v="VT"/>
    <tag k="ref:vcgi:esiteid" v="91811"/>
  </node>
  <node id="-1132" visible="true" lat="44.234936076745" lon="-72.481732791484">
    <tag k="addr:city" v="East Montpelier"/>
    <tag k="addr:housenumber" v="699"/>
    <tag k="addr:street" v="Clark Road"/>
    <tag k="addr:state" v="VT"/>
    <tag k="ref:vcgi:esiteid" v="91815"/>
  </node>
  <node id="-1138" visible="true" lat="44.275049043664" lon="-72.525895045687">
    <tag k="addr:city" v="East Montpelier"/>
    <tag k="addr:housenumber" v="1626"/>
    <tag k="addr:street" v="Bliss Road"/>
    <tag k="addr:state" v="VT"/>
    <tag k="ref:vcgi:esiteid" v="91821"/>
  </node>
  <node id="-1158" visible="true" lat="44.253098824198" lon="-72.527873817483">
    <tag k="addr:city" v="East Montpelier"/>
    <tag k="addr:housenumber" v="1685"/>
    <tag k="addr:street" v="Towne Hill Road"/>
    <tag k="addr:state" v="VT"/>
    <tag k="ref:vcgi:esiteid" v="91841"/>
  </node>
  <node id="-1166" visible="true" lat="44.255708290916" lon="-72.53239542727">
    <tag k="addr:city" v="East Montpelier"/>
    <tag k="addr:housenumber" v="159"/>
    <tag k="addr:street" v="Boulder Ridge Road"/>
    <tag k="addr:state" v="VT"/>
    <tag k="ref:vcgi:esiteid" v="91849"/>
  </node>
  <node id="-1172" visible="true" lat="44.254989709218" lon="-72.530789299355">
    <tag k="addr:city" v="East Montpelier"/>
    <tag k="addr:housenumber" v="172"/>
    <tag k="addr:street" v="Boulder Ridge Road"/>
    <tag k="addr:state" v="VT"/>
    <tag k="ref:vcgi:esiteid" v="91856"/>
  </node>
  <node id="-1175" visible="true" lat="44.254011446351" lon="-72.52155226383">
    <tag k="addr:city" v="East Montpelier"/>
    <tag k="addr:housenumber" v="2021"/>
    <tag k="addr:street" v="Towne Hill Road"/>
    <tag k="addr:state" v="VT"/>
    <tag k="ref:vcgi:esiteid" v="91859"/>
  </node>
  <node id="-1178" visible="true" lat="44.270242280706" lon="-72.455118828553">
    <tag k="addr:city" v="East Montpelier"/>
    <tag k="addr:housenumber" v="45"/>
    <tag k="addr:street" v="Cookson Drive"/>
    <tag k="addr:state" v="VT"/>
    <tag k="ref:vcgi:esiteid" v="91862"/>
  </node>
  <node id="-1180" visible="true" lat="44.256414621556" lon="-72.531951418762">
    <tag k="addr:city" v="East Montpelier"/>
    <tag k="addr:housenumber" v="189"/>
    <tag k="addr:street" v="Boulder Ridge Road"/>
    <tag k="addr:state" v="VT"/>
    <tag k="ref:vcgi:esiteid" v="91864"/>
  </node>
  <node id="-1192" visible="true" lat="44.253681220068" lon="-72.526799446391">
    <tag k="addr:city" v="East Montpelier"/>
    <tag k="addr:housenumber" v="1771"/>
    <tag k="addr:street" v="Towne Hill Road"/>
    <tag k="addr:state" v="VT"/>
    <tag k="ref:vcgi:esiteid" v="308867"/>
  </node>
  <node id="-1195" visible="true" lat="44.268732363422" lon="-72.454678404156">
    <tag k="addr:city" v="East Montpelier"/>
    <tag k="addr:housenumber" v="124"/>
    <tag k="addr:street" v="Cookson Drive"/>
    <tag k="addr:state" v="VT"/>
    <tag k="ref:vcgi:esiteid" v="310613"/>
  </node>
  <node id="-1202" visible="true" lat="44.255513260041" lon="-72.53415676231">
    <tag k="addr:city" v="East Montpelier"/>
    <tag k="addr:housenumber" v="1309"/>
    <tag k="addr:street" v="Towne Hill Road"/>
    <tag k="addr:state" v="VT"/>
    <tag k="ref:vcgi:esiteid" v="315936"/>
  </node>
  <node id="-1210" visible="true" lat="44.25296674288" lon="-72.532186324641">
    <tag k="addr:city" v="East Montpelier"/>
    <tag k="addr:housenumber" v="1468"/>
    <tag k="addr:street" v="Towne Hill Road"/>
    <tag k="addr:state" v="VT"/>
    <tag k="ref:vcgi:esiteid" v="325340"/>
  </node>
  <node id="-1219" visible="true" lat="44.254542658948" lon="-72.532847330094">
    <tag k="addr:city" v="East Montpelier"/>
    <tag k="addr:housenumber" v="105"/>
    <tag k="addr:street" v="Boulder Ridge Road"/>
    <tag k="addr:state" v="VT"/>
    <tag k="ref:vcgi:esiteid" v="326477"/>
  </node>
  <node id="-1250" visible="true" lat="44.253735321089" lon="-72.534561669837">
    <!-- match: "1332 Towne Hill Road, East Montpelier, VT"  ignoring missing state when matching to "1332 Towne Hill Road, East Montpelier, " -->
    <tag k="addr:city" v="East Montpelier"/>
    <tag k="addr:housenumber" v="1332"/>
    <tag k="addr:street" v="Towne Hill Road"/>
    <tag k="addr:state" v="VT"/>
    <tag k="ref:vcgi:esiteid" v="340248"/>
  </node>
  <node id="-1251" visible="true" lat="44.258402566903" lon="-72.513033974746">
    <tag k="addr:city" v="East Montpelier"/>
    <tag k="addr:housenumber" v="6"/>
    <tag k="addr:street" v="Old Farm Road"/>
    <tag k="addr:state" v="VT"/>
    <tag k="ref:vcgi:esiteid" v="345167"/>
  </node>
  <node id="-1252" visible="true" lat="44.257208287437" lon="-72.512940449273">
    <tag k="addr:city" v="East Montpelier"/>
    <tag k="addr:housenumber" v="150"/>
    <tag k="addr:street" v="Old Farm Road"/>
    <tag k="addr:state" v="VT"/>
    <tag k="ref:vcgi:esiteid" v="345176"/>
  </node>
  <node id="-1253" visible="true" lat="44.258093027286" lon="-72.512149716806">
    <tag k="addr:city" v="East Montpelier"/>
    <tag k="addr:housenumber" v="72"/>
    <tag k="addr:street" v="Old Farm Road"/>
    <tag k="addr:state" v="VT"/>
    <tag k="ref:vcgi:esiteid" v="345177"/>
  </node>
  <node id="-1254" visible="true" lat="44.256317212736" lon="-72.51359294239">
    <tag k="addr:city" v="East Montpelier"/>
    <tag k="addr:housenumber" v="2418"/>
    <tag k="addr:street" v="Towne Hill Road"/>
    <tag k="addr:state" v="VT"/>
    <tag k="ref:vcgi:esiteid" v="345178"/>
  </node>
  <node id="-1263" visible="true" lat="44.252818964985" lon="-72.522039155387">
    <tag k="addr:city" v="East Montpelier"/>
    <tag k="addr:housenumber" v="1980"/>
    <tag k="addr:street" v="Towne Hill Road"/>
    <tag k="addr:state" v="VT"/>
    <tag k="ref:vcgi:esiteid" v="345906"/>
  </node>
  <node id="-1272" visible="true" lat="44.291741404394" lon="-72.479293718694">
    <tag k="addr:city" v="East Montpelier"/>
    <tag k="addr:housenumber" v="1440"/>
    <tag k="addr:street" v="Kelton Road"/>
    <tag k="addr:state" v="VT"/>
    <tag k="ref:vcgi:esiteid" v="446787"/>
  </node>
  <node id="-1274" visible="true" lat="44.257454544877" lon="-72.514272179262">
    <tag k="addr:city" v="East Montpelier"/>
    <tag k="addr:housenumber" v="2422"/>
    <tag k="addr:street" v="Towne Hill Road"/>
    <tag k="addr:state" v="VT"/>
    <tag k="ref:vcgi:esiteid" v="448109"/>
  </node>
  <node id="-1282" visible="true" lat="44.256979962985" lon="-72.516280629081">
    <tag k="addr:city" v="East Montpelier"/>
    <tag k="addr:housenumber" v="2368"/>
    <tag k="addr:street" v="Towne Hill Road"/>
    <tag k="addr:state" v="VT"/>
    <tag k="ref:vcgi:esiteid" v="450513"/>
  </node>
  <node id="-1287" visible="true" lat="44.258491693344" lon="-72.52598372174">
    <tag k="addr:city" v="East Montpelier"/>
    <tag k="addr:housenumber" v="325"/>
    <tag k="addr:street" v="Brazier Road"/>
    <tag k="addr:state" v="VT"/>
    <tag k="ref:vcgi:esiteid" v="454936"/>
  </node>
</osm>
