<?xml version="1.0" encoding="UTF-8"?>
<osm version="0.6" generator="JOSM" upload="false">
  <node id="-100" visible="true" lat="44.701717135568" lon="-71.841359435598">
    <tag k="addr:city" v="East Haven"/>
    <tag k="addr:housenumber" v="3327"/>
    <tag k="addr:street" v="Lost Nation Road"/>
    <tag k="addr:state" v="VT"/>
    <tag k="ref:vcgi:esiteid" v="90550"/>
  </node>
  <node id="-101" visible="true" lat="44.701615827678" lon="-71.83900551314">
    <tag k="addr:city" v="East Haven"/>
    <tag k="addr:housenumber" v="3354"/>
    <tag k="addr:street" v="Lost Nation Road"/>
    <tag k="addr:state" v="VT"/>
    <tag k="ref:vcgi:esiteid" v="90551"/>
  </node>
  <node id="-102" visible="true" lat="44.700012457394" lon="-71.837626933301">
    <tag k="addr:city" v="East Haven"/>
    <tag k="addr:housenumber" v="3254"/>
    <tag k="addr:street" v="Lost Nation Road"/>
    <tag k="addr:state" v="VT"/>
    <tag k="ref:vcgi:esiteid" v="90552"/>
  </node>
  <node id="-103" visible="true" lat="44.700086134776" lon="-71.841630026077">
    <tag k="addr:city" v="East Haven"/>
    <tag k="addr:housenumber" v="3207"/>
    <tag k="addr:street" v="Lost Nation Road"/>
    <tag k="addr:state" v="VT"/>
    <tag k="ref:vcgi:esiteid" v="90553"/>
  </node>
  <node id="-104" visible="true" lat="44.699971693357" lon="-71.841836019401">
    <tag k="addr:city" v="East Haven"/>
    <tag k="addr:housenumber" v="3209"/>
    <tag k="addr:street" v="Lost Nation Road"/>
    <tag k="addr:state" v="VT"/>
    <tag k="ref:vcgi:esiteid" v="90554"/>
  </node>
  <node id="-105" visible="true" lat="44.699251455514" lon="-71.853783680175">
    <tag k="addr:city" v="East Haven"/>
    <tag k="addr:housenumber" v="464"/>
    <tag k="addr:street" v="Jack Brook Road"/>
    <tag k="addr:state" v="VT"/>
    <tag k="ref:vcgi:esiteid" v="90555"/>
  </node>
  <node id="-106" visible="true" lat="44.699970121519" lon="-71.844228147407">
    <tag k="addr:city" v="East Haven"/>
    <tag k="addr:housenumber" v="3065"/>
    <tag k="addr:street" v="Lost Nation Road"/>
    <tag k="addr:state" v="VT"/>
    <tag k="ref:vcgi:esiteid" v="90556"/>
  </node>
  <node id="-107" visible="true" lat="44.698167093209" lon="-71.855582548412">
    <tag k="addr:city" v="East Haven"/>
    <tag k="addr:housenumber" v="475"/>
    <tag k="addr:street" v="Jack Brook Road"/>
    <tag k="addr:state" v="VT"/>
    <tag k="ref:vcgi:esiteid" v="90557"/>
  </node>
  <node id="-108" visible="true" lat="44.69813381792" lon="-71.84364082357">
    <tag k="addr:city" v="East Haven"/>
    <tag k="addr:housenumber" v="2985"/>
    <tag k="addr:street" v="Lost Nation Road"/>
    <tag k="addr:state" v="VT"/>
    <tag k="ref:vcgi:esiteid" v="90558"/>
  </node>
  <node id="-109" visible="true" lat="44.697779870044" lon="-71.849820952338">
    <tag k="addr:city" v="East Haven"/>
    <tag k="addr:housenumber" v="188"/>
    <tag k="addr:street" v="Jack Brook Road"/>
    <tag k="addr:state" v="VT"/>
    <tag k="ref:vcgi:esiteid" v="90559"/>
  </node>
  <node id="-111" visible="true" lat="44.696606895099" lon="-71.8422328392">
    <tag k="addr:city" v="East Haven"/>
    <tag k="addr:housenumber" v="97"/>
    <tag k="addr:street" v="Labay Place"/>
    <tag k="addr:state" v="VT"/>
    <tag k="ref:vcgi:esiteid" v="90561"/>
  </node>
  <node id="-112" visible="true" lat="44.696926522438" lon="-71.848505459785">
    <tag k="addr:city" v="East Haven"/>
    <tag k="addr:housenumber" v="140"/>
    <tag k="addr:street" v="Jack Brook Road"/>
    <tag k="addr:state" v="VT"/>
    <tag k="ref:vcgi:esiteid" v="90562"/>
  </node>
  <node id="-113" visible="true" lat="44.694932539512" lon="-71.847845853449">
    <tag k="addr:city" v="East Haven"/>
    <tag k="addr:housenumber" v="129"/>
    <tag k="addr:street" v="Jack Brook Road"/>
    <tag k="addr:state" v="VT"/>
    <tag k="ref:vcgi:esiteid" v="90563"/>
  </node>
  <node id="-114" visible="true" lat="44.695948267687" lon="-71.839828752112">
    <tag k="addr:city" v="East Haven"/>
    <tag k="addr:housenumber" v="201"/>
    <tag k="addr:street" v="Labay Place"/>
    <tag k="addr:state" v="VT"/>
    <tag k="ref:vcgi:esiteid" v="90564"/>
  </node>
  <node id="-115" visible="true" lat="44.694981560257" lon="-71.844114162925">
    <tag k="addr:city" v="East Haven"/>
    <tag k="addr:housenumber" v="2816"/>
    <tag k="addr:street" v="Lost Nation Road"/>
    <tag k="addr:state" v="VT"/>
    <tag k="ref:vcgi:esiteid" v="90565"/>
  </node>
  <node id="-116" visible="true" lat="44.694807675224" lon="-71.838453318657">
    <tag k="addr:city" v="East Haven"/>
    <tag k="addr:housenumber" v="249"/>
    <tag k="addr:street" v="Labay Place"/>
    <tag k="addr:state" v="VT"/>
    <tag k="ref:vcgi:esiteid" v="90566"/>
  </node>
  <node id="-117" visible="true" lat="44.694228005123" lon="-71.839383224999">
    <tag k="addr:city" v="East Haven"/>
    <tag k="addr:housenumber" v="250"/>
    <tag k="addr:street" v="Labay Place"/>
    <tag k="addr:state" v="VT"/>
    <tag k="ref:vcgi:esiteid" v="90567"/>
  </node>
  <node id="-118" visible="true" lat="44.694810407505" lon="-71.841034931876">
    <tag k="addr:city" v="East Haven"/>
    <tag k="addr:housenumber" v="240"/>
    <tag k="addr:street" v="Labay Place"/>
    <tag k="addr:state" v="VT"/>
    <tag k="ref:vcgi:esiteid" v="90568"/>
  </node>
  <node id="-119" visible="true" lat="44.693559693767" lon="-71.846070581988">
    <tag k="addr:city" v="East Haven"/>
    <tag k="addr:housenumber" v="2688"/>
    <tag k="addr:street" v="Lost Nation Road"/>
    <tag k="addr:state" v="VT"/>
    <tag k="ref:vcgi:esiteid" v="90569"/>
  </node>
  <node id="-120" visible="true" lat="44.692360233078" lon="-71.847993445019">
    <tag k="addr:city" v="East Haven"/>
    <tag k="addr:housenumber" v="2507"/>
    <tag k="addr:street" v="Lost Nation Road"/>
    <tag k="addr:state" v="VT"/>
    <tag k="ref:vcgi:esiteid" v="90570"/>
  </node>
  <node id="-121" visible="true" lat="44.690420896082" lon="-71.847107058552">
    <tag k="addr:city" v="East Haven"/>
    <tag k="addr:housenumber" v="2448"/>
    <tag k="addr:street" v="Lost Nation Road"/>
    <tag k="addr:state" v="VT"/>
    <tag k="ref:vcgi:esiteid" v="90571"/>
  </node>
  <node id="-122" visible="true" lat="44.688164305816" lon="-71.851151765241">
    <tag k="addr:city" v="East Haven"/>
    <tag k="addr:housenumber" v="2207"/>
    <tag k="addr:street" v="Lost Nation Road"/>
    <tag k="addr:state" v="VT"/>
    <tag k="ref:vcgi:esiteid" v="90572"/>
  </node>
  <node id="-123" visible="true" lat="44.68672706191" lon="-71.85212807639">
    <tag k="addr:city" v="East Haven"/>
    <tag k="addr:housenumber" v="2101"/>
    <tag k="addr:street" v="Lost Nation Road"/>
    <tag k="addr:state" v="VT"/>
    <tag k="ref:vcgi:esiteid" v="90573"/>
  </node>
  <node id="-124" visible="true" lat="44.686604317967" lon="-71.850530818425">
    <tag k="addr:city" v="East Haven"/>
    <tag k="addr:housenumber" v="2094"/>
    <tag k="addr:street" v="Lost Nation Road"/>
    <tag k="addr:state" v="VT"/>
    <tag k="ref:vcgi:esiteid" v="90574"/>
  </node>
  <node id="-125" visible="true" lat="44.685137517053" lon="-71.850878461685">
    <tag k="addr:city" v="East Haven"/>
    <tag k="addr:housenumber" v="1980"/>
    <tag k="addr:street" v="Lost Nation Road"/>
    <tag k="addr:state" v="VT"/>
    <tag k="ref:vcgi:esiteid" v="90575"/>
  </node>
  <node id="-126" visible="true" lat="44.683901327367" lon="-71.853332740324">
    <tag k="addr:city" v="East Haven"/>
    <tag k="addr:housenumber" v="1885"/>
    <tag k="addr:street" v="Lost Nation Road"/>
    <tag k="addr:state" v="VT"/>
    <tag k="ref:vcgi:esiteid" v="90576"/>
  </node>
  <node id="-127" visible="true" lat="44.683255686498" lon="-71.853364037152">
    <tag k="addr:city" v="East Haven"/>
    <tag k="addr:housenumber" v="1828"/>
    <tag k="addr:street" v="Lost Nation Road"/>
    <tag k="addr:state" v="VT"/>
    <tag k="ref:vcgi:esiteid" v="90577"/>
  </node>
  <node id="-128" visible="true" lat="44.677915274415" lon="-71.86626429382">
    <tag k="addr:city" v="East Haven"/>
    <tag k="addr:housenumber" v="1005"/>
    <tag k="addr:street" v="Lost Nation Road"/>
    <tag k="addr:state" v="VT"/>
    <tag k="ref:vcgi:esiteid" v="90578"/>
  </node>
  <node id="-129" visible="true" lat="44.678048197833" lon="-71.871400326124">
    <tag k="addr:city" v="East Haven"/>
    <tag k="addr:housenumber" v="741"/>
    <tag k="addr:street" v="Lost Nation Road"/>
    <tag k="addr:state" v="VT"/>
    <tag k="ref:vcgi:esiteid" v="90579"/>
  </node>
  <node id="-130" visible="true" lat="44.677414165268" lon="-71.873782114341">
    <tag k="addr:city" v="East Haven"/>
    <tag k="addr:housenumber" v="571"/>
    <tag k="addr:street" v="Lost Nation Road"/>
    <tag k="addr:state" v="VT"/>
    <tag k="ref:vcgi:esiteid" v="90580"/>
  </node>
  <node id="-131" visible="true" lat="44.676768127497" lon="-71.872649673682">
    <tag k="addr:city" v="East Haven"/>
    <tag k="addr:housenumber" v="664"/>
    <tag k="addr:street" v="Lost Nation Road"/>
    <tag k="addr:state" v="VT"/>
    <tag k="ref:vcgi:esiteid" v="90581"/>
  </node>
  <node id="-132" visible="true" lat="44.676439961889" lon="-71.873420166861">
    <tag k="addr:city" v="East Haven"/>
    <tag k="addr:housenumber" v="608"/>
    <tag k="addr:street" v="Lost Nation Road"/>
    <tag k="addr:state" v="VT"/>
    <tag k="ref:vcgi:esiteid" v="90582"/>
  </node>
  <node id="-133" visible="true" lat="44.674519631835" lon="-71.877720567538">
    <tag k="addr:city" v="East Haven"/>
    <tag k="addr:housenumber" v="378"/>
    <tag k="addr:street" v="Lost Nation Road"/>
    <tag k="addr:state" v="VT"/>
    <tag k="ref:vcgi:esiteid" v="90583"/>
  </node>
  <node id="-134" visible="true" lat="44.671555642807" lon="-71.88350499399">
    <tag k="addr:city" v="East Haven"/>
    <tag k="addr:housenumber" v="2"/>
    <tag k="addr:street" v="Lost Nation Road"/>
    <tag k="addr:state" v="VT"/>
    <tag k="ref:vcgi:esiteid" v="90584"/>
  </node>
  <node id="-135" visible="true" lat="44.66964571922" lon="-71.885572910175">
    <tag k="addr:city" v="East Haven"/>
    <tag k="addr:housenumber" v="2200"/>
    <tag k="addr:street" v="Vermont Route 114"/>
    <tag k="addr:state" v="VT"/>
    <tag k="ref:vcgi:esiteid" v="90585"/>
  </node>
  <node id="-136" visible="true" lat="44.668783743297" lon="-71.885388304613">
    <tag k="addr:city" v="East Haven"/>
    <tag k="addr:housenumber" v="54"/>
    <tag k="addr:street" v="Simpson Road"/>
    <tag k="addr:state" v="VT"/>
    <tag k="ref:vcgi:esiteid" v="90586"/>
  </node>
  <node id="-137" visible="true" lat="44.667694649181" lon="-71.887463253321">
    <tag k="addr:city" v="East Haven"/>
    <tag k="addr:housenumber" v="2029"/>
    <tag k="addr:street" v="Vermont Route 114"/>
    <tag k="addr:state" v="VT"/>
    <tag k="ref:vcgi:esiteid" v="90587"/>
  </node>
  <node id="-138" visible="true" lat="44.667085800305" lon="-71.886476578673">
    <tag k="addr:city" v="East Haven"/>
    <tag k="addr:housenumber" v="2024"/>
    <tag k="addr:street" v="Vermont Route 114"/>
    <tag k="addr:state" v="VT"/>
    <tag k="ref:vcgi:esiteid" v="90588"/>
  </node>
  <node id="-139" visible="true" lat="44.665277018144" lon="-71.770943659821">
    <tag k="addr:city" v="East Haven"/>
    <tag k="addr:housenumber" v="8366"/>
    <tag k="addr:street" v="Radar Road"/>
    <tag k="addr:state" v="VT"/>
    <tag k="ref:vcgi:esiteid" v="90589"/>
  </node>
  <node id="-140" visible="true" lat="44.665438024153" lon="-71.88684017622">
    <tag k="addr:city" v="East Haven"/>
    <tag k="addr:housenumber" v="1892"/>
    <tag k="addr:street" v="Vermont Route 114"/>
    <tag k="addr:state" v="VT"/>
    <tag k="ref:vcgi:esiteid" v="90590"/>
  </node>
  <node id="-141" visible="true" lat="44.665645647312" lon="-71.888060912454">
    <tag k="addr:city" v="East Haven"/>
    <tag k="addr:housenumber" v="1881"/>
    <tag k="addr:street" v="Vermont Route 114"/>
    <tag k="addr:state" v="VT"/>
    <tag k="ref:vcgi:esiteid" v="90591"/>
  </node>
  <node id="-142" visible="true" lat="44.665205619577" lon="-71.890637728499">
    <tag k="addr:city" v="East Haven"/>
    <tag k="addr:housenumber" v="92"/>
    <tag k="addr:street" v="Bean Brook Road"/>
    <tag k="addr:state" v="VT"/>
    <tag k="ref:vcgi:esiteid" v="90592"/>
  </node>
  <node id="-143" visible="true" lat="44.66414565274" lon="-71.888350218912">
    <tag k="addr:city" v="East Haven"/>
    <tag k="addr:housenumber" v="1802"/>
    <tag k="addr:street" v="Vermont Route 114"/>
    <tag k="addr:state" v="VT"/>
    <tag k="ref:vcgi:esiteid" v="90593"/>
  </node>
  <node id="-144" visible="true" lat="44.66434025521" lon="-71.888980966681">
    <tag k="addr:city" v="East Haven"/>
    <tag k="addr:housenumber" v="1789"/>
    <tag k="addr:street" v="Vermont Route 114"/>
    <tag k="addr:state" v="VT"/>
    <tag k="ref:vcgi:esiteid" v="90594"/>
  </node>
  <node id="-145" visible="true" lat="44.663726156956" lon="-71.888568497225">
    <tag k="addr:city" v="East Haven"/>
    <tag k="addr:housenumber" v="1776"/>
    <tag k="addr:street" v="Vermont Route 114"/>
    <tag k="addr:state" v="VT"/>
    <tag k="ref:vcgi:esiteid" v="90595"/>
  </node>
  <node id="-146" visible="true" lat="44.664061993018" lon="-71.88898725777">
    <tag k="addr:city" v="East Haven"/>
    <tag k="addr:housenumber" v="1771"/>
    <tag k="addr:street" v="Vermont Route 114"/>
    <tag k="addr:state" v="VT"/>
    <tag k="ref:vcgi:esiteid" v="90596"/>
  </node>
  <node id="-147" visible="true" lat="44.663807052665" lon="-71.889138653764">
    <tag k="addr:city" v="East Haven"/>
    <tag k="addr:housenumber" v="1753"/>
    <tag k="addr:street" v="Vermont Route 114"/>
    <tag k="addr:state" v="VT"/>
    <tag k="ref:vcgi:esiteid" v="90597"/>
  </node>
  <node id="-148" visible="true" lat="44.662795634974" lon="-71.889752153945">
    <tag k="addr:city" v="East Haven"/>
    <tag k="addr:housenumber" v="1687"/>
    <tag k="addr:street" v="Vermont Route 114"/>
    <tag k="addr:state" v="VT"/>
    <tag k="ref:vcgi:esiteid" v="90598"/>
  </node>
  <node id="-149" visible="true" lat="44.66159970861" lon="-71.887396566895">
    <tag k="addr:city" v="East Haven"/>
    <tag k="addr:housenumber" v="274"/>
    <tag k="addr:street" v="Victorian Road"/>
    <tag k="addr:state" v="VT"/>
    <tag k="ref:vcgi:esiteid" v="90599"/>
  </node>
  <node id="-150" visible="true" lat="44.660695448026" lon="-71.89126958146">
    <tag k="addr:city" v="East Haven"/>
    <tag k="addr:housenumber" v="1515"/>
    <tag k="addr:street" v="Vermont Route 114"/>
    <tag k="addr:state" v="VT"/>
    <tag k="ref:vcgi:esiteid" v="90600"/>
  </node>
  <node id="-151" visible="true" lat="44.660252222392" lon="-71.888464427629">
    <tag k="addr:city" v="East Haven"/>
    <tag k="addr:housenumber" v="210"/>
    <tag k="addr:street" v="Victorian Road"/>
    <tag k="addr:state" v="VT"/>
    <tag k="ref:vcgi:esiteid" v="90601"/>
  </node>
  <node id="-152" visible="true" lat="44.659884156532" lon="-71.88881000896">
    <tag k="addr:city" v="East Haven"/>
    <tag k="addr:housenumber" v="191"/>
    <tag k="addr:street" v="Victorian Road"/>
    <tag k="addr:state" v="VT"/>
    <tag k="ref:vcgi:esiteid" v="90602"/>
  </node>
  <node id="-153" visible="true" lat="44.659555125471" lon="-71.891777237885">
    <tag k="addr:city" v="East Haven"/>
    <tag k="addr:housenumber" v="1435"/>
    <tag k="addr:street" v="Vermont Route 114"/>
    <tag k="addr:state" v="VT"/>
    <tag k="ref:vcgi:esiteid" v="90603"/>
  </node>
  <node id="-154" visible="true" lat="44.659195336519" lon="-71.890623219395">
    <tag k="addr:city" v="East Haven"/>
    <tag k="addr:housenumber" v="1428"/>
    <tag k="addr:street" v="Vermont Route 114"/>
    <tag k="addr:state" v="VT"/>
    <tag k="ref:vcgi:esiteid" v="90604"/>
  </node>
  <node id="-155" visible="true" lat="44.658998022483" lon="-71.873246244036">
    <tag k="addr:city" v="East Haven"/>
    <tag k="addr:housenumber" v="1038"/>
    <tag k="addr:street" v="Moulthrop Road"/>
    <tag k="addr:state" v="VT"/>
    <tag k="ref:vcgi:esiteid" v="90605"/>
  </node>
  <node id="-156" visible="true" lat="44.658695264649" lon="-71.88929582071">
    <tag k="addr:city" v="East Haven"/>
    <tag k="addr:housenumber" v="95"/>
    <tag k="addr:street" v="Victorian Road"/>
    <tag k="addr:state" v="VT"/>
    <tag k="ref:vcgi:esiteid" v="90606"/>
  </node>
  <node id="-157" visible="true" lat="44.658410560064" lon="-71.825989759291">
    <tag k="addr:city" v="East Haven"/>
    <tag k="addr:housenumber" v="3307"/>
    <tag k="addr:street" v="Radar Road"/>
    <tag k="addr:state" v="VT"/>
    <tag k="ref:vcgi:esiteid" v="90607"/>
  </node>
  <node id="-158" visible="true" lat="44.657497125831" lon="-71.891832002194">
    <tag k="addr:city" v="East Haven"/>
    <tag k="addr:housenumber" v="1285"/>
    <tag k="addr:street" v="Vermont Route 114"/>
    <tag k="addr:state" v="VT"/>
    <tag k="ref:vcgi:esiteid" v="90608"/>
  </node>
  <node id="-159" visible="true" lat="44.656995305688" lon="-71.887887057183">
    <tag k="addr:city" v="East Haven"/>
    <tag k="addr:housenumber" v="145"/>
    <tag k="addr:street" v="River Road"/>
    <tag k="addr:state" v="VT"/>
    <tag k="ref:vcgi:esiteid" v="90609"/>
  </node>
  <node id="-160" visible="true" lat="44.656724366689" lon="-71.89201977819">
    <tag k="addr:city" v="East Haven"/>
    <tag k="addr:housenumber" v="1247"/>
    <tag k="addr:street" v="Vermont Route 114"/>
    <tag k="addr:state" v="VT"/>
    <tag k="ref:vcgi:esiteid" v="90610"/>
  </node>
  <node id="-161" visible="true" lat="44.656587131743" lon="-71.89254098931">
    <tag k="addr:city" v="East Haven"/>
    <tag k="addr:housenumber" v="1229"/>
    <tag k="addr:street" v="Vermont Route 114"/>
    <tag k="addr:state" v="VT"/>
    <tag k="ref:vcgi:esiteid" v="90611"/>
  </node>
  <node id="-162" visible="true" lat="44.656606370701" lon="-71.890441497534">
    <tag k="addr:city" v="East Haven"/>
    <tag k="addr:housenumber" v="88"/>
    <tag k="addr:street" v="River Road"/>
    <tag k="addr:state" v="VT"/>
    <tag k="ref:vcgi:esiteid" v="90612"/>
  </node>
  <node id="-163" visible="true" lat="44.656372593709" lon="-71.892253237184">
    <tag k="addr:city" v="East Haven"/>
    <tag k="addr:housenumber" v="1219"/>
    <tag k="addr:street" v="Vermont Route 114"/>
    <tag k="addr:state" v="VT"/>
    <tag k="ref:vcgi:esiteid" v="90613"/>
  </node>
  <node id="-164" visible="true" lat="44.655881576918" lon="-71.892929460784">
    <tag k="addr:city" v="East Haven"/>
    <tag k="addr:housenumber" v="1175"/>
    <tag k="addr:street" v="Vermont Route 114"/>
    <tag k="addr:state" v="VT"/>
    <tag k="ref:vcgi:esiteid" v="90614"/>
  </node>
  <node id="-165" visible="true" lat="44.655335886514" lon="-71.887065415798">
    <tag k="addr:city" v="East Haven"/>
    <tag k="addr:housenumber" v="288"/>
    <tag k="addr:street" v="River Road"/>
    <tag k="addr:state" v="VT"/>
    <tag k="ref:vcgi:esiteid" v="90615"/>
  </node>
  <node id="-166" visible="true" lat="44.655238259257" lon="-71.8904261223">
    <tag k="addr:city" v="East Haven"/>
    <tag k="addr:housenumber" v="90"/>
    <tag k="addr:street" v="River Road"/>
    <tag k="addr:state" v="VT"/>
    <tag k="ref:vcgi:esiteid" v="90616"/>
  </node>
  <node id="-167" visible="true" lat="44.655190746054" lon="-71.893542099843">
    <tag k="addr:city" v="East Haven"/>
    <tag k="addr:housenumber" v="1111"/>
    <tag k="addr:street" v="Vermont Route 114"/>
    <tag k="addr:state" v="VT"/>
    <tag k="ref:vcgi:esiteid" v="90617"/>
  </node>
  <node id="-168" visible="true" lat="44.654308252954" lon="-71.892304991823">
    <tag k="addr:city" v="East Haven"/>
    <tag k="addr:housenumber" v="1079"/>
    <tag k="addr:street" v="Vermont Route 114"/>
    <tag k="addr:state" v="VT"/>
    <tag k="ref:vcgi:esiteid" v="90618"/>
  </node>
  <node id="-169" visible="true" lat="44.65400296531" lon="-71.892375852793">
    <tag k="addr:city" v="East Haven"/>
    <tag k="addr:housenumber" v="1069"/>
    <tag k="addr:street" v="Vermont Route 114"/>
    <tag k="addr:state" v="VT"/>
    <tag k="ref:vcgi:esiteid" v="90619"/>
  </node>
  <node id="-170" visible="true" lat="44.653817825854" lon="-71.892384475673">
    <tag k="addr:city" v="East Haven"/>
    <tag k="addr:housenumber" v="1047"/>
    <tag k="addr:street" v="Vermont Route 114"/>
    <tag k="addr:state" v="VT"/>
    <tag k="ref:vcgi:esiteid" v="90620"/>
  </node>
  <node id="-171" visible="true" lat="44.652577885585" lon="-71.891617832546">
    <tag k="addr:city" v="East Haven"/>
    <tag k="addr:housenumber" v="938"/>
    <tag k="addr:street" v="Vermont Route 114"/>
    <tag k="addr:state" v="VT"/>
    <tag k="ref:vcgi:esiteid" v="90621"/>
  </node>
  <node id="-172" visible="true" lat="44.65216510618" lon="-71.894169206897">
    <tag k="addr:city" v="East Haven"/>
    <tag k="addr:housenumber" v="919"/>
    <tag k="addr:street" v="Vermont Route 114"/>
    <tag k="addr:state" v="VT"/>
    <tag k="ref:vcgi:esiteid" v="90622"/>
  </node>
  <node id="-173" visible="true" lat="44.651458841841" lon="-71.901480892335">
    <tag k="addr:city" v="East Haven"/>
    <tag k="addr:housenumber" v="530"/>
    <tag k="addr:street" v="Walters Farm Road"/>
    <tag k="addr:state" v="VT"/>
    <tag k="ref:vcgi:esiteid" v="90623"/>
  </node>
  <node id="-174" visible="true" lat="44.651074894258" lon="-71.863991785069">
    <tag k="addr:city" v="East Haven"/>
    <tag k="addr:housenumber" v="441"/>
    <tag k="addr:street" v="Radar Road"/>
    <tag k="addr:state" v="VT"/>
    <tag k="ref:vcgi:esiteid" v="90624"/>
  </node>
  <node id="-175" visible="true" lat="44.652065942461" lon="-71.902496215581">
    <tag k="addr:city" v="East Haven"/>
    <tag k="addr:housenumber" v="536"/>
    <tag k="addr:street" v="Walters Farm Road"/>
    <tag k="addr:state" v="VT"/>
    <tag k="ref:vcgi:esiteid" v="90625"/>
  </node>
  <node id="-176" visible="true" lat="44.650990969426" lon="-71.89248758409">
    <tag k="addr:city" v="East Haven"/>
    <tag k="addr:housenumber" v="871"/>
    <tag k="addr:street" v="Vermont Route 114"/>
    <tag k="addr:state" v="VT"/>
    <tag k="ref:vcgi:esiteid" v="90626"/>
  </node>
  <node id="-177" visible="true" lat="44.650576991815" lon="-71.902178127098">
    <tag k="addr:city" v="East Haven"/>
    <tag k="addr:housenumber" v="554"/>
    <tag k="addr:street" v="Walters Farm Road"/>
    <tag k="addr:state" v="VT"/>
    <tag k="ref:vcgi:esiteid" v="90627"/>
  </node>
  <node id="-178" visible="true" lat="44.650645852663" lon="-71.892006065001">
    <tag k="addr:city" v="East Haven"/>
    <tag k="addr:housenumber" v="832"/>
    <tag k="addr:street" v="Vermont Route 114"/>
    <tag k="addr:state" v="VT"/>
    <tag k="ref:vcgi:esiteid" v="90628"/>
  </node>
  <node id="-179" visible="true" lat="44.650170810708" lon="-71.901757300958">
    <tag k="addr:city" v="East Haven"/>
    <tag k="addr:housenumber" v="589"/>
    <tag k="addr:street" v="Walters Farm Road"/>
    <tag k="addr:state" v="VT"/>
    <tag k="ref:vcgi:esiteid" v="90629"/>
  </node>
  <node id="-180" visible="true" lat="44.650196520237" lon="-71.899990164646">
    <tag k="addr:city" v="East Haven"/>
    <tag k="addr:housenumber" v="425"/>
    <tag k="addr:street" v="Walters Farm Road"/>
    <tag k="addr:state" v="VT"/>
    <tag k="ref:vcgi:esiteid" v="90630"/>
  </node>
  <node id="-181" visible="true" lat="44.650035217832" lon="-71.899747508769">
    <tag k="addr:city" v="East Haven"/>
    <tag k="addr:housenumber" v="419"/>
    <tag k="addr:street" v="Walters Farm Road"/>
    <tag k="addr:state" v="VT"/>
    <tag k="ref:vcgi:esiteid" v="90631"/>
  </node>
  <node id="-182" visible="true" lat="44.649667270717" lon="-71.89396768604">
    <tag k="addr:city" v="East Haven"/>
    <tag k="addr:housenumber" v="739"/>
    <tag k="addr:street" v="Vermont Route 114"/>
    <tag k="addr:state" v="VT"/>
    <tag k="ref:vcgi:esiteid" v="90632"/>
  </node>
  <node id="-183" visible="true" lat="44.648740299271" lon="-71.870461514154">
    <tag k="addr:city" v="East Haven"/>
    <tag k="addr:housenumber" v="165"/>
    <tag k="addr:street" v="Moulthrop Road"/>
    <tag k="addr:state" v="VT"/>
    <tag k="ref:vcgi:esiteid" v="90633"/>
  </node>
  <node id="-184" visible="true" lat="44.647414119437" lon="-71.895939256508">
    <tag k="addr:city" v="East Haven"/>
    <tag k="addr:housenumber" v="165"/>
    <tag k="addr:street" v="Walters Farm Road"/>
    <tag k="addr:state" v="VT"/>
    <tag k="ref:vcgi:esiteid" v="90634"/>
  </node>
  <node id="-185" visible="true" lat="44.647489062997" lon="-71.893227641762">
    <tag k="addr:city" v="East Haven"/>
    <tag k="addr:housenumber" v="597"/>
    <tag k="addr:street" v="Vermont Route 114"/>
    <tag k="addr:state" v="VT"/>
    <tag k="ref:vcgi:esiteid" v="90635"/>
  </node>
  <node id="-186" visible="true" lat="44.64710577431" lon="-71.895337734795">
    <tag k="addr:city" v="East Haven"/>
    <tag k="addr:housenumber" v="135"/>
    <tag k="addr:street" v="Walters Farm Road"/>
    <tag k="addr:state" v="VT"/>
    <tag k="ref:vcgi:esiteid" v="90636"/>
  </node>
  <node id="-187" visible="true" lat="44.646827334031" lon="-71.893359653089">
    <tag k="addr:city" v="East Haven"/>
    <tag k="addr:housenumber" v="26"/>
    <tag k="addr:street" v="Walters Farm Road"/>
    <tag k="addr:state" v="VT"/>
    <tag k="ref:vcgi:esiteid" v="90637"/>
  </node>
  <node id="-188" visible="true" lat="44.646803346729" lon="-71.866829876024">
    <tag k="addr:city" v="East Haven"/>
    <tag k="addr:housenumber" v="201"/>
    <tag k="addr:street" v="Austin Road"/>
    <tag k="addr:state" v="VT"/>
    <tag k="ref:vcgi:esiteid" v="90638"/>
  </node>
  <node id="-189" visible="true" lat="44.646569139631" lon="-71.890938703608">
    <tag k="addr:city" v="East Haven"/>
    <tag k="addr:housenumber" v="580"/>
    <tag k="addr:street" v="School Street"/>
    <tag k="addr:state" v="VT"/>
    <tag k="ref:vcgi:esiteid" v="90639"/>
  </node>
  <node id="-190" visible="true" lat="44.646529361991" lon="-71.888744847028">
    <tag k="addr:city" v="East Haven"/>
    <tag k="addr:housenumber" v="96"/>
    <tag k="addr:street" v="Pumphouse Road"/>
    <tag k="addr:state" v="VT"/>
    <tag k="ref:vcgi:esiteid" v="90640"/>
  </node>
  <node id="-191" visible="true" lat="44.64555748261" lon="-71.893737218121">
    <tag k="addr:city" v="East Haven"/>
    <tag k="addr:housenumber" v="449"/>
    <tag k="addr:street" v="Vermont Route 114"/>
    <tag k="addr:state" v="VT"/>
    <tag k="ref:vcgi:esiteid" v="90641"/>
  </node>
  <node id="-192" visible="true" lat="44.645215543592" lon="-71.890827192554">
    <tag k="addr:city" v="East Haven"/>
    <tag k="addr:housenumber" v="490"/>
    <tag k="addr:street" v="School Street"/>
    <tag k="addr:state" v="VT"/>
    <tag k="ref:vcgi:esiteid" v="90642"/>
  </node>
  <node id="-194" visible="true" lat="44.64475393975" lon="-71.889023836805">
    <tag k="addr:city" v="East Haven"/>
    <tag k="addr:housenumber" v="83"/>
    <tag k="addr:street" v="Rubys Road"/>
    <tag k="addr:state" v="VT"/>
    <tag k="ref:vcgi:esiteid" v="90644"/>
  </node>
  <node id="-195" visible="true" lat="44.644549733982" lon="-71.891059409583">
    <tag k="addr:city" v="East Haven"/>
    <tag k="addr:housenumber" v="465"/>
    <tag k="addr:street" v="School Street"/>
    <tag k="addr:state" v="VT"/>
    <tag k="ref:vcgi:esiteid" v="90645"/>
  </node>
  <node id="-196" visible="true" lat="44.644606874315" lon="-71.886717131174">
    <tag k="addr:city" v="East Haven"/>
    <tag k="addr:housenumber" v="369"/>
    <tag k="addr:street" v="Mountain Road"/>
    <tag k="addr:state" v="VT"/>
    <tag k="ref:vcgi:esiteid" v="90646"/>
  </node>
  <node id="-197" visible="true" lat="44.644536502217" lon="-71.889344272268">
    <tag k="addr:city" v="East Haven"/>
    <tag k="addr:housenumber" v="61"/>
    <tag k="addr:street" v="Rubys Road"/>
    <tag k="addr:state" v="VT"/>
    <tag k="ref:vcgi:esiteid" v="90647"/>
  </node>
  <node id="-198" visible="true" lat="44.644558307025" lon="-71.890433631113">
    <tag k="addr:city" v="East Haven"/>
    <tag k="addr:housenumber" v="440"/>
    <tag k="addr:street" v="School Street"/>
    <tag k="addr:state" v="VT"/>
    <tag k="ref:vcgi:esiteid" v="90648"/>
  </node>
  <node id="-199" visible="true" lat="44.644326691969" lon="-71.889161165957">
    <tag k="addr:city" v="East Haven"/>
    <tag k="addr:housenumber" v="60"/>
    <tag k="addr:street" v="Rubys Road"/>
    <tag k="addr:state" v="VT"/>
    <tag k="ref:vcgi:esiteid" v="90649"/>
  </node>
  <node id="-200" visible="true" lat="44.644299990426" lon="-71.889702852968">
    <tag k="addr:city" v="East Haven"/>
    <tag k="addr:housenumber" v="37"/>
    <tag k="addr:street" v="Rubys Road"/>
    <tag k="addr:state" v="VT"/>
    <tag k="ref:vcgi:esiteid" v="90650"/>
  </node>
  <node id="-201" visible="true" lat="44.644189036841" lon="-71.890731893112">
    <tag k="addr:city" v="East Haven"/>
    <tag k="addr:housenumber" v="169"/>
    <tag k="addr:street" v="Maple Street"/>
    <tag k="addr:state" v="VT"/>
    <tag k="ref:vcgi:esiteid" v="90652"/>
  </node>
  <node id="-202" visible="true" lat="44.644037254234" lon="-71.891006373579">
    <tag k="addr:city" v="East Haven"/>
    <tag k="addr:housenumber" v="155"/>
    <tag k="addr:street" v="Maple Street"/>
    <tag k="addr:state" v="VT"/>
    <tag k="ref:vcgi:esiteid" v="90653"/>
  </node>
  <node id="-203" visible="true" lat="44.643884187623" lon="-71.890641269374">
    <tag k="addr:city" v="East Haven"/>
    <tag k="addr:housenumber" v="162"/>
    <tag k="addr:street" v="Maple Street"/>
    <tag k="addr:state" v="VT"/>
    <tag k="ref:vcgi:esiteid" v="90654"/>
  </node>
  <node id="-204" visible="true" lat="44.643868929018" lon="-71.891877231725">
    <tag k="addr:city" v="East Haven"/>
    <tag k="addr:housenumber" v="40"/>
    <tag k="addr:street" v="Maple Street Extension"/>
    <tag k="addr:state" v="VT"/>
    <tag k="ref:vcgi:esiteid" v="90655"/>
  </node>
  <node id="-205" visible="true" lat="44.643931255278" lon="-71.891232727806">
    <tag k="addr:city" v="East Haven"/>
    <tag k="addr:housenumber" v="135"/>
    <tag k="addr:street" v="Maple Street"/>
    <tag k="addr:state" v="VT"/>
    <tag k="ref:vcgi:esiteid" v="90657"/>
  </node>
  <node id="-206" visible="true" lat="44.643743043428" lon="-71.890923557281">
    <tag k="addr:city" v="East Haven"/>
    <tag k="addr:housenumber" v="146"/>
    <tag k="addr:street" v="Maple Street"/>
    <tag k="addr:state" v="VT"/>
    <tag k="ref:vcgi:esiteid" v="90658"/>
  </node>
  <node id="-207" visible="true" lat="44.643719625673" lon="-71.889645149599">
    <tag k="addr:city" v="East Haven"/>
    <tag k="addr:housenumber" v="374"/>
    <tag k="addr:street" v="School Street"/>
    <tag k="addr:state" v="VT"/>
    <tag k="ref:vcgi:esiteid" v="90659"/>
  </node>
  <node id="-208" visible="true" lat="44.643682795995" lon="-71.891527196285">
    <tag k="addr:city" v="East Haven"/>
    <tag k="addr:housenumber" v="133"/>
    <tag k="addr:street" v="Maple Street"/>
    <tag k="addr:state" v="VT"/>
    <tag k="ref:vcgi:esiteid" v="90660"/>
  </node>
  <node id="-209" visible="true" lat="44.643542042908" lon="-71.874105555414">
    <tag k="addr:city" v="East Haven"/>
    <tag k="addr:housenumber" v="1002"/>
    <tag k="addr:street" v="Mountain Road"/>
    <tag k="addr:state" v="VT"/>
    <tag k="ref:vcgi:esiteid" v="90662"/>
  </node>
  <node id="-210" visible="true" lat="44.64346329925" lon="-71.876928640084">
    <tag k="addr:city" v="East Haven"/>
    <tag k="addr:housenumber" v="877"/>
    <tag k="addr:street" v="Mountain Road"/>
    <tag k="addr:state" v="VT"/>
    <tag k="ref:vcgi:esiteid" v="90663"/>
  </node>
  <node id="-211" visible="true" lat="44.643470978508" lon="-71.883753356498">
    <tag k="addr:city" v="East Haven"/>
    <tag k="addr:housenumber" v="42"/>
    <tag k="addr:street" v="Olson Drive"/>
    <tag k="addr:state" v="VT"/>
    <tag k="ref:vcgi:esiteid" v="90664"/>
  </node>
  <node id="-212" visible="true" lat="44.643513415365" lon="-71.890191855086">
    <tag k="addr:city" v="East Haven"/>
    <tag k="addr:housenumber" v="12"/>
    <tag k="addr:street" v="Cross Street"/>
    <tag k="addr:state" v="VT"/>
    <tag k="ref:vcgi:esiteid" v="90665"/>
  </node>
  <node id="-213" visible="true" lat="44.643489277385" lon="-71.891450913556">
    <tag k="addr:city" v="East Haven"/>
    <tag k="addr:housenumber" v="115"/>
    <tag k="addr:street" v="Maple Street"/>
    <tag k="addr:state" v="VT"/>
    <tag k="ref:vcgi:esiteid" v="90666"/>
  </node>
  <node id="-214" visible="true" lat="44.643369357833" lon="-71.890453647551">
    <tag k="addr:city" v="East Haven"/>
    <tag k="addr:housenumber" v="26"/>
    <tag k="addr:street" v="Cross Street"/>
    <tag k="addr:state" v="VT"/>
    <tag k="ref:vcgi:esiteid" v="90667"/>
  </node>
  <node id="-215" visible="true" lat="44.643204747824" lon="-71.89076209546">
    <tag k="addr:city" v="East Haven"/>
    <tag k="addr:housenumber" v="44"/>
    <tag k="addr:street" v="Cross Street"/>
    <tag k="addr:state" v="VT"/>
    <tag k="ref:vcgi:esiteid" v="90669"/>
  </node>
  <node id="-216" visible="true" lat="44.643236405759" lon="-71.88991035792">
    <tag k="addr:city" v="East Haven"/>
    <tag k="addr:housenumber" v="7"/>
    <tag k="addr:street" v="Haven Street"/>
    <tag k="addr:state" v="VT"/>
    <tag k="ref:vcgi:esiteid" v="90670"/>
  </node>
  <node id="-217" visible="true" lat="44.643054159406" lon="-71.890254321382">
    <tag k="addr:city" v="East Haven"/>
    <tag k="addr:housenumber" v="6"/>
    <tag k="addr:street" v="Haven Street"/>
    <tag k="addr:state" v="VT"/>
    <tag k="ref:vcgi:esiteid" v="90671"/>
  </node>
  <node id="-218" visible="true" lat="44.643027674734" lon="-71.886763205071">
    <tag k="addr:city" v="East Haven"/>
    <tag k="addr:housenumber" v="2"/>
    <tag k="addr:street" v="The Old Road"/>
    <tag k="addr:state" v="VT"/>
    <tag k="ref:vcgi:esiteid" v="90672"/>
  </node>
  <node id="-219" visible="true" lat="44.64303351051" lon="-71.880768828094">
    <tag k="addr:city" v="East Haven"/>
    <tag k="addr:housenumber" v="690"/>
    <tag k="addr:street" v="Mountain Road"/>
    <tag k="addr:state" v="VT"/>
    <tag k="ref:vcgi:esiteid" v="90673"/>
  </node>
  <node id="-220" visible="true" lat="44.6430310621" lon="-71.889801417601">
    <tag k="addr:city" v="East Haven"/>
    <tag k="addr:housenumber" v="19"/>
    <tag k="addr:street" v="Haven Street"/>
    <tag k="addr:state" v="VT"/>
    <tag k="ref:vcgi:esiteid" v="90674"/>
  </node>
  <node id="-221" visible="true" lat="44.642919851633" lon="-71.891112713919">
    <tag k="addr:city" v="East Haven"/>
    <tag k="addr:housenumber" v="79"/>
    <tag k="addr:street" v="Maple Street"/>
    <tag k="addr:state" v="VT"/>
    <tag k="ref:vcgi:esiteid" v="90675"/>
  </node>
  <node id="-222" visible="true" lat="44.642999527187" lon="-71.877085572908">
    <tag k="addr:city" v="East Haven"/>
    <tag k="addr:housenumber" v="866"/>
    <tag k="addr:street" v="Mountain Road"/>
    <tag k="addr:state" v="VT"/>
    <tag k="ref:vcgi:esiteid" v="90676"/>
  </node>
  <node id="-223" visible="true" lat="44.642853668805" lon="-71.890110902017">
    <tag k="addr:city" v="East Haven"/>
    <tag k="addr:housenumber" v="22"/>
    <tag k="addr:street" v="Haven Street"/>
    <tag k="addr:state" v="VT"/>
    <tag k="ref:vcgi:esiteid" v="90677"/>
  </node>
  <node id="-224" visible="true" lat="44.642856136263" lon="-71.87948553033">
    <tag k="addr:city" v="East Haven"/>
    <tag k="addr:housenumber" v="10"/>
    <tag k="addr:street" v="Young's Road"/>
    <tag k="addr:state" v="VT"/>
    <tag k="ref:vcgi:esiteid" v="90678"/>
  </node>
  <node id="-225" visible="true" lat="44.642920986797" lon="-71.87999414642">
    <tag k="addr:city" v="East Haven"/>
    <tag k="addr:housenumber" v="718"/>
    <tag k="addr:street" v="Mountain Road"/>
    <tag k="addr:state" v="VT"/>
    <tag k="ref:vcgi:esiteid" v="90679"/>
  </node>
  <node id="-226" visible="true" lat="44.642879371475" lon="-71.890608913986">
    <tag k="addr:city" v="East Haven"/>
    <tag k="addr:housenumber" v="68"/>
    <tag k="addr:street" v="Maple Street"/>
    <tag k="addr:state" v="VT"/>
    <tag k="ref:vcgi:esiteid" v="90680"/>
  </node>
  <node id="-227" visible="true" lat="44.642793438749" lon="-71.88962859557">
    <tag k="addr:city" v="East Haven"/>
    <tag k="addr:housenumber" v="35"/>
    <tag k="addr:street" v="Haven Street"/>
    <tag k="addr:state" v="VT"/>
    <tag k="ref:vcgi:esiteid" v="90681"/>
  </node>
  <node id="-228" visible="true" lat="44.642682517376" lon="-71.890486643764">
    <tag k="addr:city" v="East Haven"/>
    <tag k="addr:housenumber" v="66"/>
    <tag k="addr:street" v="Maple Street"/>
    <tag k="addr:state" v="VT"/>
    <tag k="ref:vcgi:esiteid" v="90682"/>
  </node>
  <node id="-229" visible="true" lat="44.642726498774" lon="-71.890979982061">
    <tag k="addr:city" v="East Haven"/>
    <tag k="addr:housenumber" v="65"/>
    <tag k="addr:street" v="Maple Street"/>
    <tag k="addr:state" v="VT"/>
    <tag k="ref:vcgi:esiteid" v="90683"/>
  </node>
  <node id="-230" visible="true" lat="44.642640402866" lon="-71.889947625739">
    <tag k="addr:city" v="East Haven"/>
    <tag k="addr:housenumber" v="38"/>
    <tag k="addr:street" v="Haven Street"/>
    <tag k="addr:state" v="VT"/>
    <tag k="ref:vcgi:esiteid" v="90684"/>
  </node>
  <node id="-231" visible="true" lat="44.642690186734" lon="-71.887848910041">
    <tag k="addr:city" v="East Haven"/>
    <tag k="addr:housenumber" v="64"/>
    <tag k="addr:street" v="Deths Hill"/>
    <tag k="addr:state" v="VT"/>
    <tag k="ref:vcgi:esiteid" v="90685"/>
  </node>
  <node id="-232" visible="true" lat="44.642617725356" lon="-71.889490822122">
    <tag k="addr:city" v="East Haven"/>
    <tag k="addr:housenumber" v="51"/>
    <tag k="addr:street" v="Haven Street"/>
    <tag k="addr:state" v="VT"/>
    <tag k="ref:vcgi:esiteid" v="90687"/>
  </node>
  <node id="-233" visible="true" lat="44.642449173745" lon="-71.889798291571">
    <tag k="addr:city" v="East Haven"/>
    <tag k="addr:housenumber" v="52"/>
    <tag k="addr:street" v="Haven Street"/>
    <tag k="addr:state" v="VT"/>
    <tag k="ref:vcgi:esiteid" v="90688"/>
  </node>
  <node id="-234" visible="true" lat="44.642426613096" lon="-71.888319805233">
    <tag k="addr:city" v="East Haven"/>
    <tag k="addr:housenumber" v="30"/>
    <tag k="addr:street" v="Deths Hill"/>
    <tag k="addr:state" v="VT"/>
    <tag k="ref:vcgi:esiteid" v="90689"/>
  </node>
  <node id="-235" visible="true" lat="44.642523650083" lon="-71.890813055674">
    <tag k="addr:city" v="East Haven"/>
    <tag k="addr:housenumber" v="45"/>
    <tag k="addr:street" v="Maple Street"/>
    <tag k="addr:state" v="VT"/>
    <tag k="ref:vcgi:esiteid" v="90690"/>
  </node>
  <node id="-236" visible="true" lat="44.642463170264" lon="-71.890340386675">
    <tag k="addr:city" v="East Haven"/>
    <tag k="addr:housenumber" v="34"/>
    <tag k="addr:street" v="Maple Street"/>
    <tag k="addr:state" v="VT"/>
    <tag k="ref:vcgi:esiteid" v="90691"/>
  </node>
  <node id="-237" visible="true" lat="44.642241784717" lon="-71.893334567271">
    <tag k="addr:city" v="East Haven"/>
    <tag k="addr:housenumber" v="252"/>
    <tag k="addr:street" v="Vermont Route 114"/>
    <tag k="addr:state" v="VT"/>
    <tag k="ref:vcgi:esiteid" v="90692"/>
  </node>
  <node id="-238" visible="true" lat="44.642290303287" lon="-71.890649251802">
    <tag k="addr:city" v="East Haven"/>
    <tag k="addr:housenumber" v="31"/>
    <tag k="addr:street" v="Maple Street"/>
    <tag k="addr:state" v="VT"/>
    <tag k="ref:vcgi:esiteid" v="90694"/>
  </node>
  <node id="-239" visible="true" lat="44.64227388973" lon="-71.890178871137">
    <tag k="addr:city" v="East Haven"/>
    <tag k="addr:housenumber" v="20"/>
    <tag k="addr:street" v="Maple Street"/>
    <tag k="addr:state" v="VT"/>
    <tag k="ref:vcgi:esiteid" v="90695"/>
  </node>
  <node id="-240" visible="true" lat="44.642081061446" lon="-71.890501283384">
    <tag k="addr:city" v="East Haven"/>
    <tag k="addr:housenumber" v="17"/>
    <tag k="addr:street" v="Maple Street"/>
    <tag k="addr:state" v="VT"/>
    <tag k="ref:vcgi:esiteid" v="90696"/>
  </node>
  <node id="-241" visible="true" lat="44.641842951246" lon="-71.871107401823">
    <tag k="addr:city" v="East Haven"/>
    <tag k="addr:housenumber" v="190"/>
    <tag k="addr:street" v="George's Boulevard"/>
    <tag k="addr:state" v="VT"/>
    <tag k="ref:vcgi:esiteid" v="90697"/>
  </node>
  <node id="-242" visible="true" lat="44.641946510032" lon="-71.888752826477">
    <tag k="addr:city" v="East Haven"/>
    <tag k="addr:housenumber" v="35"/>
    <tag k="addr:street" v="Rocky Road"/>
    <tag k="addr:state" v="VT"/>
    <tag k="ref:vcgi:esiteid" v="90698"/>
  </node>
  <node id="-243" visible="true" lat="44.64184332502" lon="-71.890160617047">
    <tag k="addr:city" v="East Haven"/>
    <tag k="addr:housenumber" v="212"/>
    <tag k="addr:street" v="School Street"/>
    <tag k="addr:state" v="VT"/>
    <tag k="ref:vcgi:esiteid" v="90699"/>
  </node>
  <node id="-244" visible="true" lat="44.641679292548" lon="-71.891457614655">
    <tag k="addr:city" v="East Haven"/>
    <tag k="addr:housenumber" v="159"/>
    <tag k="addr:street" v="School Street"/>
    <tag k="addr:state" v="VT"/>
    <tag k="ref:vcgi:esiteid" v="90700"/>
  </node>
  <node id="-245" visible="true" lat="44.64155600088" lon="-71.890323254487">
    <tag k="addr:city" v="East Haven"/>
    <tag k="addr:housenumber" v="188"/>
    <tag k="addr:street" v="School Street"/>
    <tag k="addr:state" v="VT"/>
    <tag k="ref:vcgi:esiteid" v="90701"/>
  </node>
  <node id="-246" visible="true" lat="44.641662030337" lon="-71.893330133228">
    <tag k="addr:city" v="East Haven"/>
    <tag k="addr:housenumber" v="23"/>
    <tag k="addr:street" v="School Street"/>
    <tag k="addr:state" v="VT"/>
    <tag k="ref:vcgi:esiteid" v="90702"/>
  </node>
  <node id="-247" visible="true" lat="44.641487094209" lon="-71.894777871212">
    <tag k="addr:city" v="East Haven"/>
    <tag k="addr:housenumber" v="193"/>
    <tag k="addr:street" v="Vermont Route 114"/>
    <tag k="addr:state" v="VT"/>
    <tag k="ref:vcgi:esiteid" v="90703"/>
  </node>
  <node id="-248" visible="true" lat="44.641170572353" lon="-71.893583222288">
    <tag k="addr:city" v="East Haven"/>
    <tag k="addr:housenumber" v="18"/>
    <tag k="addr:street" v="School Street"/>
    <tag k="addr:state" v="VT"/>
    <tag k="ref:vcgi:esiteid" v="90704"/>
  </node>
  <node id="-249" visible="true" lat="44.640820985234" lon="-71.888909395008">
    <tag k="addr:city" v="East Haven"/>
    <tag k="addr:housenumber" v="108"/>
    <tag k="addr:street" v="Rocky Road"/>
    <tag k="addr:state" v="VT"/>
    <tag k="ref:vcgi:esiteid" v="90705"/>
  </node>
  <node id="-250" visible="true" lat="44.643338449264" lon="-71.864733407746">
    <tag k="addr:city" v="East Haven"/>
    <tag k="addr:housenumber" v="349"/>
    <tag k="addr:street" v="George's Boulevard"/>
    <tag k="addr:state" v="VT"/>
    <tag k="ref:vcgi:esiteid" v="90706"/>
  </node>
  <node id="-251" visible="true" lat="44.640273415823" lon="-71.867230409555">
    <tag k="addr:city" v="East Haven"/>
    <tag k="addr:housenumber" v="424"/>
    <tag k="addr:street" v="George's Boulevard"/>
    <tag k="addr:state" v="VT"/>
    <tag k="ref:vcgi:esiteid" v="90707"/>
  </node>
  <node id="-252" visible="true" lat="44.640466218489" lon="-71.894898471785">
    <tag k="addr:city" v="East Haven"/>
    <tag k="addr:housenumber" v="131"/>
    <tag k="addr:street" v="Vermont Route 114"/>
    <tag k="addr:state" v="VT"/>
    <tag k="ref:vcgi:esiteid" v="90708"/>
  </node>
  <node id="-253" visible="true" lat="44.640258387181" lon="-71.891447600164">
    <tag k="addr:city" v="East Haven"/>
    <tag k="addr:housenumber" v="49"/>
    <tag k="addr:street" v="Community Building Road"/>
    <tag k="addr:state" v="VT"/>
    <tag k="ref:vcgi:esiteid" v="90709"/>
  </node>
  <node id="-254" visible="true" lat="44.640180116341" lon="-71.891976413339">
    <tag k="addr:city" v="East Haven"/>
    <tag k="addr:housenumber" v="58"/>
    <tag k="addr:street" v="Community Building Road"/>
    <tag k="addr:state" v="VT"/>
    <tag k="ref:vcgi:esiteid" v="90710"/>
  </node>
  <node id="-255" visible="true" lat="44.64022556202" lon="-71.891262425816">
    <tag k="addr:city" v="East Haven"/>
    <tag k="addr:housenumber" v="55"/>
    <tag k="addr:street" v="Community Building Road"/>
    <tag k="addr:state" v="VT"/>
    <tag k="ref:vcgi:esiteid" v="90711"/>
  </node>
  <node id="-256" visible="true" lat="44.640065202828" lon="-71.875061582477">
    <tag k="addr:city" v="East Haven"/>
    <tag k="addr:housenumber" v="308"/>
    <tag k="addr:street" v="Young's Road"/>
    <tag k="addr:state" v="VT"/>
    <tag k="ref:vcgi:esiteid" v="90712"/>
  </node>
  <node id="-258" visible="true" lat="44.639142530351" lon="-71.874039246142">
    <tag k="addr:city" v="East Haven"/>
    <tag k="addr:housenumber" v="333"/>
    <tag k="addr:street" v="Young's Road"/>
    <tag k="addr:state" v="VT"/>
    <tag k="ref:vcgi:esiteid" v="90714"/>
  </node>
  <node id="-259" visible="true" lat="44.638025433491" lon="-71.891327260904">
    <tag k="addr:city" v="East Haven"/>
    <tag k="addr:housenumber" v="120"/>
    <tag k="addr:street" v="Community Building Road"/>
    <tag k="addr:state" v="VT"/>
    <tag k="ref:vcgi:esiteid" v="90715"/>
  </node>
  <node id="-260" visible="true" lat="44.63920389018" lon="-71.890889526243">
    <tag k="addr:city" v="East Haven"/>
    <tag k="addr:housenumber" v="129"/>
    <tag k="addr:street" v="Community Building Road"/>
    <tag k="addr:state" v="VT"/>
    <tag k="ref:vcgi:esiteid" v="90716"/>
  </node>
  <node id="-261" visible="true" lat="44.63878775201" lon="-71.875084928675">
    <tag k="addr:city" v="East Haven"/>
    <tag k="addr:housenumber" v="384"/>
    <tag k="addr:street" v="Young's Road"/>
    <tag k="addr:state" v="VT"/>
    <tag k="ref:vcgi:esiteid" v="90717"/>
  </node>
  <node id="-262" visible="true" lat="44.637613715251" lon="-71.853139390495">
    <tag k="addr:city" v="East Haven"/>
    <tag k="addr:housenumber" v="581"/>
    <tag k="addr:street" v="George's Boulevard"/>
    <tag k="addr:state" v="VT"/>
    <tag k="ref:vcgi:esiteid" v="90718"/>
  </node>
  <node id="-263" visible="true" lat="44.638295656005" lon="-71.851281209104">
    <tag k="addr:city" v="East Haven"/>
    <tag k="addr:housenumber" v="583"/>
    <tag k="addr:street" v="George's Boulevard"/>
    <tag k="addr:state" v="VT"/>
    <tag k="ref:vcgi:esiteid" v="90719"/>
  </node>
  <node id="-264" visible="true" lat="44.63783012871" lon="-71.874376674773">
    <tag k="addr:city" v="East Haven"/>
    <tag k="addr:housenumber" v="435"/>
    <tag k="addr:street" v="Young's Road"/>
    <tag k="addr:state" v="VT"/>
    <tag k="ref:vcgi:esiteid" v="90720"/>
  </node>
  <node id="-265" visible="true" lat="44.636446033503" lon="-71.874929955727">
    <tag k="addr:city" v="East Haven"/>
    <tag k="addr:housenumber" v="30"/>
    <tag k="addr:street" v="Richard Boulevard"/>
    <tag k="addr:state" v="VT"/>
    <tag k="ref:vcgi:esiteid" v="90721"/>
  </node>
  <node id="-266" visible="true" lat="44.635055238197" lon="-71.871847932679">
    <tag k="addr:city" v="East Haven"/>
    <tag k="addr:housenumber" v="759"/>
    <tag k="addr:street" v="Young's Road"/>
    <tag k="addr:state" v="VT"/>
    <tag k="ref:vcgi:esiteid" v="90722"/>
  </node>
  <node id="-267" visible="true" lat="44.632588867376" lon="-71.857506796874">
    <tag k="addr:city" v="East Haven"/>
    <tag k="addr:housenumber" v="1223"/>
    <tag k="addr:street" v="George's Boulevard"/>
    <tag k="addr:state" v="VT"/>
    <tag k="ref:vcgi:esiteid" v="90723"/>
  </node>
  <node id="-268" visible="true" lat="44.626216319856" lon="-71.83803335121">
    <tag k="addr:city" v="East Haven"/>
    <tag k="addr:housenumber" v="1353"/>
    <tag k="addr:street" v="George's Boulevard"/>
    <tag k="addr:state" v="VT"/>
    <tag k="ref:vcgi:esiteid" v="90724"/>
  </node>
  <node id="-269" visible="true" lat="44.67390204769" lon="-71.84626869697">
    <tag k="addr:city" v="East Haven"/>
    <tag k="addr:housenumber" v="1780"/>
    <tag k="addr:street" v="Lost Nation Road"/>
    <tag k="addr:state" v="VT"/>
    <tag k="ref:vcgi:esiteid" v="90725"/>
  </node>
  <node id="-270" visible="true" lat="44.646142921508" lon="-71.892830475551">
    <tag k="addr:city" v="East Haven"/>
    <tag k="addr:housenumber" v="524"/>
    <tag k="addr:street" v="Vermont Route 114"/>
    <tag k="addr:state" v="VT"/>
    <tag k="ref:vcgi:esiteid" v="90726"/>
  </node>
  <node id="-271" visible="true" lat="44.649073065698" lon="-71.893529674443">
    <tag k="addr:city" v="East Haven"/>
    <tag k="addr:housenumber" v="725"/>
    <tag k="addr:street" v="Vermont Route 114"/>
    <tag k="addr:state" v="VT"/>
    <tag k="ref:vcgi:esiteid" v="90727"/>
  </node>
  <node id="-272" visible="true" lat="44.648568878067" lon="-71.904742546326">
    <tag k="addr:city" v="East Haven"/>
    <tag k="addr:housenumber" v="781"/>
    <tag k="addr:street" v="Walters Farm Road"/>
    <tag k="addr:state" v="VT"/>
    <tag k="ref:vcgi:esiteid" v="90728"/>
  </node>
  <node id="-273" visible="true" lat="44.634828095147" lon="-71.85942177554">
    <tag k="addr:city" v="East Haven"/>
    <tag k="addr:housenumber" v="1027"/>
    <tag k="addr:street" v="George's Boulevard"/>
    <tag k="addr:state" v="VT"/>
    <tag k="ref:vcgi:esiteid" v="90729"/>
  </node>
  <node id="-274" visible="true" lat="44.653001318803" lon="-71.791115784009">
    <tag k="addr:city" v="East Haven"/>
    <tag k="addr:housenumber" v="6074"/>
    <tag k="addr:street" v="Radar Road"/>
    <tag k="addr:state" v="VT"/>
    <tag k="ref:vcgi:esiteid" v="90730"/>
  </node>
  <node id="-275" visible="true" lat="44.663175118629" lon="-71.767884270554">
    <tag k="addr:city" v="East Haven"/>
    <tag k="addr:housenumber" v="8160"/>
    <tag k="addr:street" v="Radar Road"/>
    <tag k="addr:state" v="VT"/>
    <tag k="ref:vcgi:esiteid" v="90731"/>
  </node>
  <node id="-276" visible="true" lat="44.633515840933" lon="-71.813019782446">
    <tag k="addr:city" v="East Haven"/>
    <tag k="addr:housenumber" v="4134"/>
    <tag k="addr:street" v="Radar Road"/>
    <tag k="addr:state" v="VT"/>
    <tag k="ref:vcgi:esiteid" v="90732"/>
  </node>
  <node id="-277" visible="true" lat="44.693564494382" lon="-71.851114500622">
    <tag k="addr:city" v="East Haven"/>
    <tag k="addr:housenumber" v="2575"/>
    <tag k="addr:street" v="Lost Nation Road"/>
    <tag k="addr:state" v="VT"/>
    <tag k="ref:vcgi:esiteid" v="90733"/>
  </node>
  <node id="-278" visible="true" lat="44.659027132641" lon="-71.891331458285">
    <tag k="addr:city" v="East Haven"/>
    <tag k="addr:housenumber" v="1419"/>
    <tag k="addr:street" v="Vermont Route 114"/>
    <tag k="addr:state" v="VT"/>
    <tag k="ref:vcgi:esiteid" v="90734"/>
  </node>
  <node id="-279" visible="true" lat="44.697991772169" lon="-71.8419954793">
    <tag k="addr:city" v="East Haven"/>
    <tag k="addr:housenumber" v="3060"/>
    <tag k="addr:street" v="Lost Nation Road"/>
    <tag k="addr:state" v="VT"/>
    <tag k="ref:vcgi:esiteid" v="90735"/>
  </node>
  <node id="-280" visible="true" lat="44.680675899335" lon="-71.853335200185">
    <tag k="addr:city" v="East Haven"/>
    <tag k="addr:housenumber" v="1768"/>
    <tag k="addr:street" v="Lost Nation Road"/>
    <tag k="addr:state" v="VT"/>
    <tag k="ref:vcgi:esiteid" v="90736"/>
  </node>
  <node id="-281" visible="true" lat="44.654804495018" lon="-71.88779789794">
    <tag k="addr:city" v="East Haven"/>
    <tag k="addr:housenumber" v="270"/>
    <tag k="addr:street" v="River Road"/>
    <tag k="addr:state" v="VT"/>
    <tag k="ref:vcgi:esiteid" v="90737"/>
  </node>
  <node id="-282" visible="true" lat="44.648796570815" lon="-71.896977988206">
    <tag k="addr:city" v="East Haven"/>
    <tag k="addr:housenumber" v="300"/>
    <tag k="addr:street" v="Walters Farm Road"/>
    <tag k="addr:state" v="VT"/>
    <tag k="ref:vcgi:esiteid" v="90738"/>
  </node>
  <node id="-283" visible="true" lat="44.64997576945" lon="-71.898427690397">
    <tag k="addr:city" v="East Haven"/>
    <tag k="addr:housenumber" v="328"/>
    <tag k="addr:street" v="Walters Farm Road"/>
    <tag k="addr:state" v="VT"/>
    <tag k="ref:vcgi:esiteid" v="90739"/>
  </node>
  <node id="-284" visible="true" lat="44.651216770822" lon="-71.900047745924">
    <tag k="addr:city" v="East Haven"/>
    <tag k="addr:housenumber" v="494"/>
    <tag k="addr:street" v="Walters Farm Road"/>
    <tag k="addr:state" v="VT"/>
    <tag k="ref:vcgi:esiteid" v="90740"/>
  </node>
  <node id="-285" visible="true" lat="44.639489624579" lon="-71.866452959293">
    <tag k="addr:city" v="East Haven"/>
    <tag k="addr:housenumber" v="470"/>
    <tag k="addr:street" v="George's Boulevard"/>
    <tag k="addr:state" v="VT"/>
    <tag k="ref:vcgi:esiteid" v="90742"/>
  </node>
  <node id="-286" visible="true" lat="44.636512044143" lon="-71.875347989028">
    <tag k="addr:city" v="East Haven"/>
    <tag k="addr:housenumber" v="32"/>
    <tag k="addr:street" v="Richard Boulevard"/>
    <tag k="addr:state" v="VT"/>
    <tag k="ref:vcgi:esiteid" v="90743"/>
  </node>
  <node id="-287" visible="true" lat="44.635547340532" lon="-71.876460236378">
    <tag k="addr:city" v="East Haven"/>
    <tag k="addr:housenumber" v="126"/>
    <tag k="addr:street" v="Richard Boulevard"/>
    <tag k="addr:state" v="VT"/>
    <tag k="ref:vcgi:esiteid" v="90744"/>
  </node>
  <node id="-288" visible="true" lat="44.63470078886" lon="-71.877363230804">
    <tag k="addr:city" v="East Haven"/>
    <tag k="addr:housenumber" v="174"/>
    <tag k="addr:street" v="Richard Boulevard"/>
    <tag k="addr:state" v="VT"/>
    <tag k="ref:vcgi:esiteid" v="90745"/>
  </node>
  <node id="-289" visible="true" lat="44.631995418194" lon="-71.875485217107">
    <tag k="addr:city" v="East Haven"/>
    <tag k="addr:housenumber" v="366"/>
    <tag k="addr:street" v="Richard Boulevard"/>
    <tag k="addr:state" v="VT"/>
    <tag k="ref:vcgi:esiteid" v="90746"/>
  </node>
  <node id="-290" visible="true" lat="44.633879269652" lon="-71.87638791271">
    <tag k="addr:city" v="East Haven"/>
    <tag k="addr:housenumber" v="256"/>
    <tag k="addr:street" v="Richard Boulevard"/>
    <tag k="addr:state" v="VT"/>
    <tag k="ref:vcgi:esiteid" v="90747"/>
  </node>
  <node id="-291" visible="true" lat="44.630548915976" lon="-71.876382434427">
    <tag k="addr:city" v="East Haven"/>
    <tag k="addr:housenumber" v="644"/>
    <tag k="addr:street" v="Richard Boulevard"/>
    <tag k="addr:state" v="VT"/>
    <tag k="ref:vcgi:esiteid" v="90748"/>
  </node>
  <node id="-292" visible="true" lat="44.634260526628" lon="-71.869014649604">
    <tag k="addr:city" v="East Haven"/>
    <tag k="addr:housenumber" v="49"/>
    <tag k="addr:street" v="Morrissey Place"/>
    <tag k="addr:state" v="VT"/>
    <tag k="ref:vcgi:esiteid" v="90749"/>
  </node>
  <node id="-293" visible="true" lat="44.633741828391" lon="-71.868117097958">
    <tag k="addr:city" v="East Haven"/>
    <tag k="addr:housenumber" v="89"/>
    <tag k="addr:street" v="Morrissey Place"/>
    <tag k="addr:state" v="VT"/>
    <tag k="ref:vcgi:esiteid" v="90750"/>
  </node>
  <node id="-294" visible="true" lat="44.633763134655" lon="-71.867029996856">
    <tag k="addr:city" v="East Haven"/>
    <tag k="addr:housenumber" v="91"/>
    <tag k="addr:street" v="Morrissey Place"/>
    <tag k="addr:state" v="VT"/>
    <tag k="ref:vcgi:esiteid" v="90751"/>
  </node>
  <node id="-295" visible="true" lat="44.630491120461" lon="-71.863399500499">
    <tag k="addr:city" v="East Haven"/>
    <tag k="addr:housenumber" v="449"/>
    <tag k="addr:street" v="Morrissey Place"/>
    <tag k="addr:state" v="VT"/>
    <tag k="ref:vcgi:esiteid" v="90752"/>
  </node>
  <node id="-297" visible="true" lat="44.637718960938" lon="-71.861782032359">
    <tag k="addr:city" v="East Haven"/>
    <tag k="addr:housenumber" v="757"/>
    <tag k="addr:street" v="George's Boulevard"/>
    <tag k="addr:state" v="VT"/>
    <tag k="ref:vcgi:esiteid" v="90754"/>
  </node>
  <node id="-298" visible="true" lat="44.625721991129" lon="-71.853077996063">
    <tag k="addr:city" v="East Haven"/>
    <tag k="addr:housenumber" v="1351"/>
    <tag k="addr:street" v="George's Boulevard"/>
    <tag k="addr:state" v="VT"/>
    <tag k="ref:vcgi:esiteid" v="90755"/>
  </node>
  <node id="-299" visible="true" lat="44.624539872014" lon="-71.807270711595">
    <tag k="addr:city" v="East Haven"/>
    <tag k="addr:housenumber" v="732"/>
    <tag k="addr:street" v="John Irwin Road"/>
    <tag k="addr:state" v="VT"/>
    <tag k="ref:vcgi:esiteid" v="90756"/>
  </node>
  <node id="-300" visible="true" lat="44.642754232754" lon="-71.849902443258">
    <tag k="addr:city" v="East Haven"/>
    <tag k="addr:housenumber" v="1500"/>
    <tag k="addr:street" v="Radar Road"/>
    <tag k="addr:state" v="VT"/>
    <tag k="ref:vcgi:esiteid" v="90757"/>
  </node>
  <node id="-301" visible="true" lat="44.665084168306" lon="-71.89006955771">
    <tag k="addr:city" v="East Haven"/>
    <tag k="addr:housenumber" v="88"/>
    <tag k="addr:street" v="Bean Brook Road"/>
    <tag k="addr:state" v="VT"/>
    <tag k="ref:vcgi:esiteid" v="90758"/>
  </node>
  <node id="-302" visible="true" lat="44.676088109353" lon="-71.873864180704">
    <tag k="addr:city" v="East Haven"/>
    <tag k="addr:housenumber" v="600"/>
    <tag k="addr:street" v="Lost Nation Road"/>
    <tag k="addr:state" v="VT"/>
    <tag k="ref:vcgi:esiteid" v="90759"/>
  </node>
  <node id="-303" visible="true" lat="44.675954290352" lon="-71.875973724659">
    <tag k="addr:city" v="East Haven"/>
    <tag k="addr:housenumber" v="499"/>
    <tag k="addr:street" v="Lost Nation Road"/>
    <tag k="addr:state" v="VT"/>
    <tag k="ref:vcgi:esiteid" v="90760"/>
  </node>
  <node id="-304" visible="true" lat="44.672954747632" lon="-71.881716098739">
    <tag k="addr:city" v="East Haven"/>
    <tag k="addr:housenumber" v="101"/>
    <tag k="addr:street" v="Lost Nation Road"/>
    <tag k="addr:state" v="VT"/>
    <tag k="ref:vcgi:esiteid" v="90761"/>
  </node>
  <node id="-305" visible="true" lat="44.643827276162" lon="-71.878130567538">
    <tag k="addr:city" v="East Haven"/>
    <tag k="addr:housenumber" v="715"/>
    <tag k="addr:street" v="Mountain Road"/>
    <tag k="addr:state" v="VT"/>
    <tag k="ref:vcgi:esiteid" v="90763"/>
  </node>
  <node id="-306" visible="true" lat="44.631828191947" lon="-71.874099090482">
    <tag k="addr:city" v="East Haven"/>
    <tag k="addr:housenumber" v="371"/>
    <tag k="addr:street" v="Richard Boulevard"/>
    <tag k="addr:state" v="VT"/>
    <tag k="ref:vcgi:esiteid" v="90764"/>
  </node>
  <node id="-307" visible="true" lat="44.668080942403" lon="-71.886086656262">
    <tag k="addr:city" v="East Haven"/>
    <tag k="addr:housenumber" v="2040"/>
    <tag k="addr:street" v="Vermont Route 114"/>
    <tag k="addr:state" v="VT"/>
    <tag k="ref:vcgi:esiteid" v="313401"/>
  </node>
  <node id="-308" visible="true" lat="44.651479857105" lon="-71.889261523008">
    <tag k="addr:city" v="East Haven"/>
    <tag k="addr:housenumber" v="936"/>
    <tag k="addr:street" v="Vermont Route 114"/>
    <tag k="addr:state" v="VT"/>
    <tag k="ref:vcgi:esiteid" v="313402"/>
  </node>
  <node id="-309" visible="true" lat="44.682951854311" lon="-71.854755372789">
    <tag k="addr:city" v="East Haven"/>
    <tag k="addr:housenumber" v="1767"/>
    <tag k="addr:street" v="Lost Nation Road"/>
    <tag k="addr:state" v="VT"/>
    <tag k="ref:vcgi:esiteid" v="313403"/>
  </node>
  <node id="-310" visible="true" lat="44.668280976658" lon="-71.87863848909">
    <tag k="addr:city" v="East Haven"/>
    <tag k="addr:housenumber" v="56"/>
    <tag k="addr:street" v="Simpson Road"/>
    <tag k="addr:state" v="VT"/>
    <tag k="ref:vcgi:esiteid" v="313404"/>
  </node>
  <node id="-311" visible="true" lat="44.634788500559" lon="-71.873401800048">
    <tag k="addr:city" v="East Haven"/>
    <tag k="addr:housenumber" v="758"/>
    <tag k="addr:street" v="Young's Road"/>
    <tag k="addr:state" v="VT"/>
    <tag k="ref:vcgi:esiteid" v="452605"/>
  </node>
  <node id="-312" visible="true" lat="44.664510290937" lon="-71.890109642278">
    <tag k="addr:city" v="East Haven"/>
    <tag k="addr:housenumber" v="53"/>
    <tag k="addr:street" v="Bean Brook Road"/>
    <tag k="addr:state" v="VT"/>
    <tag k="ref:vcgi:esiteid" v="452606"/>
  </node>
  <node id="-315" visible="true" lat="44.635022570945" lon="-71.875693767954">
    <tag k="addr:city" v="East Haven"/>
    <tag k="addr:housenumber" v="107"/>
    <tag k="addr:street" v="Richard Boulevard"/>
    <tag k="addr:state" v="VT"/>
    <tag k="ref:vcgi:esiteid" v="617492"/>
  </node>
  <node id="-316" visible="true" lat="44.632473601325" lon="-71.87607555811">
    <tag k="addr:city" v="East Haven"/>
    <tag k="addr:housenumber" v="330"/>
    <tag k="addr:street" v="Richard Boulevard"/>
    <tag k="addr:state" v="VT"/>
    <tag k="ref:vcgi:esiteid" v="617493"/>
  </node>
  <node id="-317" visible="true" lat="44.694656807181" lon="-71.835755275">
    <tag k="addr:city" v="East Haven"/>
    <tag k="addr:housenumber" v="383"/>
    <tag k="addr:street" v="Labay Place"/>
    <tag k="addr:state" v="VT"/>
    <tag k="ref:vcgi:esiteid" v="618123"/>
  </node>
  <node id="-318" visible="true" lat="44.67498391783" lon="-71.873846852739">
    <tag k="addr:city" v="East Haven"/>
    <tag k="addr:housenumber" v="532"/>
    <tag k="addr:street" v="Lost Nation Road"/>
    <tag k="addr:state" v="VT"/>
    <tag k="ref:vcgi:esiteid" v="618124"/>
  </node>
  <node id="-319" visible="true" lat="44.645929470828" lon="-71.891773198041">
    <tag k="addr:city" v="East Haven"/>
    <tag k="addr:housenumber" v="493"/>
    <tag k="addr:street" v="School Street"/>
    <tag k="addr:state" v="VT"/>
    <tag k="ref:vcgi:esiteid" v="752354"/>
  </node>
  <node id="-320" visible="true" lat="44.646131226298" lon="-71.891654352683">
    <tag k="addr:city" v="East Haven"/>
    <tag k="addr:housenumber" v="497"/>
    <tag k="addr:street" v="School Street"/>
    <tag k="addr:state" v="VT"/>
    <tag k="ref:vcgi:esiteid" v="752355"/>
  </node>
  <node id="-322" visible="true" lat="44.643991691754" lon="-71.882297316135">
    <tag k="addr:city" v="East Haven"/>
    <tag k="addr:housenumber" v="543"/>
    <tag k="addr:street" v="Mountain Road"/>
    <tag k="addr:state" v="VT"/>
    <tag k="ref:vcgi:esiteid" v="763004"/>
  </node>
  <node id="-323" visible="true" lat="44.661710002007" lon="-71.891153280237">
    <tag k="addr:city" v="East Haven"/>
    <tag k="addr:housenumber" v="1579"/>
    <tag k="addr:street" v="Vermont Route 114"/>
    <tag k="addr:state" v="VT"/>
    <tag k="ref:vcgi:esiteid" v="770064"/>
  </node>
  <node id="-324" visible="true" lat="44.658614525104" lon="-71.869778285881">
    <tag k="addr:city" v="East Haven"/>
    <tag k="addr:housenumber" v="964"/>
    <tag k="addr:street" v="Moulthrop Road"/>
    <tag k="addr:state" v="VT"/>
    <tag k="ref:vcgi:esiteid" v="770204"/>
  </node>
  <node id="-325" visible="true" lat="44.643355673619" lon="-71.896676532751">
    <tag k="addr:city" v="East Haven"/>
    <tag k="addr:housenumber" v="315"/>
    <tag k="addr:street" v="Vermont Route 114"/>
    <tag k="addr:state" v="VT"/>
    <tag k="ref:vcgi:esiteid" v="770205"/>
  </node>
  <node id="-326" visible="true" lat="44.638616669732" lon="-71.891873162367">
    <tag k="addr:city" v="East Haven"/>
    <tag k="addr:housenumber" v="112"/>
    <tag k="addr:street" v="Community Building Road"/>
    <tag k="addr:state" v="VT"/>
    <tag k="ref:vcgi:esiteid" v="770206"/>
  </node>
  <node id="-327" visible="true" lat="44.644545949159" lon="-71.888712866211">
    <tag k="addr:city" v="East Haven"/>
    <tag k="addr:housenumber" v="88"/>
    <tag k="addr:street" v="Rubys Road"/>
    <tag k="addr:state" v="VT"/>
    <tag k="ref:vcgi:esiteid" v="770207"/>
  </node>
  <node id="-328" visible="true" lat="44.639745477324" lon="-71.892461139882">
    <tag k="addr:city" v="East Haven"/>
    <tag k="addr:housenumber" v="70"/>
    <tag k="addr:street" v="Community Building Road"/>
    <tag k="addr:state" v="VT"/>
    <tag k="ref:vcgi:esiteid" v="1050760"/>
  </node>
</osm>
