<?xml version="1.0" encoding="UTF-8"?>
<osm version="0.6" generator="JOSM" upload="false">
  <node id="-103" visible="true" lat="44.550645135658" lon="-72.534453557747">
    <!-- offset: "1255 Richard Woolcutt Road, Wolcott, VT" Significant offset - 246.1m -->
    <tag k="addr:city" v="Wolcott"/>
    <tag k="addr:housenumber" v="1255"/>
    <tag k="addr:street" v="Richard Woolcutt Road"/>
    <tag k="addr:state" v="VT"/>
    <tag k="ref:vcgi:esiteid" v="92608"/>
  </node>
  <node id="-104" visible="true" lat="44.550896126614" lon="-72.535814787058">
    <!-- offset: "1331 Richard Woolcutt Road, Wolcott, VT" Significant offset - 269.8m -->
    <tag k="addr:city" v="Wolcott"/>
    <tag k="addr:housenumber" v="1331"/>
    <tag k="addr:street" v="Richard Woolcutt Road"/>
    <tag k="addr:state" v="VT"/>
    <tag k="ref:vcgi:esiteid" v="92609"/>
  </node>
  <node id="-536" visible="true" lat="44.551409970681" lon="-72.536655823285">
    <!-- offset: "1369 Richard Woolcutt Road, Wolcott, VT" Significant offset - 242.1m -->
    <tag k="addr:city" v="Wolcott"/>
    <tag k="addr:housenumber" v="1369"/>
    <tag k="addr:street" v="Richard Woolcutt Road"/>
    <tag k="addr:state" v="VT"/>
    <tag k="ref:vcgi:esiteid" v="93046"/>
  </node>
  <node id="-660" visible="true" lat="44.518729427052" lon="-72.449167727466">
    <!-- offset: "870 Gates Farm Road, Wolcott, VT" Significant offset - 372.8m -->
    <tag k="addr:city" v="Wolcott"/>
    <tag k="addr:housenumber" v="870"/>
    <tag k="addr:street" v="Gates Farm Road"/>
    <tag k="addr:state" v="VT"/>
    <tag k="ref:vcgi:esiteid" v="454359"/>
  </node>
</osm>
