<?xml version="1.0" encoding="UTF-8"?>
<osm version="0.6" generator="JOSM" upload="false">
  <node id="-661" visible="true" lat="44.519487931547" lon="-72.449331803431">
    <tag k="addr:city" v="Wolcott"/>
    <tag k="addr:housenumber" v="900"/>
    <tag k="addr:street" v="Gates Farm Road"/>
    <tag k="addr:state" v="VT"/>
    <tag k="ref:vcgi:esiteid" v="454360"/>
  </node>
  <node id="-697" visible="true" lat="44.550882811622" lon="-72.541314189853">
    <tag k="addr:city" v="Morrisville"/>
    <tag k="addr:housenumber" v="48"/>
    <tag k="addr:street" v="Vermont Route 12"/>
    <tag k="addr:state" v="VT"/>
    <tag k="ref:vcgi:esiteid" v="753149"/>
  </node>
</osm>
