<?xml version="1.0" encoding="UTF-8"?>
<osm version="0.6" generator="JOSM" upload="false">
  <node id="-297" visible="true" lat="44.909883042972" lon="-72.798303029011">
    <tag k="addr:city" v="Enosburg Falls"/>
    <tag k="addr:housenumber" v="68"/>
    <tag k="addr:street" v="East Street"/>
    <tag k="addr:state" v="VT"/>
    <tag k="ref:vcgi:esiteid" v="93349"/>
  </node>
  <node id="-379" visible="true" lat="44.908512590226" lon="-72.803313469929">
    <tag k="addr:city" v="Enosburg Falls"/>
    <tag k="addr:housenumber" v="57"/>
    <tag k="addr:street" v="Depot Street"/>
    <tag k="addr:state" v="VT"/>
    <tag k="ref:vcgi:esiteid" v="93439"/>
  </node>
  <node id="-479" visible="true" lat="44.90738964249" lon="-72.804758456554">
    <tag k="addr:city" v="Enosburg Falls"/>
    <tag k="addr:housenumber" v="342"/>
    <tag k="addr:street" v="Main Street"/>
    <tag k="addr:state" v="VT"/>
    <tag k="ref:vcgi:esiteid" v="93549"/>
  </node>
  <node id="-502" visible="true" lat="44.907192314174" lon="-72.80543484952">
    <tag k="addr:city" v="Enosburg Falls"/>
    <tag k="addr:housenumber" v="303"/>
    <tag k="addr:street" v="Main Street"/>
    <tag k="addr:state" v="VT"/>
    <tag k="ref:vcgi:esiteid" v="93579"/>
  </node>
  <node id="-527" visible="true" lat="44.906479568015" lon="-72.801453395046">
    <tag k="addr:city" v="Enosburg Falls"/>
    <tag k="addr:housenumber" v="184"/>
    <tag k="addr:street" v="Missisquoi Street"/>
    <tag k="addr:state" v="VT"/>
    <tag k="ref:vcgi:esiteid" v="93610"/>
  </node>
  <node id="-537" visible="true" lat="44.90632011405" lon="-72.805909538692">
    <tag k="addr:city" v="Enosburg Falls"/>
    <tag k="addr:housenumber" v="249"/>
    <tag k="addr:street" v="Main Street"/>
    <tag k="addr:state" v="VT"/>
    <tag k="ref:vcgi:esiteid" v="93620"/>
  </node>
  <node id="-541" visible="true" lat="44.906190278451" lon="-72.806349335967">
    <tag k="addr:city" v="Enosburg Falls"/>
    <tag k="addr:housenumber" v="241"/>
    <tag k="addr:street" v="Main Street"/>
    <tag k="addr:state" v="VT"/>
    <tag k="ref:vcgi:esiteid" v="93624"/>
  </node>
  <node id="-543" visible="true" lat="44.906088615222" lon="-72.805954654723">
    <tag k="addr:city" v="Enosburg Falls"/>
    <tag k="addr:housenumber" v="239"/>
    <tag k="addr:street" v="Main Street"/>
    <tag k="addr:state" v="VT"/>
    <tag k="ref:vcgi:esiteid" v="93626"/>
  </node>
  <node id="-545" visible="true" lat="44.906171342235" lon="-72.804925345098">
    <tag k="addr:city" v="Enosburg Falls"/>
    <tag k="addr:housenumber" v="34"/>
    <tag k="addr:street" v="School Street"/>
    <tag k="addr:state" v="VT"/>
    <tag k="ref:vcgi:esiteid" v="93628"/>
  </node>
  <node id="-561" visible="true" lat="44.905797481334" lon="-72.80660973651">
    <tag k="addr:city" v="Enosburg Falls"/>
    <tag k="addr:housenumber" v="221"/>
    <tag k="addr:street" v="Main Street"/>
    <tag k="addr:state" v="VT"/>
    <tag k="ref:vcgi:esiteid" v="93647"/>
  </node>
  <node id="-600" visible="true" lat="44.905192627936" lon="-72.803844451405">
    <tag k="addr:city" v="Enosburg Falls"/>
    <tag k="addr:housenumber" v="65"/>
    <tag k="addr:street" v="Dickinson Avenue"/>
    <tag k="addr:state" v="VT"/>
    <tag k="ref:vcgi:esiteid" v="93693"/>
  </node>
  <node id="-603" visible="true" lat="44.904956447138" lon="-72.806507563016">
    <tag k="addr:city" v="Enosburg Falls"/>
    <tag k="addr:housenumber" v="153"/>
    <tag k="addr:street" v="Main Street"/>
    <tag k="addr:state" v="VT"/>
    <tag k="ref:vcgi:esiteid" v="93696"/>
  </node>
  <node id="-635" visible="true" lat="44.904347960458" lon="-72.801366144454">
    <tag k="addr:city" v="Enosburg Falls"/>
    <tag k="addr:housenumber" v="303"/>
    <tag k="addr:street" v="Dickinson Avenue"/>
    <tag k="addr:state" v="VT"/>
    <tag k="ref:vcgi:esiteid" v="93732"/>
  </node>
  <node id="-680" visible="true" lat="44.902925032882" lon="-72.807954215207">
    <tag k="addr:city" v="Enosburg Falls"/>
    <tag k="addr:housenumber" v="16"/>
    <tag k="addr:street" v="Village Drive"/>
    <tag k="addr:state" v="VT"/>
    <tag k="ref:vcgi:esiteid" v="93782"/>
  </node>
  <node id="-1110" visible="true" lat="44.914002369143" lon="-72.796718708256">
    <tag k="addr:city" v="Enosburg Falls"/>
    <tag k="addr:housenumber" v="49"/>
    <tag k="addr:street" v="Sampsonville Road"/>
    <tag k="addr:state" v="VT"/>
    <tag k="ref:vcgi:esiteid" v="94220"/>
  </node>
  <node id="-1292" visible="true" lat="44.907648629494" lon="-72.805167270565">
    <tag k="addr:city" v="Enosburg Falls"/>
    <tag k="addr:housenumber" v="355"/>
    <tag k="addr:street" v="Main Street"/>
    <tag k="addr:state" v="VT"/>
    <tag k="ref:vcgi:esiteid" v="326401"/>
  </node>
</osm>
