<?xml version="1.0" encoding="UTF-8"?>
<osm version="0.6" generator="JOSM" upload="false">
  <node id="-750" visible="true" lat="44.51704515477" lon="-73.061451284952">
    <!-- offset: "16 Clover Drive, Essex Junction, VT" Significant offset - 189.2m -->
    <tag k="addr:city" v="Essex Junction"/>
    <tag k="addr:housenumber" v="16"/>
    <tag k="addr:street" v="Clover Drive"/>
    <tag k="addr:state" v="VT"/>
    <tag k="ref:vcgi:esiteid" v="95061"/>
  </node>
  <node id="-762" visible="true" lat="44.516844129812" lon="-73.061866663762">
    <!-- offset: "16 Clover Drive, Essex Junction, VT" Significant offset - 168.5m -->
    <tag k="addr:city" v="Essex Junction"/>
    <tag k="addr:housenumber" v="16"/>
    <tag k="addr:street" v="Clover Drive"/>
    <tag k="addr:state" v="VT"/>
    <tag k="ref:vcgi:esiteid" v="95074"/>
  </node>
  <node id="-768" visible="true" lat="44.516610277921" lon="-73.061135658734">
    <!-- offset: "16 Clover Drive, Essex Junction, VT" Significant offset - 144.6m -->
    <tag k="addr:city" v="Essex Junction"/>
    <tag k="addr:housenumber" v="16"/>
    <tag k="addr:street" v="Clover Drive"/>
    <tag k="addr:state" v="VT"/>
    <tag k="ref:vcgi:esiteid" v="95082"/>
  </node>
  <node id="-773" visible="true" lat="44.516617058604" lon="-73.062198772226">
    <!-- offset: "16 Clover Drive, Essex Junction, VT" Significant offset - 150.4m -->
    <tag k="addr:city" v="Essex Junction"/>
    <tag k="addr:housenumber" v="16"/>
    <tag k="addr:street" v="Clover Drive"/>
    <tag k="addr:state" v="VT"/>
    <tag k="ref:vcgi:esiteid" v="95089"/>
  </node>
  <node id="-799" visible="true" lat="44.516244438693" lon="-73.061200102192">
    <!-- offset: "16 Clover Drive, Essex Junction, VT" Significant offset - 103.9m -->
    <tag k="addr:city" v="Essex Junction"/>
    <tag k="addr:housenumber" v="16"/>
    <tag k="addr:street" v="Clover Drive"/>
    <tag k="addr:state" v="VT"/>
    <tag k="ref:vcgi:esiteid" v="95124"/>
  </node>
  <node id="-1457" visible="true" lat="44.507401197431" lon="-73.082467588998">
    <!-- offset: "21 Essex Way, Essex Junction, VT" Significant offset - 147.3m -->
    <tag k="addr:city" v="Essex Junction"/>
    <tag k="addr:housenumber" v="21"/>
    <tag k="addr:street" v="Essex Way"/>
    <tag k="addr:state" v="VT"/>
    <tag k="ref:vcgi:esiteid" v="95933"/>
  </node>
  <node id="-1556" visible="true" lat="44.506190441876" lon="-73.133715077573">
    <!-- offset: "1 Market Place, Essex Junction, VT" Significant offset - 105.6m -->
    <tag k="addr:city" v="Essex Junction"/>
    <tag k="addr:housenumber" v="1"/>
    <tag k="addr:street" v="Market Place"/>
    <tag k="addr:state" v="VT"/>
    <tag k="ref:vcgi:esiteid" v="96055"/>
  </node>
  <node id="-2969" visible="true" lat="44.507354137995" lon="-73.133846259983">
    <!-- offset: "1 Market Place, Essex Junction, VT" Significant offset - 127.2m -->
    <tag k="addr:city" v="Essex Junction"/>
    <tag k="addr:housenumber" v="1"/>
    <tag k="addr:street" v="Market Place"/>
    <tag k="addr:state" v="VT"/>
    <tag k="ref:vcgi:esiteid" v="100661"/>
  </node>
  <node id="-2970" visible="true" lat="44.506810568546" lon="-73.133924262613">
    <!-- offset: "1 Market Place, Essex Junction, VT" Significant offset - 109.1m -->
    <tag k="addr:city" v="Essex Junction"/>
    <tag k="addr:housenumber" v="1"/>
    <tag k="addr:street" v="Market Place"/>
    <tag k="addr:state" v="VT"/>
    <tag k="ref:vcgi:esiteid" v="100662"/>
  </node>
</osm>
