<?xml version="1.0" encoding="UTF-8"?>
<osm version="0.6" generator="JOSM" upload="false">
  <node id="-767" visible="true" lat="43.906899492874" lon="-72.209814936383">
    <!-- duplicates-in-different-towns: "363 Blood Brook Road, Fairlee, VT"  ignoring town mismatch for duplicate housenumber/street when matching to esiteid 279011: "363 Blood Brook Road, , VT" -->
    <tag k="addr:city" v="Fairlee"/>
    <tag k="addr:housenumber" v="363"/>
    <tag k="addr:street" v="Blood Brook Road"/>
    <tag k="addr:state" v="VT"/>
    <tag k="ref:vcgi:esiteid" v="446370"/>
  </node>
</osm>
