<?xml version="1.0" encoding="UTF-8"?>
<osm version="0.6" generator="JOSM" upload="false">
  <node id="-182" visible="true" lat="44.862150893177" lon="-72.896743866832">
    <!-- duplicates-in-different-towns: "982 Tiffany Road, Enosburg Falls, VT"  ignoring town mismatch for duplicate housenumber/street when matching to esiteid 333405: "982 Tiffany Road, , VT" -->
    <tag k="addr:city" v="Enosburg Falls"/>
    <tag k="addr:housenumber" v="982"/>
    <tag k="addr:street" v="Tiffany Road"/>
    <tag k="addr:state" v="VT"/>
    <tag k="ref:vcgi:esiteid" v="104548"/>
  </node>
  <node id="-223" visible="true" lat="44.855236511933" lon="-72.965562374123">
    <!-- duplicates-in-different-towns: "1020 Pond Road, Fairfield, VT"  ignoring town mismatch for duplicate housenumber/street when matching to esiteid 333398: "1020 Pond Road, , VT" -->
    <tag k="addr:city" v="Fairfield"/>
    <tag k="addr:housenumber" v="1020"/>
    <tag k="addr:street" v="Pond Road"/>
    <tag k="addr:state" v="VT"/>
    <tag k="ref:vcgi:esiteid" v="104589"/>
  </node>
  <node id="-230" visible="true" lat="44.854809264258" lon="-72.957086114017">
    <!-- duplicates-in-different-towns: "606 Pond Road, Fairfield, VT"  ignoring town mismatch for duplicate housenumber/street when matching to esiteid 333399: "606 Pond Road, , VT" -->
    <tag k="addr:city" v="Fairfield"/>
    <tag k="addr:housenumber" v="606"/>
    <tag k="addr:street" v="Pond Road"/>
    <tag k="addr:state" v="VT"/>
    <tag k="ref:vcgi:esiteid" v="104596"/>
  </node>
  <node id="-259" visible="true" lat="44.851879748803" lon="-72.930558839675">
    <!-- duplicates-in-different-towns: "645 Pumpkin Village Road, Fairfield, VT"  ignoring town mismatch for duplicate housenumber/street when matching to esiteid 333404: "645 Pumpkin Village Road, , VT" -->
    <tag k="addr:city" v="Fairfield"/>
    <tag k="addr:housenumber" v="645"/>
    <tag k="addr:street" v="Pumpkin Village Road"/>
    <tag k="addr:state" v="VT"/>
    <tag k="ref:vcgi:esiteid" v="104625"/>
  </node>
  <node id="-284" visible="true" lat="44.849666064113" lon="-72.943459128058">
    <!-- duplicates-in-different-towns: "3419 North Road, Fairfield, VT"  ignoring town mismatch for duplicate housenumber/street when matching to esiteid 333401: "3419 North Road, , VT" -->
    <tag k="addr:city" v="Fairfield"/>
    <tag k="addr:housenumber" v="3419"/>
    <tag k="addr:street" v="North Road"/>
    <tag k="addr:state" v="VT"/>
    <tag k="ref:vcgi:esiteid" v="104652"/>
  </node>
  <node id="-335" visible="true" lat="44.840365829005" lon="-72.964813811626">
    <!-- duplicates-in-different-towns: "1272 Menard Road, Fairfield, VT"  ignoring town mismatch for duplicate housenumber/street when matching to esiteid 333407: "1272 Menard Road, , VT" -->
    <tag k="addr:city" v="Fairfield"/>
    <tag k="addr:housenumber" v="1272"/>
    <tag k="addr:street" v="Menard Road"/>
    <tag k="addr:state" v="VT"/>
    <tag k="ref:vcgi:esiteid" v="104705"/>
  </node>
  <node id="-342" visible="true" lat="44.837813796824" lon="-72.940392110545">
    <!-- duplicates-in-different-towns: "2584 North Road, Fairfield, VT"  ignoring town mismatch for duplicate housenumber/street when matching to esiteid 333409: "2584 North Road, , VT" -->
    <tag k="addr:city" v="Fairfield"/>
    <tag k="addr:housenumber" v="2584"/>
    <tag k="addr:street" v="North Road"/>
    <tag k="addr:state" v="VT"/>
    <tag k="ref:vcgi:esiteid" v="104712"/>
  </node>
  <node id="-348" visible="true" lat="44.836971738025" lon="-72.990609683832">
    <!-- duplicates-in-different-towns: "1733 Reynolds Road, Fairfield, VT"  ignoring town mismatch for duplicate housenumber/street when matching to esiteid 333406: "1733 Reynolds Road, , VT" -->
    <tag k="addr:city" v="Fairfield"/>
    <tag k="addr:housenumber" v="1733"/>
    <tag k="addr:street" v="Reynolds Road"/>
    <tag k="addr:state" v="VT"/>
    <tag k="ref:vcgi:esiteid" v="104718"/>
  </node>
  <node id="-433" visible="true" lat="44.81626516764" lon="-72.927375824105">
    <!-- duplicates-in-different-towns: "750 Chester A Arthur Road, Fairfield, VT"  ignoring town mismatch for duplicate housenumber/street when matching to esiteid 333416: "750 Chester A Arthur Road, , VT" -->
    <tag k="addr:city" v="Fairfield"/>
    <tag k="addr:housenumber" v="750"/>
    <tag k="addr:street" v="Chester A Arthur Road"/>
    <tag k="addr:state" v="VT"/>
    <tag k="ref:vcgi:esiteid" v="104807"/>
  </node>
  <node id="-444" visible="true" lat="44.811585903263" lon="-72.880937021828">
    <!-- duplicates-in-different-towns: "1332 Shenang Road, Enosburg Falls, VT"  ignoring town mismatch for duplicate housenumber/street when matching to esiteid 333418: "1332 Shenang Road, , VT" -->
    <tag k="addr:city" v="Enosburg Falls"/>
    <tag k="addr:housenumber" v="1332"/>
    <tag k="addr:street" v="Shenang Road"/>
    <tag k="addr:state" v="VT"/>
    <tag k="ref:vcgi:esiteid" v="104819"/>
  </node>
  <node id="-454" visible="true" lat="44.809390482677" lon="-72.912239630578">
    <!-- duplicates-in-different-towns: "124 Stonehouse Drive, Enosburg Falls, VT"  ignoring town mismatch for duplicate housenumber/street when matching to esiteid 333417: "124 Stonehouse Drive, , VT" -->
    <tag k="addr:city" v="Enosburg Falls"/>
    <tag k="addr:housenumber" v="124"/>
    <tag k="addr:street" v="Stonehouse Drive"/>
    <tag k="addr:state" v="VT"/>
    <tag k="ref:vcgi:esiteid" v="104829"/>
  </node>
  <node id="-473" visible="true" lat="44.805477125343" lon="-72.900248664941">
    <!-- duplicates-in-different-towns: "6942 Vermont Route 36, Enosburg Falls, VT"  ignoring town mismatch for duplicate housenumber/street when matching to esiteid 333419: "6942 Vermont Route 36, , VT" -->
    <tag k="addr:city" v="Enosburg Falls"/>
    <tag k="addr:housenumber" v="6942"/>
    <tag k="addr:street" v="Vermont Route 36"/>
    <tag k="addr:state" v="VT"/>
    <tag k="ref:vcgi:esiteid" v="104848"/>
  </node>
  <node id="-548" visible="true" lat="44.797809061062" lon="-72.887138914514">
    <!-- duplicates-in-different-towns: "7705 Vermont Route 36, Enosburg Falls, VT"  ignoring town mismatch for duplicate housenumber/street when matching to esiteid 333424: "7705 Vermont Route 36, , VT" -->
    <tag k="addr:city" v="Enosburg Falls"/>
    <tag k="addr:housenumber" v="7705"/>
    <tag k="addr:street" v="Vermont Route 36"/>
    <tag k="addr:state" v="VT"/>
    <tag k="ref:vcgi:esiteid" v="104928"/>
  </node>
  <node id="-606" visible="true" lat="44.789121146936" lon="-72.86489239685">
    <!-- duplicates-in-different-towns: "9089 Vermont Route 36, East Fairfield, VT"  ignoring town mismatch for duplicate housenumber/street when matching to esiteid 333426: "9089 Vermont Route 36, , VT" -->
    <tag k="addr:city" v="East Fairfield"/>
    <tag k="addr:housenumber" v="9089"/>
    <tag k="addr:street" v="Vermont Route 36"/>
    <tag k="addr:state" v="VT"/>
    <tag k="ref:vcgi:esiteid" v="104987"/>
  </node>
  <node id="-612" visible="true" lat="44.788371495909" lon="-72.954422569152">
    <!-- duplicates-in-different-towns: "1012 South Road, Fairfield, VT"  ignoring town mismatch for duplicate housenumber/street when matching to esiteid 333422: "1012 South Road, , VT" -->
    <tag k="addr:city" v="Fairfield"/>
    <tag k="addr:housenumber" v="1012"/>
    <tag k="addr:street" v="South Road"/>
    <tag k="addr:state" v="VT"/>
    <tag k="ref:vcgi:esiteid" v="104993"/>
  </node>
  <node id="-666" visible="true" lat="44.784354619879" lon="-72.955544089734">
    <!-- duplicates-in-different-towns: "1306 South Road, Fairfield, VT"  ignoring town mismatch for duplicate housenumber/street when matching to esiteid 333423: "1306 South Road, , VT" -->
    <tag k="addr:city" v="Fairfield"/>
    <tag k="addr:housenumber" v="1306"/>
    <tag k="addr:street" v="South Road"/>
    <tag k="addr:state" v="VT"/>
    <tag k="ref:vcgi:esiteid" v="105052"/>
  </node>
  <node id="-815" visible="true" lat="44.762597551227" lon="-72.890458506899">
    <!-- duplicates-in-different-towns: "1670 Lapland Road, East Fairfield, VT"  ignoring town mismatch for duplicate housenumber/street when matching to esiteid 333429: "1670 Lapland Road, , VT" -->
    <tag k="addr:city" v="East Fairfield"/>
    <tag k="addr:housenumber" v="1670"/>
    <tag k="addr:street" v="Lapland Road"/>
    <tag k="addr:state" v="VT"/>
    <tag k="ref:vcgi:esiteid" v="105224"/>
  </node>
  <node id="-850" visible="true" lat="44.793591802503" lon="-73.020908839439">
    <!-- duplicates-in-different-towns: "130 Kane Road, Fairfield, VT"  ignoring town mismatch for duplicate housenumber/street when matching to esiteid 451694: "130 Kane Road, , VT" -->
    <tag k="addr:city" v="Fairfield"/>
    <tag k="addr:housenumber" v="130"/>
    <tag k="addr:street" v="Kane Road"/>
    <tag k="addr:state" v="VT"/>
    <tag k="ref:vcgi:esiteid" v="243790"/>
  </node>
  <node id="-949" visible="true" lat="44.859977346118" lon="-73.003763604971">
    <!-- duplicates-in-different-towns: "3906 Pond Road, Sheldon, VT"  ignoring town mismatch for duplicate housenumber/street when matching to esiteid 104559: "3906 Pond Road, Fairfield, VT" -->
    <tag k="addr:city" v="Sheldon"/>
    <tag k="addr:housenumber" v="3906"/>
    <tag k="addr:street" v="Pond Road"/>
    <tag k="addr:state" v="VT"/>
    <tag k="ref:vcgi:esiteid" v="333376"/>
  </node>
  <node id="-987" visible="true" lat="44.803957563814" lon="-72.93627073707">
    <!-- duplicates-in-different-towns: "4883 Vermont Route 36, Fairfield, VT"  ignoring town mismatch for duplicate housenumber/street when matching to esiteid 104862: "4883 Vermont Route 36, , VT" -->
    <tag k="addr:city" v="Fairfield"/>
    <tag k="addr:housenumber" v="4883"/>
    <tag k="addr:street" v="Vermont Route 36"/>
    <tag k="addr:state" v="VT"/>
    <tag k="ref:vcgi:esiteid" v="333437"/>
  </node>
  <node id="-1111" visible="true" lat="44.75991319301" lon="-72.855133453574">
    <!-- duplicates-in-different-towns: "355 Lost Nation Road, East Fairfield, VT"  ignoring town mismatch for duplicate housenumber/street when matching to esiteid 5722: "355 Lost Nation Road, , VT" -->
    <tag k="addr:city" v="East Fairfield"/>
    <tag k="addr:housenumber" v="355"/>
    <tag k="addr:street" v="Lost Nation Road"/>
    <tag k="addr:state" v="VT"/>
    <tag k="ref:vcgi:esiteid" v="612875"/>
  </node>
  <node id="-1122" visible="true" lat="44.859234722363" lon="-72.857185327811">
    <!-- duplicates-in-different-towns: "4360 Duffy Hill Road, Enosburg Falls, VT"  ignoring town mismatch for duplicate housenumber/street when matching to esiteid 617910: "4360 Duffy Hill Road, , VT" -->
    <tag k="addr:city" v="Enosburg Falls"/>
    <tag k="addr:housenumber" v="4360"/>
    <tag k="addr:street" v="Duffy Hill Road"/>
    <tag k="addr:state" v="VT"/>
    <tag k="ref:vcgi:esiteid" v="617911"/>
  </node>
  <node id="-1124" visible="true" lat="44.762548763796" lon="-72.854061330268">
    <!-- duplicates-in-different-towns: "145 Lost Nation Road, East Fairfield, VT"  ignoring town mismatch for duplicate housenumber/street when matching to esiteid 5721: "145 Lost Nation Road, , VT" -->
    <tag k="addr:city" v="East Fairfield"/>
    <tag k="addr:housenumber" v="145"/>
    <tag k="addr:street" v="Lost Nation Road"/>
    <tag k="addr:state" v="VT"/>
    <tag k="ref:vcgi:esiteid" v="619449"/>
  </node>
  <node id="-1125" visible="true" lat="44.76369975452" lon="-72.853646725061">
    <!-- duplicates-in-different-towns: "95 Lost Nation Road, East Fairfield, VT"  ignoring town mismatch for duplicate housenumber/street when matching to esiteid 5791: "95 Lost Nation Road, , VT" -->
    <tag k="addr:city" v="East Fairfield"/>
    <tag k="addr:housenumber" v="95"/>
    <tag k="addr:street" v="Lost Nation Road"/>
    <tag k="addr:state" v="VT"/>
    <tag k="ref:vcgi:esiteid" v="619451"/>
  </node>
  <node id="-1238" visible="true" lat="44.847656766462" lon="-72.978634607817">
    <!-- duplicates-in-different-towns: "745 Reynolds Road, Fairfield, VT"  ignoring town mismatch for duplicate housenumber/street when matching to esiteid 773002: "745 Reynolds Road, , VT" -->
    <tag k="addr:city" v="Fairfield"/>
    <tag k="addr:housenumber" v="745"/>
    <tag k="addr:street" v="Reynolds Road"/>
    <tag k="addr:state" v="VT"/>
    <tag k="ref:vcgi:esiteid" v="773001"/>
  </node>
  <node id="-1239" visible="true" lat="44.747555279527" lon="-72.908959658177">
    <!-- duplicates-in-different-towns: "3213 Lapland Road, East Fairfield, VT"  ignoring town mismatch for duplicate housenumber/street when matching to esiteid 773060: "3213 Lapland Road, , VT" -->
    <tag k="addr:city" v="East Fairfield"/>
    <tag k="addr:housenumber" v="3213"/>
    <tag k="addr:street" v="Lapland Road"/>
    <tag k="addr:state" v="VT"/>
    <tag k="ref:vcgi:esiteid" v="773059"/>
  </node>
  <node id="-1240" visible="true" lat="44.77071296322" lon="-72.965457733424">
    <!-- duplicates-in-different-towns: "224 Pelkey Road, Fairfield, VT"  ignoring town mismatch for duplicate housenumber/street when matching to esiteid 773061: "224 Pelkey Road, , VT" -->
    <tag k="addr:city" v="Fairfield"/>
    <tag k="addr:housenumber" v="224"/>
    <tag k="addr:street" v="Pelkey Road"/>
    <tag k="addr:state" v="VT"/>
    <tag k="ref:vcgi:esiteid" v="773060"/>
  </node>
</osm>
