<?xml version="1.0" encoding="UTF-8"?>
<osm version="0.6" generator="JOSM" upload="false">
  <node id="-764" visible="true" lat="43.925767870319" lon="-72.182877996304">
    <!-- offset: "650 Bald Top Road, Fairlee, VT" Significant offset - 910.5m -->
    <tag k="addr:city" v="Fairlee"/>
    <tag k="addr:housenumber" v="650"/>
    <tag k="addr:street" v="Bald Top Road"/>
    <tag k="addr:state" v="VT"/>
    <tag k="ref:vcgi:esiteid" v="345403"/>
  </node>
  <node id="-840" visible="true" lat="43.88933340111" lon="-72.176090717507">
    <!-- offset: "1013 Bragg Hill Road, Fairlee, VT" Significant offset - 230.5m -->
    <tag k="addr:city" v="Fairlee"/>
    <tag k="addr:housenumber" v="1013"/>
    <tag k="addr:street" v="Bragg Hill Road"/>
    <tag k="addr:state" v="VT"/>
    <tag k="ref:vcgi:esiteid" v="758032"/>
  </node>
</osm>
