<?xml version="1.0" encoding="UTF-8"?>
<osm version="0.6" generator="JOSM" upload="false">
  <node id="-197" visible="true" lat="44.755869057704" lon="-73.029875077094">
    <tag k="addr:city" v="Fairfax"/>
    <tag k="addr:housenumber" v="524"/>
    <tag k="addr:street" v="Carroll Hill Road"/>
    <tag k="addr:state" v="VT"/>
    <tag k="ref:vcgi:esiteid" v="102808"/>
  </node>
  <node id="-731" visible="true" lat="44.668996293749" lon="-72.983792191005">
    <tag k="addr:city" v="Fairfax"/>
    <tag k="addr:housenumber" v="293"/>
    <tag k="addr:street" v="Fletcher Road"/>
    <tag k="addr:state" v="VT"/>
    <tag k="ref:vcgi:esiteid" v="103350"/>
  </node>
  <node id="-881" visible="true" lat="44.655953959026" lon="-73.008783744131">
    <tag k="addr:city" v="Fairfax"/>
    <tag k="addr:housenumber" v="4"/>
    <tag k="addr:street" v="Field Road"/>
    <tag k="addr:state" v="VT"/>
    <tag k="ref:vcgi:esiteid" v="103504"/>
  </node>
  <node id="-970" visible="true" lat="44.652639105874" lon="-72.974434130024">
    <tag k="addr:city" v="Fairfax"/>
    <tag k="addr:housenumber" v="191"/>
    <tag k="addr:street" v="Goose Pond Road"/>
    <tag k="addr:state" v="VT"/>
    <tag k="ref:vcgi:esiteid" v="103595"/>
  </node>
  <node id="-1018" visible="true" lat="44.654312719622" lon="-73.007480646818">
    <tag k="addr:city" v="Fairfax"/>
    <tag k="addr:housenumber" v="951"/>
    <tag k="addr:street" v="Main Street"/>
    <tag k="addr:state" v="VT"/>
    <tag k="ref:vcgi:esiteid" v="103643"/>
  </node>
  <node id="-1629" visible="true" lat="44.760936681271" lon="-73.062952510914">
    <tag k="addr:city" v="Fairfax"/>
    <tag k="addr:housenumber" v="2689"/>
    <tag k="addr:street" v="Main Street"/>
    <tag k="addr:state" v="VT"/>
    <tag k="ref:vcgi:esiteid" v="104295"/>
  </node>
  <node id="-1667" visible="true" lat="44.739449175196" lon="-72.999822365306">
    <tag k="addr:city" v="Fairfax"/>
    <tag k="addr:housenumber" v="85"/>
    <tag k="addr:street" v="Carroll Hill Road"/>
    <tag k="addr:state" v="VT"/>
    <tag k="ref:vcgi:esiteid" v="104336"/>
  </node>
  <node id="-1734" visible="true" lat="44.726717703164" lon="-73.045272109532">
    <tag k="addr:city" v="Fairfax"/>
    <tag k="addr:housenumber" v="2136"/>
    <tag k="addr:street" v="Main Street"/>
    <tag k="addr:state" v="VT"/>
    <tag k="ref:vcgi:esiteid" v="104408"/>
  </node>
  <node id="-1939" visible="true" lat="44.682220408671" lon="-73.038099023961">
    <tag k="addr:city" v="Fairfax"/>
    <tag k="addr:housenumber" v="117"/>
    <tag k="addr:street" v="Highbridge Road"/>
    <tag k="addr:state" v="VT"/>
    <tag k="ref:vcgi:esiteid" v="338186"/>
  </node>
  <node id="-2054" visible="true" lat="44.674391587496" lon="-73.018374285767">
    <tag k="addr:city" v="Fairfax"/>
    <tag k="addr:housenumber" v="12"/>
    <tag k="addr:street" v="Buck Hollow Road"/>
    <tag k="addr:state" v="VT"/>
    <tag k="ref:vcgi:esiteid" v="450885"/>
  </node>
  <node id="-2181" visible="true" lat="44.653422018466" lon="-73.00662076984">
    <tag k="addr:city" v="Fairfax"/>
    <tag k="addr:housenumber" v="9"/>
    <tag k="addr:street" v="Colonial Road"/>
    <tag k="addr:state" v="VT"/>
    <tag k="ref:vcgi:esiteid" v="620268"/>
  </node>
</osm>
