<?xml version="1.0" encoding="UTF-8"?>
<osm version="0.6" generator="JOSM" upload="false">
  <node id="-232" visible="true" lat="43.907998861566" lon="-72.146023920398">
    <!-- multiple: "214 School Street, Fairlee, VT" Multiple exact matches in OSM. -->
    <tag k="addr:city" v="Fairlee"/>
    <tag k="addr:housenumber" v="214"/>
    <tag k="addr:street" v="School Street"/>
    <tag k="addr:state" v="VT"/>
    <tag k="ref:vcgi:esiteid" v="105398"/>
  </node>
  <node id="-259" visible="true" lat="43.905627041266" lon="-72.149084567045">
    <!-- multiple: "50 Lake Morey Road, Fairlee, VT" Multiple exact matches in OSM. -->
    <tag k="addr:city" v="Fairlee"/>
    <tag k="addr:housenumber" v="50"/>
    <tag k="addr:street" v="Lake Morey Road"/>
    <tag k="addr:state" v="VT"/>
    <tag k="ref:vcgi:esiteid" v="105429"/>
  </node>
  <node id="-273" visible="true" lat="43.904328688347" lon="-72.150651071906">
    <!-- multiple: "51 Lake Morey Road, Fairlee, VT" Multiple exact matches in OSM. -->
    <tag k="addr:city" v="Fairlee"/>
    <tag k="addr:housenumber" v="51"/>
    <tag k="addr:street" v="Lake Morey Road"/>
    <tag k="addr:state" v="VT"/>
    <tag k="ref:vcgi:esiteid" v="105447"/>
  </node>
</osm>
