<?xml version="1.0" encoding="UTF-8"?>
<osm version="0.6" generator="JOSM" upload="false">
  <node id="-879" visible="true" lat="44.656778204207" lon="-73.008478707993">
    <!-- multiple: "997 Main Street, Fairfax, VT" Multiple exact matches in OSM. -->
    <tag k="addr:city" v="Fairfax"/>
    <tag k="addr:housenumber" v="997"/>
    <tag k="addr:street" v="Main Street"/>
    <tag k="addr:state" v="VT"/>
    <tag k="ref:vcgi:esiteid" v="103502"/>
  </node>
  <node id="-1006" visible="true" lat="44.653303667921" lon="-73.000458803124">
    <!-- multiple: "874 Main Street, Fairfax, VT" Multiple exact matches in OSM. -->
    <tag k="addr:city" v="Fairfax"/>
    <tag k="addr:housenumber" v="874"/>
    <tag k="addr:street" v="Main Street"/>
    <tag k="addr:state" v="VT"/>
    <tag k="ref:vcgi:esiteid" v="103631"/>
  </node>
  <node id="-1308" visible="true" lat="44.663557148533" lon="-73.013349278866">
    <!-- multiple: "75 Hunt Street, Fairfax, VT" Multiple exact matches in OSM. -->
    <tag k="addr:city" v="Fairfax"/>
    <tag k="addr:housenumber" v="75"/>
    <tag k="addr:street" v="Hunt Street"/>
    <tag k="addr:state" v="VT"/>
    <tag k="ref:vcgi:esiteid" v="103939"/>
  </node>
</osm>
