<?xml version="1.0" encoding="UTF-8"?>
<osm version="0.6" generator="JOSM" upload="false">
  <node id="-481" visible="true" lat="44.736619229068" lon="-72.998734477983">
    <!-- duplicates-in-different-towns: "970 Buck Hollow Road, Fairfax, VT"  ignoring town mismatch for duplicate housenumber/street when matching to esiteid 103095: "970 Buck Hollow Road, , VT" -->
    <tag k="addr:city" v="Fairfax"/>
    <tag k="addr:housenumber" v="970"/>
    <tag k="addr:street" v="Buck Hollow Road"/>
    <tag k="addr:state" v="VT"/>
    <tag k="ref:vcgi:esiteid" v="103094"/>
  </node>
  <node id="-1021" visible="true" lat="44.65346814719" lon="-73.005928166037">
    <!-- duplicates-in-different-towns: "930 Main Street, Fairfax, VT"  ignoring town mismatch for duplicate housenumber/street when matching to esiteid 103650: "930 Main Street, , VT" -->
    <tag k="addr:city" v="Fairfax"/>
    <tag k="addr:housenumber" v="930"/>
    <tag k="addr:street" v="Main Street"/>
    <tag k="addr:state" v="VT"/>
    <tag k="ref:vcgi:esiteid" v="103646"/>
  </node>
  <node id="-1311" visible="true" lat="44.662175177713" lon="-73.013511902202">
    <!-- duplicates-in-different-towns: "8 Mountain View Street, Fairfax, VT"  ignoring town mismatch for duplicate housenumber/street when matching to esiteid 104089: "8 Mountain View Street, , VT" -->
    <tag k="addr:city" v="Fairfax"/>
    <tag k="addr:housenumber" v="8"/>
    <tag k="addr:street" v="Mountain View Street"/>
    <tag k="addr:state" v="VT"/>
    <tag k="ref:vcgi:esiteid" v="103942"/>
  </node>
  <node id="-1640" visible="true" lat="44.727622893873" lon="-73.044496021722">
    <!-- duplicates-in-different-towns: "2117 Main Street, Fairfax, VT"  ignoring town mismatch for duplicate housenumber/street when matching to esiteid 104307: "2117 Main Street, , VT" -->
    <tag k="addr:city" v="Fairfax"/>
    <tag k="addr:housenumber" v="2117"/>
    <tag k="addr:street" v="Main Street"/>
    <tag k="addr:state" v="VT"/>
    <tag k="ref:vcgi:esiteid" v="104306"/>
  </node>
  <node id="-2009" visible="true" lat="44.670372024129" lon="-73.041640851066">
    <!-- duplicates-in-different-towns: "435 McNall Road, Fairfax, VT"  ignoring town mismatch for duplicate housenumber/street when matching to esiteid 656470: "435 McNall Road, , VT" -->
    <tag k="addr:city" v="Fairfax"/>
    <tag k="addr:housenumber" v="435"/>
    <tag k="addr:street" v="McNall Road"/>
    <tag k="addr:state" v="VT"/>
    <tag k="ref:vcgi:esiteid" v="365693"/>
  </node>
  <node id="-2010" visible="true" lat="44.669505804517" lon="-73.041508656078">
    <!-- duplicates-in-different-towns: "425 McNall Road, Fairfax, VT"  ignoring town mismatch for duplicate housenumber/street when matching to esiteid 656471: "425 McNall Road, , VT" -->
    <tag k="addr:city" v="Fairfax"/>
    <tag k="addr:housenumber" v="425"/>
    <tag k="addr:street" v="McNall Road"/>
    <tag k="addr:state" v="VT"/>
    <tag k="ref:vcgi:esiteid" v="365703"/>
  </node>
</osm>
