<?xml version="1.0" encoding="UTF-8"?>
<osm version="0.6" generator="JOSM" upload="false">
  <node id="-548" visible="true" lat="44.193554587034" lon="-72.891586164861">
    <!-- duplicates-in-different-towns: "2761 Mill Brook Road, Waitsfield, VT"  ignoring town mismatch for duplicate housenumber/street when matching to esiteid 106370: "2761 Mill Brook Road, Fayston, VT" -->
    <tag k="addr:city" v="Waitsfield"/>
    <tag k="addr:housenumber" v="2761"/>
    <tag k="addr:street" v="Mill Brook Road"/>
    <tag k="addr:state" v="VT"/>
    <tag k="ref:vcgi:esiteid" v="106377"/>
  </node>
</osm>
