<?xml version="1.0" encoding="UTF-8"?>
<osm version="0.6" generator="JOSM" upload="false">
  <node id="-604" visible="true" lat="44.227165707787" lon="-73.325326100576">
    <!-- duplicates-in-different-towns: "29 Diamond Island Lane, Ferrisburgh, VT"  ignoring town mismatch for duplicate housenumber/street when matching to esiteid 107347: "29 Diamond Island Lane, , VT" -->
    <tag k="addr:city" v="Ferrisburgh"/>
    <tag k="addr:housenumber" v="29"/>
    <tag k="addr:street" v="Diamond Island Lane"/>
    <tag k="addr:state" v="VT"/>
    <tag k="ref:vcgi:esiteid" v="107353"/>
  </node>
  <node id="-1581" visible="true" lat="44.156034240841" lon="-73.185145797595">
    <!-- duplicates-in-different-towns: "630 Leduc Road, Vergennes, VT"  ignoring town mismatch for duplicate housenumber/street when matching to esiteid 343946: "630 Leduc Road, New Haven, VT" -->
    <tag k="addr:city" v="Vergennes"/>
    <tag k="addr:housenumber" v="630"/>
    <tag k="addr:street" v="Leduc Road"/>
    <tag k="addr:state" v="VT"/>
    <tag k="ref:vcgi:esiteid" v="108369"/>
  </node>
  <node id="-1764" visible="true" lat="44.157281005789" lon="-73.197037674613">
    <!-- duplicates-in-different-towns: "1936 Plank Road, Vergennes, VT"  ignoring town mismatch for duplicate housenumber/street when matching to esiteid 172198: "1936 Plank Road, New Haven, VT" -->
    <tag k="addr:city" v="Vergennes"/>
    <tag k="addr:housenumber" v="1936"/>
    <tag k="addr:street" v="Plank Road"/>
    <tag k="addr:state" v="VT"/>
    <tag k="ref:vcgi:esiteid" v="452510"/>
  </node>
  <node id="-1765" visible="true" lat="44.157604754044" lon="-73.199119532748">
    <!-- duplicates-in-different-towns: "1834 Plank Road, Vergennes, VT"  ignoring town mismatch for duplicate housenumber/street when matching to esiteid 172195: "1834 Plank Road, New Haven, VT" -->
    <tag k="addr:city" v="Vergennes"/>
    <tag k="addr:housenumber" v="1834"/>
    <tag k="addr:street" v="Plank Road"/>
    <tag k="addr:state" v="VT"/>
    <tag k="ref:vcgi:esiteid" v="452511"/>
  </node>
  <node id="-1766" visible="true" lat="44.157786061365" lon="-73.2003192037">
    <!-- duplicates-in-different-towns: "1772 Plank Road, Vergennes, VT"  ignoring town mismatch for duplicate housenumber/street when matching to esiteid 172193: "1772 Plank Road, New Haven, VT" -->
    <tag k="addr:city" v="Vergennes"/>
    <tag k="addr:housenumber" v="1772"/>
    <tag k="addr:street" v="Plank Road"/>
    <tag k="addr:state" v="VT"/>
    <tag k="ref:vcgi:esiteid" v="452512"/>
  </node>
  <node id="-1767" visible="true" lat="44.162028207089" lon="-73.226560668125">
    <!-- duplicates-in-different-towns: "442 Plank Road, Vergennes, VT"  ignoring town mismatch for duplicate housenumber/street when matching to esiteid 270095: "442 Plank Road, Waltham, VT" -->
    <tag k="addr:city" v="Vergennes"/>
    <tag k="addr:housenumber" v="442"/>
    <tag k="addr:street" v="Plank Road"/>
    <tag k="addr:state" v="VT"/>
    <tag k="ref:vcgi:esiteid" v="452667"/>
  </node>
  <node id="-1801" visible="true" lat="44.163220385884" lon="-73.234248363362">
    <!-- duplicates-in-different-towns: "48 Plank Road, Vergennes, VT"  ignoring town mismatch for duplicate housenumber/street when matching to esiteid 270091: "48 Plank Road, Waltham, VT" -->
    <tag k="addr:city" v="Vergennes"/>
    <tag k="addr:housenumber" v="48"/>
    <tag k="addr:street" v="Plank Road"/>
    <tag k="addr:state" v="VT"/>
    <tag k="ref:vcgi:esiteid" v="617138"/>
  </node>
  <node id="-1802" visible="true" lat="44.162680159638" lon="-73.23074520913">
    <!-- duplicates-in-different-towns: "226 Plank Road, Vergennes, VT"  ignoring town mismatch for duplicate housenumber/street when matching to esiteid 270279: "226 Plank Road, Waltham, VT" -->
    <tag k="addr:city" v="Vergennes"/>
    <tag k="addr:housenumber" v="226"/>
    <tag k="addr:street" v="Plank Road"/>
    <tag k="addr:state" v="VT"/>
    <tag k="ref:vcgi:esiteid" v="617139"/>
  </node>
</osm>
