<?xml version="1.0" encoding="UTF-8"?>
<osm version="0.6" generator="JOSM" upload="false">
  <node id="-1075" visible="true" lat="44.697316618268" lon="-73.141808987533">
    <tag k="addr:city" v="Milton"/>
    <tag k="addr:housenumber" v="16"/>
    <tag k="addr:street" v="Nottingham Drive"/>
    <tag k="addr:state" v="VT"/>
    <tag k="ref:vcgi:esiteid" v="110863"/>
  </node>
  <node id="-1302" visible="true" lat="44.693056623537" lon="-73.107777797907">
    <tag k="addr:city" v="Fairfax"/>
    <tag k="addr:housenumber" v="962"/>
    <tag k="addr:street" v="Ethan Allen Highway"/>
    <tag k="addr:state" v="VT"/>
    <tag k="ref:vcgi:esiteid" v="111102"/>
  </node>
</osm>
