<?xml version="1.0" encoding="UTF-8"?>
<osm version="0.6" generator="JOSM" upload="false">
  <node id="-298" visible="true" lat="44.707054920403" lon="-72.18816486165">
    <!-- multiple: "51 Bean Hill Road, Glover, VT" Multiple exact matches in OSM. -->
    <tag k="addr:city" v="Glover"/>
    <tag k="addr:housenumber" v="51"/>
    <tag k="addr:street" v="Bean Hill Road"/>
    <tag k="addr:state" v="VT"/>
    <tag k="ref:vcgi:esiteid" v="111916"/>
  </node>
  <node id="-318" visible="true" lat="44.705894846795" lon="-72.189674797333">
    <!-- multiple: "100 School Street, Glover, VT" Multiple exact matches in OSM. -->
    <tag k="addr:city" v="Glover"/>
    <tag k="addr:housenumber" v="100"/>
    <tag k="addr:street" v="School Street"/>
    <tag k="addr:state" v="VT"/>
    <tag k="ref:vcgi:esiteid" v="111936"/>
  </node>
</osm>
