<?xml version="1.0" encoding="UTF-8"?>
<osm version="0.6" generator="JOSM" upload="false">
  <node id="-213" visible="true" lat="44.716933030676" lon="-72.18468878458">
    <tag k="addr:city" v="Glover"/>
    <tag k="addr:housenumber" v="2197"/>
    <tag k="addr:street" v="Glover Street"/>
    <tag k="addr:state" v="VT"/>
    <tag k="ref:vcgi:esiteid" v="111831"/>
  </node>
  <node id="-222" visible="true" lat="44.716247212043" lon="-72.184787488002">
    <tag k="addr:city" v="Glover"/>
    <tag k="addr:housenumber" v="2269"/>
    <tag k="addr:street" v="Glover Street"/>
    <tag k="addr:state" v="VT"/>
    <tag k="ref:vcgi:esiteid" v="111840"/>
  </node>
  <node id="-229" visible="true" lat="44.715609509048" lon="-72.184754244275">
    <tag k="addr:city" v="Glover"/>
    <tag k="addr:housenumber" v="2287"/>
    <tag k="addr:street" v="Glover Street"/>
    <tag k="addr:state" v="VT"/>
    <tag k="ref:vcgi:esiteid" v="111847"/>
  </node>
  <node id="-232" visible="true" lat="44.715247199448" lon="-72.185249349551">
    <tag k="addr:city" v="Glover"/>
    <tag k="addr:housenumber" v="2323"/>
    <tag k="addr:street" v="Glover Street"/>
    <tag k="addr:state" v="VT"/>
    <tag k="ref:vcgi:esiteid" v="111850"/>
  </node>
  <node id="-236" visible="true" lat="44.714917814608" lon="-72.185474800319">
    <tag k="addr:city" v="Glover"/>
    <tag k="addr:housenumber" v="2349"/>
    <tag k="addr:street" v="Glover Street"/>
    <tag k="addr:state" v="VT"/>
    <tag k="ref:vcgi:esiteid" v="111854"/>
  </node>
  <node id="-239" visible="true" lat="44.71395055809" lon="-72.185646403444">
    <tag k="addr:city" v="Glover"/>
    <tag k="addr:housenumber" v="2421"/>
    <tag k="addr:street" v="Glover Street"/>
    <tag k="addr:state" v="VT"/>
    <tag k="ref:vcgi:esiteid" v="111857"/>
  </node>
  <node id="-242" visible="true" lat="44.713482146071" lon="-72.188288853723">
    <tag k="addr:city" v="Glover"/>
    <tag k="addr:housenumber" v="83"/>
    <tag k="addr:street" v="Bailey Lane"/>
    <tag k="addr:state" v="VT"/>
    <tag k="ref:vcgi:esiteid" v="111860"/>
  </node>
  <node id="-247" visible="true" lat="44.713410432588" lon="-72.186787755874">
    <tag k="addr:city" v="Glover"/>
    <tag k="addr:housenumber" v="82"/>
    <tag k="addr:street" v="Bailey Lane"/>
    <tag k="addr:state" v="VT"/>
    <tag k="ref:vcgi:esiteid" v="111865"/>
  </node>
  <node id="-253" visible="true" lat="44.712758071391" lon="-72.186627623632">
    <tag k="addr:city" v="Glover"/>
    <tag k="addr:housenumber" v="72"/>
    <tag k="addr:street" v="Bailey Lane"/>
    <tag k="addr:state" v="VT"/>
    <tag k="ref:vcgi:esiteid" v="111871"/>
  </node>
  <node id="-256" visible="true" lat="44.712655500881" lon="-72.186173513879">
    <tag k="addr:city" v="Glover"/>
    <tag k="addr:housenumber" v="2510"/>
    <tag k="addr:street" v="Glover Street"/>
    <tag k="addr:state" v="VT"/>
    <tag k="ref:vcgi:esiteid" v="111874"/>
  </node>
  <node id="-257" visible="true" lat="44.712710049444" lon="-72.184247697601">
    <tag k="addr:city" v="Glover"/>
    <tag k="addr:housenumber" v="137"/>
    <tag k="addr:street" v="Sargent Lane"/>
    <tag k="addr:state" v="VT"/>
    <tag k="ref:vcgi:esiteid" v="111875"/>
  </node>
  <node id="-258" visible="true" lat="44.712708365783" lon="-72.185705422918">
    <tag k="addr:city" v="Glover"/>
    <tag k="addr:housenumber" v="2513"/>
    <tag k="addr:street" v="Glover Street"/>
    <tag k="addr:state" v="VT"/>
    <tag k="ref:vcgi:esiteid" v="111876"/>
  </node>
  <node id="-259" visible="true" lat="44.712436182833" lon="-72.185582602474">
    <tag k="addr:city" v="Glover"/>
    <tag k="addr:housenumber" v="2529"/>
    <tag k="addr:street" v="Glover Street"/>
    <tag k="addr:state" v="VT"/>
    <tag k="ref:vcgi:esiteid" v="111877"/>
  </node>
  <node id="-261" visible="true" lat="44.712064570026" lon="-72.185532831214">
    <tag k="addr:city" v="Glover"/>
    <tag k="addr:housenumber" v="2561"/>
    <tag k="addr:street" v="Glover Street"/>
    <tag k="addr:state" v="VT"/>
    <tag k="ref:vcgi:esiteid" v="111879"/>
  </node>
  <node id="-262" visible="true" lat="44.711796870198" lon="-72.185377663349">
    <tag k="addr:city" v="Glover"/>
    <tag k="addr:housenumber" v="2575"/>
    <tag k="addr:street" v="Glover Street"/>
    <tag k="addr:state" v="VT"/>
    <tag k="ref:vcgi:esiteid" v="111880"/>
  </node>
  <node id="-263" visible="true" lat="44.711612427073" lon="-72.185332190276">
    <tag k="addr:city" v="Glover"/>
    <tag k="addr:housenumber" v="2581"/>
    <tag k="addr:street" v="Glover Street"/>
    <tag k="addr:state" v="VT"/>
    <tag k="ref:vcgi:esiteid" v="111881"/>
  </node>
  <node id="-265" visible="true" lat="44.71147260093" lon="-72.185264636623">
    <tag k="addr:city" v="Glover"/>
    <tag k="addr:housenumber" v="9"/>
    <tag k="addr:street" v="Sargent Lane"/>
    <tag k="addr:state" v="VT"/>
    <tag k="ref:vcgi:esiteid" v="111883"/>
  </node>
  <node id="-266" visible="true" lat="44.711459741205" lon="-72.185769562945">
    <tag k="addr:city" v="Glover"/>
    <tag k="addr:housenumber" v="2600"/>
    <tag k="addr:street" v="Glover Street"/>
    <tag k="addr:state" v="VT"/>
    <tag k="ref:vcgi:esiteid" v="111884"/>
  </node>
  <node id="-267" visible="true" lat="44.711135242656" lon="-72.185148462745">
    <tag k="addr:city" v="Glover"/>
    <tag k="addr:housenumber" v="2615"/>
    <tag k="addr:street" v="Glover Street"/>
    <tag k="addr:state" v="VT"/>
    <tag k="ref:vcgi:esiteid" v="111885"/>
  </node>
  <node id="-268" visible="true" lat="44.71106640919" lon="-72.185942943441">
    <tag k="addr:city" v="Glover"/>
    <tag k="addr:housenumber" v="2612"/>
    <tag k="addr:street" v="Glover Street"/>
    <tag k="addr:state" v="VT"/>
    <tag k="ref:vcgi:esiteid" v="111886"/>
  </node>
  <node id="-270" visible="true" lat="44.710938420705" lon="-72.18501993781">
    <tag k="addr:city" v="Glover"/>
    <tag k="addr:housenumber" v="2633"/>
    <tag k="addr:street" v="Glover Street"/>
    <tag k="addr:state" v="VT"/>
    <tag k="ref:vcgi:esiteid" v="111888"/>
  </node>
  <node id="-271" visible="true" lat="44.710664436273" lon="-72.185226744846">
    <tag k="addr:city" v="Glover"/>
    <tag k="addr:housenumber" v="2653"/>
    <tag k="addr:street" v="Glover Street"/>
    <tag k="addr:state" v="VT"/>
    <tag k="ref:vcgi:esiteid" v="111889"/>
  </node>
  <node id="-272" visible="true" lat="44.710626131927" lon="-72.185752342006">
    <tag k="addr:city" v="Glover"/>
    <tag k="addr:housenumber" v="2656"/>
    <tag k="addr:street" v="Glover Street"/>
    <tag k="addr:state" v="VT"/>
    <tag k="ref:vcgi:esiteid" v="111890"/>
  </node>
  <node id="-273" visible="true" lat="44.710337344521" lon="-72.183148042626">
    <tag k="addr:city" v="Glover"/>
    <tag k="addr:housenumber" v="128"/>
    <tag k="addr:street" v="Talbot Lane"/>
    <tag k="addr:state" v="VT"/>
    <tag k="ref:vcgi:esiteid" v="111891"/>
  </node>
  <node id="-274" visible="true" lat="44.710279670168" lon="-72.185303689919">
    <tag k="addr:city" v="Glover"/>
    <tag k="addr:housenumber" v="2675"/>
    <tag k="addr:street" v="Glover Street"/>
    <tag k="addr:state" v="VT"/>
    <tag k="ref:vcgi:esiteid" v="111892"/>
  </node>
  <node id="-275" visible="true" lat="44.710105891054" lon="-72.182760312806">
    <tag k="addr:city" v="Glover"/>
    <tag k="addr:housenumber" v="129"/>
    <tag k="addr:street" v="Talbot Lane"/>
    <tag k="addr:state" v="VT"/>
    <tag k="ref:vcgi:esiteid" v="111893"/>
  </node>
  <node id="-277" visible="true" lat="44.709776541428" lon="-72.185245093198">
    <tag k="addr:city" v="Glover"/>
    <tag k="addr:housenumber" v="26"/>
    <tag k="addr:street" v="Talbot Lane"/>
    <tag k="addr:state" v="VT"/>
    <tag k="ref:vcgi:esiteid" v="111895"/>
  </node>
  <node id="-278" visible="true" lat="44.709714369882" lon="-72.18679393939">
    <tag k="addr:city" v="Glover"/>
    <tag k="addr:housenumber" v="132"/>
    <tag k="addr:street" v="Deer Lane"/>
    <tag k="addr:state" v="VT"/>
    <tag k="ref:vcgi:esiteid" v="111896"/>
  </node>
  <node id="-279" visible="true" lat="44.709614046768" lon="-72.186153989546">
    <tag k="addr:city" v="Glover"/>
    <tag k="addr:housenumber" v="35"/>
    <tag k="addr:street" v="Meadow Lane"/>
    <tag k="addr:state" v="VT"/>
    <tag k="ref:vcgi:esiteid" v="111897"/>
  </node>
  <node id="-281" visible="true" lat="44.709101464827" lon="-72.1868027494">
    <tag k="addr:city" v="Glover"/>
    <tag k="addr:housenumber" v="95"/>
    <tag k="addr:street" v="Deer Lane"/>
    <tag k="addr:state" v="VT"/>
    <tag k="ref:vcgi:esiteid" v="111899"/>
  </node>
  <node id="-283" visible="true" lat="44.708443999665" lon="-72.186432083195">
    <tag k="addr:city" v="Glover"/>
    <tag k="addr:housenumber" v="42"/>
    <tag k="addr:street" v="Deer Lane"/>
    <tag k="addr:state" v="VT"/>
    <tag k="ref:vcgi:esiteid" v="111901"/>
  </node>
  <node id="-285" visible="true" lat="44.708015366476" lon="-72.186531664725">
    <tag k="addr:city" v="Glover"/>
    <tag k="addr:housenumber" v="2836"/>
    <tag k="addr:street" v="Glover Street"/>
    <tag k="addr:state" v="VT"/>
    <tag k="ref:vcgi:esiteid" v="111903"/>
  </node>
  <node id="-288" visible="true" lat="44.70773882794" lon="-72.187756883098">
    <tag k="addr:city" v="Glover"/>
    <tag k="addr:housenumber" v="66"/>
    <tag k="addr:street" v="Bean Hill Road"/>
    <tag k="addr:state" v="VT"/>
    <tag k="ref:vcgi:esiteid" v="111906"/>
  </node>
  <node id="-289" visible="true" lat="44.70783657283" lon="-72.186683094707">
    <tag k="addr:city" v="Glover"/>
    <tag k="addr:housenumber" v="2864"/>
    <tag k="addr:street" v="Glover Street"/>
    <tag k="addr:state" v="VT"/>
    <tag k="ref:vcgi:esiteid" v="111907"/>
  </node>
  <node id="-292" visible="true" lat="44.707531381451" lon="-72.186888161905">
    <tag k="addr:city" v="Glover"/>
    <tag k="addr:housenumber" v="2880"/>
    <tag k="addr:street" v="Glover Street"/>
    <tag k="addr:state" v="VT"/>
    <tag k="ref:vcgi:esiteid" v="111910"/>
  </node>
  <node id="-294" visible="true" lat="44.707401339577" lon="-72.186948154307">
    <tag k="addr:city" v="Glover"/>
    <tag k="addr:housenumber" v="2894"/>
    <tag k="addr:street" v="Glover Street"/>
    <tag k="addr:state" v="VT"/>
    <tag k="ref:vcgi:esiteid" v="111912"/>
  </node>
  <node id="-295" visible="true" lat="44.707238127058" lon="-72.186262031073">
    <tag k="addr:city" v="Glover"/>
    <tag k="addr:housenumber" v="33"/>
    <tag k="addr:street" v="Mill Place"/>
    <tag k="addr:state" v="VT"/>
    <tag k="ref:vcgi:esiteid" v="111913"/>
  </node>
  <node id="-296" visible="true" lat="44.707247130013" lon="-72.185859768948">
    <tag k="addr:city" v="Glover"/>
    <tag k="addr:housenumber" v="57"/>
    <tag k="addr:street" v="Mill Place"/>
    <tag k="addr:state" v="VT"/>
    <tag k="ref:vcgi:esiteid" v="111914"/>
  </node>
  <node id="-297" visible="true" lat="44.707241892254" lon="-72.184854244706">
    <tag k="addr:city" v="Glover"/>
    <tag k="addr:housenumber" v="64"/>
    <tag k="addr:street" v="Pine Place"/>
    <tag k="addr:state" v="VT"/>
    <tag k="ref:vcgi:esiteid" v="111915"/>
  </node>
  <node id="-299" visible="true" lat="44.706982936063" lon="-72.184418995494">
    <tag k="addr:city" v="Glover"/>
    <tag k="addr:housenumber" v="42"/>
    <tag k="addr:street" v="Pine Place"/>
    <tag k="addr:state" v="VT"/>
    <tag k="ref:vcgi:esiteid" v="111917"/>
  </node>
  <node id="-301" visible="true" lat="44.706961363922" lon="-72.18623190508">
    <tag k="addr:city" v="Glover"/>
    <tag k="addr:housenumber" v="23"/>
    <tag k="addr:street" v="Dexter Mountain Road"/>
    <tag k="addr:state" v="VT"/>
    <tag k="ref:vcgi:esiteid" v="111919"/>
  </node>
  <node id="-302" visible="true" lat="44.706831682749" lon="-72.187356986293">
    <tag k="addr:city" v="Glover"/>
    <tag k="addr:housenumber" v="9"/>
    <tag k="addr:street" v="Bean Hill Road"/>
    <tag k="addr:state" v="VT"/>
    <tag k="ref:vcgi:esiteid" v="111920"/>
  </node>
  <node id="-304" visible="true" lat="44.706848752685" lon="-72.18565431057">
    <tag k="addr:city" v="Glover"/>
    <tag k="addr:housenumber" v="57"/>
    <tag k="addr:street" v="Dexter Mountain Road"/>
    <tag k="addr:state" v="VT"/>
    <tag k="ref:vcgi:esiteid" v="111922"/>
  </node>
  <node id="-305" visible="true" lat="44.7067061916" lon="-72.185305691962">
    <tag k="addr:city" v="Glover"/>
    <tag k="addr:housenumber" v="77"/>
    <tag k="addr:street" v="Dexter Mountain Road"/>
    <tag k="addr:state" v="VT"/>
    <tag k="ref:vcgi:esiteid" v="111923"/>
  </node>
  <node id="-306" visible="true" lat="44.706705684686" lon="-72.187299900773">
    <tag k="addr:city" v="Glover"/>
    <tag k="addr:housenumber" v="2944"/>
    <tag k="addr:street" v="Glover Street"/>
    <tag k="addr:state" v="VT"/>
    <tag k="ref:vcgi:esiteid" v="111924"/>
  </node>
  <node id="-307" visible="true" lat="44.706684846793" lon="-72.186642742012">
    <tag k="addr:city" v="Glover"/>
    <tag k="addr:housenumber" v="28"/>
    <tag k="addr:street" v="Dexter Mountain Road"/>
    <tag k="addr:state" v="VT"/>
    <tag k="ref:vcgi:esiteid" v="111925"/>
  </node>
  <node id="-308" visible="true" lat="44.706614182817" lon="-72.185037648517">
    <tag k="addr:city" v="Glover"/>
    <tag k="addr:housenumber" v="95"/>
    <tag k="addr:street" v="Dexter Mountain Road"/>
    <tag k="addr:state" v="VT"/>
    <tag k="ref:vcgi:esiteid" v="111926"/>
  </node>
  <node id="-310" visible="true" lat="44.706558865279" lon="-72.18744758676">
    <tag k="addr:city" v="Glover"/>
    <tag k="addr:housenumber" v="2956"/>
    <tag k="addr:street" v="Glover Street"/>
    <tag k="addr:state" v="VT"/>
    <tag k="ref:vcgi:esiteid" v="111928"/>
  </node>
  <node id="-313" visible="true" lat="44.706436786921" lon="-72.186694478055">
    <tag k="addr:city" v="Glover"/>
    <tag k="addr:housenumber" v="2949"/>
    <tag k="addr:street" v="Glover Street"/>
    <tag k="addr:state" v="VT"/>
    <tag k="ref:vcgi:esiteid" v="111931"/>
  </node>
  <node id="-314" visible="true" lat="44.706270466717" lon="-72.186873491862">
    <tag k="addr:city" v="Glover"/>
    <tag k="addr:housenumber" v="2957"/>
    <tag k="addr:street" v="Glover Street"/>
    <tag k="addr:state" v="VT"/>
    <tag k="ref:vcgi:esiteid" v="111932"/>
  </node>
  <node id="-316" visible="true" lat="44.706376660601" lon="-72.187561181583">
    <tag k="addr:city" v="Glover"/>
    <tag k="addr:housenumber" v="2972"/>
    <tag k="addr:street" v="Glover Street"/>
    <tag k="addr:state" v="VT"/>
    <tag k="ref:vcgi:esiteid" v="111934"/>
  </node>
  <node id="-317" visible="true" lat="44.706317534877" lon="-72.185379050741">
    <tag k="addr:city" v="Glover"/>
    <tag k="addr:housenumber" v="96"/>
    <tag k="addr:street" v="Dexter Mountain Road"/>
    <tag k="addr:state" v="VT"/>
    <tag k="ref:vcgi:esiteid" v="111935"/>
  </node>
  <node id="-319" visible="true" lat="44.706159346012" lon="-72.187724231344">
    <tag k="addr:city" v="Glover"/>
    <tag k="addr:housenumber" v="2984"/>
    <tag k="addr:street" v="Glover Street"/>
    <tag k="addr:state" v="VT"/>
    <tag k="ref:vcgi:esiteid" v="111937"/>
  </node>
  <node id="-320" visible="true" lat="44.705947568215" lon="-72.187389078953">
    <tag k="addr:city" v="Glover"/>
    <tag k="addr:housenumber" v="2985"/>
    <tag k="addr:street" v="Glover Street"/>
    <tag k="addr:state" v="VT"/>
    <tag k="ref:vcgi:esiteid" v="111938"/>
  </node>
  <node id="-321" visible="true" lat="44.705995041774" lon="-72.187093849015">
    <tag k="addr:city" v="Glover"/>
    <tag k="addr:housenumber" v="2981"/>
    <tag k="addr:street" v="Glover Street"/>
    <tag k="addr:state" v="VT"/>
    <tag k="ref:vcgi:esiteid" v="111939"/>
  </node>
  <node id="-322" visible="true" lat="44.705979256292" lon="-72.184747198541">
    <tag k="addr:city" v="Glover"/>
    <tag k="addr:housenumber" v="134"/>
    <tag k="addr:street" v="Dexter Mountain Road"/>
    <tag k="addr:state" v="VT"/>
    <tag k="ref:vcgi:esiteid" v="111940"/>
  </node>
  <node id="-324" visible="true" lat="44.705812660595" lon="-72.187159638222">
    <tag k="addr:city" v="Glover"/>
    <tag k="addr:housenumber" v="2983"/>
    <tag k="addr:street" v="Glover Street"/>
    <tag k="addr:state" v="VT"/>
    <tag k="ref:vcgi:esiteid" v="111943"/>
  </node>
  <node id="-325" visible="true" lat="44.705932579186" lon="-72.187964921699">
    <tag k="addr:city" v="Glover"/>
    <tag k="addr:housenumber" v="3008"/>
    <tag k="addr:street" v="Glover Street"/>
    <tag k="addr:state" v="VT"/>
    <tag k="ref:vcgi:esiteid" v="111944"/>
  </node>
  <node id="-327" visible="true" lat="44.705667126756" lon="-72.189260685301">
    <tag k="addr:city" v="Glover"/>
    <tag k="addr:housenumber" v="93"/>
    <tag k="addr:street" v="School Street"/>
    <tag k="addr:state" v="VT"/>
    <tag k="ref:vcgi:esiteid" v="111946"/>
  </node>
  <node id="-328" visible="true" lat="44.705776366819" lon="-72.188172037537">
    <tag k="addr:city" v="Glover"/>
    <tag k="addr:housenumber" v="3018"/>
    <tag k="addr:street" v="Glover Street"/>
    <tag k="addr:state" v="VT"/>
    <tag k="ref:vcgi:esiteid" v="111947"/>
  </node>
  <node id="-331" visible="true" lat="44.705575473106" lon="-72.187157792544">
    <tag k="addr:city" v="Glover"/>
    <tag k="addr:housenumber" v="29"/>
    <tag k="addr:street" v="First Place"/>
    <tag k="addr:state" v="VT"/>
    <tag k="ref:vcgi:esiteid" v="111950"/>
  </node>
  <node id="-332" visible="true" lat="44.705587519485" lon="-72.18816411346">
    <tag k="addr:city" v="Glover"/>
    <tag k="addr:housenumber" v="3032"/>
    <tag k="addr:street" v="Glover Street"/>
    <tag k="addr:state" v="VT"/>
    <tag k="ref:vcgi:esiteid" v="111951"/>
  </node>
  <node id="-333" visible="true" lat="44.705430515118" lon="-72.187287491789">
    <tag k="addr:city" v="Glover"/>
    <tag k="addr:housenumber" v="32"/>
    <tag k="addr:street" v="First Place"/>
    <tag k="addr:state" v="VT"/>
    <tag k="ref:vcgi:esiteid" v="111952"/>
  </node>
  <node id="-335" visible="true" lat="44.705362021521" lon="-72.188358642298">
    <tag k="addr:city" v="Glover"/>
    <tag k="addr:housenumber" v="3050"/>
    <tag k="addr:street" v="Glover Street"/>
    <tag k="addr:state" v="VT"/>
    <tag k="ref:vcgi:esiteid" v="111954"/>
  </node>
  <node id="-336" visible="true" lat="44.705191030218" lon="-72.187342538141">
    <tag k="addr:city" v="Glover"/>
    <tag k="addr:housenumber" v="39"/>
    <tag k="addr:street" v="Brooks Place"/>
    <tag k="addr:state" v="VT"/>
    <tag k="ref:vcgi:esiteid" v="111955"/>
  </node>
  <node id="-337" visible="true" lat="44.705153203899" lon="-72.188580534733">
    <tag k="addr:city" v="Glover"/>
    <tag k="addr:housenumber" v="3074"/>
    <tag k="addr:street" v="Glover Street"/>
    <tag k="addr:state" v="VT"/>
    <tag k="ref:vcgi:esiteid" v="111956"/>
  </node>
  <node id="-338" visible="true" lat="44.704830922649" lon="-72.187989842202">
    <tag k="addr:city" v="Glover"/>
    <tag k="addr:housenumber" v="3081"/>
    <tag k="addr:street" v="Glover Street"/>
    <tag k="addr:state" v="VT"/>
    <tag k="ref:vcgi:esiteid" v="111957"/>
  </node>
  <node id="-339" visible="true" lat="44.704970044463" lon="-72.187454688742">
    <tag k="addr:city" v="Glover"/>
    <tag k="addr:housenumber" v="35"/>
    <tag k="addr:street" v="Lilac Lane"/>
    <tag k="addr:state" v="VT"/>
    <tag k="ref:vcgi:esiteid" v="111958"/>
  </node>
  <node id="-340" visible="true" lat="44.70497970534" lon="-72.188881619215">
    <tag k="addr:city" v="Glover"/>
    <tag k="addr:housenumber" v="3086"/>
    <tag k="addr:street" v="Glover Street"/>
    <tag k="addr:state" v="VT"/>
    <tag k="ref:vcgi:esiteid" v="111959"/>
  </node>
  <node id="-341" visible="true" lat="44.704677315933" lon="-72.188086400958">
    <tag k="addr:city" v="Glover"/>
    <tag k="addr:housenumber" v="9"/>
    <tag k="addr:street" v="Doctor Buck Hill"/>
    <tag k="addr:state" v="VT"/>
    <tag k="ref:vcgi:esiteid" v="111960"/>
  </node>
  <node id="-342" visible="true" lat="44.704777851298" lon="-72.186354032437">
    <tag k="addr:city" v="Glover"/>
    <tag k="addr:housenumber" v="130"/>
    <tag k="addr:street" v="Apple Lane"/>
    <tag k="addr:state" v="VT"/>
    <tag k="ref:vcgi:esiteid" v="111961"/>
  </node>
  <node id="-344" visible="true" lat="44.704509220896" lon="-72.188163967776">
    <tag k="addr:city" v="Glover"/>
    <tag k="addr:housenumber" v="3103"/>
    <tag k="addr:street" v="Glover Street"/>
    <tag k="addr:state" v="VT"/>
    <tag k="ref:vcgi:esiteid" v="111963"/>
  </node>
  <node id="-345" visible="true" lat="44.704448461535" lon="-72.189573167078">
    <tag k="addr:city" v="Glover"/>
    <tag k="addr:housenumber" v="3132"/>
    <tag k="addr:street" v="Glover Street"/>
    <tag k="addr:state" v="VT"/>
    <tag k="ref:vcgi:esiteid" v="111964"/>
  </node>
  <node id="-346" visible="true" lat="44.704457841262" lon="-72.189184366594">
    <tag k="addr:city" v="Glover"/>
    <tag k="addr:housenumber" v="3130"/>
    <tag k="addr:street" v="Glover Street"/>
    <tag k="addr:state" v="VT"/>
    <tag k="ref:vcgi:esiteid" v="111965"/>
  </node>
  <node id="-347" visible="true" lat="44.704385694587" lon="-72.188904132414">
    <tag k="addr:city" v="Glover"/>
    <tag k="addr:housenumber" v="3122"/>
    <tag k="addr:street" v="Glover Street"/>
    <tag k="addr:state" v="VT"/>
    <tag k="ref:vcgi:esiteid" v="111966"/>
  </node>
  <node id="-348" visible="true" lat="44.704242461777" lon="-72.187419932876">
    <tag k="addr:city" v="Glover"/>
    <tag k="addr:housenumber" v="54"/>
    <tag k="addr:street" v="Doctor Buck Hill"/>
    <tag k="addr:state" v="VT"/>
    <tag k="ref:vcgi:esiteid" v="111967"/>
  </node>
  <node id="-350" visible="true" lat="44.70411294524" lon="-72.18841107437">
    <tag k="addr:city" v="Glover"/>
    <tag k="addr:housenumber" v="3127"/>
    <tag k="addr:street" v="Glover Street"/>
    <tag k="addr:state" v="VT"/>
    <tag k="ref:vcgi:esiteid" v="111969"/>
  </node>
  <node id="-351" visible="true" lat="44.704365151404" lon="-72.190129588096">
    <tag k="addr:city" v="Glover"/>
    <tag k="addr:housenumber" v="64"/>
    <tag k="addr:street" v="Still Hill"/>
    <tag k="addr:state" v="VT"/>
    <tag k="ref:vcgi:esiteid" v="111970"/>
  </node>
  <node id="-353" visible="true" lat="44.703744219393" lon="-72.188549767708">
    <tag k="addr:city" v="Glover"/>
    <tag k="addr:housenumber" v="3153"/>
    <tag k="addr:street" v="Glover Street"/>
    <tag k="addr:state" v="VT"/>
    <tag k="ref:vcgi:esiteid" v="111972"/>
  </node>
  <node id="-354" visible="true" lat="44.703692209915" lon="-72.189140038918">
    <tag k="addr:city" v="Glover"/>
    <tag k="addr:housenumber" v="21"/>
    <tag k="addr:street" v="Still Hill"/>
    <tag k="addr:state" v="VT"/>
    <tag k="ref:vcgi:esiteid" v="111973"/>
  </node>
  <node id="-355" visible="true" lat="44.703632999426" lon="-72.19045543682">
    <tag k="addr:city" v="Glover"/>
    <tag k="addr:housenumber" v="82"/>
    <tag k="addr:street" v="Still Hill"/>
    <tag k="addr:state" v="VT"/>
    <tag k="ref:vcgi:esiteid" v="111974"/>
  </node>
  <node id="-357" visible="true" lat="44.703207876998" lon="-72.188837502682">
    <tag k="addr:city" v="Glover"/>
    <tag k="addr:housenumber" v="3199"/>
    <tag k="addr:street" v="Glover Street"/>
    <tag k="addr:state" v="VT"/>
    <tag k="ref:vcgi:esiteid" v="111976"/>
  </node>
  <node id="-358" visible="true" lat="44.702911640315" lon="-72.190618259129">
    <tag k="addr:city" v="Glover"/>
    <tag k="addr:housenumber" v="135"/>
    <tag k="addr:street" v="Still Hill"/>
    <tag k="addr:state" v="VT"/>
    <tag k="ref:vcgi:esiteid" v="111977"/>
  </node>
  <node id="-360" visible="true" lat="44.702859380704" lon="-72.188794212589">
    <tag k="addr:city" v="Glover"/>
    <tag k="addr:housenumber" v="3235"/>
    <tag k="addr:street" v="Glover Street"/>
    <tag k="addr:state" v="VT"/>
    <tag k="ref:vcgi:esiteid" v="111979"/>
  </node>
  <node id="-363" visible="true" lat="44.702373545819" lon="-72.190657012105">
    <tag k="addr:city" v="Glover"/>
    <tag k="addr:housenumber" v="33"/>
    <tag k="addr:street" v="Raymond Terrace"/>
    <tag k="addr:state" v="VT"/>
    <tag k="ref:vcgi:esiteid" v="111982"/>
  </node>
  <node id="-364" visible="true" lat="44.702155914268" lon="-72.190680764928">
    <tag k="addr:city" v="Glover"/>
    <tag k="addr:housenumber" v="43"/>
    <tag k="addr:street" v="Raymond Terrace"/>
    <tag k="addr:state" v="VT"/>
    <tag k="ref:vcgi:esiteid" v="111983"/>
  </node>
  <node id="-365" visible="true" lat="44.702132352422" lon="-72.191348889436">
    <tag k="addr:city" v="Glover"/>
    <tag k="addr:housenumber" v="203"/>
    <tag k="addr:street" v="Still Hill"/>
    <tag k="addr:state" v="VT"/>
    <tag k="ref:vcgi:esiteid" v="111984"/>
  </node>
  <node id="-368" visible="true" lat="44.701807517177" lon="-72.190824418498">
    <tag k="addr:city" v="Glover"/>
    <tag k="addr:housenumber" v="69"/>
    <tag k="addr:street" v="Raymond Terrace"/>
    <tag k="addr:state" v="VT"/>
    <tag k="ref:vcgi:esiteid" v="111987"/>
  </node>
  <node id="-369" visible="true" lat="44.701449385048" lon="-72.188639291462">
    <tag k="addr:city" v="Glover"/>
    <tag k="addr:housenumber" v="3333"/>
    <tag k="addr:street" v="Glover Street"/>
    <tag k="addr:state" v="VT"/>
    <tag k="ref:vcgi:esiteid" v="111988"/>
  </node>
  <node id="-372" visible="true" lat="44.700890018602" lon="-72.192196221149">
    <tag k="addr:city" v="Glover"/>
    <tag k="addr:housenumber" v="291"/>
    <tag k="addr:street" v="Still Hill"/>
    <tag k="addr:state" v="VT"/>
    <tag k="ref:vcgi:esiteid" v="111991"/>
  </node>
  <node id="-373" visible="true" lat="44.700843772663" lon="-72.192975413727">
    <tag k="addr:city" v="Glover"/>
    <tag k="addr:housenumber" v="322"/>
    <tag k="addr:street" v="Still Hill"/>
    <tag k="addr:state" v="VT"/>
    <tag k="ref:vcgi:esiteid" v="111992"/>
  </node>
  <node id="-375" visible="true" lat="44.700561451676" lon="-72.192470478313">
    <tag k="addr:city" v="Glover"/>
    <tag k="addr:housenumber" v="323"/>
    <tag k="addr:street" v="Still Hill"/>
    <tag k="addr:state" v="VT"/>
    <tag k="ref:vcgi:esiteid" v="111994"/>
  </node>
  <node id="-378" visible="true" lat="44.70014547474" lon="-72.192900334758">
    <tag k="addr:city" v="Glover"/>
    <tag k="addr:housenumber" v="355"/>
    <tag k="addr:street" v="Still Hill"/>
    <tag k="addr:state" v="VT"/>
    <tag k="ref:vcgi:esiteid" v="111997"/>
  </node>
  <node id="-380" visible="true" lat="44.700183297474" lon="-72.189290136964">
    <tag k="addr:city" v="Glover"/>
    <tag k="addr:housenumber" v="3433"/>
    <tag k="addr:street" v="Glover Street"/>
    <tag k="addr:state" v="VT"/>
    <tag k="ref:vcgi:esiteid" v="111999"/>
  </node>
  <node id="-444" visible="true" lat="44.684278535518" lon="-72.177852347199">
    <tag k="addr:city" v="Glover"/>
    <tag k="addr:housenumber" v="753"/>
    <tag k="addr:street" v="Heights Road"/>
    <tag k="addr:state" v="VT"/>
    <tag k="ref:vcgi:esiteid" v="112064"/>
  </node>
  <node id="-469" visible="true" lat="44.680274142807" lon="-72.259921019318">
    <tag k="addr:city" v="Glover"/>
    <tag k="addr:housenumber" v="590"/>
    <tag k="addr:street" v="Daniels Pond Road"/>
    <tag k="addr:state" v="VT"/>
    <tag k="ref:vcgi:esiteid" v="112090"/>
  </node>
  <node id="-485" visible="true" lat="44.678307669583" lon="-72.261585182181">
    <tag k="addr:city" v="Glover"/>
    <tag k="addr:housenumber" v="495"/>
    <tag k="addr:street" v="Daniels Pond Road"/>
    <tag k="addr:state" v="VT"/>
    <tag k="ref:vcgi:esiteid" v="112106"/>
  </node>
  <node id="-488" visible="true" lat="44.678451173534" lon="-72.2625933918">
    <tag k="addr:city" v="Glover"/>
    <tag k="addr:housenumber" v="497"/>
    <tag k="addr:street" v="Daniels Pond Road"/>
    <tag k="addr:state" v="VT"/>
    <tag k="ref:vcgi:esiteid" v="112109"/>
  </node>
  <node id="-489" visible="true" lat="44.678188903435" lon="-72.259927456785">
    <tag k="addr:city" v="Glover"/>
    <tag k="addr:housenumber" v="402"/>
    <tag k="addr:street" v="Daniels Pond Road"/>
    <tag k="addr:state" v="VT"/>
    <tag k="ref:vcgi:esiteid" v="112110"/>
  </node>
  <node id="-494" visible="true" lat="44.677217295652" lon="-72.258995461914">
    <tag k="addr:city" v="Glover"/>
    <tag k="addr:housenumber" v="364"/>
    <tag k="addr:street" v="Daniels Pond Road"/>
    <tag k="addr:state" v="VT"/>
    <tag k="ref:vcgi:esiteid" v="112115"/>
  </node>
  <node id="-495" visible="true" lat="44.677163220113" lon="-72.259764517574">
    <tag k="addr:city" v="Glover"/>
    <tag k="addr:housenumber" v="385"/>
    <tag k="addr:street" v="Daniels Pond Road"/>
    <tag k="addr:state" v="VT"/>
    <tag k="ref:vcgi:esiteid" v="112116"/>
  </node>
  <node id="-498" visible="true" lat="44.677010415808" lon="-72.259342439771">
    <tag k="addr:city" v="Glover"/>
    <tag k="addr:housenumber" v="361"/>
    <tag k="addr:street" v="Daniels Pond Road"/>
    <tag k="addr:state" v="VT"/>
    <tag k="ref:vcgi:esiteid" v="112119"/>
  </node>
  <node id="-499" visible="true" lat="44.676716470938" lon="-72.259275008836">
    <tag k="addr:city" v="Glover"/>
    <tag k="addr:housenumber" v="347"/>
    <tag k="addr:street" v="Daniels Pond Road"/>
    <tag k="addr:state" v="VT"/>
    <tag k="ref:vcgi:esiteid" v="112120"/>
  </node>
  <node id="-500" visible="true" lat="44.676468674104" lon="-72.258921100243">
    <tag k="addr:city" v="Glover"/>
    <tag k="addr:housenumber" v="313"/>
    <tag k="addr:street" v="Daniels Pond Road"/>
    <tag k="addr:state" v="VT"/>
    <tag k="ref:vcgi:esiteid" v="112121"/>
  </node>
  <node id="-503" visible="true" lat="44.676084395711" lon="-72.258554383384">
    <tag k="addr:city" v="Glover"/>
    <tag k="addr:housenumber" v="279"/>
    <tag k="addr:street" v="Daniels Pond Road"/>
    <tag k="addr:state" v="VT"/>
    <tag k="ref:vcgi:esiteid" v="112124"/>
  </node>
  <node id="-505" visible="true" lat="44.676067983869" lon="-72.258171536327">
    <tag k="addr:city" v="Glover"/>
    <tag k="addr:housenumber" v="271"/>
    <tag k="addr:street" v="Daniels Pond Road"/>
    <tag k="addr:state" v="VT"/>
    <tag k="ref:vcgi:esiteid" v="112126"/>
  </node>
  <node id="-509" visible="true" lat="44.676015786236" lon="-72.257204539044">
    <tag k="addr:city" v="Glover"/>
    <tag k="addr:housenumber" v="222"/>
    <tag k="addr:street" v="Daniels Pond Road"/>
    <tag k="addr:state" v="VT"/>
    <tag k="ref:vcgi:esiteid" v="112130"/>
  </node>
  <node id="-510" visible="true" lat="44.675706830063" lon="-72.257924980344">
    <tag k="addr:city" v="Glover"/>
    <tag k="addr:housenumber" v="239"/>
    <tag k="addr:street" v="Daniels Pond Road"/>
    <tag k="addr:state" v="VT"/>
    <tag k="ref:vcgi:esiteid" v="112131"/>
  </node>
  <node id="-513" visible="true" lat="44.675370642818" lon="-72.257317669602">
    <tag k="addr:city" v="Glover"/>
    <tag k="addr:housenumber" v="211"/>
    <tag k="addr:street" v="Daniels Pond Road"/>
    <tag k="addr:state" v="VT"/>
    <tag k="ref:vcgi:esiteid" v="112134"/>
  </node>
  <node id="-514" visible="true" lat="44.675085877242" lon="-72.257101073252">
    <tag k="addr:city" v="Glover"/>
    <tag k="addr:housenumber" v="175"/>
    <tag k="addr:street" v="Daniels Pond Road"/>
    <tag k="addr:state" v="VT"/>
    <tag k="ref:vcgi:esiteid" v="112135"/>
  </node>
  <node id="-516" visible="true" lat="44.675053561951" lon="-72.256615702096">
    <tag k="addr:city" v="Glover"/>
    <tag k="addr:housenumber" v="164"/>
    <tag k="addr:street" v="Daniels Pond Road"/>
    <tag k="addr:state" v="VT"/>
    <tag k="ref:vcgi:esiteid" v="112137"/>
  </node>
  <node id="-519" visible="true" lat="44.674847734841" lon="-72.257094180407">
    <tag k="addr:city" v="Glover"/>
    <tag k="addr:housenumber" v="151"/>
    <tag k="addr:street" v="Daniels Pond Road"/>
    <tag k="addr:state" v="VT"/>
    <tag k="ref:vcgi:esiteid" v="112140"/>
  </node>
  <node id="-520" visible="true" lat="44.674693474853" lon="-72.256793130548">
    <tag k="addr:city" v="Glover"/>
    <tag k="addr:housenumber" v="142"/>
    <tag k="addr:street" v="Daniels Pond Road"/>
    <tag k="addr:state" v="VT"/>
    <tag k="ref:vcgi:esiteid" v="112141"/>
  </node>
  <node id="-524" visible="true" lat="44.674367277313" lon="-72.257677381701">
    <tag k="addr:city" v="Glover"/>
    <tag k="addr:housenumber" v="30"/>
    <tag k="addr:street" v="Cold Spring Lane"/>
    <tag k="addr:state" v="VT"/>
    <tag k="ref:vcgi:esiteid" v="112145"/>
  </node>
  <node id="-525" visible="true" lat="44.674384378606" lon="-72.25912345006">
    <tag k="addr:city" v="Glover"/>
    <tag k="addr:housenumber" v="102"/>
    <tag k="addr:street" v="Cold Spring Lane"/>
    <tag k="addr:state" v="VT"/>
    <tag k="ref:vcgi:esiteid" v="112146"/>
  </node>
  <node id="-526" visible="true" lat="44.674414819293" lon="-72.258010705423">
    <tag k="addr:city" v="Glover"/>
    <tag k="addr:housenumber" v="44"/>
    <tag k="addr:street" v="Cold Spring Lane"/>
    <tag k="addr:state" v="VT"/>
    <tag k="ref:vcgi:esiteid" v="112147"/>
  </node>
  <node id="-528" visible="true" lat="44.67416919598" lon="-72.256895746355">
    <tag k="addr:city" v="Glover"/>
    <tag k="addr:housenumber" v="112"/>
    <tag k="addr:street" v="Daniels Pond Road"/>
    <tag k="addr:state" v="VT"/>
    <tag k="ref:vcgi:esiteid" v="112149"/>
  </node>
  <node id="-529" visible="true" lat="44.674178592301" lon="-72.258379724234">
    <tag k="addr:city" v="Glover"/>
    <tag k="addr:housenumber" v="53"/>
    <tag k="addr:street" v="Cold Spring Lane"/>
    <tag k="addr:state" v="VT"/>
    <tag k="ref:vcgi:esiteid" v="112150"/>
  </node>
  <node id="-532" visible="true" lat="44.674133244169" lon="-72.257770290803">
    <tag k="addr:city" v="Glover"/>
    <tag k="addr:housenumber" v="23"/>
    <tag k="addr:street" v="Cold Spring Lane"/>
    <tag k="addr:state" v="VT"/>
    <tag k="ref:vcgi:esiteid" v="112153"/>
  </node>
  <node id="-533" visible="true" lat="44.674209867342" lon="-72.259813791043">
    <tag k="addr:city" v="Glover"/>
    <tag k="addr:housenumber" v="122"/>
    <tag k="addr:street" v="Cold Spring Lane"/>
    <tag k="addr:state" v="VT"/>
    <tag k="ref:vcgi:esiteid" v="112154"/>
  </node>
  <node id="-536" visible="true" lat="44.674022552591" lon="-72.259279985231">
    <tag k="addr:city" v="Glover"/>
    <tag k="addr:housenumber" v="117"/>
    <tag k="addr:street" v="Cold Spring Lane"/>
    <tag k="addr:state" v="VT"/>
    <tag k="ref:vcgi:esiteid" v="112157"/>
  </node>
  <node id="-537" visible="true" lat="44.674122743249" lon="-72.260509933964">
    <tag k="addr:city" v="Glover"/>
    <tag k="addr:housenumber" v="170"/>
    <tag k="addr:street" v="Cold Spring Lane"/>
    <tag k="addr:state" v="VT"/>
    <tag k="ref:vcgi:esiteid" v="112158"/>
  </node>
  <node id="-538" visible="true" lat="44.674111266395" lon="-72.26004378433">
    <tag k="addr:city" v="Glover"/>
    <tag k="addr:housenumber" v="150"/>
    <tag k="addr:street" v="Cold Spring Lane"/>
    <tag k="addr:state" v="VT"/>
    <tag k="ref:vcgi:esiteid" v="112159"/>
  </node>
  <node id="-541" visible="true" lat="44.674068183546" lon="-72.26259983152">
    <tag k="addr:city" v="Glover"/>
    <tag k="addr:housenumber" v="226"/>
    <tag k="addr:street" v="Cold Spring Lane"/>
    <tag k="addr:state" v="VT"/>
    <tag k="ref:vcgi:esiteid" v="112162"/>
  </node>
  <node id="-542" visible="true" lat="44.674004866134" lon="-72.256610671583">
    <tag k="addr:city" v="Glover"/>
    <tag k="addr:housenumber" v="78"/>
    <tag k="addr:street" v="Daniels Pond Road"/>
    <tag k="addr:state" v="VT"/>
    <tag k="ref:vcgi:esiteid" v="112163"/>
  </node>
  <node id="-543" visible="true" lat="44.674018265505" lon="-72.261411080366">
    <tag k="addr:city" v="Glover"/>
    <tag k="addr:housenumber" v="212"/>
    <tag k="addr:street" v="Cold Spring Lane"/>
    <tag k="addr:state" v="VT"/>
    <tag k="ref:vcgi:esiteid" v="112164"/>
  </node>
  <node id="-546" visible="true" lat="44.672859390471" lon="-72.18889524755">
    <tag k="addr:city" v="Glover"/>
    <tag k="addr:housenumber" v="37"/>
    <tag k="addr:street" v="Sand Hill"/>
    <tag k="addr:state" v="VT"/>
    <tag k="ref:vcgi:esiteid" v="112167"/>
  </node>
  <node id="-794" visible="true" lat="44.675005744629" lon="-72.180350864112">
    <tag k="addr:city" v="Glover"/>
    <tag k="addr:housenumber" v="185"/>
    <tag k="addr:street" v="Sand Hill"/>
    <tag k="addr:state" v="VT"/>
    <tag k="ref:vcgi:esiteid" v="112419"/>
  </node>
  <node id="-795" visible="true" lat="44.706335163949" lon="-72.185837309303">
    <tag k="addr:city" v="Glover"/>
    <tag k="addr:housenumber" v="40"/>
    <tag k="addr:street" v="Dexter Mountain Road"/>
    <tag k="addr:state" v="VT"/>
    <tag k="ref:vcgi:esiteid" v="112420"/>
  </node>
  <node id="-844" visible="true" lat="44.63738522222" lon="-72.193915787711">
    <tag k="addr:city" v="Glover"/>
    <tag k="addr:housenumber" v="1098"/>
    <tag k="addr:street" v="Square Road"/>
    <tag k="addr:state" v="VT"/>
    <tag k="ref:vcgi:esiteid" v="310083"/>
  </node>
  <node id="-846" visible="true" lat="44.711210021153" lon="-72.182420697121">
    <tag k="addr:city" v="Glover"/>
    <tag k="addr:housenumber" v="101"/>
    <tag k="addr:street" v="Talbot Lane"/>
    <tag k="addr:state" v="VT"/>
    <tag k="ref:vcgi:esiteid" v="310085"/>
  </node>
  <node id="-847" visible="true" lat="44.707777766536" lon="-72.186245875902">
    <tag k="addr:city" v="Glover"/>
    <tag k="addr:housenumber" v="2861"/>
    <tag k="addr:street" v="Glover Street"/>
    <tag k="addr:state" v="VT"/>
    <tag k="ref:vcgi:esiteid" v="310086"/>
  </node>
  <node id="-848" visible="true" lat="44.706140689328" lon="-72.185089611639">
    <tag k="addr:city" v="Glover"/>
    <tag k="addr:housenumber" v="20"/>
    <tag k="addr:street" v="Apple Lane"/>
    <tag k="addr:state" v="VT"/>
    <tag k="ref:vcgi:esiteid" v="310087"/>
  </node>
  <node id="-849" visible="true" lat="44.702619014715" lon="-72.191874075041">
    <tag k="addr:city" v="Glover"/>
    <tag k="addr:housenumber" v="158"/>
    <tag k="addr:street" v="Still Hill"/>
    <tag k="addr:state" v="VT"/>
    <tag k="ref:vcgi:esiteid" v="310088"/>
  </node>
  <node id="-850" visible="true" lat="44.673593250614" lon="-72.263477179309">
    <tag k="addr:city" v="Glover"/>
    <tag k="addr:housenumber" v="227"/>
    <tag k="addr:street" v="Cold Spring Lane"/>
    <tag k="addr:state" v="VT"/>
    <tag k="ref:vcgi:esiteid" v="310089"/>
  </node>
  <node id="-891" visible="true" lat="44.709516437004" lon="-72.181172617798">
    <tag k="addr:city" v="Glover"/>
    <tag k="addr:housenumber" v="131"/>
    <tag k="addr:street" v="Talbot Lane"/>
    <tag k="addr:state" v="VT"/>
    <tag k="ref:vcgi:esiteid" v="343462"/>
  </node>
  <node id="-892" visible="true" lat="44.676807524863" lon="-72.258215694548">
    <tag k="addr:city" v="Glover"/>
    <tag k="addr:housenumber" v="294"/>
    <tag k="addr:street" v="Daniels Pond Road"/>
    <tag k="addr:state" v="VT"/>
    <tag k="ref:vcgi:esiteid" v="343463"/>
  </node>
  <node id="-910" visible="true" lat="44.674016351816" lon="-72.262074322308">
    <tag k="addr:city" v="Glover"/>
    <tag k="addr:housenumber" v="224"/>
    <tag k="addr:street" v="Cold Spring Lane"/>
    <tag k="addr:state" v="VT"/>
    <tag k="ref:vcgi:esiteid" v="452697"/>
  </node>
  <node id="-926" visible="true" lat="44.700202933671" lon="-72.191935476413">
    <tag k="addr:city" v="Glover"/>
    <tag k="addr:housenumber" v="227"/>
    <tag k="addr:street" v="Still Hill"/>
    <tag k="addr:state" v="VT"/>
    <tag k="ref:vcgi:esiteid" v="610364"/>
  </node>
  <node id="-950" visible="true" lat="44.673626749364" lon="-72.25655419543">
    <tag k="addr:city" v="Glover"/>
    <tag k="addr:housenumber" v="56"/>
    <tag k="addr:street" v="Daniels Pond Road"/>
    <tag k="addr:state" v="VT"/>
    <tag k="ref:vcgi:esiteid" v="752116"/>
  </node>
</osm>
