<?xml version="1.0" encoding="UTF-8"?>
<osm version="0.6" generator="JOSM" upload="false">
  <node id="-165" visible="true" lat="44.618936052729" lon="-72.208077591574">
    <!-- duplicates-in-different-towns: "6366 Vermont Route 16, Greensboro Bend, VT"  ignoring town mismatch for duplicate housenumber/street when matching to esiteid 285627: "6366 Vermont Route 16, , VT" -->
    <tag k="addr:city" v="Greensboro Bend"/>
    <tag k="addr:housenumber" v="6366"/>
    <tag k="addr:street" v="Vermont Route 16"/>
    <tag k="addr:state" v="VT"/>
    <tag k="ref:vcgi:esiteid" v="114885"/>
  </node>
</osm>
