<?xml version="1.0" encoding="UTF-8"?>
<osm version="0.6" generator="JOSM" upload="false">
  <node id="-100" visible="true" lat="44.589589602263" lon="-71.597489312549">
    <tag k="addr:city" v="Guildhall"/>
    <tag k="addr:housenumber" v="1801"/>
    <tag k="addr:street" v="North Road"/>
    <tag k="addr:state" v="VT"/>
    <tag k="ref:vcgi:esiteid" v="116604"/>
  </node>
  <node id="-101" visible="true" lat="44.587369062554" lon="-71.598525845458">
    <tag k="addr:city" v="Guildhall"/>
    <tag k="addr:housenumber" v="1641"/>
    <tag k="addr:street" v="North Road"/>
    <tag k="addr:state" v="VT"/>
    <tag k="ref:vcgi:esiteid" v="116605"/>
  </node>
  <node id="-102" visible="true" lat="44.586323871601" lon="-71.599048094152">
    <tag k="addr:city" v="Guildhall"/>
    <tag k="addr:housenumber" v="1565"/>
    <tag k="addr:street" v="North Road"/>
    <tag k="addr:state" v="VT"/>
    <tag k="ref:vcgi:esiteid" v="116606"/>
  </node>
  <node id="-103" visible="true" lat="44.584812908107" lon="-71.597937658458">
    <tag k="addr:city" v="Guildhall"/>
    <tag k="addr:housenumber" v="1457"/>
    <tag k="addr:street" v="North Road"/>
    <tag k="addr:state" v="VT"/>
    <tag k="ref:vcgi:esiteid" v="116607"/>
  </node>
  <node id="-104" visible="true" lat="44.584890958405" lon="-71.597030222338">
    <tag k="addr:city" v="Guildhall"/>
    <tag k="addr:housenumber" v="1416"/>
    <tag k="addr:street" v="North Road"/>
    <tag k="addr:state" v="VT"/>
    <tag k="ref:vcgi:esiteid" v="116608"/>
  </node>
  <node id="-105" visible="true" lat="44.584633504029" lon="-71.59603700658">
    <tag k="addr:city" v="Guildhall"/>
    <tag k="addr:housenumber" v="1382"/>
    <tag k="addr:street" v="North Road"/>
    <tag k="addr:state" v="VT"/>
    <tag k="ref:vcgi:esiteid" v="116609"/>
  </node>
  <node id="-106" visible="true" lat="44.579509652116" lon="-71.596651232958">
    <tag k="addr:city" v="Guildhall"/>
    <tag k="addr:housenumber" v="1049"/>
    <tag k="addr:street" v="North Road"/>
    <tag k="addr:state" v="VT"/>
    <tag k="ref:vcgi:esiteid" v="116610"/>
  </node>
  <node id="-107" visible="true" lat="44.578095917424" lon="-71.600037528959">
    <tag k="addr:city" v="Guildhall"/>
    <tag k="addr:housenumber" v="925"/>
    <tag k="addr:street" v="North Road"/>
    <tag k="addr:state" v="VT"/>
    <tag k="ref:vcgi:esiteid" v="116611"/>
  </node>
  <node id="-108" visible="true" lat="44.573989979859" lon="-71.59614591042">
    <tag k="addr:city" v="Guildhall"/>
    <tag k="addr:housenumber" v="707"/>
    <tag k="addr:street" v="North Road"/>
    <tag k="addr:state" v="VT"/>
    <tag k="ref:vcgi:esiteid" v="116612"/>
  </node>
  <node id="-109" visible="true" lat="44.574119476458" lon="-71.591167946425">
    <tag k="addr:city" v="Guildhall"/>
    <tag k="addr:housenumber" v="518"/>
    <tag k="addr:street" v="North Road"/>
    <tag k="addr:state" v="VT"/>
    <tag k="ref:vcgi:esiteid" v="116613"/>
  </node>
  <node id="-110" visible="true" lat="44.573428783256" lon="-71.595176958603">
    <tag k="addr:city" v="Guildhall"/>
    <tag k="addr:housenumber" v="647"/>
    <tag k="addr:street" v="North Road"/>
    <tag k="addr:state" v="VT"/>
    <tag k="ref:vcgi:esiteid" v="116614"/>
  </node>
  <node id="-111" visible="true" lat="44.572534088122" lon="-71.59185118634">
    <tag k="addr:city" v="Guildhall"/>
    <tag k="addr:housenumber" v="468"/>
    <tag k="addr:street" v="North Road"/>
    <tag k="addr:state" v="VT"/>
    <tag k="ref:vcgi:esiteid" v="116615"/>
  </node>
  <node id="-112" visible="true" lat="44.571881773365" lon="-71.595047903617">
    <tag k="addr:city" v="Guildhall"/>
    <tag k="addr:housenumber" v="603"/>
    <tag k="addr:street" v="North Road"/>
    <tag k="addr:state" v="VT"/>
    <tag k="ref:vcgi:esiteid" v="116616"/>
  </node>
  <node id="-113" visible="true" lat="44.571577075545" lon="-71.590687728737">
    <tag k="addr:city" v="Guildhall"/>
    <tag k="addr:housenumber" v="388"/>
    <tag k="addr:street" v="North Road"/>
    <tag k="addr:state" v="VT"/>
    <tag k="ref:vcgi:esiteid" v="116617"/>
  </node>
  <node id="-114" visible="true" lat="44.571486025957" lon="-71.591199205265">
    <tag k="addr:city" v="Guildhall"/>
    <tag k="addr:housenumber" v="397"/>
    <tag k="addr:street" v="North Road"/>
    <tag k="addr:state" v="VT"/>
    <tag k="ref:vcgi:esiteid" v="116618"/>
  </node>
  <node id="-115" visible="true" lat="44.57121461472" lon="-71.591028884828">
    <tag k="addr:city" v="Guildhall"/>
    <tag k="addr:housenumber" v="375"/>
    <tag k="addr:street" v="North Road"/>
    <tag k="addr:state" v="VT"/>
    <tag k="ref:vcgi:esiteid" v="116619"/>
  </node>
  <node id="-116" visible="true" lat="44.570466522313" lon="-71.558983744017">
    <tag k="addr:city" v="Guildhall"/>
    <tag k="addr:housenumber" v="7627"/>
    <tag k="addr:street" v="Vermont Route 102"/>
    <tag k="addr:state" v="VT"/>
    <tag k="ref:vcgi:esiteid" v="116620"/>
  </node>
  <node id="-117" visible="true" lat="44.570282888604" lon="-71.591010720515">
    <tag k="addr:city" v="Guildhall"/>
    <tag k="addr:housenumber" v="325"/>
    <tag k="addr:street" v="North Road"/>
    <tag k="addr:state" v="VT"/>
    <tag k="ref:vcgi:esiteid" v="116621"/>
  </node>
  <node id="-118" visible="true" lat="44.568341735669" lon="-71.563103617479">
    <tag k="addr:city" v="Guildhall"/>
    <tag k="addr:housenumber" v="7427"/>
    <tag k="addr:street" v="Vermont Route 102"/>
    <tag k="addr:state" v="VT"/>
    <tag k="ref:vcgi:esiteid" v="116622"/>
  </node>
  <node id="-119" visible="true" lat="44.568124296304" lon="-71.604187920618">
    <tag k="addr:city" v="Guildhall"/>
    <tag k="addr:housenumber" v="429"/>
    <tag k="addr:street" v="Breault Road"/>
    <tag k="addr:state" v="VT"/>
    <tag k="ref:vcgi:esiteid" v="116623"/>
  </node>
  <node id="-120" visible="true" lat="44.567537498092" lon="-71.602024238254">
    <tag k="addr:city" v="Guildhall"/>
    <tag k="addr:housenumber" v="487"/>
    <tag k="addr:street" v="Breault Road"/>
    <tag k="addr:state" v="VT"/>
    <tag k="ref:vcgi:esiteid" v="116624"/>
  </node>
  <node id="-121" visible="true" lat="44.567046355794" lon="-71.58300365603">
    <tag k="addr:city" v="Guildhall"/>
    <tag k="addr:housenumber" v="6087"/>
    <tag k="addr:street" v="Vermont Route 102"/>
    <tag k="addr:state" v="VT"/>
    <tag k="ref:vcgi:esiteid" v="116625"/>
  </node>
  <node id="-122" visible="true" lat="44.56699474465" lon="-71.575505273613">
    <tag k="addr:city" v="Guildhall"/>
    <tag k="addr:housenumber" v="6437"/>
    <tag k="addr:street" v="Vermont Route 102"/>
    <tag k="addr:state" v="VT"/>
    <tag k="ref:vcgi:esiteid" v="116626"/>
  </node>
  <node id="-123" visible="true" lat="44.566860366764" lon="-71.560672126937">
    <tag k="addr:city" v="Guildhall"/>
    <tag k="addr:housenumber" v="7333"/>
    <tag k="addr:street" v="Vermont Route 102"/>
    <tag k="addr:state" v="VT"/>
    <tag k="ref:vcgi:esiteid" v="116627"/>
  </node>
  <node id="-124" visible="true" lat="44.566997315329" lon="-71.579824150785">
    <tag k="addr:city" v="Guildhall"/>
    <tag k="addr:housenumber" v="6253"/>
    <tag k="addr:street" v="Vermont Route 102"/>
    <tag k="addr:state" v="VT"/>
    <tag k="ref:vcgi:esiteid" v="116628"/>
  </node>
  <node id="-125" visible="true" lat="44.566847484376" lon="-71.585029591383">
    <tag k="addr:city" v="Guildhall"/>
    <tag k="addr:housenumber" v="5985"/>
    <tag k="addr:street" v="Vermont Route 102"/>
    <tag k="addr:state" v="VT"/>
    <tag k="ref:vcgi:esiteid" v="116629"/>
  </node>
  <node id="-126" visible="true" lat="44.566693981958" lon="-71.576392035309">
    <tag k="addr:city" v="Guildhall"/>
    <tag k="addr:housenumber" v="6417"/>
    <tag k="addr:street" v="Vermont Route 102"/>
    <tag k="addr:state" v="VT"/>
    <tag k="ref:vcgi:esiteid" v="116630"/>
  </node>
  <node id="-127" visible="true" lat="44.566794030187" lon="-71.577751075135">
    <tag k="addr:city" v="Guildhall"/>
    <tag k="addr:housenumber" v="6347"/>
    <tag k="addr:street" v="Vermont Route 102"/>
    <tag k="addr:state" v="VT"/>
    <tag k="ref:vcgi:esiteid" v="116631"/>
  </node>
  <node id="-128" visible="true" lat="44.566653715453" lon="-71.587618001441">
    <tag k="addr:city" v="Guildhall"/>
    <tag k="addr:housenumber" v="12"/>
    <tag k="addr:street" v="North Road"/>
    <tag k="addr:state" v="VT"/>
    <tag k="ref:vcgi:esiteid" v="116635"/>
  </node>
  <node id="-129" visible="true" lat="44.566507425865" lon="-71.588431406249">
    <tag k="addr:city" v="Guildhall"/>
    <tag k="addr:housenumber" v="5813"/>
    <tag k="addr:street" v="Vermont Route 102"/>
    <tag k="addr:state" v="VT"/>
    <tag k="ref:vcgi:esiteid" v="116636"/>
  </node>
  <node id="-130" visible="true" lat="44.566327730287" lon="-71.560604361899">
    <tag k="addr:city" v="Guildhall"/>
    <tag k="addr:housenumber" v="7311"/>
    <tag k="addr:street" v="Vermont Route 102"/>
    <tag k="addr:state" v="VT"/>
    <tag k="ref:vcgi:esiteid" v="116637"/>
  </node>
  <node id="-131" visible="true" lat="44.566245930156" lon="-71.560058588136">
    <tag k="addr:city" v="Guildhall"/>
    <tag k="addr:housenumber" v="7310"/>
    <tag k="addr:street" v="Vermont Route 102"/>
    <tag k="addr:state" v="VT"/>
    <tag k="ref:vcgi:esiteid" v="116639"/>
  </node>
  <node id="-132" visible="true" lat="44.566351335196" lon="-71.581417666711">
    <tag k="addr:city" v="Guildhall"/>
    <tag k="addr:housenumber" v="6166"/>
    <tag k="addr:street" v="Vermont Route 102"/>
    <tag k="addr:state" v="VT"/>
    <tag k="ref:vcgi:esiteid" v="116640"/>
  </node>
  <node id="-133" visible="true" lat="44.566369800653" lon="-71.574793608887">
    <tag k="addr:city" v="Guildhall"/>
    <tag k="addr:housenumber" v="6501"/>
    <tag k="addr:street" v="Vermont Route 102"/>
    <tag k="addr:state" v="VT"/>
    <tag k="ref:vcgi:esiteid" v="116641"/>
  </node>
  <node id="-134" visible="true" lat="44.566433993473" lon="-71.589246168906">
    <tag k="addr:city" v="Guildhall"/>
    <tag k="addr:housenumber" v="5775"/>
    <tag k="addr:street" v="Vermont Route 102"/>
    <tag k="addr:state" v="VT"/>
    <tag k="ref:vcgi:esiteid" v="116644"/>
  </node>
  <node id="-135" visible="true" lat="44.566235649942" lon="-71.578606259491">
    <tag k="addr:city" v="Guildhall"/>
    <tag k="addr:housenumber" v="6332"/>
    <tag k="addr:street" v="Vermont Route 102"/>
    <tag k="addr:state" v="VT"/>
    <tag k="ref:vcgi:esiteid" v="116645"/>
  </node>
  <node id="-136" visible="true" lat="44.566141495769" lon="-71.57754422278">
    <tag k="addr:city" v="Guildhall"/>
    <tag k="addr:housenumber" v="6402"/>
    <tag k="addr:street" v="Vermont Route 102"/>
    <tag k="addr:state" v="VT"/>
    <tag k="ref:vcgi:esiteid" v="116646"/>
  </node>
  <node id="-137" visible="true" lat="44.56630745151" lon="-71.590290737368">
    <tag k="addr:city" v="Guildhall"/>
    <tag k="addr:housenumber" v="5727"/>
    <tag k="addr:street" v="Vermont Route 102"/>
    <tag k="addr:state" v="VT"/>
    <tag k="ref:vcgi:esiteid" v="116648"/>
  </node>
  <node id="-138" visible="true" lat="44.565955391886" lon="-71.560673968623">
    <tag k="addr:city" v="Guildhall"/>
    <tag k="addr:housenumber" v="7289"/>
    <tag k="addr:street" v="Vermont Route 102"/>
    <tag k="addr:state" v="VT"/>
    <tag k="ref:vcgi:esiteid" v="116649"/>
  </node>
  <node id="-139" visible="true" lat="44.566000543728" lon="-71.560081624302">
    <tag k="addr:city" v="Guildhall"/>
    <tag k="addr:housenumber" v="7290"/>
    <tag k="addr:street" v="Vermont Route 102"/>
    <tag k="addr:state" v="VT"/>
    <tag k="ref:vcgi:esiteid" v="116650"/>
  </node>
  <node id="-140" visible="true" lat="44.566205076601" lon="-71.586296549177">
    <tag k="addr:city" v="Guildhall"/>
    <tag k="addr:housenumber" v="5908"/>
    <tag k="addr:street" v="Vermont Route 102"/>
    <tag k="addr:state" v="VT"/>
    <tag k="ref:vcgi:esiteid" v="116651"/>
  </node>
  <node id="-141" visible="true" lat="44.565842804885" lon="-71.570482536406">
    <tag k="addr:city" v="Guildhall"/>
    <tag k="addr:housenumber" v="6703"/>
    <tag k="addr:street" v="Vermont Route 102"/>
    <tag k="addr:state" v="VT"/>
    <tag k="ref:vcgi:esiteid" v="116652"/>
  </node>
  <node id="-142" visible="true" lat="44.56586530462" lon="-71.570065629416">
    <tag k="addr:city" v="Guildhall"/>
    <tag k="addr:housenumber" v="6725"/>
    <tag k="addr:street" v="Vermont Route 102"/>
    <tag k="addr:state" v="VT"/>
    <tag k="ref:vcgi:esiteid" v="116653"/>
  </node>
  <node id="-143" visible="true" lat="44.565897357352" lon="-71.576781282465">
    <tag k="addr:city" v="Guildhall"/>
    <tag k="addr:housenumber" v="6412"/>
    <tag k="addr:street" v="Vermont Route 102"/>
    <tag k="addr:state" v="VT"/>
    <tag k="ref:vcgi:esiteid" v="116655"/>
  </node>
  <node id="-144" visible="true" lat="44.565909726089" lon="-71.59281343924">
    <tag k="addr:city" v="Guildhall"/>
    <tag k="addr:housenumber" v="5615"/>
    <tag k="addr:street" v="Vermont Route 102"/>
    <tag k="addr:state" v="VT"/>
    <tag k="ref:vcgi:esiteid" v="116656"/>
  </node>
  <node id="-146" visible="true" lat="44.565566709846" lon="-71.560682311236">
    <tag k="addr:city" v="Guildhall"/>
    <tag k="addr:housenumber" v="91"/>
    <tag k="addr:street" v="Courthouse Drive"/>
    <tag k="addr:state" v="VT"/>
    <tag k="ref:vcgi:esiteid" v="116658"/>
  </node>
  <node id="-147" visible="true" lat="44.565776292751" lon="-71.569469391026">
    <tag k="addr:city" v="Guildhall"/>
    <tag k="addr:housenumber" v="6757"/>
    <tag k="addr:street" v="Vermont Route 102"/>
    <tag k="addr:state" v="VT"/>
    <tag k="ref:vcgi:esiteid" v="116659"/>
  </node>
  <node id="-148" visible="true" lat="44.565727441549" lon="-71.569035512364">
    <tag k="addr:city" v="Guildhall"/>
    <tag k="addr:housenumber" v="6777"/>
    <tag k="addr:street" v="Vermont Route 102"/>
    <tag k="addr:state" v="VT"/>
    <tag k="ref:vcgi:esiteid" v="116661"/>
  </node>
  <node id="-149" visible="true" lat="44.565632072807" lon="-71.560068475323">
    <tag k="addr:city" v="Guildhall"/>
    <tag k="addr:housenumber" v="7266"/>
    <tag k="addr:street" v="Vermont Route 102"/>
    <tag k="addr:state" v="VT"/>
    <tag k="ref:vcgi:esiteid" v="116662"/>
  </node>
  <node id="-150" visible="true" lat="44.565592287086" lon="-71.560976719415">
    <tag k="addr:city" v="Guildhall"/>
    <tag k="addr:housenumber" v="75"/>
    <tag k="addr:street" v="Courthouse Drive"/>
    <tag k="addr:state" v="VT"/>
    <tag k="ref:vcgi:esiteid" v="116664"/>
  </node>
  <node id="-151" visible="true" lat="44.565570640008" lon="-71.561289673658">
    <tag k="addr:city" v="Guildhall"/>
    <tag k="addr:housenumber" v="61"/>
    <tag k="addr:street" v="Courthouse Drive"/>
    <tag k="addr:state" v="VT"/>
    <tag k="ref:vcgi:esiteid" v="116665"/>
  </node>
  <node id="-152" visible="true" lat="44.565666181438" lon="-71.56811514712">
    <tag k="addr:city" v="Guildhall"/>
    <tag k="addr:housenumber" v="6829"/>
    <tag k="addr:street" v="Vermont Route 102"/>
    <tag k="addr:state" v="VT"/>
    <tag k="ref:vcgi:esiteid" v="116666"/>
  </node>
  <node id="-153" visible="true" lat="44.565437067871" lon="-71.561709674209">
    <tag k="addr:city" v="Guildhall"/>
    <tag k="addr:housenumber" v="43"/>
    <tag k="addr:street" v="Courthouse Drive"/>
    <tag k="addr:state" v="VT"/>
    <tag k="ref:vcgi:esiteid" v="116667"/>
  </node>
  <node id="-154" visible="true" lat="44.565267087729" lon="-71.572106306707">
    <tag k="addr:city" v="Guildhall"/>
    <tag k="addr:housenumber" v="6648"/>
    <tag k="addr:street" v="Vermont Route 102"/>
    <tag k="addr:state" v="VT"/>
    <tag k="ref:vcgi:esiteid" v="116668"/>
  </node>
  <node id="-155" visible="true" lat="44.565275578144" lon="-71.56206533137">
    <tag k="addr:city" v="Guildhall"/>
    <tag k="addr:housenumber" v="35"/>
    <tag k="addr:street" v="Courthouse Drive"/>
    <tag k="addr:state" v="VT"/>
    <tag k="ref:vcgi:esiteid" v="116669"/>
  </node>
  <node id="-156" visible="true" lat="44.56539767986" lon="-71.565812993264">
    <tag k="addr:city" v="Guildhall"/>
    <tag k="addr:housenumber" v="6977"/>
    <tag k="addr:street" v="Vermont Route 102"/>
    <tag k="addr:state" v="VT"/>
    <tag k="ref:vcgi:esiteid" v="116670"/>
  </node>
  <node id="-157" visible="true" lat="44.565308862655" lon="-71.560029148815">
    <tag k="addr:city" v="Guildhall"/>
    <tag k="addr:housenumber" v="7240"/>
    <tag k="addr:street" v="Vermont Route 102"/>
    <tag k="addr:state" v="VT"/>
    <tag k="ref:vcgi:esiteid" v="116671"/>
  </node>
  <node id="-158" visible="true" lat="44.565300276059" lon="-71.564734061517">
    <tag k="addr:city" v="Guildhall"/>
    <tag k="addr:housenumber" v="6995"/>
    <tag k="addr:street" v="Vermont Route 102"/>
    <tag k="addr:state" v="VT"/>
    <tag k="ref:vcgi:esiteid" v="116672"/>
  </node>
  <node id="-159" visible="true" lat="44.565277290299" lon="-71.56338211403">
    <tag k="addr:city" v="Guildhall"/>
    <tag k="addr:housenumber" v="7053"/>
    <tag k="addr:street" v="Vermont Route 102"/>
    <tag k="addr:state" v="VT"/>
    <tag k="ref:vcgi:esiteid" v="116673"/>
  </node>
  <node id="-160" visible="true" lat="44.565245710301" lon="-71.563967871136">
    <tag k="addr:city" v="Guildhall"/>
    <tag k="addr:housenumber" v="7031"/>
    <tag k="addr:street" v="Vermont Route 102"/>
    <tag k="addr:state" v="VT"/>
    <tag k="ref:vcgi:esiteid" v="116675"/>
  </node>
  <node id="-161" visible="true" lat="44.565063793351" lon="-71.562857546001">
    <tag k="addr:city" v="Guildhall"/>
    <tag k="addr:housenumber" v="7087"/>
    <tag k="addr:street" v="Vermont Route 102"/>
    <tag k="addr:state" v="VT"/>
    <tag k="ref:vcgi:esiteid" v="116676"/>
  </node>
  <node id="-162" visible="true" lat="44.56503458215" lon="-71.562069205392">
    <tag k="addr:city" v="Guildhall"/>
    <tag k="addr:housenumber" v="13"/>
    <tag k="addr:street" v="Courthouse Drive"/>
    <tag k="addr:state" v="VT"/>
    <tag k="ref:vcgi:esiteid" v="116677"/>
  </node>
  <node id="-163" visible="true" lat="44.564958933646" lon="-71.560058833094">
    <tag k="addr:city" v="Guildhall"/>
    <tag k="addr:housenumber" v="7218"/>
    <tag k="addr:street" v="Vermont Route 102"/>
    <tag k="addr:state" v="VT"/>
    <tag k="ref:vcgi:esiteid" v="116678"/>
  </node>
  <node id="-164" visible="true" lat="44.564727746231" lon="-71.564580502994">
    <tag k="addr:city" v="Guildhall"/>
    <tag k="addr:housenumber" v="7006"/>
    <tag k="addr:street" v="Vermont Route 102"/>
    <tag k="addr:state" v="VT"/>
    <tag k="ref:vcgi:esiteid" v="116680"/>
  </node>
  <node id="-165" visible="true" lat="44.564733311621" lon="-71.559720351767">
    <tag k="addr:city" v="Guildhall"/>
    <tag k="addr:housenumber" v="51"/>
    <tag k="addr:street" v="Bridge Street"/>
    <tag k="addr:state" v="VT"/>
    <tag k="ref:vcgi:esiteid" v="116681"/>
  </node>
  <node id="-166" visible="true" lat="44.564626220314" lon="-71.571892682925">
    <tag k="addr:city" v="Guildhall"/>
    <tag k="addr:housenumber" v="6650"/>
    <tag k="addr:street" v="Vermont Route 102"/>
    <tag k="addr:state" v="VT"/>
    <tag k="ref:vcgi:esiteid" v="116682"/>
  </node>
  <node id="-167" visible="true" lat="44.564602798946" lon="-71.563761896128">
    <tag k="addr:city" v="Guildhall"/>
    <tag k="addr:housenumber" v="7042"/>
    <tag k="addr:street" v="Vermont Route 102"/>
    <tag k="addr:state" v="VT"/>
    <tag k="ref:vcgi:esiteid" v="116683"/>
  </node>
  <node id="-168" visible="true" lat="44.56459068685" lon="-71.562839697543">
    <tag k="addr:city" v="Guildhall"/>
    <tag k="addr:housenumber" v="7088"/>
    <tag k="addr:street" v="Vermont Route 102"/>
    <tag k="addr:state" v="VT"/>
    <tag k="ref:vcgi:esiteid" v="116684"/>
  </node>
  <node id="-169" visible="true" lat="44.564527293411" lon="-71.562319087032">
    <tag k="addr:city" v="Guildhall"/>
    <tag k="addr:housenumber" v="7116"/>
    <tag k="addr:street" v="Vermont Route 102"/>
    <tag k="addr:state" v="VT"/>
    <tag k="ref:vcgi:esiteid" v="116686"/>
  </node>
  <node id="-170" visible="true" lat="44.564474454952" lon="-71.561976426615">
    <tag k="addr:city" v="Guildhall"/>
    <tag k="addr:housenumber" v="7134"/>
    <tag k="addr:street" v="Vermont Route 102"/>
    <tag k="addr:state" v="VT"/>
    <tag k="ref:vcgi:esiteid" v="116688"/>
  </node>
  <node id="-171" visible="true" lat="44.564401282729" lon="-71.561373278211">
    <tag k="addr:city" v="Guildhall"/>
    <tag k="addr:housenumber" v="7166"/>
    <tag k="addr:street" v="Vermont Route 102"/>
    <tag k="addr:state" v="VT"/>
    <tag k="ref:vcgi:esiteid" v="116689"/>
  </node>
  <node id="-172" visible="true" lat="44.564398856639" lon="-71.560735038672">
    <tag k="addr:city" v="Guildhall"/>
    <tag k="addr:housenumber" v="7190"/>
    <tag k="addr:street" v="Vermont Route 102"/>
    <tag k="addr:state" v="VT"/>
    <tag k="ref:vcgi:esiteid" v="116690"/>
  </node>
  <node id="-173" visible="true" lat="44.562101333448" lon="-71.596948948645">
    <tag k="addr:city" v="Guildhall"/>
    <tag k="addr:housenumber" v="5242"/>
    <tag k="addr:street" v="Vermont Route 102"/>
    <tag k="addr:state" v="VT"/>
    <tag k="ref:vcgi:esiteid" v="116691"/>
  </node>
  <node id="-174" visible="true" lat="44.558705807143" lon="-71.606186823064">
    <tag k="addr:city" v="Guildhall"/>
    <tag k="addr:housenumber" v="242"/>
    <tag k="addr:street" v="Granby Road"/>
    <tag k="addr:state" v="VT"/>
    <tag k="ref:vcgi:esiteid" v="116692"/>
  </node>
  <node id="-175" visible="true" lat="44.558907985283" lon="-71.637948001543">
    <tag k="addr:city" v="Guildhall"/>
    <tag k="addr:housenumber" v="4788"/>
    <tag k="addr:street" v="Fellows Road"/>
    <tag k="addr:state" v="VT"/>
    <tag k="ref:vcgi:esiteid" v="116693"/>
  </node>
  <node id="-176" visible="true" lat="44.558431149445" lon="-71.603547049998">
    <tag k="addr:city" v="Guildhall"/>
    <tag k="addr:housenumber" v="157"/>
    <tag k="addr:street" v="Granby Road"/>
    <tag k="addr:state" v="VT"/>
    <tag k="ref:vcgi:esiteid" v="116694"/>
  </node>
  <node id="-177" visible="true" lat="44.558263301502" lon="-71.598687125112">
    <tag k="addr:city" v="Guildhall"/>
    <tag k="addr:housenumber" v="124"/>
    <tag k="addr:street" v="Pendrigh Road"/>
    <tag k="addr:state" v="VT"/>
    <tag k="ref:vcgi:esiteid" v="116695"/>
  </node>
  <node id="-178" visible="true" lat="44.558270931707" lon="-71.624886475613">
    <tag k="addr:city" v="Guildhall"/>
    <tag k="addr:housenumber" v="1291"/>
    <tag k="addr:street" v="Granby Road"/>
    <tag k="addr:state" v="VT"/>
    <tag k="ref:vcgi:esiteid" v="116696"/>
  </node>
  <node id="-179" visible="true" lat="44.557916164478" lon="-71.608864740737">
    <tag k="addr:city" v="Guildhall"/>
    <tag k="addr:housenumber" v="427"/>
    <tag k="addr:street" v="Granby Road"/>
    <tag k="addr:state" v="VT"/>
    <tag k="ref:vcgi:esiteid" v="116697"/>
  </node>
  <node id="-180" visible="true" lat="44.5577451804" lon="-71.62081198367">
    <tag k="addr:city" v="Guildhall"/>
    <tag k="addr:housenumber" v="1090"/>
    <tag k="addr:street" v="Granby Road"/>
    <tag k="addr:state" v="VT"/>
    <tag k="ref:vcgi:esiteid" v="116698"/>
  </node>
  <node id="-181" visible="true" lat="44.55757665631" lon="-71.61145110612">
    <tag k="addr:city" v="Guildhall"/>
    <tag k="addr:housenumber" v="552"/>
    <tag k="addr:street" v="Granby Road"/>
    <tag k="addr:state" v="VT"/>
    <tag k="ref:vcgi:esiteid" v="116699"/>
  </node>
  <node id="-182" visible="true" lat="44.556037551289" lon="-71.644503975905">
    <tag k="addr:city" v="Guildhall"/>
    <tag k="addr:housenumber" v="100"/>
    <tag k="addr:street" v="Stone Mountain Drive"/>
    <tag k="addr:state" v="VT"/>
    <tag k="ref:vcgi:esiteid" v="116700"/>
  </node>
  <node id="-183" visible="true" lat="44.555295204575" lon="-71.647461302474">
    <tag k="addr:city" v="Guildhall"/>
    <tag k="addr:housenumber" v="280"/>
    <tag k="addr:street" v="Stone Mountain Drive"/>
    <tag k="addr:state" v="VT"/>
    <tag k="ref:vcgi:esiteid" v="116701"/>
  </node>
  <node id="-184" visible="true" lat="44.551468489856" lon="-71.613692865595">
    <tag k="addr:city" v="Guildhall"/>
    <tag k="addr:housenumber" v="318"/>
    <tag k="addr:street" v="Maplewood Farm Road"/>
    <tag k="addr:state" v="VT"/>
    <tag k="ref:vcgi:esiteid" v="116702"/>
  </node>
  <node id="-185" visible="true" lat="44.548589227808" lon="-71.632492982258">
    <tag k="addr:city" v="Guildhall"/>
    <tag k="addr:housenumber" v="3472"/>
    <tag k="addr:street" v="Fellows Road"/>
    <tag k="addr:state" v="VT"/>
    <tag k="ref:vcgi:esiteid" v="116703"/>
  </node>
  <node id="-186" visible="true" lat="44.548409936255" lon="-71.636719669435">
    <tag k="addr:city" v="Guildhall"/>
    <tag k="addr:housenumber" v="3589"/>
    <tag k="addr:street" v="Fellows Road"/>
    <tag k="addr:state" v="VT"/>
    <tag k="ref:vcgi:esiteid" v="116704"/>
  </node>
  <node id="-187" visible="true" lat="44.547925292577" lon="-71.636098174391">
    <tag k="addr:city" v="Guildhall"/>
    <tag k="addr:housenumber" v="3545"/>
    <tag k="addr:street" v="Fellows Road"/>
    <tag k="addr:state" v="VT"/>
    <tag k="ref:vcgi:esiteid" v="116705"/>
  </node>
  <node id="-188" visible="true" lat="44.547689047449" lon="-71.589918237501">
    <tag k="addr:city" v="Guildhall"/>
    <tag k="addr:housenumber" v="4037"/>
    <tag k="addr:street" v="Vermont Route 102"/>
    <tag k="addr:state" v="VT"/>
    <tag k="ref:vcgi:esiteid" v="116706"/>
  </node>
  <node id="-189" visible="true" lat="44.547692772284" lon="-71.635010683727">
    <tag k="addr:city" v="Guildhall"/>
    <tag k="addr:housenumber" v="3493"/>
    <tag k="addr:street" v="Fellows Road"/>
    <tag k="addr:state" v="VT"/>
    <tag k="ref:vcgi:esiteid" v="116707"/>
  </node>
  <node id="-190" visible="true" lat="44.545926569124" lon="-71.59008116411">
    <tag k="addr:city" v="Guildhall"/>
    <tag k="addr:housenumber" v="3861"/>
    <tag k="addr:street" v="Vermont Route 102"/>
    <tag k="addr:state" v="VT"/>
    <tag k="ref:vcgi:esiteid" v="116708"/>
  </node>
  <node id="-191" visible="true" lat="44.544568537603" lon="-71.587685534309">
    <tag k="addr:city" v="Guildhall"/>
    <tag k="addr:housenumber" v="3807"/>
    <tag k="addr:street" v="Vermont Route 102"/>
    <tag k="addr:state" v="VT"/>
    <tag k="ref:vcgi:esiteid" v="116709"/>
  </node>
  <node id="-192" visible="true" lat="44.543298243951" lon="-71.583504624158">
    <tag k="addr:city" v="Guildhall"/>
    <tag k="addr:housenumber" v="3473"/>
    <tag k="addr:street" v="Vermont Route 102"/>
    <tag k="addr:state" v="VT"/>
    <tag k="ref:vcgi:esiteid" v="116710"/>
  </node>
  <node id="-193" visible="true" lat="44.542882439819" lon="-71.627701720012">
    <tag k="addr:city" v="Guildhall"/>
    <tag k="addr:housenumber" v="2991"/>
    <tag k="addr:street" v="Fellows Road"/>
    <tag k="addr:state" v="VT"/>
    <tag k="ref:vcgi:esiteid" v="116711"/>
  </node>
  <node id="-194" visible="true" lat="44.537736412683" lon="-71.624207455979">
    <tag k="addr:city" v="Guildhall"/>
    <tag k="addr:housenumber" v="2579"/>
    <tag k="addr:street" v="Fellows Road"/>
    <tag k="addr:state" v="VT"/>
    <tag k="ref:vcgi:esiteid" v="116712"/>
  </node>
  <node id="-195" visible="true" lat="44.535843428295" lon="-71.584622930316">
    <tag k="addr:city" v="Guildhall"/>
    <tag k="addr:housenumber" v="2958"/>
    <tag k="addr:street" v="Vermont Route 102"/>
    <tag k="addr:state" v="VT"/>
    <tag k="ref:vcgi:esiteid" v="116713"/>
  </node>
  <node id="-196" visible="true" lat="44.535328340331" lon="-71.58477537068">
    <tag k="addr:city" v="Guildhall"/>
    <tag k="addr:housenumber" v="2954"/>
    <tag k="addr:street" v="Vermont Route 102"/>
    <tag k="addr:state" v="VT"/>
    <tag k="ref:vcgi:esiteid" v="116714"/>
  </node>
  <node id="-197" visible="true" lat="44.531427658677" lon="-71.625479369164">
    <tag k="addr:city" v="Guildhall"/>
    <tag k="addr:housenumber" v="2155"/>
    <tag k="addr:street" v="Fellows Road"/>
    <tag k="addr:state" v="VT"/>
    <tag k="ref:vcgi:esiteid" v="116715"/>
  </node>
  <node id="-198" visible="true" lat="44.531072134981" lon="-71.626419982532">
    <tag k="addr:city" v="Guildhall"/>
    <tag k="addr:housenumber" v="98"/>
    <tag k="addr:street" v="Boucher Road"/>
    <tag k="addr:state" v="VT"/>
    <tag k="ref:vcgi:esiteid" v="116716"/>
  </node>
  <node id="-199" visible="true" lat="44.527145365433" lon="-71.591011531461">
    <tag k="addr:city" v="Guildhall"/>
    <tag k="addr:housenumber" v="2277"/>
    <tag k="addr:street" v="Vermont Route 102"/>
    <tag k="addr:state" v="VT"/>
    <tag k="ref:vcgi:esiteid" v="116717"/>
  </node>
  <node id="-200" visible="true" lat="44.52705525616" lon="-71.656838386944">
    <tag k="addr:city" v="Guildhall"/>
    <tag k="addr:housenumber" v="1718"/>
    <tag k="addr:street" v="Lamotte Road"/>
    <tag k="addr:state" v="VT"/>
    <tag k="ref:vcgi:esiteid" v="116718"/>
  </node>
  <node id="-201" visible="true" lat="44.52642583365" lon="-71.589989611016">
    <tag k="addr:city" v="Guildhall"/>
    <tag k="addr:housenumber" v="2266"/>
    <tag k="addr:street" v="Vermont Route 102"/>
    <tag k="addr:state" v="VT"/>
    <tag k="ref:vcgi:esiteid" v="116719"/>
  </node>
  <node id="-202" visible="true" lat="44.521731204098" lon="-71.594685305605">
    <tag k="addr:city" v="Guildhall"/>
    <tag k="addr:housenumber" v="1814"/>
    <tag k="addr:street" v="Vermont Route 102"/>
    <tag k="addr:state" v="VT"/>
    <tag k="ref:vcgi:esiteid" v="116720"/>
  </node>
  <node id="-203" visible="true" lat="44.521237844611" lon="-71.595841357377">
    <tag k="addr:city" v="Guildhall"/>
    <tag k="addr:housenumber" v="1789"/>
    <tag k="addr:street" v="Vermont Route 102"/>
    <tag k="addr:state" v="VT"/>
    <tag k="ref:vcgi:esiteid" v="116721"/>
  </node>
  <node id="-204" visible="true" lat="44.521342166947" lon="-71.654065947897">
    <tag k="addr:city" v="Guildhall"/>
    <tag k="addr:housenumber" v="1216"/>
    <tag k="addr:street" v="Lamotte Road"/>
    <tag k="addr:state" v="VT"/>
    <tag k="ref:vcgi:esiteid" v="116722"/>
  </node>
  <node id="-205" visible="true" lat="44.519532673481" lon="-71.594284961069">
    <tag k="addr:city" v="Guildhall"/>
    <tag k="addr:housenumber" v="1666"/>
    <tag k="addr:street" v="Vermont Route 102"/>
    <tag k="addr:state" v="VT"/>
    <tag k="ref:vcgi:esiteid" v="116723"/>
  </node>
  <node id="-206" visible="true" lat="44.519366405892" lon="-71.595464853261">
    <tag k="addr:city" v="Guildhall"/>
    <tag k="addr:housenumber" v="1653"/>
    <tag k="addr:street" v="Vermont Route 102"/>
    <tag k="addr:state" v="VT"/>
    <tag k="ref:vcgi:esiteid" v="116724"/>
  </node>
  <node id="-207" visible="true" lat="44.518937580364" lon="-71.650849310633">
    <tag k="addr:city" v="Guildhall"/>
    <tag k="addr:housenumber" v="950"/>
    <tag k="addr:street" v="Lamotte Road"/>
    <tag k="addr:state" v="VT"/>
    <tag k="ref:vcgi:esiteid" v="116725"/>
  </node>
  <node id="-208" visible="true" lat="44.516683094788" lon="-71.595086047227">
    <tag k="addr:city" v="Guildhall"/>
    <tag k="addr:housenumber" v="1475"/>
    <tag k="addr:street" v="Vermont Route 102"/>
    <tag k="addr:state" v="VT"/>
    <tag k="ref:vcgi:esiteid" v="116726"/>
  </node>
  <node id="-209" visible="true" lat="44.51638603219" lon="-71.610157762331">
    <tag k="addr:city" v="Guildhall"/>
    <tag k="addr:housenumber" v="863"/>
    <tag k="addr:street" v="Fellows Road"/>
    <tag k="addr:state" v="VT"/>
    <tag k="ref:vcgi:esiteid" v="116727"/>
  </node>
  <node id="-210" visible="true" lat="44.516080371869" lon="-71.605965567657">
    <tag k="addr:city" v="Guildhall"/>
    <tag k="addr:housenumber" v="692"/>
    <tag k="addr:street" v="Fellows Road"/>
    <tag k="addr:state" v="VT"/>
    <tag k="ref:vcgi:esiteid" v="116728"/>
  </node>
  <node id="-211" visible="true" lat="44.515803762917" lon="-71.593942545703">
    <tag k="addr:city" v="Guildhall"/>
    <tag k="addr:housenumber" v="1406"/>
    <tag k="addr:street" v="Vermont Route 102"/>
    <tag k="addr:state" v="VT"/>
    <tag k="ref:vcgi:esiteid" v="116729"/>
  </node>
  <node id="-212" visible="true" lat="44.515386097068" lon="-71.605835867298">
    <tag k="addr:city" v="Guildhall"/>
    <tag k="addr:housenumber" v="663"/>
    <tag k="addr:street" v="Fellows Road"/>
    <tag k="addr:state" v="VT"/>
    <tag k="ref:vcgi:esiteid" v="116730"/>
  </node>
  <node id="-213" visible="true" lat="44.51425023682" lon="-71.605065426555">
    <tag k="addr:city" v="Guildhall"/>
    <tag k="addr:housenumber" v="593"/>
    <tag k="addr:street" v="Fellows Road"/>
    <tag k="addr:state" v="VT"/>
    <tag k="ref:vcgi:esiteid" v="116731"/>
  </node>
  <node id="-214" visible="true" lat="44.513766026976" lon="-71.594082767816">
    <tag k="addr:city" v="Guildhall"/>
    <tag k="addr:housenumber" v="1268"/>
    <tag k="addr:street" v="Vermont Route 102"/>
    <tag k="addr:state" v="VT"/>
    <tag k="ref:vcgi:esiteid" v="116732"/>
  </node>
  <node id="-215" visible="true" lat="44.513732122796" lon="-71.649583968346">
    <tag k="addr:city" v="Guildhall"/>
    <tag k="addr:housenumber" v="351"/>
    <tag k="addr:street" v="Lamotte Road"/>
    <tag k="addr:state" v="VT"/>
    <tag k="ref:vcgi:esiteid" v="116733"/>
  </node>
  <node id="-216" visible="true" lat="44.51317272646" lon="-71.594603912052">
    <tag k="addr:city" v="Guildhall"/>
    <tag k="addr:housenumber" v="1229"/>
    <tag k="addr:street" v="Vermont Route 102"/>
    <tag k="addr:state" v="VT"/>
    <tag k="ref:vcgi:esiteid" v="116734"/>
  </node>
  <node id="-217" visible="true" lat="44.513069958943" lon="-71.607288339923">
    <tag k="addr:city" v="Guildhall"/>
    <tag k="addr:housenumber" v="133"/>
    <tag k="addr:street" v="Wilderness Drive"/>
    <tag k="addr:state" v="VT"/>
    <tag k="ref:vcgi:esiteid" v="116735"/>
  </node>
  <node id="-218" visible="true" lat="44.512884544126" lon="-71.603767827507">
    <tag k="addr:city" v="Guildhall"/>
    <tag k="addr:housenumber" v="457"/>
    <tag k="addr:street" v="Fellows Road"/>
    <tag k="addr:state" v="VT"/>
    <tag k="ref:vcgi:esiteid" v="116736"/>
  </node>
  <node id="-219" visible="true" lat="44.512740622332" lon="-71.593839709355">
    <tag k="addr:city" v="Guildhall"/>
    <tag k="addr:housenumber" v="1192"/>
    <tag k="addr:street" v="Vermont Route 102"/>
    <tag k="addr:state" v="VT"/>
    <tag k="ref:vcgi:esiteid" v="116737"/>
  </node>
  <node id="-220" visible="true" lat="44.512470058448" lon="-71.597555418056">
    <tag k="addr:city" v="Guildhall"/>
    <tag k="addr:housenumber" v="144"/>
    <tag k="addr:street" v="Fellows Road"/>
    <tag k="addr:state" v="VT"/>
    <tag k="ref:vcgi:esiteid" v="116738"/>
  </node>
  <node id="-221" visible="true" lat="44.512179009894" lon="-71.594556553107">
    <tag k="addr:city" v="Guildhall"/>
    <tag k="addr:housenumber" v="24"/>
    <tag k="addr:street" v="Fellows Road"/>
    <tag k="addr:state" v="VT"/>
    <tag k="ref:vcgi:esiteid" v="116739"/>
  </node>
  <node id="-222" visible="true" lat="44.511700702752" lon="-71.59723059078">
    <tag k="addr:city" v="Guildhall"/>
    <tag k="addr:housenumber" v="157"/>
    <tag k="addr:street" v="Fellows Road"/>
    <tag k="addr:state" v="VT"/>
    <tag k="ref:vcgi:esiteid" v="116740"/>
  </node>
  <node id="-223" visible="true" lat="44.511705050318" lon="-71.593528611053">
    <tag k="addr:city" v="Guildhall"/>
    <tag k="addr:housenumber" v="1120"/>
    <tag k="addr:street" v="Vermont Route 102"/>
    <tag k="addr:state" v="VT"/>
    <tag k="ref:vcgi:esiteid" v="116741"/>
  </node>
  <node id="-224" visible="true" lat="44.510940903635" lon="-71.593414968402">
    <tag k="addr:city" v="Guildhall"/>
    <tag k="addr:housenumber" v="1066"/>
    <tag k="addr:street" v="Vermont Route 102"/>
    <tag k="addr:state" v="VT"/>
    <tag k="ref:vcgi:esiteid" v="116742"/>
  </node>
  <node id="-225" visible="true" lat="44.510443177839" lon="-71.592928582413">
    <tag k="addr:city" v="Guildhall"/>
    <tag k="addr:housenumber" v="1036"/>
    <tag k="addr:street" v="Vermont Route 102"/>
    <tag k="addr:state" v="VT"/>
    <tag k="ref:vcgi:esiteid" v="116743"/>
  </node>
  <node id="-226" visible="true" lat="44.510195882633" lon="-71.594297073761">
    <tag k="addr:city" v="Guildhall"/>
    <tag k="addr:housenumber" v="1029"/>
    <tag k="addr:street" v="Vermont Route 102"/>
    <tag k="addr:state" v="VT"/>
    <tag k="ref:vcgi:esiteid" v="116744"/>
  </node>
  <node id="-227" visible="true" lat="44.510575957727" lon="-71.629222748713">
    <tag k="addr:city" v="Guildhall"/>
    <tag k="addr:housenumber" v="1852"/>
    <tag k="addr:street" v="Morin Road"/>
    <tag k="addr:state" v="VT"/>
    <tag k="ref:vcgi:esiteid" v="116745"/>
  </node>
  <node id="-228" visible="true" lat="44.508304559515" lon="-71.62702038876">
    <tag k="addr:city" v="Guildhall"/>
    <tag k="addr:housenumber" v="1712"/>
    <tag k="addr:street" v="Morin Road"/>
    <tag k="addr:state" v="VT"/>
    <tag k="ref:vcgi:esiteid" v="116746"/>
  </node>
  <node id="-229" visible="true" lat="44.506406298074" lon="-71.625664670593">
    <tag k="addr:city" v="Guildhall"/>
    <tag k="addr:housenumber" v="1602"/>
    <tag k="addr:street" v="Morin Road"/>
    <tag k="addr:state" v="VT"/>
    <tag k="ref:vcgi:esiteid" v="116747"/>
  </node>
  <node id="-230" visible="true" lat="44.506105540752" lon="-71.625132353757">
    <tag k="addr:city" v="Guildhall"/>
    <tag k="addr:housenumber" v="1512"/>
    <tag k="addr:street" v="Morin Road"/>
    <tag k="addr:state" v="VT"/>
    <tag k="ref:vcgi:esiteid" v="116748"/>
  </node>
  <node id="-231" visible="true" lat="44.50459022001" lon="-71.593693776077">
    <tag k="addr:city" v="Guildhall"/>
    <tag k="addr:housenumber" v="634"/>
    <tag k="addr:street" v="Vermont Route 102"/>
    <tag k="addr:state" v="VT"/>
    <tag k="ref:vcgi:esiteid" v="116749"/>
  </node>
  <node id="-232" visible="true" lat="44.503270635663" lon="-71.595015979197">
    <tag k="addr:city" v="Guildhall"/>
    <tag k="addr:housenumber" v="535"/>
    <tag k="addr:street" v="Vermont Route 102"/>
    <tag k="addr:state" v="VT"/>
    <tag k="ref:vcgi:esiteid" v="116750"/>
  </node>
  <node id="-233" visible="true" lat="44.501950317534" lon="-71.595538275556">
    <tag k="addr:city" v="Guildhall"/>
    <tag k="addr:housenumber" v="399"/>
    <tag k="addr:street" v="Vermont Route 102"/>
    <tag k="addr:state" v="VT"/>
    <tag k="ref:vcgi:esiteid" v="116751"/>
  </node>
  <node id="-234" visible="true" lat="44.50094761179" lon="-71.595773343467">
    <tag k="addr:city" v="Guildhall"/>
    <tag k="addr:housenumber" v="379"/>
    <tag k="addr:street" v="Vermont Route 102"/>
    <tag k="addr:state" v="VT"/>
    <tag k="ref:vcgi:esiteid" v="116752"/>
  </node>
  <node id="-235" visible="true" lat="44.499999252836" lon="-71.621976499516">
    <tag k="addr:city" v="Guildhall"/>
    <tag k="addr:housenumber" v="1076"/>
    <tag k="addr:street" v="Morin Road"/>
    <tag k="addr:state" v="VT"/>
    <tag k="ref:vcgi:esiteid" v="116753"/>
  </node>
  <node id="-236" visible="true" lat="44.49881942902" lon="-71.596331608004">
    <tag k="addr:city" v="Guildhall"/>
    <tag k="addr:housenumber" v="217"/>
    <tag k="addr:street" v="Vermont Route 102"/>
    <tag k="addr:state" v="VT"/>
    <tag k="ref:vcgi:esiteid" v="116754"/>
  </node>
  <node id="-245" visible="true" lat="44.570910637643" lon="-71.557544744453">
    <tag k="addr:city" v="Guildhall"/>
    <tag k="addr:housenumber" v="7680"/>
    <tag k="addr:street" v="Vermont Route 102"/>
    <tag k="addr:state" v="VT"/>
    <tag k="ref:vcgi:esiteid" v="116763"/>
  </node>
  <node id="-246" visible="true" lat="44.508579384803" lon="-71.620799217469">
    <tag k="addr:city" v="Guildhall"/>
    <tag k="addr:housenumber" v="1514"/>
    <tag k="addr:street" v="Morin Road"/>
    <tag k="addr:state" v="VT"/>
    <tag k="ref:vcgi:esiteid" v="116764"/>
  </node>
  <node id="-247" visible="true" lat="44.572905046607" lon="-71.655306150369">
    <tag k="addr:city" v="Guildhall"/>
    <tag k="addr:housenumber" v="3190"/>
    <tag k="addr:street" v="Granby Road"/>
    <tag k="addr:state" v="VT"/>
    <tag k="ref:vcgi:esiteid" v="116765"/>
  </node>
  <node id="-248" visible="true" lat="44.566472631481" lon="-71.564406222892">
    <tag k="addr:city" v="Guildhall"/>
    <tag k="addr:housenumber" v="83"/>
    <tag k="addr:street" v="School Road"/>
    <tag k="addr:state" v="VT"/>
    <tag k="ref:vcgi:esiteid" v="116766"/>
  </node>
  <node id="-249" visible="true" lat="44.588177459204" lon="-71.59740982611">
    <tag k="addr:city" v="Guildhall"/>
    <tag k="addr:housenumber" v="1716"/>
    <tag k="addr:street" v="North Road"/>
    <tag k="addr:state" v="VT"/>
    <tag k="ref:vcgi:esiteid" v="116767"/>
  </node>
  <node id="-250" visible="true" lat="44.529874114684" lon="-71.62135296454">
    <tag k="addr:city" v="Guildhall"/>
    <tag k="addr:housenumber" v="1964"/>
    <tag k="addr:street" v="Fellows Road"/>
    <tag k="addr:state" v="VT"/>
    <tag k="ref:vcgi:esiteid" v="116768"/>
  </node>
  <node id="-251" visible="true" lat="44.566154360277" lon="-71.587699308767">
    <tag k="addr:city" v="Guildhall"/>
    <tag k="addr:housenumber" v="5816"/>
    <tag k="addr:street" v="Vermont Route 102"/>
    <tag k="addr:state" v="VT"/>
    <tag k="ref:vcgi:esiteid" v="116769"/>
  </node>
  <node id="-252" visible="true" lat="44.519412665253" lon="-71.654690924087">
    <tag k="addr:city" v="Guildhall"/>
    <tag k="addr:housenumber" v="1101"/>
    <tag k="addr:street" v="Lamotte Road"/>
    <tag k="addr:state" v="VT"/>
    <tag k="ref:vcgi:esiteid" v="116770"/>
  </node>
  <node id="-253" visible="true" lat="44.52174080276" lon="-71.656036994509">
    <tag k="addr:city" v="Guildhall"/>
    <tag k="addr:housenumber" v="1335"/>
    <tag k="addr:street" v="Lamotte Road"/>
    <tag k="addr:state" v="VT"/>
    <tag k="ref:vcgi:esiteid" v="116771"/>
  </node>
  <node id="-254" visible="true" lat="44.550923297898" lon="-71.640965461314">
    <tag k="addr:city" v="Guildhall"/>
    <tag k="addr:housenumber" v="3889"/>
    <tag k="addr:street" v="Fellows Road"/>
    <tag k="addr:state" v="VT"/>
    <tag k="ref:vcgi:esiteid" v="116772"/>
  </node>
  <node id="-255" visible="true" lat="44.554093176422" lon="-71.600098107336">
    <tag k="addr:city" v="Guildhall"/>
    <tag k="addr:housenumber" v="4767"/>
    <tag k="addr:street" v="Vermont Route 102"/>
    <tag k="addr:state" v="VT"/>
    <tag k="ref:vcgi:esiteid" v="116773"/>
  </node>
  <node id="-256" visible="true" lat="44.566348055999" lon="-71.591300017618">
    <tag k="addr:city" v="Guildhall"/>
    <tag k="addr:housenumber" v="5665"/>
    <tag k="addr:street" v="Vermont Route 102"/>
    <tag k="addr:state" v="VT"/>
    <tag k="ref:vcgi:esiteid" v="116774"/>
  </node>
  <node id="-257" visible="true" lat="44.56960275899" lon="-71.580818453942">
    <tag k="addr:city" v="Guildhall"/>
    <tag k="addr:housenumber" v="6055"/>
    <tag k="addr:street" v="Vermont Route 102"/>
    <tag k="addr:state" v="VT"/>
    <tag k="ref:vcgi:esiteid" v="116775"/>
  </node>
  <node id="-258" visible="true" lat="44.572447059097" lon="-71.65794670382">
    <tag k="addr:city" v="Guildhall"/>
    <tag k="addr:housenumber" v="3241"/>
    <tag k="addr:street" v="Granby Road"/>
    <tag k="addr:state" v="VT"/>
    <tag k="ref:vcgi:esiteid" v="116776"/>
  </node>
  <node id="-259" visible="true" lat="44.56898138284" lon="-71.648582698351">
    <tag k="addr:city" v="Guildhall"/>
    <tag k="addr:housenumber" v="2741"/>
    <tag k="addr:street" v="Granby Road"/>
    <tag k="addr:state" v="VT"/>
    <tag k="ref:vcgi:esiteid" v="116777"/>
  </node>
  <node id="-260" visible="true" lat="44.564631565648" lon="-71.643649251593">
    <tag k="addr:city" v="Guildhall"/>
    <tag k="addr:housenumber" v="2353"/>
    <tag k="addr:street" v="Granby Road"/>
    <tag k="addr:state" v="VT"/>
    <tag k="ref:vcgi:esiteid" v="116778"/>
  </node>
  <node id="-261" visible="true" lat="44.562476328559" lon="-71.636448426389">
    <tag k="addr:city" v="Guildhall"/>
    <tag k="addr:housenumber" v="1941"/>
    <tag k="addr:street" v="Granby Road"/>
    <tag k="addr:state" v="VT"/>
    <tag k="ref:vcgi:esiteid" v="116779"/>
  </node>
  <node id="-262" visible="true" lat="44.523223402564" lon="-71.593997097524">
    <tag k="addr:city" v="Guildhall"/>
    <tag k="addr:housenumber" v="1960"/>
    <tag k="addr:street" v="Vermont Route 102"/>
    <tag k="addr:state" v="VT"/>
    <tag k="ref:vcgi:esiteid" v="116781"/>
  </node>
  <node id="-263" visible="true" lat="44.49682394082" lon="-71.598153997172">
    <tag k="addr:city" v="Guildhall"/>
    <tag k="addr:housenumber" v="145"/>
    <tag k="addr:street" v="Vermont Route 102"/>
    <tag k="addr:state" v="VT"/>
    <tag k="ref:vcgi:esiteid" v="116782"/>
  </node>
  <node id="-264" visible="true" lat="44.562668727041" lon="-71.639554192221">
    <tag k="addr:city" v="Guildhall"/>
    <tag k="addr:housenumber" v="2141"/>
    <tag k="addr:street" v="Granby Road"/>
    <tag k="addr:state" v="VT"/>
    <tag k="ref:vcgi:esiteid" v="116783"/>
  </node>
  <node id="-265" visible="true" lat="44.506798086244" lon="-71.594900818504">
    <tag k="addr:city" v="Guildhall"/>
    <tag k="addr:housenumber" v="735"/>
    <tag k="addr:street" v="Vermont Route 102"/>
    <tag k="addr:state" v="VT"/>
    <tag k="ref:vcgi:esiteid" v="116784"/>
  </node>
  <node id="-266" visible="true" lat="44.544112353348" lon="-71.630661887703">
    <tag k="addr:city" v="Guildhall"/>
    <tag k="addr:housenumber" v="3107"/>
    <tag k="addr:street" v="Fellows Road"/>
    <tag k="addr:state" v="VT"/>
    <tag k="ref:vcgi:esiteid" v="116785"/>
  </node>
  <node id="-267" visible="true" lat="44.571084657273" lon="-71.558479557178">
    <tag k="addr:city" v="Guildhall"/>
    <tag k="addr:housenumber" v="7649"/>
    <tag k="addr:street" v="Vermont Route 102"/>
    <tag k="addr:state" v="VT"/>
    <tag k="ref:vcgi:esiteid" v="116786"/>
  </node>
  <node id="-268" visible="true" lat="44.558002438708" lon="-71.642147465638">
    <tag k="addr:city" v="Guildhall"/>
    <tag k="addr:housenumber" v="4567"/>
    <tag k="addr:street" v="Fellows Road"/>
    <tag k="addr:state" v="VT"/>
    <tag k="ref:vcgi:esiteid" v="116788"/>
  </node>
  <node id="-269" visible="true" lat="44.527602727867" lon="-71.591587541307">
    <tag k="addr:city" v="Guildhall"/>
    <tag k="addr:housenumber" v="2279"/>
    <tag k="addr:street" v="Vermont Route 102"/>
    <tag k="addr:state" v="VT"/>
    <tag k="ref:vcgi:esiteid" v="116789"/>
  </node>
  <node id="-270" visible="true" lat="44.505425013127" lon="-71.59584214147">
    <tag k="addr:city" v="Guildhall"/>
    <tag k="addr:housenumber" v="637"/>
    <tag k="addr:street" v="Vermont Route 102"/>
    <tag k="addr:state" v="VT"/>
    <tag k="ref:vcgi:esiteid" v="308880"/>
  </node>
  <node id="-271" visible="true" lat="44.557915034359" lon="-71.621652041268">
    <tag k="addr:city" v="Guildhall"/>
    <tag k="addr:housenumber" v="1180"/>
    <tag k="addr:street" v="Granby Road"/>
    <tag k="addr:state" v="VT"/>
    <tag k="ref:vcgi:esiteid" v="308881"/>
  </node>
  <node id="-272" visible="true" lat="44.517060171296" lon="-71.608091020079">
    <tag k="addr:city" v="Guildhall"/>
    <tag k="addr:housenumber" v="814"/>
    <tag k="addr:street" v="Fellows Road"/>
    <tag k="addr:state" v="VT"/>
    <tag k="ref:vcgi:esiteid" v="308882"/>
  </node>
  <node id="-273" visible="true" lat="44.548943581086" lon="-71.632630958582">
    <tag k="addr:city" v="Guildhall"/>
    <tag k="addr:housenumber" v="3474"/>
    <tag k="addr:street" v="Fellows Road"/>
    <tag k="addr:state" v="VT"/>
    <tag k="ref:vcgi:esiteid" v="308883"/>
  </node>
  <node id="-274" visible="true" lat="44.531571614517" lon="-71.623151928883">
    <tag k="addr:city" v="Guildhall"/>
    <tag k="addr:housenumber" v="2094"/>
    <tag k="addr:street" v="Fellows Road"/>
    <tag k="addr:state" v="VT"/>
    <tag k="ref:vcgi:esiteid" v="338770"/>
  </node>
  <node id="-275" visible="true" lat="44.560670288728" lon="-71.632382689787">
    <tag k="addr:city" v="Guildhall"/>
    <tag k="addr:housenumber" v="1719"/>
    <tag k="addr:street" v="Granby Road"/>
    <tag k="addr:state" v="VT"/>
    <tag k="ref:vcgi:esiteid" v="338771"/>
  </node>
  <node id="-276" visible="true" lat="44.498088311607" lon="-71.622351820497">
    <tag k="addr:city" v="Guildhall"/>
    <tag k="addr:housenumber" v="959"/>
    <tag k="addr:street" v="Morin Road"/>
    <tag k="addr:state" v="VT"/>
    <tag k="ref:vcgi:esiteid" v="339299"/>
  </node>
  <node id="-277" visible="true" lat="44.500490207279" lon="-71.596383019887">
    <tag k="addr:city" v="Guildhall"/>
    <tag k="addr:housenumber" v="311"/>
    <tag k="addr:street" v="Vermont Route 102"/>
    <tag k="addr:state" v="VT"/>
    <tag k="ref:vcgi:esiteid" v="342840"/>
  </node>
  <node id="-278" visible="true" lat="44.551111922108" lon="-71.642091185008">
    <tag k="addr:city" v="Guildhall"/>
    <tag k="addr:housenumber" v="3891"/>
    <tag k="addr:street" v="Fellows Road"/>
    <tag k="addr:state" v="VT"/>
    <tag k="ref:vcgi:esiteid" v="343921"/>
  </node>
  <node id="-279" visible="true" lat="44.518282454052" lon="-71.643765592014">
    <tag k="addr:city" v="Guildhall"/>
    <tag k="addr:housenumber" v="1446"/>
    <tag k="addr:street" v="Boucher Road"/>
    <tag k="addr:state" v="VT"/>
    <tag k="ref:vcgi:esiteid" v="343922"/>
  </node>
  <node id="-280" visible="true" lat="44.532579927852" lon="-71.654059052375">
    <tag k="addr:city" v="Guildhall"/>
    <tag k="addr:housenumber" v="2193"/>
    <tag k="addr:street" v="Lamotte Road"/>
    <tag k="addr:state" v="VT"/>
    <tag k="ref:vcgi:esiteid" v="343923"/>
  </node>
  <node id="-281" visible="true" lat="44.535847992724" lon="-71.64829383471">
    <tag k="addr:city" v="Guildhall"/>
    <tag k="addr:housenumber" v="2472"/>
    <tag k="addr:street" v="Lamotte Road"/>
    <tag k="addr:state" v="VT"/>
    <tag k="ref:vcgi:esiteid" v="343924"/>
  </node>
  <node id="-282" visible="true" lat="44.553110604935" lon="-71.658930781954">
    <tag k="addr:city" v="Guildhall"/>
    <tag k="addr:housenumber" v="470"/>
    <tag k="addr:street" v="North Lamotte Road"/>
    <tag k="addr:state" v="VT"/>
    <tag k="ref:vcgi:esiteid" v="343925"/>
  </node>
  <node id="-283" visible="true" lat="44.547262181945" lon="-71.597709193212">
    <tag k="addr:city" v="Guildhall"/>
    <tag k="addr:housenumber" v="4581"/>
    <tag k="addr:street" v="Vermont Route 102"/>
    <tag k="addr:state" v="VT"/>
    <tag k="ref:vcgi:esiteid" v="343926"/>
  </node>
  <node id="-284" visible="true" lat="44.558193504856" lon="-71.609140765869">
    <tag k="addr:city" v="Guildhall"/>
    <tag k="addr:housenumber" v="420"/>
    <tag k="addr:street" v="Granby Road"/>
    <tag k="addr:state" v="VT"/>
    <tag k="ref:vcgi:esiteid" v="343927"/>
  </node>
  <node id="-285" visible="true" lat="44.531464373903" lon="-71.623815079243">
    <tag k="addr:city" v="Guildhall"/>
    <tag k="addr:housenumber" v="2096"/>
    <tag k="addr:street" v="Fellows Road"/>
    <tag k="addr:state" v="VT"/>
    <tag k="ref:vcgi:esiteid" v="343928"/>
  </node>
  <node id="-286" visible="true" lat="44.527979722408" lon="-71.584028789147">
    <tag k="addr:city" v="Guildhall"/>
    <tag k="addr:housenumber" v="2494"/>
    <tag k="addr:street" v="Vermont Route 102"/>
    <tag k="addr:state" v="VT"/>
    <tag k="ref:vcgi:esiteid" v="343929"/>
  </node>
  <node id="-287" visible="true" lat="44.520570158364" lon="-71.650850437146">
    <tag k="addr:city" v="Guildhall"/>
    <tag k="addr:housenumber" v="1340"/>
    <tag k="addr:street" v="Lamotte Road"/>
    <tag k="addr:state" v="VT"/>
    <tag k="ref:vcgi:esiteid" v="455499"/>
  </node>
  <node id="-288" visible="true" lat="44.511806381016" lon="-71.600023102783">
    <tag k="addr:city" v="Guildhall"/>
    <tag k="addr:housenumber" v="291"/>
    <tag k="addr:street" v="Fellows Road"/>
    <tag k="addr:state" v="VT"/>
    <tag k="ref:vcgi:esiteid" v="455500"/>
  </node>
  <node id="-289" visible="true" lat="44.506495620899" lon="-71.625239593768">
    <tag k="addr:city" v="Guildhall"/>
    <tag k="addr:housenumber" v="1582"/>
    <tag k="addr:street" v="Morin Road"/>
    <tag k="addr:state" v="VT"/>
    <tag k="ref:vcgi:esiteid" v="612124"/>
  </node>
  <node id="-290" visible="true" lat="44.551897610219" lon="-71.596392369914">
    <tag k="addr:city" v="Guildhall"/>
    <tag k="addr:housenumber" v="4593"/>
    <tag k="addr:street" v="Vermont Route 102"/>
    <tag k="addr:state" v="VT"/>
    <tag k="ref:vcgi:esiteid" v="612941"/>
  </node>
  <node id="-291" visible="true" lat="44.566531029059" lon="-71.580394931867">
    <tag k="addr:city" v="Guildhall"/>
    <tag k="addr:housenumber" v="6224"/>
    <tag k="addr:street" v="Vermont Route 102"/>
    <tag k="addr:state" v="VT"/>
    <tag k="ref:vcgi:esiteid" v="615631"/>
  </node>
  <node id="-292" visible="true" lat="44.567204488102" lon="-71.581974778565">
    <tag k="addr:city" v="Guildhall"/>
    <tag k="addr:housenumber" v="6135"/>
    <tag k="addr:street" v="Vermont Route 102"/>
    <tag k="addr:state" v="VT"/>
    <tag k="ref:vcgi:esiteid" v="615632"/>
  </node>
  <node id="-293" visible="true" lat="44.511998379625" lon="-71.652384744793">
    <tag k="addr:city" v="Guildhall"/>
    <tag k="addr:housenumber" v="167"/>
    <tag k="addr:street" v="Lamotte Road"/>
    <tag k="addr:state" v="VT"/>
    <tag k="ref:vcgi:esiteid" v="617544"/>
  </node>
  <node id="-296" visible="true" lat="44.567376286581" lon="-71.578129695785">
    <tag k="addr:city" v="Guildhall"/>
    <tag k="addr:housenumber" v="6389"/>
    <tag k="addr:street" v="Vermont Route 102"/>
    <tag k="addr:state" v="VT"/>
    <tag k="ref:vcgi:esiteid" v="656452"/>
  </node>
  <node id="-297" visible="true" lat="44.498129673716" lon="-71.619500003889">
    <tag k="addr:city" v="Guildhall"/>
    <tag k="addr:housenumber" v="1022"/>
    <tag k="addr:street" v="Morin Road"/>
    <tag k="addr:state" v="VT"/>
    <tag k="ref:vcgi:esiteid" v="750478"/>
  </node>
  <node id="-298" visible="true" lat="44.499479543821" lon="-71.616216425005">
    <tag k="addr:city" v="Guildhall"/>
    <tag k="addr:housenumber" v="1300"/>
    <tag k="addr:street" v="Morin Road"/>
    <tag k="addr:state" v="VT"/>
    <tag k="ref:vcgi:esiteid" v="750479"/>
  </node>
  <node id="-299" visible="true" lat="44.508294833098" lon="-71.63153263574">
    <tag k="addr:city" v="Guildhall"/>
    <tag k="addr:housenumber" v="1850"/>
    <tag k="addr:street" v="Morin Road"/>
    <tag k="addr:state" v="VT"/>
    <tag k="ref:vcgi:esiteid" v="750480"/>
  </node>
  <node id="-300" visible="true" lat="44.572727715143" lon="-71.662051062812">
    <tag k="addr:city" v="Guildhall"/>
    <tag k="addr:housenumber" v="3417"/>
    <tag k="addr:street" v="Granby Road"/>
    <tag k="addr:state" v="VT"/>
    <tag k="ref:vcgi:esiteid" v="752527"/>
  </node>
  <node id="-301" visible="true" lat="44.56976706551" lon="-71.672859205358">
    <tag k="addr:city" v="Guildhall"/>
    <tag k="addr:housenumber" v="577"/>
    <tag k="addr:street" v="Unknown Road"/>
    <tag k="addr:state" v="VT"/>
    <tag k="ref:vcgi:esiteid" v="752528"/>
  </node>
  <node id="-302" visible="true" lat="44.568280921392" lon="-71.671168205133">
    <tag k="addr:city" v="Guildhall"/>
    <tag k="addr:housenumber" v="647"/>
    <tag k="addr:street" v="Unknown Road"/>
    <tag k="addr:state" v="VT"/>
    <tag k="ref:vcgi:esiteid" v="752529"/>
  </node>
  <node id="-303" visible="true" lat="44.569823171036" lon="-71.647780997225">
    <tag k="addr:city" v="Guildhall"/>
    <tag k="addr:housenumber" v="2784"/>
    <tag k="addr:street" v="Granby Road"/>
    <tag k="addr:state" v="VT"/>
    <tag k="ref:vcgi:esiteid" v="752530"/>
  </node>
  <node id="-304" visible="true" lat="44.567884903848" lon="-71.588610643667">
    <tag k="addr:city" v="Guildhall"/>
    <tag k="addr:housenumber" v="110"/>
    <tag k="addr:street" v="North Road"/>
    <tag k="addr:state" v="VT"/>
    <tag k="ref:vcgi:esiteid" v="753076"/>
  </node>
  <node id="-305" visible="true" lat="44.550285305429" lon="-71.641139766438">
    <tag k="addr:city" v="Guildhall"/>
    <tag k="addr:housenumber" v="3811"/>
    <tag k="addr:street" v="Fellows Road"/>
    <tag k="addr:state" v="VT"/>
    <tag k="ref:vcgi:esiteid" v="753500"/>
  </node>
  <node id="-306" visible="true" lat="44.564390685965" lon="-71.559978996662">
    <tag k="addr:city" v="Guildhall"/>
    <tag k="addr:housenumber" v="46"/>
    <tag k="addr:street" v="Bridge Street"/>
    <tag k="addr:state" v="VT"/>
    <tag k="ref:vcgi:esiteid" v="757124"/>
  </node>
  <node id="-308" visible="true" lat="44.507925530242" lon="-71.608711731512">
    <tag k="addr:city" v="Guildhall"/>
    <tag k="addr:housenumber" v="531"/>
    <tag k="addr:street" v="Fellows Road"/>
    <tag k="addr:state" v="VT"/>
    <tag k="ref:vcgi:esiteid" v="758937"/>
  </node>
  <node id="-309" visible="true" lat="44.49784962607" lon="-71.597258465991">
    <tag k="addr:city" v="Guildhall"/>
    <tag k="addr:housenumber" v="147"/>
    <tag k="addr:street" v="Vermont Route 102"/>
    <tag k="addr:state" v="VT"/>
    <tag k="ref:vcgi:esiteid" v="758938"/>
  </node>
  <node id="-310" visible="true" lat="44.519742445419" lon="-71.597341993466">
    <tag k="addr:city" v="Guildhall"/>
    <tag k="addr:housenumber" v="1699"/>
    <tag k="addr:street" v="Vermont Route 102"/>
    <tag k="addr:state" v="VT"/>
    <tag k="ref:vcgi:esiteid" v="758939"/>
  </node>
  <node id="-311" visible="true" lat="44.559308451289" lon="-71.656882267656">
    <tag k="addr:city" v="Guildhall"/>
    <tag k="addr:housenumber" v="4241"/>
    <tag k="addr:street" v="Fellows Road"/>
    <tag k="addr:state" v="VT"/>
    <tag k="ref:vcgi:esiteid" v="761492"/>
  </node>
  <node id="-312" visible="true" lat="44.51764698551" lon="-71.613972088745">
    <tag k="addr:city" v="Guildhall"/>
    <tag k="addr:housenumber" v="1159"/>
    <tag k="addr:street" v="Fellows Road"/>
    <tag k="addr:state" v="VT"/>
    <tag k="ref:vcgi:esiteid" v="764891"/>
  </node>
  <node id="-313" visible="true" lat="44.549853788861" lon="-71.607119189612">
    <tag k="addr:city" v="Guildhall"/>
    <tag k="addr:housenumber" v="275"/>
    <tag k="addr:street" v="Maplewood Farm Road"/>
    <tag k="addr:state" v="VT"/>
    <tag k="ref:vcgi:esiteid" v="764892"/>
  </node>
  <node id="-314" visible="true" lat="44.54502445694" lon="-71.621994951001">
    <tag k="addr:city" v="Guildhall"/>
    <tag k="addr:housenumber" v="281"/>
    <tag k="addr:street" v="Maplewood Farm Trail"/>
    <tag k="addr:state" v="VT"/>
    <tag k="ref:vcgi:esiteid" v="764893"/>
  </node>
  <node id="-315" visible="true" lat="44.504125532319" lon="-71.594899019026">
    <tag k="addr:city" v="Guildhall"/>
    <tag k="addr:housenumber" v="593"/>
    <tag k="addr:street" v="Vermont Route 102"/>
    <tag k="addr:state" v="VT"/>
    <tag k="ref:vcgi:esiteid" v="764894"/>
  </node>
  <node id="-316" visible="true" lat="44.533031672353" lon="-71.625633466606">
    <tag k="addr:city" v="Guildhall"/>
    <tag k="addr:housenumber" v="2235"/>
    <tag k="addr:street" v="Fellows Road"/>
    <tag k="addr:state" v="VT"/>
    <tag k="ref:vcgi:esiteid" v="765390"/>
  </node>
  <node id="-317" visible="true" lat="44.518061325296" lon="-71.611331047479">
    <tag k="addr:city" v="Guildhall"/>
    <tag k="addr:housenumber" v="1011"/>
    <tag k="addr:street" v="Fellows Road"/>
    <tag k="addr:state" v="VT"/>
    <tag k="ref:vcgi:esiteid" v="765391"/>
  </node>
  <node id="-318" visible="true" lat="44.553460136845" lon="-71.651051621331">
    <tag k="addr:city" v="Guildhall"/>
    <tag k="addr:housenumber" v="215"/>
    <tag k="addr:street" v="North Lamotte Road"/>
    <tag k="addr:state" v="VT"/>
    <tag k="ref:vcgi:esiteid" v="765392"/>
  </node>
  <node id="-322" visible="true" lat="44.573200017672" lon="-71.666219865859">
    <tag k="addr:city" v="Guildhall"/>
    <tag k="addr:housenumber" v="80"/>
    <tag k="addr:street" v="Unknown Road"/>
    <tag k="addr:state" v="VT"/>
    <tag k="ref:vcgi:esiteid" v="900509"/>
  </node>
  <node id="-323" visible="true" lat="44.529042138369" lon="-71.631945787169">
    <tag k="addr:city" v="Guildhall"/>
    <tag k="addr:housenumber" v="410"/>
    <tag k="addr:street" v="Boucher Road"/>
    <tag k="addr:state" v="VT"/>
    <tag k="ref:vcgi:esiteid" v="900510"/>
  </node>
  <node id="-324" visible="true" lat="44.525383950302" lon="-71.635996551032">
    <tag k="addr:city" v="Guildhall"/>
    <tag k="addr:housenumber" v="740"/>
    <tag k="addr:street" v="Boucher Road"/>
    <tag k="addr:state" v="VT"/>
    <tag k="ref:vcgi:esiteid" v="900511"/>
  </node>
  <node id="-325" visible="true" lat="44.558469435453" lon="-71.600630908714">
    <tag k="addr:city" v="Guildhall"/>
    <tag k="addr:housenumber" v="4955"/>
    <tag k="addr:street" v="Vermont Route 102"/>
    <tag k="addr:state" v="VT"/>
    <tag k="ref:vcgi:esiteid" v="1050767"/>
  </node>
</osm>
