<?xml version="1.0" encoding="UTF-8"?>
<osm version="0.6" generator="JOSM" upload="false">
  <node id="-262" visible="true" lat="42.805082315954" lon="-72.738251353428">
    <tag k="addr:city" v="Halifax"/>
    <tag k="addr:housenumber" v="2418"/>
    <tag k="addr:street" v="Old County Road"/>
    <tag k="addr:state" v="VT"/>
    <tag k="ref:vcgi:esiteid" v="117949"/>
  </node>
  <node id="-277" visible="true" lat="42.803597816173" lon="-72.739905671083">
    <tag k="addr:city" v="Halifax"/>
    <tag k="addr:housenumber" v="2385"/>
    <tag k="addr:street" v="Old County Road"/>
    <tag k="addr:state" v="VT"/>
    <tag k="ref:vcgi:esiteid" v="117964"/>
  </node>
  <node id="-286" visible="true" lat="42.802619534961" lon="-72.738819784758">
    <tag k="addr:city" v="Halifax"/>
    <tag k="addr:housenumber" v="2288"/>
    <tag k="addr:street" v="Old County Road"/>
    <tag k="addr:state" v="VT"/>
    <tag k="ref:vcgi:esiteid" v="117973"/>
  </node>
  <node id="-295" visible="true" lat="42.799969191043" lon="-72.740216955221">
    <tag k="addr:city" v="Halifax"/>
    <tag k="addr:housenumber" v="2115"/>
    <tag k="addr:street" v="Old County Road"/>
    <tag k="addr:state" v="VT"/>
    <tag k="ref:vcgi:esiteid" v="117982"/>
  </node>
  <node id="-298" visible="true" lat="42.798808647852" lon="-72.760643747132">
    <tag k="addr:city" v="Halifax"/>
    <tag k="addr:housenumber" v="505"/>
    <tag k="addr:street" v="Whitneyville Road"/>
    <tag k="addr:state" v="VT"/>
    <tag k="ref:vcgi:esiteid" v="117985"/>
  </node>
  <node id="-299" visible="true" lat="42.798876671475" lon="-72.759734877683">
    <tag k="addr:city" v="Halifax"/>
    <tag k="addr:housenumber" v="555"/>
    <tag k="addr:street" v="Whitneyville Road"/>
    <tag k="addr:state" v="VT"/>
    <tag k="ref:vcgi:esiteid" v="117986"/>
  </node>
  <node id="-302" visible="true" lat="42.798396371629" lon="-72.740448184263">
    <tag k="addr:city" v="Halifax"/>
    <tag k="addr:housenumber" v="2025"/>
    <tag k="addr:street" v="Old County Road"/>
    <tag k="addr:state" v="VT"/>
    <tag k="ref:vcgi:esiteid" v="117989"/>
  </node>
  <node id="-303" visible="true" lat="42.798210711964" lon="-72.760970454442">
    <tag k="addr:city" v="Halifax"/>
    <tag k="addr:housenumber" v="486"/>
    <tag k="addr:street" v="Whitneyville Road"/>
    <tag k="addr:state" v="VT"/>
    <tag k="ref:vcgi:esiteid" v="117991"/>
  </node>
  <node id="-304" visible="true" lat="42.797867642206" lon="-72.761700881107">
    <tag k="addr:city" v="Halifax"/>
    <tag k="addr:housenumber" v="434"/>
    <tag k="addr:street" v="Whitneyville Road"/>
    <tag k="addr:state" v="VT"/>
    <tag k="ref:vcgi:esiteid" v="117992"/>
  </node>
  <node id="-305" visible="true" lat="42.797798892158" lon="-72.762210073899">
    <tag k="addr:city" v="Halifax"/>
    <tag k="addr:housenumber" v="414"/>
    <tag k="addr:street" v="Whitneyville Road"/>
    <tag k="addr:state" v="VT"/>
    <tag k="ref:vcgi:esiteid" v="117993"/>
  </node>
  <node id="-318" visible="true" lat="42.794354610752" lon="-72.742712520099">
    <tag k="addr:city" v="Halifax"/>
    <tag k="addr:housenumber" v="1681"/>
    <tag k="addr:street" v="Old County Road"/>
    <tag k="addr:state" v="VT"/>
    <tag k="ref:vcgi:esiteid" v="118006"/>
  </node>
  <node id="-320" visible="true" lat="42.794454983332" lon="-72.741764496438">
    <tag k="addr:city" v="Halifax"/>
    <tag k="addr:housenumber" v="1696"/>
    <tag k="addr:street" v="Old County Road"/>
    <tag k="addr:state" v="VT"/>
    <tag k="ref:vcgi:esiteid" v="118008"/>
  </node>
  <node id="-322" visible="true" lat="42.794146099958" lon="-72.741431053825">
    <tag k="addr:city" v="Halifax"/>
    <tag k="addr:housenumber" v="1680"/>
    <tag k="addr:street" v="Old County Road"/>
    <tag k="addr:state" v="VT"/>
    <tag k="ref:vcgi:esiteid" v="118010"/>
  </node>
  <node id="-330" visible="true" lat="42.791563898696" lon="-72.767415054902">
    <tag k="addr:city" v="Halifax"/>
    <tag k="addr:housenumber" v="340"/>
    <tag k="addr:street" v="Brook Road"/>
    <tag k="addr:state" v="VT"/>
    <tag k="ref:vcgi:esiteid" v="118018"/>
  </node>
  <node id="-331" visible="true" lat="42.791584240069" lon="-72.766414676239">
    <tag k="addr:city" v="Halifax"/>
    <tag k="addr:housenumber" v="360"/>
    <tag k="addr:street" v="Brook Road"/>
    <tag k="addr:state" v="VT"/>
    <tag k="ref:vcgi:esiteid" v="118019"/>
  </node>
  <node id="-333" visible="true" lat="42.79087530457" lon="-72.767245091123">
    <tag k="addr:city" v="Halifax"/>
    <tag k="addr:housenumber" v="298"/>
    <tag k="addr:street" v="Brook Road"/>
    <tag k="addr:state" v="VT"/>
    <tag k="ref:vcgi:esiteid" v="118021"/>
  </node>
  <node id="-335" visible="true" lat="42.789906904432" lon="-72.767618223221">
    <tag k="addr:city" v="Halifax"/>
    <tag k="addr:housenumber" v="236"/>
    <tag k="addr:street" v="Brook Road"/>
    <tag k="addr:state" v="VT"/>
    <tag k="ref:vcgi:esiteid" v="118023"/>
  </node>
  <node id="-348" visible="true" lat="42.787138861443" lon="-72.770266514413">
    <tag k="addr:city" v="Halifax"/>
    <tag k="addr:housenumber" v="45"/>
    <tag k="addr:street" v="Branch Road"/>
    <tag k="addr:state" v="VT"/>
    <tag k="ref:vcgi:esiteid" v="118036"/>
  </node>
  <node id="-351" visible="true" lat="42.786520368844" lon="-72.770059546905">
    <tag k="addr:city" v="Halifax"/>
    <tag k="addr:housenumber" v="89"/>
    <tag k="addr:street" v="Branch Road"/>
    <tag k="addr:state" v="VT"/>
    <tag k="ref:vcgi:esiteid" v="118039"/>
  </node>
  <node id="-353" visible="true" lat="42.786319341826" lon="-72.770437283">
    <tag k="addr:city" v="Halifax"/>
    <tag k="addr:housenumber" v="86"/>
    <tag k="addr:street" v="Branch Road"/>
    <tag k="addr:state" v="VT"/>
    <tag k="ref:vcgi:esiteid" v="118041"/>
  </node>
  <node id="-354" visible="true" lat="42.786300036806" lon="-72.769850335959">
    <tag k="addr:city" v="Halifax"/>
    <tag k="addr:housenumber" v="105"/>
    <tag k="addr:street" v="Branch Road"/>
    <tag k="addr:state" v="VT"/>
    <tag k="ref:vcgi:esiteid" v="118042"/>
  </node>
  <node id="-355" visible="true" lat="42.786163051897" lon="-72.77027757979">
    <tag k="addr:city" v="Halifax"/>
    <tag k="addr:housenumber" v="98"/>
    <tag k="addr:street" v="Branch Road"/>
    <tag k="addr:state" v="VT"/>
    <tag k="ref:vcgi:esiteid" v="118044"/>
  </node>
  <node id="-357" visible="true" lat="42.786006091156" lon="-72.769436508586">
    <tag k="addr:city" v="Halifax"/>
    <tag k="addr:housenumber" v="137"/>
    <tag k="addr:street" v="Branch Road"/>
    <tag k="addr:state" v="VT"/>
    <tag k="ref:vcgi:esiteid" v="118046"/>
  </node>
  <node id="-359" visible="true" lat="42.785571045375" lon="-72.769708096661">
    <tag k="addr:city" v="Halifax"/>
    <tag k="addr:housenumber" v="146"/>
    <tag k="addr:street" v="Branch Road"/>
    <tag k="addr:state" v="VT"/>
    <tag k="ref:vcgi:esiteid" v="118048"/>
  </node>
  <node id="-361" visible="true" lat="42.785336993521" lon="-72.76874458408">
    <tag k="addr:city" v="Halifax"/>
    <tag k="addr:housenumber" v="195"/>
    <tag k="addr:street" v="Branch Road"/>
    <tag k="addr:state" v="VT"/>
    <tag k="ref:vcgi:esiteid" v="118050"/>
  </node>
  <node id="-362" visible="true" lat="42.7844012209" lon="-72.768545722315">
    <tag k="addr:city" v="Halifax"/>
    <tag k="addr:housenumber" v="246"/>
    <tag k="addr:street" v="Branch Road"/>
    <tag k="addr:state" v="VT"/>
    <tag k="ref:vcgi:esiteid" v="118052"/>
  </node>
  <node id="-363" visible="true" lat="42.784371580529" lon="-72.767695187927">
    <tag k="addr:city" v="Halifax"/>
    <tag k="addr:housenumber" v="10070"/>
    <tag k="addr:street" v="Jacksonville Stage Road"/>
    <tag k="addr:state" v="VT"/>
    <tag k="ref:vcgi:esiteid" v="118053"/>
  </node>
  <node id="-364" visible="true" lat="42.78366569126" lon="-72.76751471857">
    <tag k="addr:city" v="Halifax"/>
    <tag k="addr:housenumber" v="299"/>
    <tag k="addr:street" v="Branch Road"/>
    <tag k="addr:state" v="VT"/>
    <tag k="ref:vcgi:esiteid" v="118054"/>
  </node>
  <node id="-367" visible="true" lat="42.782923533123" lon="-72.768736833798">
    <tag k="addr:city" v="Halifax"/>
    <tag k="addr:housenumber" v="364"/>
    <tag k="addr:street" v="Branch Road"/>
    <tag k="addr:state" v="VT"/>
    <tag k="ref:vcgi:esiteid" v="118057"/>
  </node>
  <node id="-368" visible="true" lat="42.782854071196" lon="-72.767663074511">
    <tag k="addr:city" v="Halifax"/>
    <tag k="addr:housenumber" v="335"/>
    <tag k="addr:street" v="Branch Road"/>
    <tag k="addr:state" v="VT"/>
    <tag k="ref:vcgi:esiteid" v="118058"/>
  </node>
  <node id="-370" visible="true" lat="42.78244951637" lon="-72.76851028066">
    <tag k="addr:city" v="Halifax"/>
    <tag k="addr:housenumber" v="401"/>
    <tag k="addr:street" v="Branch Road"/>
    <tag k="addr:state" v="VT"/>
    <tag k="ref:vcgi:esiteid" v="118060"/>
  </node>
  <node id="-374" visible="true" lat="42.782125407444" lon="-72.775561639701">
    <tag k="addr:city" v="Halifax"/>
    <tag k="addr:housenumber" v="358"/>
    <tag k="addr:street" v="Sprague Road"/>
    <tag k="addr:state" v="VT"/>
    <tag k="ref:vcgi:esiteid" v="118064"/>
  </node>
  <node id="-375" visible="true" lat="42.782083288399" lon="-72.771083717615">
    <tag k="addr:city" v="Halifax"/>
    <tag k="addr:housenumber" v="128"/>
    <tag k="addr:street" v="Sprague Road"/>
    <tag k="addr:state" v="VT"/>
    <tag k="ref:vcgi:esiteid" v="118065"/>
  </node>
  <node id="-377" visible="true" lat="42.781842680186" lon="-72.771921980725">
    <tag k="addr:city" v="Halifax"/>
    <tag k="addr:housenumber" v="161"/>
    <tag k="addr:street" v="Sprague Road"/>
    <tag k="addr:state" v="VT"/>
    <tag k="ref:vcgi:esiteid" v="118067"/>
  </node>
  <node id="-380" visible="true" lat="42.781262281549" lon="-72.755785315639">
    <tag k="addr:city" v="Halifax"/>
    <tag k="addr:housenumber" v="225"/>
    <tag k="addr:street" v="Tucker Road"/>
    <tag k="addr:state" v="VT"/>
    <tag k="ref:vcgi:esiteid" v="118071"/>
  </node>
  <node id="-381" visible="true" lat="42.780927498734" lon="-72.773652299012">
    <tag k="addr:city" v="Halifax"/>
    <tag k="addr:housenumber" v="299"/>
    <tag k="addr:street" v="Sprague Road"/>
    <tag k="addr:state" v="VT"/>
    <tag k="ref:vcgi:esiteid" v="118072"/>
  </node>
  <node id="-382" visible="true" lat="42.780948443275" lon="-72.768823749097">
    <tag k="addr:city" v="Halifax"/>
    <tag k="addr:housenumber" v="507"/>
    <tag k="addr:street" v="Branch Road"/>
    <tag k="addr:state" v="VT"/>
    <tag k="ref:vcgi:esiteid" v="118073"/>
  </node>
  <node id="-383" visible="true" lat="42.78090012902" lon="-72.775483650698">
    <tag k="addr:city" v="Halifax"/>
    <tag k="addr:housenumber" v="357"/>
    <tag k="addr:street" v="Sprague Road"/>
    <tag k="addr:state" v="VT"/>
    <tag k="ref:vcgi:esiteid" v="118074"/>
  </node>
  <node id="-386" visible="true" lat="42.780335056634" lon="-72.763577381201">
    <tag k="addr:city" v="Halifax"/>
    <tag k="addr:housenumber" v="9693"/>
    <tag k="addr:street" v="Jacksonville Stage Road"/>
    <tag k="addr:state" v="VT"/>
    <tag k="ref:vcgi:esiteid" v="118077"/>
  </node>
  <node id="-389" visible="true" lat="42.779682286166" lon="-72.761006568791">
    <tag k="addr:city" v="Halifax"/>
    <tag k="addr:housenumber" v="9554"/>
    <tag k="addr:street" v="Jacksonville Stage Road"/>
    <tag k="addr:state" v="VT"/>
    <tag k="ref:vcgi:esiteid" v="118080"/>
  </node>
  <node id="-390" visible="true" lat="42.779833457591" lon="-72.756637864888">
    <tag k="addr:city" v="Halifax"/>
    <tag k="addr:housenumber" v="74"/>
    <tag k="addr:street" v="Gregory Lane"/>
    <tag k="addr:state" v="VT"/>
    <tag k="ref:vcgi:esiteid" v="118081"/>
  </node>
  <node id="-392" visible="true" lat="42.77941940705" lon="-72.759307006821">
    <tag k="addr:city" v="Halifax"/>
    <tag k="addr:housenumber" v="9464"/>
    <tag k="addr:street" v="Jacksonville Stage Road"/>
    <tag k="addr:state" v="VT"/>
    <tag k="ref:vcgi:esiteid" v="118083"/>
  </node>
  <node id="-393" visible="true" lat="42.778578020256" lon="-72.767758163062">
    <tag k="addr:city" v="Halifax"/>
    <tag k="addr:housenumber" v="615"/>
    <tag k="addr:street" v="Branch Road"/>
    <tag k="addr:state" v="VT"/>
    <tag k="ref:vcgi:esiteid" v="118084"/>
  </node>
  <node id="-395" visible="true" lat="42.77850814828" lon="-72.756293651904">
    <tag k="addr:city" v="Halifax"/>
    <tag k="addr:housenumber" v="25"/>
    <tag k="addr:street" v="Tucker Road"/>
    <tag k="addr:state" v="VT"/>
    <tag k="ref:vcgi:esiteid" v="118086"/>
  </node>
  <node id="-399" visible="true" lat="42.777977846452" lon="-72.755118108577">
    <tag k="addr:city" v="Halifax"/>
    <tag k="addr:housenumber" v="9230"/>
    <tag k="addr:street" v="Jacksonville Stage Road"/>
    <tag k="addr:state" v="VT"/>
    <tag k="ref:vcgi:esiteid" v="118091"/>
  </node>
  <node id="-401" visible="true" lat="42.777833211187" lon="-72.750035427481">
    <tag k="addr:city" v="Halifax"/>
    <tag k="addr:housenumber" v="8950"/>
    <tag k="addr:street" v="Jacksonville Stage Road"/>
    <tag k="addr:state" v="VT"/>
    <tag k="ref:vcgi:esiteid" v="118093"/>
  </node>
  <node id="-404" visible="true" lat="42.776850856476" lon="-72.75038678735">
    <tag k="addr:city" v="Halifax"/>
    <tag k="addr:housenumber" v="8908"/>
    <tag k="addr:street" v="Jacksonville Stage Road"/>
    <tag k="addr:state" v="VT"/>
    <tag k="ref:vcgi:esiteid" v="118096"/>
  </node>
  <node id="-415" visible="true" lat="42.773897175098" lon="-72.758844258135">
    <tag k="addr:city" v="Halifax"/>
    <tag k="addr:housenumber" v="316"/>
    <tag k="addr:street" v="Old Lane"/>
    <tag k="addr:state" v="VT"/>
    <tag k="ref:vcgi:esiteid" v="118107"/>
  </node>
  <node id="-416" visible="true" lat="42.773516604714" lon="-72.767857578195">
    <tag k="addr:city" v="Halifax"/>
    <tag k="addr:housenumber" v="34"/>
    <tag k="addr:street" v="Hubbard Hill Road"/>
    <tag k="addr:state" v="VT"/>
    <tag k="ref:vcgi:esiteid" v="118108"/>
  </node>
  <node id="-419" visible="true" lat="42.772966672114" lon="-72.760440790359">
    <tag k="addr:city" v="Halifax"/>
    <tag k="addr:housenumber" v="388"/>
    <tag k="addr:street" v="Old Lane"/>
    <tag k="addr:state" v="VT"/>
    <tag k="ref:vcgi:esiteid" v="118111"/>
  </node>
  <node id="-421" visible="true" lat="42.772587634531" lon="-72.766802918479">
    <tag k="addr:city" v="Halifax"/>
    <tag k="addr:housenumber" v="65"/>
    <tag k="addr:street" v="Hubbard Hill Road"/>
    <tag k="addr:state" v="VT"/>
    <tag k="ref:vcgi:esiteid" v="118113"/>
  </node>
  <node id="-425" visible="true" lat="42.771306333498" lon="-72.766965387077">
    <tag k="addr:city" v="Halifax"/>
    <tag k="addr:housenumber" v="144"/>
    <tag k="addr:street" v="Hubbard Hill Road"/>
    <tag k="addr:state" v="VT"/>
    <tag k="ref:vcgi:esiteid" v="118117"/>
  </node>
  <node id="-428" visible="true" lat="42.77094937319" lon="-72.76652949603">
    <tag k="addr:city" v="Halifax"/>
    <tag k="addr:housenumber" v="181"/>
    <tag k="addr:street" v="Hubbard Hill Road"/>
    <tag k="addr:state" v="VT"/>
    <tag k="ref:vcgi:esiteid" v="118120"/>
  </node>
  <node id="-433" visible="true" lat="42.769911878198" lon="-72.766165188263">
    <tag k="addr:city" v="Halifax"/>
    <tag k="addr:housenumber" v="1304"/>
    <tag k="addr:street" v="Branch Road"/>
    <tag k="addr:state" v="VT"/>
    <tag k="ref:vcgi:esiteid" v="118125"/>
  </node>
  <node id="-437" visible="true" lat="42.769495990016" lon="-72.765980256417">
    <tag k="addr:city" v="Halifax"/>
    <tag k="addr:housenumber" v="1336"/>
    <tag k="addr:street" v="Branch Road"/>
    <tag k="addr:state" v="VT"/>
    <tag k="ref:vcgi:esiteid" v="118129"/>
  </node>
  <node id="-438" visible="true" lat="42.769301156383" lon="-72.765094536555">
    <tag k="addr:city" v="Halifax"/>
    <tag k="addr:housenumber" v="1377"/>
    <tag k="addr:street" v="Branch Road"/>
    <tag k="addr:state" v="VT"/>
    <tag k="ref:vcgi:esiteid" v="118130"/>
  </node>
  <node id="-439" visible="true" lat="42.769158610527" lon="-72.7661007016">
    <tag k="addr:city" v="Halifax"/>
    <tag k="addr:housenumber" v="1362"/>
    <tag k="addr:street" v="Branch Road"/>
    <tag k="addr:state" v="VT"/>
    <tag k="ref:vcgi:esiteid" v="118131"/>
  </node>
  <node id="-449" visible="true" lat="42.767892170714" lon="-72.765871339747">
    <tag k="addr:city" v="Halifax"/>
    <tag k="addr:housenumber" v="1450"/>
    <tag k="addr:street" v="Branch Road"/>
    <tag k="addr:state" v="VT"/>
    <tag k="ref:vcgi:esiteid" v="118141"/>
  </node>
  <node id="-452" visible="true" lat="42.767533618482" lon="-72.765660043535">
    <tag k="addr:city" v="Halifax"/>
    <tag k="addr:housenumber" v="1474"/>
    <tag k="addr:street" v="Branch Road"/>
    <tag k="addr:state" v="VT"/>
    <tag k="ref:vcgi:esiteid" v="118144"/>
  </node>
  <node id="-458" visible="true" lat="42.766648140401" lon="-72.764145422152">
    <tag k="addr:city" v="Halifax"/>
    <tag k="addr:housenumber" v="1547"/>
    <tag k="addr:street" v="Branch Road"/>
    <tag k="addr:state" v="VT"/>
    <tag k="ref:vcgi:esiteid" v="118150"/>
  </node>
  <node id="-470" visible="true" lat="42.765350420502" lon="-72.764589935947">
    <tag k="addr:city" v="Halifax"/>
    <tag k="addr:housenumber" v="1636"/>
    <tag k="addr:street" v="Branch Road"/>
    <tag k="addr:state" v="VT"/>
    <tag k="ref:vcgi:esiteid" v="118162"/>
  </node>
  <node id="-509" visible="true" lat="42.759579850408" lon="-72.761516280189">
    <tag k="addr:city" v="Halifax"/>
    <tag k="addr:housenumber" v="2118"/>
    <tag k="addr:street" v="Branch Road"/>
    <tag k="addr:state" v="VT"/>
    <tag k="ref:vcgi:esiteid" v="118204"/>
  </node>
  <node id="-510" visible="true" lat="42.759356688078" lon="-72.761586440086">
    <tag k="addr:city" v="Halifax"/>
    <tag k="addr:housenumber" v="2136"/>
    <tag k="addr:street" v="Branch Road"/>
    <tag k="addr:state" v="VT"/>
    <tag k="ref:vcgi:esiteid" v="118205"/>
  </node>
  <node id="-515" visible="true" lat="42.757964373681" lon="-72.761309410767">
    <tag k="addr:city" v="Halifax"/>
    <tag k="addr:housenumber" v="4668"/>
    <tag k="addr:street" v="Vermont Route 112"/>
    <tag k="addr:state" v="VT"/>
    <tag k="ref:vcgi:esiteid" v="118210"/>
  </node>
  <node id="-582" visible="true" lat="42.798959542298" lon="-72.735224627758">
    <tag k="addr:city" v="Halifax"/>
    <tag k="addr:housenumber" v="1297"/>
    <tag k="addr:street" v="Perry Road"/>
    <tag k="addr:state" v="VT"/>
    <tag k="ref:vcgi:esiteid" v="118283"/>
  </node>
  <node id="-583" visible="true" lat="42.799257325412" lon="-72.735022027343">
    <tag k="addr:city" v="Halifax"/>
    <tag k="addr:housenumber" v="1235"/>
    <tag k="addr:street" v="Perry Road"/>
    <tag k="addr:state" v="VT"/>
    <tag k="ref:vcgi:esiteid" v="118284"/>
  </node>
  <node id="-584" visible="true" lat="42.797601236391" lon="-72.747450272399">
    <tag k="addr:city" v="Halifax"/>
    <tag k="addr:housenumber" v="1231"/>
    <tag k="addr:street" v="Whitneyville Road"/>
    <tag k="addr:state" v="VT"/>
    <tag k="ref:vcgi:esiteid" v="118285"/>
  </node>
  <node id="-585" visible="true" lat="42.794691322488" lon="-72.750531310579">
    <tag k="addr:city" v="Halifax"/>
    <tag k="addr:housenumber" v="1120"/>
    <tag k="addr:street" v="Whitneyville Road"/>
    <tag k="addr:state" v="VT"/>
    <tag k="ref:vcgi:esiteid" v="118286"/>
  </node>
  <node id="-587" visible="true" lat="42.797714778601" lon="-72.762979296889">
    <tag k="addr:city" v="Halifax"/>
    <tag k="addr:housenumber" v="376"/>
    <tag k="addr:street" v="Whitneyville Road"/>
    <tag k="addr:state" v="VT"/>
    <tag k="ref:vcgi:esiteid" v="118288"/>
  </node>
  <node id="-597" visible="true" lat="42.786682763309" lon="-72.768153956826">
    <tag k="addr:city" v="Halifax"/>
    <tag k="addr:housenumber" v="80"/>
    <tag k="addr:street" v="Griffin Lane"/>
    <tag k="addr:state" v="VT"/>
    <tag k="ref:vcgi:esiteid" v="118299"/>
  </node>
  <node id="-598" visible="true" lat="42.788422774939" lon="-72.767893639152">
    <tag k="addr:city" v="Halifax"/>
    <tag k="addr:housenumber" v="125"/>
    <tag k="addr:street" v="Griffin Lane"/>
    <tag k="addr:state" v="VT"/>
    <tag k="ref:vcgi:esiteid" v="118300"/>
  </node>
  <node id="-613" visible="true" lat="42.789125640502" lon="-72.766931685125">
    <tag k="addr:city" v="Halifax"/>
    <tag k="addr:housenumber" v="100"/>
    <tag k="addr:street" v="Plumb Lane"/>
    <tag k="addr:state" v="VT"/>
    <tag k="ref:vcgi:esiteid" v="118316"/>
  </node>
  <node id="-614" visible="true" lat="42.781931448769" lon="-72.772284849904">
    <tag k="addr:city" v="Halifax"/>
    <tag k="addr:housenumber" v="181"/>
    <tag k="addr:street" v="Sprague Road"/>
    <tag k="addr:state" v="VT"/>
    <tag k="ref:vcgi:esiteid" v="118317"/>
  </node>
  <node id="-631" visible="true" lat="42.798238142514" lon="-72.744320822701">
    <tag k="addr:city" v="Halifax"/>
    <tag k="addr:housenumber" v="1355"/>
    <tag k="addr:street" v="Whitneyville Road"/>
    <tag k="addr:state" v="VT"/>
    <tag k="ref:vcgi:esiteid" v="118335"/>
  </node>
  <node id="-632" visible="true" lat="42.801467665721" lon="-72.73871598424">
    <tag k="addr:city" v="Halifax"/>
    <tag k="addr:housenumber" v="2134"/>
    <tag k="addr:street" v="Old County Road"/>
    <tag k="addr:state" v="VT"/>
    <tag k="ref:vcgi:esiteid" v="118336"/>
  </node>
  <node id="-634" visible="true" lat="42.776193189735" lon="-72.752693673452">
    <tag k="addr:city" v="Halifax"/>
    <tag k="addr:housenumber" v="9131"/>
    <tag k="addr:street" v="Jacksonville Stage Road"/>
    <tag k="addr:state" v="VT"/>
    <tag k="ref:vcgi:esiteid" v="118338"/>
  </node>
  <node id="-638" visible="true" lat="42.782276034968" lon="-72.756675372507">
    <tag k="addr:city" v="Halifax"/>
    <tag k="addr:housenumber" v="250"/>
    <tag k="addr:street" v="Gregory Lane"/>
    <tag k="addr:state" v="VT"/>
    <tag k="ref:vcgi:esiteid" v="118342"/>
  </node>
  <node id="-670" visible="true" lat="42.789341220789" lon="-72.767878588977">
    <tag k="addr:city" v="Halifax"/>
    <tag k="addr:housenumber" v="60"/>
    <tag k="addr:street" v="Plumb Lane"/>
    <tag k="addr:state" v="VT"/>
    <tag k="ref:vcgi:esiteid" v="118375"/>
  </node>
  <node id="-671" visible="true" lat="42.801628729565" lon="-72.740175133141">
    <tag k="addr:city" v="Halifax"/>
    <tag k="addr:housenumber" v="2193"/>
    <tag k="addr:street" v="Old County Road"/>
    <tag k="addr:state" v="VT"/>
    <tag k="ref:vcgi:esiteid" v="118376"/>
  </node>
  <node id="-672" visible="true" lat="42.778226670594" lon="-72.768824894379">
    <tag k="addr:city" v="Halifax"/>
    <tag k="addr:housenumber" v="35"/>
    <tag k="addr:street" v="Sumner Farm Road"/>
    <tag k="addr:state" v="VT"/>
    <tag k="ref:vcgi:esiteid" v="118378"/>
  </node>
  <node id="-705" visible="true" lat="42.777640148669" lon="-72.768734399699">
    <tag k="addr:city" v="Halifax"/>
    <tag k="addr:housenumber" v="79"/>
    <tag k="addr:street" v="Sumner Farm Road"/>
    <tag k="addr:state" v="VT"/>
    <tag k="ref:vcgi:esiteid" v="331356"/>
  </node>
  <node id="-710" visible="true" lat="42.782500451284" lon="-72.776386821419">
    <tag k="addr:city" v="Halifax"/>
    <tag k="addr:housenumber" v="28"/>
    <tag k="addr:street" v="Maple Ledge Lane"/>
    <tag k="addr:state" v="VT"/>
    <tag k="ref:vcgi:esiteid" v="333496"/>
  </node>
  <node id="-743" visible="true" lat="42.742376717234" lon="-72.697139785052">
    <tag k="addr:city" v="Halifax"/>
    <tag k="addr:housenumber" v="1203"/>
    <tag k="addr:street" v="Bell Road"/>
    <tag k="addr:state" v="VT"/>
    <tag k="ref:vcgi:esiteid" v="450295"/>
  </node>
  <node id="-749" visible="true" lat="42.79164442049" lon="-72.743641878813">
    <tag k="addr:city" v="Halifax"/>
    <tag k="addr:housenumber" v="1470"/>
    <tag k="addr:street" v="Old County Road"/>
    <tag k="addr:state" v="VT"/>
    <tag k="ref:vcgi:esiteid" v="450302"/>
  </node>
  <node id="-751" visible="true" lat="42.77054180415" lon="-72.742532556908">
    <tag k="addr:city" v="Halifax"/>
    <tag k="addr:housenumber" v="8244"/>
    <tag k="addr:street" v="Jacksonville Stage Road"/>
    <tag k="addr:state" v="VT"/>
    <tag k="ref:vcgi:esiteid" v="450304"/>
  </node>
  <node id="-752" visible="true" lat="42.762029978075" lon="-72.782094135563">
    <tag k="addr:city" v="Halifax"/>
    <tag k="addr:housenumber" v="3410"/>
    <tag k="addr:street" v="Vermont Route 112"/>
    <tag k="addr:state" v="VT"/>
    <tag k="ref:vcgi:esiteid" v="450305"/>
  </node>
</osm>
