<?xml version="1.0" encoding="UTF-8"?>
<osm version="0.6" generator="JOSM" upload="false">
  <node id="-757" visible="true" lat="42.826002095163" lon="-72.802935978545">
    <!-- duplicates-in-different-towns: "395 Pike Road, Brattleboro, VT"  ignoring town mismatch for duplicate housenumber/street when matching to esiteid 454278: "395 Pike Road, , VT" -->
    <tag k="addr:city" v="Brattleboro"/>
    <tag k="addr:housenumber" v="395"/>
    <tag k="addr:street" v="Pike Road"/>
    <tag k="addr:state" v="VT"/>
    <tag k="ref:vcgi:esiteid" v="454721"/>
  </node>
  <node id="-758" visible="true" lat="42.826257565165" lon="-72.802882864525">
    <!-- duplicates-in-different-towns: "380 Pike Road, Brattleboro, VT"  ignoring town mismatch for duplicate housenumber/street when matching to esiteid 454279: "380 Pike Road, Wilmington, VT" -->
    <tag k="addr:city" v="Brattleboro"/>
    <tag k="addr:housenumber" v="380"/>
    <tag k="addr:street" v="Pike Road"/>
    <tag k="addr:state" v="VT"/>
    <tag k="ref:vcgi:esiteid" v="454722"/>
  </node>
</osm>
