<?xml version="1.0" encoding="UTF-8"?>
<osm version="0.6" generator="JOSM" upload="false">
  <node id="-131" visible="true" lat="44.552284382172" lon="-72.396791456745">
    <tag k="addr:city" v="Hardwick"/>
    <tag k="addr:housenumber" v="250"/>
    <tag k="addr:street" v="Hande Lane"/>
    <tag k="addr:state" v="VT"/>
    <tag k="ref:vcgi:esiteid" v="118656"/>
  </node>
  <node id="-158" visible="true" lat="44.5472930226" lon="-72.399194150029">
    <tag k="addr:city" v="Hardwick"/>
    <tag k="addr:housenumber" v="2707"/>
    <tag k="addr:street" v="West Hill Road"/>
    <tag k="addr:state" v="VT"/>
    <tag k="ref:vcgi:esiteid" v="118683"/>
  </node>
  <node id="-162" visible="true" lat="44.546725818142" lon="-72.37296994238">
    <tag k="addr:city" v="Hardwick"/>
    <tag k="addr:housenumber" v="26"/>
    <tag k="addr:street" v="Tucker Brook Road"/>
    <tag k="addr:state" v="VT"/>
    <tag k="ref:vcgi:esiteid" v="118687"/>
  </node>
  <node id="-172" visible="true" lat="44.544147075149" lon="-72.373420524182">
    <tag k="addr:city" v="Hardwick"/>
    <tag k="addr:housenumber" v="1948"/>
    <tag k="addr:street" v="Craftsbury Road"/>
    <tag k="addr:state" v="VT"/>
    <tag k="ref:vcgi:esiteid" v="118697"/>
  </node>
  <node id="-280" visible="true" lat="44.531831231851" lon="-72.413338884007">
    <tag k="addr:city" v="Wolcott"/>
    <tag k="addr:housenumber" v="652"/>
    <tag k="addr:street" v="Marsh Road"/>
    <tag k="addr:state" v="VT"/>
    <tag k="ref:vcgi:esiteid" v="118807"/>
  </node>
  <node id="-292" visible="true" lat="44.529756603447" lon="-72.41487245517">
    <tag k="addr:city" v="Wolcott"/>
    <tag k="addr:housenumber" v="448"/>
    <tag k="addr:street" v="Marsh Road"/>
    <tag k="addr:state" v="VT"/>
    <tag k="ref:vcgi:esiteid" v="118819"/>
  </node>
  <node id="-305" visible="true" lat="44.527606367911" lon="-72.416373039857">
    <tag k="addr:city" v="Wolcott"/>
    <tag k="addr:housenumber" v="289"/>
    <tag k="addr:street" v="Marsh Road"/>
    <tag k="addr:state" v="VT"/>
    <tag k="ref:vcgi:esiteid" v="118832"/>
  </node>
  <node id="-323" visible="true" lat="44.525507082191" lon="-72.416613513586">
    <tag k="addr:city" v="Wolcott"/>
    <tag k="addr:housenumber" v="129"/>
    <tag k="addr:street" v="Marsh Road"/>
    <tag k="addr:state" v="VT"/>
    <tag k="ref:vcgi:esiteid" v="118850"/>
  </node>
  <node id="-335" visible="true" lat="44.524066912509" lon="-72.417865451163">
    <tag k="addr:city" v="Hardwick"/>
    <tag k="addr:housenumber" v="14"/>
    <tag k="addr:street" v="Marsh Road"/>
    <tag k="addr:state" v="VT"/>
    <tag k="ref:vcgi:esiteid" v="118862"/>
  </node>
  <node id="-518" visible="true" lat="44.513516419882" lon="-72.373150916071">
    <tag k="addr:city" v="Hardwick"/>
    <tag k="addr:housenumber" v="84"/>
    <tag k="addr:street" v="Vermont Route 15 West"/>
    <tag k="addr:state" v="VT"/>
    <tag k="ref:vcgi:esiteid" v="119061"/>
  </node>
  <node id="-519" visible="true" lat="44.5134926165" lon="-72.372189520475">
    <tag k="addr:city" v="Hardwick"/>
    <tag k="addr:housenumber" v="82"/>
    <tag k="addr:street" v="Vermont Route 15 West"/>
    <tag k="addr:state" v="VT"/>
    <tag k="ref:vcgi:esiteid" v="119062"/>
  </node>
  <node id="-533" visible="true" lat="44.512243662773" lon="-72.426963373969">
    <tag k="addr:city" v="Hardwick"/>
    <tag k="addr:housenumber" v="272"/>
    <tag k="addr:street" v="Gates Trail"/>
    <tag k="addr:state" v="VT"/>
    <tag k="ref:vcgi:esiteid" v="119079"/>
  </node>
  <node id="-598" visible="true" lat="44.509115176412" lon="-72.372876906822">
    <tag k="addr:city" v="Hardwick"/>
    <tag k="addr:housenumber" v="439"/>
    <tag k="addr:street" v="Wolcott Street"/>
    <tag k="addr:state" v="VT"/>
    <tag k="ref:vcgi:esiteid" v="119150"/>
  </node>
  <node id="-613" visible="true" lat="44.508930161476" lon="-72.36470112829">
    <tag k="addr:city" v="Hardwick"/>
    <tag k="addr:housenumber" v="126"/>
    <tag k="addr:street" v="Hazen Union Drive"/>
    <tag k="addr:state" v="VT"/>
    <tag k="ref:vcgi:esiteid" v="119166"/>
  </node>
  <node id="-656" visible="true" lat="44.507548877487" lon="-72.368961381041">
    <tag k="addr:city" v="Hardwick"/>
    <tag k="addr:housenumber" v="212"/>
    <tag k="addr:street" v="West Church Street"/>
    <tag k="addr:state" v="VT"/>
    <tag k="ref:vcgi:esiteid" v="119215"/>
  </node>
  <node id="-667" visible="true" lat="44.507355861089" lon="-72.368171260147">
    <tag k="addr:city" v="Hardwick"/>
    <tag k="addr:housenumber" v="182"/>
    <tag k="addr:street" v="West Church Street"/>
    <tag k="addr:state" v="VT"/>
    <tag k="ref:vcgi:esiteid" v="119226"/>
  </node>
  <node id="-675" visible="true" lat="44.507127219731" lon="-72.368487364497">
    <tag k="addr:city" v="Hardwick"/>
    <tag k="addr:housenumber" v="185"/>
    <tag k="addr:street" v="West Church Street"/>
    <tag k="addr:state" v="VT"/>
    <tag k="ref:vcgi:esiteid" v="119234"/>
  </node>
  <node id="-676" visible="true" lat="44.507058575962" lon="-72.367560757355">
    <tag k="addr:city" v="Hardwick"/>
    <tag k="addr:housenumber" v="152"/>
    <tag k="addr:street" v="West Church Street"/>
    <tag k="addr:state" v="VT"/>
    <tag k="ref:vcgi:esiteid" v="119235"/>
  </node>
  <node id="-678" visible="true" lat="44.507016925722" lon="-72.368271290656">
    <tag k="addr:city" v="Hardwick"/>
    <tag k="addr:housenumber" v="173"/>
    <tag k="addr:street" v="West Church Street"/>
    <tag k="addr:state" v="VT"/>
    <tag k="ref:vcgi:esiteid" v="119237"/>
  </node>
  <node id="-679" visible="true" lat="44.507003682184" lon="-72.367436666998">
    <tag k="addr:city" v="Hardwick"/>
    <tag k="addr:housenumber" v="144"/>
    <tag k="addr:street" v="West Church Street"/>
    <tag k="addr:state" v="VT"/>
    <tag k="ref:vcgi:esiteid" v="119238"/>
  </node>
  <node id="-684" visible="true" lat="44.506884186383" lon="-72.368085305731">
    <tag k="addr:city" v="Hardwick"/>
    <tag k="addr:housenumber" v="163"/>
    <tag k="addr:street" v="West Church Street"/>
    <tag k="addr:state" v="VT"/>
    <tag k="ref:vcgi:esiteid" v="119245"/>
  </node>
  <node id="-685" visible="true" lat="44.506900525278" lon="-72.36725297862">
    <tag k="addr:city" v="Hardwick"/>
    <tag k="addr:housenumber" v="130"/>
    <tag k="addr:street" v="West Church Street"/>
    <tag k="addr:state" v="VT"/>
    <tag k="ref:vcgi:esiteid" v="119246"/>
  </node>
  <node id="-689" visible="true" lat="44.506805749397" lon="-72.369172331989">
    <tag k="addr:city" v="Hardwick"/>
    <tag k="addr:housenumber" v="210"/>
    <tag k="addr:street" v="Highland Avenue"/>
    <tag k="addr:state" v="VT"/>
    <tag k="ref:vcgi:esiteid" v="119250"/>
  </node>
  <node id="-693" visible="true" lat="44.506763045639" lon="-72.369024995839">
    <tag k="addr:city" v="Hardwick"/>
    <tag k="addr:housenumber" v="204"/>
    <tag k="addr:street" v="Highland Avenue"/>
    <tag k="addr:state" v="VT"/>
    <tag k="ref:vcgi:esiteid" v="119254"/>
  </node>
  <node id="-695" visible="true" lat="44.506777055753" lon="-72.367855960138">
    <tag k="addr:city" v="Hardwick"/>
    <tag k="addr:housenumber" v="147"/>
    <tag k="addr:street" v="West Church Street"/>
    <tag k="addr:state" v="VT"/>
    <tag k="ref:vcgi:esiteid" v="119257"/>
  </node>
  <node id="-696" visible="true" lat="44.506806242879" lon="-72.36703026042">
    <tag k="addr:city" v="Hardwick"/>
    <tag k="addr:housenumber" v="114"/>
    <tag k="addr:street" v="West Church Street"/>
    <tag k="addr:state" v="VT"/>
    <tag k="ref:vcgi:esiteid" v="119258"/>
  </node>
  <node id="-698" visible="true" lat="44.50676974094" lon="-72.366789073265">
    <tag k="addr:city" v="Hardwick"/>
    <tag k="addr:housenumber" v="104"/>
    <tag k="addr:street" v="West Church Street"/>
    <tag k="addr:state" v="VT"/>
    <tag k="ref:vcgi:esiteid" v="119260"/>
  </node>
  <node id="-699" visible="true" lat="44.506730111231" lon="-72.368859420644">
    <tag k="addr:city" v="Hardwick"/>
    <tag k="addr:housenumber" v="192"/>
    <tag k="addr:street" v="Highland Avenue"/>
    <tag k="addr:state" v="VT"/>
    <tag k="ref:vcgi:esiteid" v="119261"/>
  </node>
  <node id="-701" visible="true" lat="44.506696263603" lon="-72.36763542551">
    <tag k="addr:city" v="Hardwick"/>
    <tag k="addr:housenumber" v="137"/>
    <tag k="addr:street" v="West Church Street"/>
    <tag k="addr:state" v="VT"/>
    <tag k="ref:vcgi:esiteid" v="119264"/>
  </node>
  <node id="-704" visible="true" lat="44.506625883279" lon="-72.368720618621">
    <tag k="addr:city" v="Hardwick"/>
    <tag k="addr:housenumber" v="178"/>
    <tag k="addr:street" v="Highland Avenue"/>
    <tag k="addr:state" v="VT"/>
    <tag k="ref:vcgi:esiteid" v="119267"/>
  </node>
  <node id="-705" visible="true" lat="44.506654151714" lon="-72.36655499613">
    <tag k="addr:city" v="Hardwick"/>
    <tag k="addr:housenumber" v="92"/>
    <tag k="addr:street" v="West Church Street"/>
    <tag k="addr:state" v="VT"/>
    <tag k="ref:vcgi:esiteid" v="119268"/>
  </node>
  <node id="-712" visible="true" lat="44.506489245189" lon="-72.367289495201">
    <tag k="addr:city" v="Hardwick"/>
    <tag k="addr:housenumber" v="125"/>
    <tag k="addr:street" v="West Church Street"/>
    <tag k="addr:state" v="VT"/>
    <tag k="ref:vcgi:esiteid" v="119275"/>
  </node>
  <node id="-716" visible="true" lat="44.506535576611" lon="-72.363126236828">
    <tag k="addr:city" v="Hardwick"/>
    <tag k="addr:housenumber" v="56"/>
    <tag k="addr:street" v="High Street"/>
    <tag k="addr:state" v="VT"/>
    <tag k="ref:vcgi:esiteid" v="119279"/>
  </node>
  <node id="-718" visible="true" lat="44.506621681583" lon="-72.367441296688">
    <tag k="addr:city" v="Hardwick"/>
    <tag k="addr:housenumber" v="127"/>
    <tag k="addr:street" v="West Church Street"/>
    <tag k="addr:state" v="VT"/>
    <tag k="ref:vcgi:esiteid" v="119281"/>
  </node>
  <node id="-724" visible="true" lat="44.506349051792" lon="-72.367989747176">
    <tag k="addr:city" v="Hardwick"/>
    <tag k="addr:housenumber" v="152"/>
    <tag k="addr:street" v="Highland Avenue"/>
    <tag k="addr:state" v="VT"/>
    <tag k="ref:vcgi:esiteid" v="119287"/>
  </node>
  <node id="-725" visible="true" lat="44.506395633488" lon="-72.365540017332">
    <tag k="addr:city" v="Hardwick"/>
    <tag k="addr:housenumber" v="32"/>
    <tag k="addr:street" v="West Church Street"/>
    <tag k="addr:state" v="VT"/>
    <tag k="ref:vcgi:esiteid" v="119289"/>
  </node>
  <node id="-729" visible="true" lat="44.506385238918" lon="-72.365857453512">
    <tag k="addr:city" v="Hardwick"/>
    <tag k="addr:housenumber" v="52"/>
    <tag k="addr:street" v="West Church Street"/>
    <tag k="addr:state" v="VT"/>
    <tag k="ref:vcgi:esiteid" v="119293"/>
  </node>
  <node id="-732" visible="true" lat="44.506316280532" lon="-72.369235391252">
    <tag k="addr:city" v="Hardwick"/>
    <tag k="addr:housenumber" v="209"/>
    <tag k="addr:street" v="Highland Avenue"/>
    <tag k="addr:state" v="VT"/>
    <tag k="ref:vcgi:esiteid" v="119296"/>
  </node>
  <node id="-741" visible="true" lat="44.506084054635" lon="-72.364973477728">
    <tag k="addr:city" v="Hardwick"/>
    <tag k="addr:housenumber" v="123"/>
    <tag k="addr:street" v="North Main Street"/>
    <tag k="addr:state" v="VT"/>
    <tag k="ref:vcgi:esiteid" v="119305"/>
  </node>
  <node id="-742" visible="true" lat="44.506084790221" lon="-72.368180221547">
    <tag k="addr:city" v="Hardwick"/>
    <tag k="addr:housenumber" v="143"/>
    <tag k="addr:street" v="Highland Avenue"/>
    <tag k="addr:state" v="VT"/>
    <tag k="ref:vcgi:esiteid" v="119306"/>
  </node>
  <node id="-743" visible="true" lat="44.50602344696" lon="-72.368503063218">
    <tag k="addr:city" v="Hardwick"/>
    <tag k="addr:housenumber" v="33"/>
    <tag k="addr:street" v="Daniels Road"/>
    <tag k="addr:state" v="VT"/>
    <tag k="ref:vcgi:esiteid" v="119307"/>
  </node>
  <node id="-744" visible="true" lat="44.506229754053" lon="-72.368750009318">
    <tag k="addr:city" v="Hardwick"/>
    <tag k="addr:housenumber" v="34"/>
    <tag k="addr:street" v="Daniels Road"/>
    <tag k="addr:state" v="VT"/>
    <tag k="ref:vcgi:esiteid" v="119308"/>
  </node>
  <node id="-752" visible="true" lat="44.505970957055" lon="-72.367871555365">
    <tag k="addr:city" v="Hardwick"/>
    <tag k="addr:housenumber" v="121"/>
    <tag k="addr:street" v="Highland Avenue"/>
    <tag k="addr:state" v="VT"/>
    <tag k="ref:vcgi:esiteid" v="119317"/>
  </node>
  <node id="-758" visible="true" lat="44.50593978354" lon="-72.366844412498">
    <tag k="addr:city" v="Hardwick"/>
    <tag k="addr:housenumber" v="80"/>
    <tag k="addr:street" v="Highland Avenue"/>
    <tag k="addr:state" v="VT"/>
    <tag k="ref:vcgi:esiteid" v="119323"/>
  </node>
  <node id="-759" visible="true" lat="44.505844713201" lon="-72.365286146485">
    <tag k="addr:city" v="Hardwick"/>
    <tag k="addr:housenumber" v="93"/>
    <tag k="addr:street" v="North Main Street"/>
    <tag k="addr:state" v="VT"/>
    <tag k="ref:vcgi:esiteid" v="119325"/>
  </node>
  <node id="-761" visible="true" lat="44.505730752436" lon="-72.367417304304">
    <tag k="addr:city" v="Hardwick"/>
    <tag k="addr:housenumber" v="12"/>
    <tag k="addr:street" v="Riverside Terrace"/>
    <tag k="addr:state" v="VT"/>
    <tag k="ref:vcgi:esiteid" v="119328"/>
  </node>
  <node id="-767" visible="true" lat="44.505527908858" lon="-72.364792545147">
    <tag k="addr:city" v="Hardwick"/>
    <tag k="addr:housenumber" v="20"/>
    <tag k="addr:street" v="Church Street"/>
    <tag k="addr:state" v="VT"/>
    <tag k="ref:vcgi:esiteid" v="119337"/>
  </node>
  <node id="-773" visible="true" lat="44.505649735614" lon="-72.36707554212">
    <tag k="addr:city" v="Hardwick"/>
    <tag k="addr:housenumber" v="81"/>
    <tag k="addr:street" v="Highland Avenue"/>
    <tag k="addr:state" v="VT"/>
    <tag k="ref:vcgi:esiteid" v="119345"/>
  </node>
  <node id="-779" visible="true" lat="44.505531902049" lon="-72.366799404915">
    <tag k="addr:city" v="Hardwick"/>
    <tag k="addr:housenumber" v="22"/>
    <tag k="addr:street" v="Brush Street"/>
    <tag k="addr:state" v="VT"/>
    <tag k="ref:vcgi:esiteid" v="119351"/>
  </node>
  <node id="-787" visible="true" lat="44.505562786108" lon="-72.367625207356">
    <tag k="addr:city" v="Hardwick"/>
    <tag k="addr:housenumber" v="42"/>
    <tag k="addr:street" v="Riverside Terrace"/>
    <tag k="addr:state" v="VT"/>
    <tag k="ref:vcgi:esiteid" v="119359"/>
  </node>
  <node id="-792" visible="true" lat="44.505341380736" lon="-72.366858282322">
    <tag k="addr:city" v="Hardwick"/>
    <tag k="addr:housenumber" v="24"/>
    <tag k="addr:street" v="Brush Street"/>
    <tag k="addr:state" v="VT"/>
    <tag k="ref:vcgi:esiteid" v="119365"/>
  </node>
  <node id="-795" visible="true" lat="44.505335889878" lon="-72.367887268134">
    <tag k="addr:city" v="Hardwick"/>
    <tag k="addr:housenumber" v="52"/>
    <tag k="addr:street" v="Riverside Terrace"/>
    <tag k="addr:state" v="VT"/>
    <tag k="ref:vcgi:esiteid" v="119368"/>
  </node>
  <node id="-830" visible="true" lat="44.504795145627" lon="-72.358998358838">
    <tag k="addr:city" v="Hardwick"/>
    <tag k="addr:housenumber" v="4"/>
    <tag k="addr:street" v="Slapp Hill"/>
    <tag k="addr:state" v="VT"/>
    <tag k="ref:vcgi:esiteid" v="119408"/>
  </node>
  <node id="-832" visible="true" lat="44.504953067535" lon="-72.362587630798">
    <tag k="addr:city" v="Hardwick"/>
    <tag k="addr:housenumber" v="127"/>
    <tag k="addr:street" v="Church Street"/>
    <tag k="addr:state" v="VT"/>
    <tag k="ref:vcgi:esiteid" v="119410"/>
  </node>
  <node id="-842" visible="true" lat="44.50475466868" lon="-72.367675739437">
    <tag k="addr:city" v="Hardwick"/>
    <tag k="addr:housenumber" v="156"/>
    <tag k="addr:street" v="Daniels Road"/>
    <tag k="addr:state" v="VT"/>
    <tag k="ref:vcgi:esiteid" v="119421"/>
  </node>
  <node id="-844" visible="true" lat="44.504604487663" lon="-72.365809545508">
    <tag k="addr:city" v="Hardwick"/>
    <tag k="addr:housenumber" v="9"/>
    <tag k="addr:street" v="Mill Street"/>
    <tag k="addr:state" v="VT"/>
    <tag k="ref:vcgi:esiteid" v="119423"/>
  </node>
  <node id="-860" visible="true" lat="44.504467770803" lon="-72.368759548752">
    <tag k="addr:city" v="Hardwick"/>
    <tag k="addr:housenumber" v="49"/>
    <tag k="addr:street" v="Wolcott Street"/>
    <tag k="addr:state" v="VT"/>
    <tag k="ref:vcgi:esiteid" v="119440"/>
  </node>
  <node id="-862" visible="true" lat="44.504300276291" lon="-72.366296129674">
    <tag k="addr:city" v="Hardwick"/>
    <tag k="addr:housenumber" v="9"/>
    <tag k="addr:street" v="South Main Street"/>
    <tag k="addr:state" v="VT"/>
    <tag k="ref:vcgi:esiteid" v="119442"/>
  </node>
  <node id="-887" visible="true" lat="44.504383130584" lon="-72.364707337384">
    <tag k="addr:city" v="Hardwick"/>
    <tag k="addr:housenumber" v="75"/>
    <tag k="addr:street" v="Mill Street"/>
    <tag k="addr:state" v="VT"/>
    <tag k="ref:vcgi:esiteid" v="119470"/>
  </node>
  <node id="-888" visible="true" lat="44.504084263627" lon="-72.365457556159">
    <tag k="addr:city" v="Hardwick"/>
    <tag k="addr:housenumber" v="52"/>
    <tag k="addr:street" v="Mill Street"/>
    <tag k="addr:state" v="VT"/>
    <tag k="ref:vcgi:esiteid" v="119471"/>
  </node>
  <node id="-936" visible="true" lat="44.503175164905" lon="-72.368876221673">
    <tag k="addr:city" v="Hardwick"/>
    <tag k="addr:housenumber" v="171"/>
    <tag k="addr:street" v="South Main Street"/>
    <tag k="addr:state" v="VT"/>
    <tag k="ref:vcgi:esiteid" v="119525"/>
  </node>
  <node id="-945" visible="true" lat="44.503159045947" lon="-72.365880512592">
    <tag k="addr:city" v="Hardwick"/>
    <tag k="addr:housenumber" v="95"/>
    <tag k="addr:street" v="Perry Lane Hill"/>
    <tag k="addr:state" v="VT"/>
    <tag k="ref:vcgi:esiteid" v="119535"/>
  </node>
  <node id="-969" visible="true" lat="44.5025988935" lon="-72.3695381723">
    <tag k="addr:city" v="Hardwick"/>
    <tag k="addr:housenumber" v="35"/>
    <tag k="addr:street" v="Upper Cherry Street"/>
    <tag k="addr:state" v="VT"/>
    <tag k="ref:vcgi:esiteid" v="119560"/>
  </node>
  <node id="-970" visible="true" lat="44.502579353086" lon="-72.370207294796">
    <tag k="addr:city" v="Hardwick"/>
    <tag k="addr:housenumber" v="28"/>
    <tag k="addr:street" v="Upper Cherry Street"/>
    <tag k="addr:state" v="VT"/>
    <tag k="ref:vcgi:esiteid" v="119562"/>
  </node>
  <node id="-976" visible="true" lat="44.502445846727" lon="-72.369429780814">
    <tag k="addr:city" v="Hardwick"/>
    <tag k="addr:housenumber" v="53"/>
    <tag k="addr:street" v="Upper Cherry Street"/>
    <tag k="addr:state" v="VT"/>
    <tag k="ref:vcgi:esiteid" v="119568"/>
  </node>
  <node id="-977" visible="true" lat="44.502416699813" lon="-72.369269683">
    <tag k="addr:city" v="Hardwick"/>
    <tag k="addr:housenumber" v="57"/>
    <tag k="addr:street" v="Upper Cherry Street"/>
    <tag k="addr:state" v="VT"/>
    <tag k="ref:vcgi:esiteid" v="119569"/>
  </node>
  <node id="-979" visible="true" lat="44.502379482979" lon="-72.370020675239">
    <tag k="addr:city" v="Hardwick"/>
    <tag k="addr:housenumber" v="46"/>
    <tag k="addr:street" v="Upper Cherry Street"/>
    <tag k="addr:state" v="VT"/>
    <tag k="ref:vcgi:esiteid" v="119571"/>
  </node>
  <node id="-981" visible="true" lat="44.502160995204" lon="-72.369071669774">
    <tag k="addr:city" v="Hardwick"/>
    <tag k="addr:housenumber" v="69"/>
    <tag k="addr:street" v="Upper Cherry Street"/>
    <tag k="addr:state" v="VT"/>
    <tag k="ref:vcgi:esiteid" v="119573"/>
  </node>
  <node id="-984" visible="true" lat="44.502196542606" lon="-72.369831954495">
    <tag k="addr:city" v="Hardwick"/>
    <tag k="addr:housenumber" v="60"/>
    <tag k="addr:street" v="Upper Cherry Street"/>
    <tag k="addr:state" v="VT"/>
    <tag k="ref:vcgi:esiteid" v="119577"/>
  </node>
  <node id="-991" visible="true" lat="44.502042584524" lon="-72.369650262554">
    <tag k="addr:city" v="Hardwick"/>
    <tag k="addr:housenumber" v="76"/>
    <tag k="addr:street" v="Upper Cherry Street"/>
    <tag k="addr:state" v="VT"/>
    <tag k="ref:vcgi:esiteid" v="119584"/>
  </node>
  <node id="-998" visible="true" lat="44.501833411014" lon="-72.369460707262">
    <tag k="addr:city" v="Hardwick"/>
    <tag k="addr:housenumber" v="88"/>
    <tag k="addr:street" v="Upper Cherry Street"/>
    <tag k="addr:state" v="VT"/>
    <tag k="ref:vcgi:esiteid" v="119591"/>
  </node>
  <node id="-1043" visible="true" lat="44.500310159887" lon="-72.369930961738">
    <tag k="addr:city" v="Hardwick"/>
    <tag k="addr:housenumber" v="22"/>
    <tag k="addr:street" v="Pine Drive"/>
    <tag k="addr:state" v="VT"/>
    <tag k="ref:vcgi:esiteid" v="119643"/>
  </node>
  <node id="-1049" visible="true" lat="44.500180011913" lon="-72.369569621789">
    <tag k="addr:city" v="Hardwick"/>
    <tag k="addr:housenumber" v="42"/>
    <tag k="addr:street" v="Pine Drive"/>
    <tag k="addr:state" v="VT"/>
    <tag k="ref:vcgi:esiteid" v="119649"/>
  </node>
  <node id="-1051" visible="true" lat="44.500092205234" lon="-72.369360905016">
    <tag k="addr:city" v="Hardwick"/>
    <tag k="addr:housenumber" v="56"/>
    <tag k="addr:street" v="Pine Drive"/>
    <tag k="addr:state" v="VT"/>
    <tag k="ref:vcgi:esiteid" v="119651"/>
  </node>
  <node id="-1055" visible="true" lat="44.500024923902" lon="-72.369170089143">
    <tag k="addr:city" v="Hardwick"/>
    <tag k="addr:housenumber" v="68"/>
    <tag k="addr:street" v="Pine Drive"/>
    <tag k="addr:state" v="VT"/>
    <tag k="ref:vcgi:esiteid" v="119655"/>
  </node>
  <node id="-1057" visible="true" lat="44.499912995157" lon="-72.36817525513">
    <tag k="addr:city" v="Hardwick"/>
    <tag k="addr:housenumber" v="103"/>
    <tag k="addr:street" v="Spruce Drive"/>
    <tag k="addr:state" v="VT"/>
    <tag k="ref:vcgi:esiteid" v="119657"/>
  </node>
  <node id="-1066" visible="true" lat="44.49986637289" lon="-72.368528380383">
    <tag k="addr:city" v="Hardwick"/>
    <tag k="addr:housenumber" v="85"/>
    <tag k="addr:street" v="Spruce Drive"/>
    <tag k="addr:state" v="VT"/>
    <tag k="ref:vcgi:esiteid" v="119666"/>
  </node>
  <node id="-1067" visible="true" lat="44.49974860408" lon="-72.36945078532">
    <tag k="addr:city" v="Hardwick"/>
    <tag k="addr:housenumber" v="50"/>
    <tag k="addr:street" v="Evergreen Manor Drive"/>
    <tag k="addr:state" v="VT"/>
    <tag k="ref:vcgi:esiteid" v="119667"/>
  </node>
  <node id="-1069" visible="true" lat="44.499804812002" lon="-72.36895499413">
    <tag k="addr:city" v="Hardwick"/>
    <tag k="addr:housenumber" v="63"/>
    <tag k="addr:street" v="Spruce Drive"/>
    <tag k="addr:state" v="VT"/>
    <tag k="ref:vcgi:esiteid" v="119669"/>
  </node>
  <node id="-1070" visible="true" lat="44.499688181898" lon="-72.368064541774">
    <tag k="addr:city" v="Hardwick"/>
    <tag k="addr:housenumber" v="92"/>
    <tag k="addr:street" v="Spruce Drive"/>
    <tag k="addr:state" v="VT"/>
    <tag k="ref:vcgi:esiteid" v="119670"/>
  </node>
  <node id="-1072" visible="true" lat="44.499677586638" lon="-72.369294053968">
    <tag k="addr:city" v="Hardwick"/>
    <tag k="addr:housenumber" v="45"/>
    <tag k="addr:street" v="Spruce Drive"/>
    <tag k="addr:state" v="VT"/>
    <tag k="ref:vcgi:esiteid" v="119672"/>
  </node>
  <node id="-1074" visible="true" lat="44.499633266025" lon="-72.370072433777">
    <tag k="addr:city" v="Hardwick"/>
    <tag k="addr:housenumber" v="29"/>
    <tag k="addr:street" v="Evergreen Manor Drive"/>
    <tag k="addr:state" v="VT"/>
    <tag k="ref:vcgi:esiteid" v="119674"/>
  </node>
  <node id="-1078" visible="true" lat="44.499593655924" lon="-72.368415302644">
    <tag k="addr:city" v="Hardwick"/>
    <tag k="addr:housenumber" v="72"/>
    <tag k="addr:street" v="Spruce Drive"/>
    <tag k="addr:state" v="VT"/>
    <tag k="ref:vcgi:esiteid" v="119678"/>
  </node>
  <node id="-1089" visible="true" lat="44.499375368395" lon="-72.3702903978">
    <tag k="addr:city" v="Hardwick"/>
    <tag k="addr:housenumber" v="7"/>
    <tag k="addr:street" v="Evergreen Manor Drive"/>
    <tag k="addr:state" v="VT"/>
    <tag k="ref:vcgi:esiteid" v="119690"/>
  </node>
  <node id="-1280" visible="true" lat="44.471833665725" lon="-72.34230919439">
    <tag k="addr:city" v="Hardwick"/>
    <tag k="addr:housenumber" v="1222"/>
    <tag k="addr:street" v="Nichols Pond Road"/>
    <tag k="addr:state" v="VT"/>
    <tag k="ref:vcgi:esiteid" v="119889"/>
  </node>
  <node id="-1307" visible="true" lat="44.504014649019" lon="-72.366986279942">
    <tag k="addr:city" v="Hardwick"/>
    <tag k="addr:housenumber" v="41"/>
    <tag k="addr:street" v="South Main Street"/>
    <tag k="addr:state" v="VT"/>
    <tag k="ref:vcgi:esiteid" v="119917"/>
  </node>
  <node id="-1309" visible="true" lat="44.506266238163" lon="-72.367782809147">
    <tag k="addr:city" v="Hardwick"/>
    <tag k="addr:housenumber" v="130"/>
    <tag k="addr:street" v="Highland Avenue"/>
    <tag k="addr:state" v="VT"/>
    <tag k="ref:vcgi:esiteid" v="119919"/>
  </node>
  <node id="-1312" visible="true" lat="44.506139680362" lon="-72.367113044972">
    <tag k="addr:city" v="Hardwick"/>
    <tag k="addr:housenumber" v="98"/>
    <tag k="addr:street" v="Highland Avenue"/>
    <tag k="addr:state" v="VT"/>
    <tag k="ref:vcgi:esiteid" v="119922"/>
  </node>
  <node id="-1318" visible="true" lat="44.500233037321" lon="-72.369777677227">
    <tag k="addr:city" v="Hardwick"/>
    <tag k="addr:housenumber" v="32"/>
    <tag k="addr:street" v="Pine Drive"/>
    <tag k="addr:state" v="VT"/>
    <tag k="ref:vcgi:esiteid" v="119928"/>
  </node>
  <node id="-1319" visible="true" lat="44.49988917253" lon="-72.369897108168">
    <tag k="addr:city" v="Hardwick"/>
    <tag k="addr:housenumber" v="49"/>
    <tag k="addr:street" v="Evergreen Manor Drive"/>
    <tag k="addr:state" v="VT"/>
    <tag k="ref:vcgi:esiteid" v="119929"/>
  </node>
  <node id="-1320" visible="true" lat="44.499772143214" lon="-72.369981943439">
    <tag k="addr:city" v="Hardwick"/>
    <tag k="addr:housenumber" v="45"/>
    <tag k="addr:street" v="Evergreen Manor Drive"/>
    <tag k="addr:state" v="VT"/>
    <tag k="ref:vcgi:esiteid" v="119930"/>
  </node>
  <node id="-1330" visible="true" lat="44.499305075143" lon="-72.369876227332">
    <tag k="addr:city" v="Hardwick"/>
    <tag k="addr:housenumber" v="8"/>
    <tag k="addr:street" v="Evergreen Manor Drive"/>
    <tag k="addr:state" v="VT"/>
    <tag k="ref:vcgi:esiteid" v="119940"/>
  </node>
  <node id="-1331" visible="true" lat="44.499276118245" lon="-72.369729908767">
    <tag k="addr:city" v="Hardwick"/>
    <tag k="addr:housenumber" v="9"/>
    <tag k="addr:street" v="Spruce Drive"/>
    <tag k="addr:state" v="VT"/>
    <tag k="ref:vcgi:esiteid" v="119941"/>
  </node>
  <node id="-1378" visible="true" lat="44.499505105084" lon="-72.370191242342">
    <tag k="addr:city" v="Hardwick"/>
    <tag k="addr:housenumber" v="19"/>
    <tag k="addr:street" v="Evergreen Manor Drive"/>
    <tag k="addr:state" v="VT"/>
    <tag k="ref:vcgi:esiteid" v="119992"/>
  </node>
  <node id="-1424" visible="true" lat="44.506437313598" lon="-72.364805201972">
    <tag k="addr:city" v="Hardwick"/>
    <tag k="addr:housenumber" v="151"/>
    <tag k="addr:street" v="North Main Street"/>
    <tag k="addr:state" v="VT"/>
    <tag k="ref:vcgi:esiteid" v="120042"/>
  </node>
  <node id="-1493" visible="true" lat="44.522330232648" lon="-72.307178577432">
    <tag k="addr:city" v="East Hardwick"/>
    <tag k="addr:housenumber" v="90"/>
    <tag k="addr:street" v="East Church Street"/>
    <tag k="addr:state" v="VT"/>
    <tag k="ref:vcgi:esiteid" v="365160"/>
  </node>
  <node id="-1498" visible="true" lat="44.476420051988" lon="-72.349251656434">
    <tag k="addr:city" v="Hardwick"/>
    <tag k="addr:housenumber" v="1002"/>
    <tag k="addr:street" v="Nichols Pond Road"/>
    <tag k="addr:state" v="VT"/>
    <tag k="ref:vcgi:esiteid" v="446960"/>
  </node>
  <node id="-1501" visible="true" lat="44.493050789593" lon="-72.375868663764">
    <tag k="addr:city" v="Hardwick"/>
    <tag k="addr:housenumber" v="393"/>
    <tag k="addr:street" v="Vermont Route 14 South"/>
    <tag k="addr:state" v="VT"/>
    <tag k="ref:vcgi:esiteid" v="449940"/>
  </node>
  <node id="-1538" visible="true" lat="44.505665224355" lon="-72.359538997128">
    <tag k="addr:city" v="Hardwick"/>
    <tag k="addr:housenumber" v="83"/>
    <tag k="addr:street" v="Slapp Hill"/>
    <tag k="addr:state" v="VT"/>
    <tag k="ref:vcgi:esiteid" v="611361"/>
  </node>
  <node id="-1571" visible="true" lat="44.498315289209" lon="-72.368024059809">
    <tag k="addr:city" v="Hardwick"/>
    <tag k="addr:housenumber" v="145"/>
    <tag k="addr:street" v="Mackville Road"/>
    <tag k="addr:state" v="VT"/>
    <tag k="ref:vcgi:esiteid" v="700088"/>
  </node>
  <node id="-1613" visible="true" lat="44.524906742124" lon="-72.417779225756">
    <tag k="addr:city" v="Wolcott"/>
    <tag k="addr:housenumber" v="73"/>
    <tag k="addr:street" v="Marsh Road"/>
    <tag k="addr:state" v="VT"/>
    <tag k="ref:vcgi:esiteid" v="754252"/>
  </node>
  <node id="-1628" visible="true" lat="44.493419548331" lon="-72.372806830524">
    <tag k="addr:city" v="Hardwick"/>
    <tag k="addr:housenumber" v="227"/>
    <tag k="addr:street" v="Vermont Route 14 South"/>
    <tag k="addr:state" v="VT"/>
    <tag k="ref:vcgi:esiteid" v="758239"/>
  </node>
  <node id="-1631" visible="true" lat="44.523275256135" lon="-72.369877341467">
    <tag k="addr:city" v="Hardwick"/>
    <tag k="addr:housenumber" v="821"/>
    <tag k="addr:street" v="Billings Road"/>
    <tag k="addr:state" v="VT"/>
    <tag k="ref:vcgi:esiteid" v="758738"/>
  </node>
  <node id="-1643" visible="true" lat="44.526423115336" lon="-72.414664637612">
    <tag k="addr:city" v="Wolcott"/>
    <tag k="addr:housenumber" v="50"/>
    <tag k="addr:street" v="Weeks Place"/>
    <tag k="addr:state" v="VT"/>
    <tag k="ref:vcgi:esiteid" v="762886"/>
  </node>
</osm>
