<?xml version="1.0" encoding="UTF-8"?>
<osm version="0.6" generator="JOSM" upload="false">
  <node id="-674" visible="true" lat="43.679763759841" lon="-72.312043285134">
    <!-- duplicates-in-different-towns: "133 Colonial Drive, White River Junction, VT"  ignoring town mismatch for duplicate housenumber/street when matching to esiteid 120728: "133 Colonial Drive, Hartford, VT" -->
    <tag k="addr:city" v="White River Junction"/>
    <tag k="addr:housenumber" v="133"/>
    <tag k="addr:street" v="Colonial Drive"/>
    <tag k="addr:state" v="VT"/>
    <tag k="ref:vcgi:esiteid" v="120679"/>
  </node>
  <node id="-677" visible="true" lat="43.67969461663" lon="-72.312744996815">
    <!-- duplicates-in-different-towns: "133 Colonial Drive, White River Junction, VT"  ignoring town mismatch for duplicate housenumber/street when matching to esiteid 120728: "133 Colonial Drive, Hartford, VT" -->
    <tag k="addr:city" v="White River Junction"/>
    <tag k="addr:housenumber" v="133"/>
    <tag k="addr:street" v="Colonial Drive"/>
    <tag k="addr:state" v="VT"/>
    <tag k="ref:vcgi:esiteid" v="120682"/>
  </node>
  <node id="-688" visible="true" lat="43.679387784423" lon="-72.313267272328">
    <!-- duplicates-in-different-towns: "133 Colonial Drive, White River Junction, VT"  ignoring town mismatch for duplicate housenumber/street when matching to esiteid 120728: "133 Colonial Drive, Hartford, VT" -->
    <tag k="addr:city" v="White River Junction"/>
    <tag k="addr:housenumber" v="133"/>
    <tag k="addr:street" v="Colonial Drive"/>
    <tag k="addr:state" v="VT"/>
    <tag k="ref:vcgi:esiteid" v="120694"/>
  </node>
  <node id="-694" visible="true" lat="43.679234829273" lon="-72.312587881021">
    <!-- duplicates-in-different-towns: "133 Colonial Drive, White River Junction, VT"  ignoring town mismatch for duplicate housenumber/street when matching to esiteid 120728: "133 Colonial Drive, Hartford, VT" -->
    <tag k="addr:city" v="White River Junction"/>
    <tag k="addr:housenumber" v="133"/>
    <tag k="addr:street" v="Colonial Drive"/>
    <tag k="addr:state" v="VT"/>
    <tag k="ref:vcgi:esiteid" v="120700"/>
  </node>
  <node id="-713" visible="true" lat="43.678959593324" lon="-72.313349411771">
    <!-- duplicates-in-different-towns: "133 Colonial Drive, White River Junction, VT"  ignoring town mismatch for duplicate housenumber/street when matching to esiteid 120728: "133 Colonial Drive, Hartford, VT" -->
    <tag k="addr:city" v="White River Junction"/>
    <tag k="addr:housenumber" v="133"/>
    <tag k="addr:street" v="Colonial Drive"/>
    <tag k="addr:state" v="VT"/>
    <tag k="ref:vcgi:esiteid" v="120723"/>
  </node>
  <node id="-726" visible="true" lat="43.678758804717" lon="-72.312842306767">
    <!-- duplicates-in-different-towns: "133 Colonial Drive, White River Junction, VT"  ignoring town mismatch for duplicate housenumber/street when matching to esiteid 120728: "133 Colonial Drive, Hartford, VT" -->
    <tag k="addr:city" v="White River Junction"/>
    <tag k="addr:housenumber" v="133"/>
    <tag k="addr:street" v="Colonial Drive"/>
    <tag k="addr:state" v="VT"/>
    <tag k="ref:vcgi:esiteid" v="120737"/>
  </node>
  <node id="-791" visible="true" lat="43.677926357491" lon="-72.310860764705">
    <!-- duplicates-in-different-towns: "76 Colonial Drive, White River Junction, VT"  ignoring town mismatch for duplicate housenumber/street when matching to esiteid 345318: "76 Colonial Drive, , VT" -->
    <tag k="addr:city" v="White River Junction"/>
    <tag k="addr:housenumber" v="76"/>
    <tag k="addr:unit" v="21-24"/>
    <tag k="addr:street" v="Colonial Drive"/>
    <tag k="addr:state" v="VT"/>
    <tag k="ref:vcgi:esiteid" v="120805"/>
  </node>
  <node id="-792" visible="true" lat="43.677827174348" lon="-72.311211717175">
    <!-- duplicates-in-different-towns: "76 Colonial Drive, White River Junction, VT"  ignoring town mismatch for duplicate housenumber/street when matching to esiteid 345318: "76 Colonial Drive, , VT" -->
    <tag k="addr:city" v="White River Junction"/>
    <tag k="addr:housenumber" v="76"/>
    <tag k="addr:unit" v="25-28"/>
    <tag k="addr:street" v="Colonial Drive"/>
    <tag k="addr:state" v="VT"/>
    <tag k="ref:vcgi:esiteid" v="120806"/>
  </node>
  <node id="-796" visible="true" lat="43.677796657801" lon="-72.310349594726">
    <!-- duplicates-in-different-towns: "76 Colonial Drive, White River Junction, VT"  ignoring town mismatch for duplicate housenumber/street when matching to esiteid 345318: "76 Colonial Drive, , VT" -->
    <tag k="addr:city" v="White River Junction"/>
    <tag k="addr:housenumber" v="76"/>
    <tag k="addr:unit" v="17-20"/>
    <tag k="addr:street" v="Colonial Drive"/>
    <tag k="addr:state" v="VT"/>
    <tag k="ref:vcgi:esiteid" v="120810"/>
  </node>
  <node id="-811" visible="true" lat="43.67760592343" lon="-72.311005723652">
    <!-- duplicates-in-different-towns: "76 Colonial Drive, White River Junction, VT"  ignoring town mismatch for duplicate housenumber/street when matching to esiteid 345318: "76 Colonial Drive, , VT" -->
    <tag k="addr:city" v="White River Junction"/>
    <tag k="addr:housenumber" v="76"/>
    <tag k="addr:unit" v="1-4"/>
    <tag k="addr:street" v="Colonial Drive"/>
    <tag k="addr:state" v="VT"/>
    <tag k="ref:vcgi:esiteid" v="120826"/>
  </node>
  <node id="-818" visible="true" lat="43.677453334347" lon="-72.310608994363">
    <!-- duplicates-in-different-towns: "76 Colonial Drive, White River Junction, VT"  ignoring town mismatch for duplicate housenumber/street when matching to esiteid 345318: "76 Colonial Drive, , VT" -->
    <tag k="addr:city" v="White River Junction"/>
    <tag k="addr:housenumber" v="76"/>
    <tag k="addr:unit" v="5-10"/>
    <tag k="addr:street" v="Colonial Drive"/>
    <tag k="addr:state" v="VT"/>
    <tag k="ref:vcgi:esiteid" v="120836"/>
  </node>
  <node id="-820" visible="true" lat="43.677430446073" lon="-72.310181749134">
    <!-- duplicates-in-different-towns: "76 Colonial Drive, White River Junction, VT"  ignoring town mismatch for duplicate housenumber/street when matching to esiteid 345318: "76 Colonial Drive, , VT" -->
    <tag k="addr:city" v="White River Junction"/>
    <tag k="addr:housenumber" v="76"/>
    <tag k="addr:unit" v="11-16"/>
    <tag k="addr:street" v="Colonial Drive"/>
    <tag k="addr:state" v="VT"/>
    <tag k="ref:vcgi:esiteid" v="120838"/>
  </node>
  <node id="-1723" visible="true" lat="43.6635873434" lon="-72.449842747012">
    <!-- duplicates-in-different-towns: "105 Williams Lane, Quechee, VT"  ignoring town mismatch for duplicate housenumber/street when matching to esiteid 121868: "105 Williams Lane, Hartford, VT" -->
    <tag k="addr:city" v="Quechee"/>
    <tag k="addr:housenumber" v="105"/>
    <tag k="addr:street" v="Williams Lane"/>
    <tag k="addr:state" v="VT"/>
    <tag k="ref:vcgi:esiteid" v="121795"/>
  </node>
  <node id="-1748" visible="true" lat="43.663591306367" lon="-72.447825523298">
    <!-- duplicates-in-different-towns: "105 Williams Lane, Quechee, VT"  ignoring town mismatch for duplicate housenumber/street when matching to esiteid 121868: "105 Williams Lane, Hartford, VT" -->
    <tag k="addr:city" v="Quechee"/>
    <tag k="addr:housenumber" v="105"/>
    <tag k="addr:street" v="Williams Lane"/>
    <tag k="addr:state" v="VT"/>
    <tag k="ref:vcgi:esiteid" v="121820"/>
  </node>
  <node id="-1756" visible="true" lat="43.66328931684" lon="-72.444254925927">
    <!-- duplicates-in-different-towns: "451 Williams Lane, Quechee, VT"  ignoring town mismatch for duplicate housenumber/street when matching to esiteid 121856: "451 Williams Lane, Hartford, VT" -->
    <tag k="addr:city" v="Quechee"/>
    <tag k="addr:housenumber" v="451"/>
    <tag k="addr:street" v="Williams Lane"/>
    <tag k="addr:state" v="VT"/>
    <tag k="ref:vcgi:esiteid" v="121829"/>
  </node>
  <node id="-1793" visible="true" lat="43.662979571201" lon="-72.443786921987">
    <!-- duplicates-in-different-towns: "451 Williams Lane, Quechee, VT"  ignoring town mismatch for duplicate housenumber/street when matching to esiteid 121856: "451 Williams Lane, Hartford, VT" -->
    <tag k="addr:city" v="Quechee"/>
    <tag k="addr:housenumber" v="451"/>
    <tag k="addr:street" v="Williams Lane"/>
    <tag k="addr:state" v="VT"/>
    <tag k="ref:vcgi:esiteid" v="121867"/>
  </node>
  <node id="-1807" visible="true" lat="43.662730015979" lon="-72.444832632438">
    <!-- duplicates-in-different-towns: "451 Williams Lane, Quechee, VT"  ignoring town mismatch for duplicate housenumber/street when matching to esiteid 121856: "451 Williams Lane, Hartford, VT" -->
    <tag k="addr:city" v="Quechee"/>
    <tag k="addr:housenumber" v="451"/>
    <tag k="addr:street" v="Williams Lane"/>
    <tag k="addr:state" v="VT"/>
    <tag k="ref:vcgi:esiteid" v="121881"/>
  </node>
  <node id="-1809" visible="true" lat="43.662586051496" lon="-72.449315983517">
    <!-- duplicates-in-different-towns: "105 Williams Lane, Quechee, VT"  ignoring town mismatch for duplicate housenumber/street when matching to esiteid 121868: "105 Williams Lane, Hartford, VT" -->
    <tag k="addr:city" v="Quechee"/>
    <tag k="addr:housenumber" v="105"/>
    <tag k="addr:street" v="Williams Lane"/>
    <tag k="addr:state" v="VT"/>
    <tag k="ref:vcgi:esiteid" v="121883"/>
  </node>
  <node id="-1810" visible="true" lat="43.662666132409" lon="-72.443646612942">
    <!-- duplicates-in-different-towns: "451 Williams Lane, Quechee, VT"  ignoring town mismatch for duplicate housenumber/street when matching to esiteid 121856: "451 Williams Lane, Hartford, VT" -->
    <tag k="addr:city" v="Quechee"/>
    <tag k="addr:housenumber" v="451"/>
    <tag k="addr:street" v="Williams Lane"/>
    <tag k="addr:state" v="VT"/>
    <tag k="ref:vcgi:esiteid" v="121884"/>
  </node>
  <node id="-1813" visible="true" lat="43.662547546503" lon="-72.444298724703">
    <!-- duplicates-in-different-towns: "451 Williams Lane, Quechee, VT"  ignoring town mismatch for duplicate housenumber/street when matching to esiteid 121856: "451 Williams Lane, Hartford, VT" -->
    <tag k="addr:city" v="Quechee"/>
    <tag k="addr:housenumber" v="451"/>
    <tag k="addr:street" v="Williams Lane"/>
    <tag k="addr:state" v="VT"/>
    <tag k="ref:vcgi:esiteid" v="121887"/>
  </node>
  <node id="-1824" visible="true" lat="43.662272887545" lon="-72.443722251474">
    <!-- duplicates-in-different-towns: "451 Williams Lane, Quechee, VT"  ignoring town mismatch for duplicate housenumber/street when matching to esiteid 121856: "451 Williams Lane, Hartford, VT" -->
    <tag k="addr:city" v="Quechee"/>
    <tag k="addr:housenumber" v="451"/>
    <tag k="addr:street" v="Williams Lane"/>
    <tag k="addr:state" v="VT"/>
    <tag k="ref:vcgi:esiteid" v="121898"/>
  </node>
  <node id="-1893" visible="true" lat="43.661549152001" lon="-72.311479200854">
    <!-- duplicates-in-different-towns: "150 Advent Lane, White River Junction, VT"  ignoring town mismatch for duplicate housenumber/street when matching to esiteid 124742: "150 Advent Lane, , VT" -->
    <tag k="addr:city" v="White River Junction"/>
    <tag k="addr:housenumber" v="150"/>
    <tag k="addr:street" v="Advent Lane"/>
    <tag k="addr:state" v="VT"/>
    <tag k="ref:vcgi:esiteid" v="121978"/>
  </node>
  <node id="-1907" visible="true" lat="43.661919464031" lon="-72.310990203157">
    <!-- duplicates-in-different-towns: "150 Advent Lane, White River Junction, VT"  ignoring town mismatch for duplicate housenumber/street when matching to esiteid 124742: "150 Advent Lane, , VT" -->
    <tag k="addr:city" v="White River Junction"/>
    <tag k="addr:housenumber" v="150"/>
    <tag k="addr:street" v="Advent Lane"/>
    <tag k="addr:state" v="VT"/>
    <tag k="ref:vcgi:esiteid" v="121994"/>
  </node>
  <node id="-1911" visible="true" lat="43.661531807676" lon="-72.311119959744">
    <!-- duplicates-in-different-towns: "150 Advent Lane, White River Junction, VT"  ignoring town mismatch for duplicate housenumber/street when matching to esiteid 124742: "150 Advent Lane, , VT" -->
    <tag k="addr:city" v="White River Junction"/>
    <tag k="addr:housenumber" v="150"/>
    <tag k="addr:street" v="Advent Lane"/>
    <tag k="addr:state" v="VT"/>
    <tag k="ref:vcgi:esiteid" v="121998"/>
  </node>
  <node id="-1926" visible="true" lat="43.661501598165" lon="-72.310930333442">
    <!-- duplicates-in-different-towns: "150 Advent Lane, White River Junction, VT"  ignoring town mismatch for duplicate housenumber/street when matching to esiteid 124742: "150 Advent Lane, , VT" -->
    <tag k="addr:city" v="White River Junction"/>
    <tag k="addr:housenumber" v="150"/>
    <tag k="addr:street" v="Advent Lane"/>
    <tag k="addr:state" v="VT"/>
    <tag k="ref:vcgi:esiteid" v="122016"/>
  </node>
  <node id="-1951" visible="true" lat="43.661097393154" lon="-72.311749760393">
    <!-- duplicates-in-different-towns: "150 Advent Lane, White River Junction, VT"  ignoring town mismatch for duplicate housenumber/street when matching to esiteid 124742: "150 Advent Lane, , VT" -->
    <tag k="addr:city" v="White River Junction"/>
    <tag k="addr:housenumber" v="150"/>
    <tag k="addr:street" v="Advent Lane"/>
    <tag k="addr:state" v="VT"/>
    <tag k="ref:vcgi:esiteid" v="122045"/>
  </node>
  <node id="-1954" visible="true" lat="43.661112624385" lon="-72.310877350186">
    <!-- duplicates-in-different-towns: "150 Advent Lane, White River Junction, VT"  ignoring town mismatch for duplicate housenumber/street when matching to esiteid 124742: "150 Advent Lane, , VT" -->
    <tag k="addr:city" v="White River Junction"/>
    <tag k="addr:housenumber" v="150"/>
    <tag k="addr:street" v="Advent Lane"/>
    <tag k="addr:state" v="VT"/>
    <tag k="ref:vcgi:esiteid" v="122050"/>
  </node>
  <node id="-1971" visible="true" lat="43.660984837778" lon="-72.311034074364">
    <!-- duplicates-in-different-towns: "150 Advent Lane, White River Junction, VT"  ignoring town mismatch for duplicate housenumber/street when matching to esiteid 124742: "150 Advent Lane, , VT" -->
    <tag k="addr:city" v="White River Junction"/>
    <tag k="addr:housenumber" v="150"/>
    <tag k="addr:street" v="Advent Lane"/>
    <tag k="addr:state" v="VT"/>
    <tag k="ref:vcgi:esiteid" v="122069"/>
  </node>
  <node id="-1985" visible="true" lat="43.660904717784" lon="-72.311080554999">
    <!-- duplicates-in-different-towns: "150 Advent Lane, White River Junction, VT"  ignoring town mismatch for duplicate housenumber/street when matching to esiteid 124742: "150 Advent Lane, , VT" -->
    <tag k="addr:city" v="White River Junction"/>
    <tag k="addr:housenumber" v="150"/>
    <tag k="addr:street" v="Advent Lane"/>
    <tag k="addr:state" v="VT"/>
    <tag k="ref:vcgi:esiteid" v="122083"/>
  </node>
  <node id="-1996" visible="true" lat="43.660828136182" lon="-72.311140238101">
    <!-- duplicates-in-different-towns: "150 Advent Lane, White River Junction, VT"  ignoring town mismatch for duplicate housenumber/street when matching to esiteid 124742: "150 Advent Lane, , VT" -->
    <tag k="addr:city" v="White River Junction"/>
    <tag k="addr:housenumber" v="150"/>
    <tag k="addr:street" v="Advent Lane"/>
    <tag k="addr:state" v="VT"/>
    <tag k="ref:vcgi:esiteid" v="122096"/>
  </node>
  <node id="-2043" visible="true" lat="43.660214109709" lon="-72.311702454171">
    <!-- duplicates-in-different-towns: "150 Advent Lane, White River Junction, VT"  ignoring town mismatch for duplicate housenumber/street when matching to esiteid 124742: "150 Advent Lane, , VT" -->
    <tag k="addr:city" v="White River Junction"/>
    <tag k="addr:housenumber" v="150"/>
    <tag k="addr:street" v="Advent Lane"/>
    <tag k="addr:state" v="VT"/>
    <tag k="ref:vcgi:esiteid" v="122146"/>
  </node>
  <node id="-2645" visible="true" lat="43.652478501918" lon="-72.436356716641">
    <!-- duplicates-in-different-towns: "111 Lakeland Drive, Quechee, VT"  ignoring town mismatch for duplicate housenumber/street when matching to esiteid 122848: "111 Lakeland Drive, , VT" -->
    <tag k="addr:city" v="Quechee"/>
    <tag k="addr:housenumber" v="111"/>
    <tag k="addr:street" v="Lakeland Drive"/>
    <tag k="addr:state" v="VT"/>
    <tag k="ref:vcgi:esiteid" v="122792"/>
  </node>
  <node id="-2646" visible="true" lat="43.652451801008" lon="-72.436867886488">
    <!-- duplicates-in-different-towns: "111 Lakeland Drive, Quechee, VT"  ignoring town mismatch for duplicate housenumber/street when matching to esiteid 122848: "111 Lakeland Drive, , VT" -->
    <tag k="addr:city" v="Quechee"/>
    <tag k="addr:housenumber" v="111"/>
    <tag k="addr:street" v="Lakeland Drive"/>
    <tag k="addr:state" v="VT"/>
    <tag k="ref:vcgi:esiteid" v="122795"/>
  </node>
  <node id="-2649" visible="true" lat="43.652390764695" lon="-72.437455349067">
    <!-- duplicates-in-different-towns: "111 Lakeland Drive, Quechee, VT"  ignoring town mismatch for duplicate housenumber/street when matching to esiteid 122848: "111 Lakeland Drive, , VT" -->
    <tag k="addr:city" v="Quechee"/>
    <tag k="addr:housenumber" v="111"/>
    <tag k="addr:street" v="Lakeland Drive"/>
    <tag k="addr:state" v="VT"/>
    <tag k="ref:vcgi:esiteid" v="122799"/>
  </node>
  <node id="-2660" visible="true" lat="43.652169513471" lon="-72.435822658449">
    <!-- duplicates-in-different-towns: "111 Lakeland Drive, Quechee, VT"  ignoring town mismatch for duplicate housenumber/street when matching to esiteid 122848: "111 Lakeland Drive, , VT" -->
    <tag k="addr:city" v="Quechee"/>
    <tag k="addr:housenumber" v="111"/>
    <tag k="addr:street" v="Lakeland Drive"/>
    <tag k="addr:state" v="VT"/>
    <tag k="ref:vcgi:esiteid" v="122813"/>
  </node>
  <node id="-2666" visible="true" lat="43.652020013342" lon="-72.436854134087">
    <!-- duplicates-in-different-towns: "111 Lakeland Drive, Quechee, VT"  ignoring town mismatch for duplicate housenumber/street when matching to esiteid 122848: "111 Lakeland Drive, , VT" -->
    <tag k="addr:city" v="Quechee"/>
    <tag k="addr:housenumber" v="111"/>
    <tag k="addr:street" v="Lakeland Drive"/>
    <tag k="addr:state" v="VT"/>
    <tag k="ref:vcgi:esiteid" v="122819"/>
  </node>
  <node id="-2698" visible="true" lat="43.651585864483" lon="-72.437516384261">
    <!-- duplicates-in-different-towns: "60 Lakeland Drive, Quechee, VT"  ignoring town mismatch for duplicate housenumber/street when matching to esiteid 122911: "60 Lakeland Drive, , VT" -->
    <tag k="addr:city" v="Quechee"/>
    <tag k="addr:housenumber" v="60"/>
    <tag k="addr:street" v="Lakeland Drive"/>
    <tag k="addr:state" v="VT"/>
    <tag k="ref:vcgi:esiteid" v="122856"/>
  </node>
  <node id="-2717" visible="true" lat="43.651295945832" lon="-72.437676601159">
    <!-- duplicates-in-different-towns: "60 Lakeland Drive, Quechee, VT"  ignoring town mismatch for duplicate housenumber/street when matching to esiteid 122911: "60 Lakeland Drive, , VT" -->
    <tag k="addr:city" v="Quechee"/>
    <tag k="addr:housenumber" v="60"/>
    <tag k="addr:street" v="Lakeland Drive"/>
    <tag k="addr:state" v="VT"/>
    <tag k="ref:vcgi:esiteid" v="122878"/>
  </node>
  <node id="-2727" visible="true" lat="43.651120147623" lon="-72.446039930929">
    <!-- duplicates-in-different-towns: "3755 Quechee Main Street, Quechee, VT"  ignoring town mismatch for duplicate housenumber/street when matching to esiteid 123281: "3755 Quechee Main Street, , VT" -->
    <tag k="addr:city" v="Quechee"/>
    <tag k="addr:housenumber" v="3755"/>
    <tag k="addr:street" v="Quechee Main Street"/>
    <tag k="addr:state" v="VT"/>
    <tag k="ref:vcgi:esiteid" v="122891"/>
  </node>
  <node id="-2728" visible="true" lat="43.651042033731" lon="-72.44702204799">
    <!-- duplicates-in-different-towns: "3755 Quechee Main Street, Quechee, VT"  ignoring town mismatch for duplicate housenumber/street when matching to esiteid 123281: "3755 Quechee Main Street, , VT" -->
    <tag k="addr:city" v="Quechee"/>
    <tag k="addr:housenumber" v="3755"/>
    <tag k="addr:street" v="Quechee Main Street"/>
    <tag k="addr:state" v="VT"/>
    <tag k="ref:vcgi:esiteid" v="122892"/>
  </node>
  <node id="-2729" visible="true" lat="43.651044175931" lon="-72.437386684824">
    <!-- duplicates-in-different-towns: "60 Lakeland Drive, Quechee, VT"  ignoring town mismatch for duplicate housenumber/street when matching to esiteid 122911: "60 Lakeland Drive, , VT" -->
    <tag k="addr:city" v="Quechee"/>
    <tag k="addr:housenumber" v="60"/>
    <tag k="addr:street" v="Lakeland Drive"/>
    <tag k="addr:state" v="VT"/>
    <tag k="ref:vcgi:esiteid" v="122893"/>
  </node>
  <node id="-2731" visible="true" lat="43.651078160373" lon="-72.446544880742">
    <!-- duplicates-in-different-towns: "3755 Quechee Main Street, Quechee, VT"  ignoring town mismatch for duplicate housenumber/street when matching to esiteid 123281: "3755 Quechee Main Street, , VT" -->
    <tag k="addr:city" v="Quechee"/>
    <tag k="addr:housenumber" v="3755"/>
    <tag k="addr:street" v="Quechee Main Street"/>
    <tag k="addr:state" v="VT"/>
    <tag k="ref:vcgi:esiteid" v="122895"/>
  </node>
  <node id="-2745" visible="true" lat="43.650902785579" lon="-72.445719808992">
    <!-- duplicates-in-different-towns: "3755 Quechee Main Street, Quechee, VT"  ignoring town mismatch for duplicate housenumber/street when matching to esiteid 123281: "3755 Quechee Main Street, , VT" -->
    <tag k="addr:city" v="Quechee"/>
    <tag k="addr:housenumber" v="3755"/>
    <tag k="addr:street" v="Quechee Main Street"/>
    <tag k="addr:state" v="VT"/>
    <tag k="ref:vcgi:esiteid" v="122912"/>
  </node>
  <node id="-2763" visible="true" lat="43.650667708289" lon="-72.445176094839">
    <!-- duplicates-in-different-towns: "3755 Quechee Main Street, Quechee, VT"  ignoring town mismatch for duplicate housenumber/street when matching to esiteid 123281: "3755 Quechee Main Street, , VT" -->
    <tag k="addr:city" v="Quechee"/>
    <tag k="addr:housenumber" v="3755"/>
    <tag k="addr:street" v="Quechee Main Street"/>
    <tag k="addr:state" v="VT"/>
    <tag k="ref:vcgi:esiteid" v="122932"/>
  </node>
  <node id="-2780" visible="true" lat="43.650460712242" lon="-72.445965225638">
    <!-- duplicates-in-different-towns: "3755 Quechee Main Street, Quechee, VT"  ignoring town mismatch for duplicate housenumber/street when matching to esiteid 123281: "3755 Quechee Main Street, , VT" -->
    <tag k="addr:city" v="Quechee"/>
    <tag k="addr:housenumber" v="3755"/>
    <tag k="addr:street" v="Quechee Main Street"/>
    <tag k="addr:state" v="VT"/>
    <tag k="ref:vcgi:esiteid" v="122951"/>
  </node>
  <node id="-2788" visible="true" lat="43.650276695394" lon="-72.444789072647">
    <!-- duplicates-in-different-towns: "3755 Quechee Main Street, Quechee, VT"  ignoring town mismatch for duplicate housenumber/street when matching to esiteid 123281: "3755 Quechee Main Street, , VT" -->
    <tag k="addr:city" v="Quechee"/>
    <tag k="addr:housenumber" v="3755"/>
    <tag k="addr:street" v="Quechee Main Street"/>
    <tag k="addr:state" v="VT"/>
    <tag k="ref:vcgi:esiteid" v="122959"/>
  </node>
  <node id="-2794" visible="true" lat="43.650166797086" lon="-72.436684779247">
    <!-- duplicates-in-different-towns: "761 Murphys Road, Quechee, VT"  ignoring town mismatch for duplicate housenumber/street when matching to esiteid 123010: "761 Murphys Road, , VT" -->
    <tag k="addr:city" v="Quechee"/>
    <tag k="addr:housenumber" v="761"/>
    <tag k="addr:street" v="Murphys Road"/>
    <tag k="addr:state" v="VT"/>
    <tag k="ref:vcgi:esiteid" v="122966"/>
  </node>
  <node id="-2798" visible="true" lat="43.650140093707" lon="-72.438622646556">
    <!-- duplicates-in-different-towns: "805 Murphys Road, Quechee, VT"  ignoring town mismatch for duplicate housenumber/street when matching to esiteid 123034: "805 Murphys Road, , VT" -->
    <tag k="addr:city" v="Quechee"/>
    <tag k="addr:housenumber" v="805"/>
    <tag k="addr:street" v="Murphys Road"/>
    <tag k="addr:state" v="VT"/>
    <tag k="ref:vcgi:esiteid" v="122970"/>
  </node>
  <node id="-2801" visible="true" lat="43.650217242517" lon="-72.418670681326">
    <!-- duplicates-in-different-towns: "355 Lyman Batcheller Road, Quechee, VT"  ignoring town mismatch for duplicate housenumber/street when matching to esiteid 122946: "355 Lyman Batcheller Road, Hartford, VT" -->
    <tag k="addr:city" v="Quechee"/>
    <tag k="addr:housenumber" v="355"/>
    <tag k="addr:street" v="Lyman Batcheller Road"/>
    <tag k="addr:state" v="VT"/>
    <tag k="ref:vcgi:esiteid" v="122973"/>
  </node>
  <node id="-2806" visible="true" lat="43.6501658216" lon="-72.419275951451">
    <!-- duplicates-in-different-towns: "355 Lyman Batcheller Road, Quechee, VT"  ignoring town mismatch for duplicate housenumber/street when matching to esiteid 122946: "355 Lyman Batcheller Road, Hartford, VT" -->
    <tag k="addr:city" v="Quechee"/>
    <tag k="addr:housenumber" v="355"/>
    <tag k="addr:street" v="Lyman Batcheller Road"/>
    <tag k="addr:state" v="VT"/>
    <tag k="ref:vcgi:esiteid" v="122978"/>
  </node>
  <node id="-2807" visible="true" lat="43.650110240192" lon="-72.445787543771">
    <!-- duplicates-in-different-towns: "3755 Quechee Main Street, Quechee, VT"  ignoring town mismatch for duplicate housenumber/street when matching to esiteid 123281: "3755 Quechee Main Street, , VT" -->
    <tag k="addr:city" v="Quechee"/>
    <tag k="addr:housenumber" v="3755"/>
    <tag k="addr:street" v="Quechee Main Street"/>
    <tag k="addr:state" v="VT"/>
    <tag k="ref:vcgi:esiteid" v="122980"/>
  </node>
  <node id="-2811" visible="true" lat="43.649983690086" lon="-72.43815725407">
    <!-- duplicates-in-different-towns: "805 Murphys Road, Quechee, VT"  ignoring town mismatch for duplicate housenumber/street when matching to esiteid 123034: "805 Murphys Road, , VT" -->
    <tag k="addr:city" v="Quechee"/>
    <tag k="addr:housenumber" v="805"/>
    <tag k="addr:street" v="Murphys Road"/>
    <tag k="addr:state" v="VT"/>
    <tag k="ref:vcgi:esiteid" v="122984"/>
  </node>
  <node id="-2814" visible="true" lat="43.649972246871" lon="-72.436928920498">
    <!-- duplicates-in-different-towns: "761 Murphys Road, Quechee, VT"  ignoring town mismatch for duplicate housenumber/street when matching to esiteid 123010: "761 Murphys Road, , VT" -->
    <tag k="addr:city" v="Quechee"/>
    <tag k="addr:housenumber" v="761"/>
    <tag k="addr:street" v="Murphys Road"/>
    <tag k="addr:state" v="VT"/>
    <tag k="ref:vcgi:esiteid" v="122987"/>
  </node>
  <node id="-2817" visible="true" lat="43.650078172125" lon="-72.445057755115">
    <!-- duplicates-in-different-towns: "3755 Quechee Main Street, Quechee, VT"  ignoring town mismatch for duplicate housenumber/street when matching to esiteid 123281: "3755 Quechee Main Street, , VT" -->
    <tag k="addr:city" v="Quechee"/>
    <tag k="addr:housenumber" v="3755"/>
    <tag k="addr:street" v="Quechee Main Street"/>
    <tag k="addr:state" v="VT"/>
    <tag k="ref:vcgi:esiteid" v="122991"/>
  </node>
  <node id="-2822" visible="true" lat="43.649899768446" lon="-72.437798671859">
    <!-- duplicates-in-different-towns: "805 Murphys Road, Quechee, VT"  ignoring town mismatch for duplicate housenumber/street when matching to esiteid 123034: "805 Murphys Road, , VT" -->
    <tag k="addr:city" v="Quechee"/>
    <tag k="addr:housenumber" v="805"/>
    <tag k="addr:street" v="Murphys Road"/>
    <tag k="addr:state" v="VT"/>
    <tag k="ref:vcgi:esiteid" v="123000"/>
  </node>
  <node id="-2827" visible="true" lat="43.649865435263" lon="-72.438492946693">
    <!-- duplicates-in-different-towns: "805 Murphys Road, Quechee, VT"  ignoring town mismatch for duplicate housenumber/street when matching to esiteid 123034: "805 Murphys Road, , VT" -->
    <tag k="addr:city" v="Quechee"/>
    <tag k="addr:housenumber" v="805"/>
    <tag k="addr:street" v="Murphys Road"/>
    <tag k="addr:state" v="VT"/>
    <tag k="ref:vcgi:esiteid" v="123005"/>
  </node>
  <node id="-2836" visible="true" lat="43.649827478034" lon="-72.445371973897">
    <!-- duplicates-in-different-towns: "3755 Quechee Main Street, Quechee, VT"  ignoring town mismatch for duplicate housenumber/street when matching to esiteid 123281: "3755 Quechee Main Street, , VT" -->
    <tag k="addr:city" v="Quechee"/>
    <tag k="addr:housenumber" v="3755"/>
    <tag k="addr:street" v="Quechee Main Street"/>
    <tag k="addr:state" v="VT"/>
    <tag k="ref:vcgi:esiteid" v="123016"/>
  </node>
  <node id="-2852" visible="true" lat="43.649575518913" lon="-72.438355616775">
    <!-- duplicates-in-different-towns: "805 Murphys Road, Quechee, VT"  ignoring town mismatch for duplicate housenumber/street when matching to esiteid 123034: "805 Murphys Road, , VT" -->
    <tag k="addr:city" v="Quechee"/>
    <tag k="addr:housenumber" v="805"/>
    <tag k="addr:street" v="Murphys Road"/>
    <tag k="addr:state" v="VT"/>
    <tag k="ref:vcgi:esiteid" v="123033"/>
  </node>
  <node id="-2859" visible="true" lat="43.649547109935" lon="-72.44495552193">
    <!-- duplicates-in-different-towns: "3755 Quechee Main Street, Quechee, VT"  ignoring town mismatch for duplicate housenumber/street when matching to esiteid 123281: "3755 Quechee Main Street, , VT" -->
    <tag k="addr:city" v="Quechee"/>
    <tag k="addr:housenumber" v="3755"/>
    <tag k="addr:street" v="Quechee Main Street"/>
    <tag k="addr:state" v="VT"/>
    <tag k="ref:vcgi:esiteid" v="123041"/>
  </node>
  <node id="-2876" visible="true" lat="43.64933519129" lon="-72.435815029697">
    <!-- duplicates-in-different-towns: "860 Murphys Road, Quechee, VT"  ignoring town mismatch for duplicate housenumber/street when matching to esiteid 123257: "860 Murphys Road, , VT" -->
    <tag k="addr:city" v="Quechee"/>
    <tag k="addr:housenumber" v="860"/>
    <tag k="addr:street" v="Murphys Road"/>
    <tag k="addr:state" v="VT"/>
    <tag k="ref:vcgi:esiteid" v="123063"/>
  </node>
  <node id="-2896" visible="true" lat="43.649420258124" lon="-72.440075649262">
    <!-- duplicates-in-different-towns: "807 Murphys Road, Quechee, VT"  ignoring town mismatch for duplicate housenumber/street when matching to esiteid 123271: "807 Murphys Road, , VT" -->
    <tag k="addr:city" v="Quechee"/>
    <tag k="addr:housenumber" v="807"/>
    <tag k="addr:street" v="Murphys Road"/>
    <tag k="addr:state" v="VT"/>
    <tag k="ref:vcgi:esiteid" v="123085"/>
  </node>
  <node id="-2914" visible="true" lat="43.649194695789" lon="-72.444893693892">
    <!-- duplicates-in-different-towns: "3755 Quechee Main Street, Quechee, VT"  ignoring town mismatch for duplicate housenumber/street when matching to esiteid 123281: "3755 Quechee Main Street, , VT" -->
    <tag k="addr:city" v="Quechee"/>
    <tag k="addr:housenumber" v="3755"/>
    <tag k="addr:street" v="Quechee Main Street"/>
    <tag k="addr:state" v="VT"/>
    <tag k="ref:vcgi:esiteid" v="123105"/>
  </node>
  <node id="-2926" visible="true" lat="43.648961350641" lon="-72.436036280216">
    <!-- duplicates-in-different-towns: "860 Murphys Road, Quechee, VT"  ignoring town mismatch for duplicate housenumber/street when matching to esiteid 123257: "860 Murphys Road, , VT" -->
    <tag k="addr:city" v="Quechee"/>
    <tag k="addr:housenumber" v="860"/>
    <tag k="addr:street" v="Murphys Road"/>
    <tag k="addr:state" v="VT"/>
    <tag k="ref:vcgi:esiteid" v="123118"/>
  </node>
  <node id="-2931" visible="true" lat="43.648934649216" lon="-72.439683131552">
    <!-- duplicates-in-different-towns: "807 Murphys Road, Quechee, VT"  ignoring town mismatch for duplicate housenumber/street when matching to esiteid 123271: "807 Murphys Road, , VT" -->
    <tag k="addr:city" v="Quechee"/>
    <tag k="addr:housenumber" v="807"/>
    <tag k="addr:street" v="Murphys Road"/>
    <tag k="addr:state" v="VT"/>
    <tag k="ref:vcgi:esiteid" v="123125"/>
  </node>
  <node id="-2944" visible="true" lat="43.648937734502" lon="-72.440455408908">
    <!-- duplicates-in-different-towns: "807 Murphys Road, Quechee, VT"  ignoring town mismatch for duplicate housenumber/street when matching to esiteid 123271: "807 Murphys Road, , VT" -->
    <tag k="addr:city" v="Quechee"/>
    <tag k="addr:housenumber" v="807"/>
    <tag k="addr:street" v="Murphys Road"/>
    <tag k="addr:state" v="VT"/>
    <tag k="ref:vcgi:esiteid" v="123140"/>
  </node>
  <node id="-2956" visible="true" lat="43.648649963142" lon="-72.328017009788">
    <!-- duplicates-in-different-towns: "95 Templeton Avenue, White River Junction, VT"  ignoring town mismatch for duplicate housenumber/street when matching to esiteid 620535: "95 Templeton Avenue, , VT" -->
    <tag k="addr:city" v="White River Junction"/>
    <tag k="addr:housenumber" v="95"/>
    <tag k="addr:street" v="Templeton Avenue"/>
    <tag k="addr:state" v="VT"/>
    <tag k="ref:vcgi:esiteid" v="123153"/>
  </node>
  <node id="-2962" visible="true" lat="43.648618029647" lon="-72.43644063764">
    <!-- duplicates-in-different-towns: "860 Murphys Road, Quechee, VT"  ignoring town mismatch for duplicate housenumber/street when matching to esiteid 123257: "860 Murphys Road, , VT" -->
    <tag k="addr:city" v="Quechee"/>
    <tag k="addr:housenumber" v="860"/>
    <tag k="addr:street" v="Murphys Road"/>
    <tag k="addr:state" v="VT"/>
    <tag k="ref:vcgi:esiteid" v="123159"/>
  </node>
  <node id="-2971" visible="true" lat="43.648639226625" lon="-72.440717904852">
    <!-- duplicates-in-different-towns: "807 Murphys Road, Quechee, VT"  ignoring town mismatch for duplicate housenumber/street when matching to esiteid 123271: "807 Murphys Road, , VT" -->
    <tag k="addr:city" v="Quechee"/>
    <tag k="addr:housenumber" v="807"/>
    <tag k="addr:street" v="Murphys Road"/>
    <tag k="addr:state" v="VT"/>
    <tag k="ref:vcgi:esiteid" v="123173"/>
  </node>
  <node id="-2973" visible="true" lat="43.648515030144" lon="-72.411940019417">
    <!-- duplicates-in-different-towns: "253 Old Quechee Road, Quechee, VT"  ignoring town mismatch for duplicate housenumber/street when matching to esiteid 123138: "253 Old Quechee Road, Hartford, VT" -->
    <tag k="addr:city" v="Quechee"/>
    <tag k="addr:housenumber" v="253"/>
    <tag k="addr:street" v="Old Quechee Road"/>
    <tag k="addr:state" v="VT"/>
    <tag k="ref:vcgi:esiteid" v="123175"/>
  </node>
  <node id="-2984" visible="true" lat="43.648434922439" lon="-72.440110380112">
    <!-- duplicates-in-different-towns: "807 Murphys Road, Quechee, VT"  ignoring town mismatch for duplicate housenumber/street when matching to esiteid 123271: "807 Murphys Road, , VT" -->
    <tag k="addr:city" v="Quechee"/>
    <tag k="addr:housenumber" v="807"/>
    <tag k="addr:street" v="Murphys Road"/>
    <tag k="addr:state" v="VT"/>
    <tag k="ref:vcgi:esiteid" v="123188"/>
  </node>
  <node id="-2992" visible="true" lat="43.648184983162" lon="-72.326948598412">
    <!-- duplicates-in-different-towns: "95 Templeton Avenue, White River Junction, VT"  ignoring town mismatch for duplicate housenumber/street when matching to esiteid 620535: "95 Templeton Avenue, , VT" -->
    <tag k="addr:city" v="White River Junction"/>
    <tag k="addr:housenumber" v="95"/>
    <tag k="addr:street" v="Templeton Avenue"/>
    <tag k="addr:state" v="VT"/>
    <tag k="ref:vcgi:esiteid" v="123199"/>
  </node>
  <node id="-3002" visible="true" lat="43.648230599718" lon="-72.410538274694">
    <!-- duplicates-in-different-towns: "1299 Quechee Main Street, Quechee, VT"  ignoring town mismatch for duplicate housenumber/street when matching to esiteid 123246: "1299 Quechee Main Street, Hartford, VT" -->
    <tag k="addr:city" v="Quechee"/>
    <tag k="addr:housenumber" v="1299"/>
    <tag k="addr:street" v="Quechee Main Street"/>
    <tag k="addr:state" v="VT"/>
    <tag k="ref:vcgi:esiteid" v="123209"/>
  </node>
  <node id="-3008" visible="true" lat="43.648405406386" lon="-72.445257923929">
    <!-- duplicates-in-different-towns: "3755 Quechee Main Street, Quechee, VT"  ignoring town mismatch for duplicate housenumber/street when matching to esiteid 123281: "3755 Quechee Main Street, , VT" -->
    <tag k="addr:city" v="Quechee"/>
    <tag k="addr:housenumber" v="3755"/>
    <tag k="addr:street" v="Quechee Main Street"/>
    <tag k="addr:state" v="VT"/>
    <tag k="ref:vcgi:esiteid" v="123215"/>
  </node>
  <node id="-3009" visible="true" lat="43.648192451607" lon="-72.411453802657">
    <!-- duplicates-in-different-towns: "1299 Quechee Main Street, Quechee, VT"  ignoring town mismatch for duplicate housenumber/street when matching to esiteid 123246: "1299 Quechee Main Street, Hartford, VT" -->
    <tag k="addr:city" v="Quechee"/>
    <tag k="addr:housenumber" v="1299"/>
    <tag k="addr:street" v="Quechee Main Street"/>
    <tag k="addr:state" v="VT"/>
    <tag k="ref:vcgi:esiteid" v="123219"/>
  </node>
  <node id="-3013" visible="true" lat="43.648202226222" lon="-72.438416653752">
    <!-- duplicates-in-different-towns: "917 Murphys Road, Quechee, VT"  ignoring town mismatch for duplicate housenumber/street when matching to esiteid 123274: "917 Murphys Road, , VT" -->
    <tag k="addr:city" v="Quechee"/>
    <tag k="addr:housenumber" v="917"/>
    <tag k="addr:street" v="Murphys Road"/>
    <tag k="addr:state" v="VT"/>
    <tag k="ref:vcgi:esiteid" v="123223"/>
  </node>
  <node id="-3016" visible="true" lat="43.648232714721" lon="-72.434208081514">
    <!-- duplicates-in-different-towns: "580 Murphys Road, Quechee, VT"  ignoring town mismatch for duplicate housenumber/street when matching to esiteid 124572: "580 Murphys Road, , VT" -->
    <tag k="addr:city" v="Quechee"/>
    <tag k="addr:housenumber" v="580"/>
    <tag k="addr:street" v="Murphys Road"/>
    <tag k="addr:state" v="VT"/>
    <tag k="ref:vcgi:esiteid" v="123228"/>
  </node>
  <node id="-3017" visible="true" lat="43.648224112366" lon="-72.436449392555">
    <!-- duplicates-in-different-towns: "860 Murphys Road, Quechee, VT"  ignoring town mismatch for duplicate housenumber/street when matching to esiteid 123257: "860 Murphys Road, , VT" -->
    <tag k="addr:city" v="Quechee"/>
    <tag k="addr:housenumber" v="860"/>
    <tag k="addr:street" v="Murphys Road"/>
    <tag k="addr:state" v="VT"/>
    <tag k="ref:vcgi:esiteid" v="123229"/>
  </node>
  <node id="-3021" visible="true" lat="43.648087784617" lon="-72.412313860588">
    <!-- duplicates-in-different-towns: "253 Old Quechee Road, Quechee, VT"  ignoring town mismatch for duplicate housenumber/street when matching to esiteid 123138: "253 Old Quechee Road, Hartford, VT" -->
    <tag k="addr:city" v="Quechee"/>
    <tag k="addr:housenumber" v="253"/>
    <tag k="addr:street" v="Old Quechee Road"/>
    <tag k="addr:state" v="VT"/>
    <tag k="ref:vcgi:esiteid" v="123234"/>
  </node>
  <node id="-3024" visible="true" lat="43.648015970568" lon="-72.326251137162">
    <!-- duplicates-in-different-towns: "95 Templeton Avenue, White River Junction, VT"  ignoring town mismatch for duplicate housenumber/street when matching to esiteid 620535: "95 Templeton Avenue, , VT" -->
    <tag k="addr:city" v="White River Junction"/>
    <tag k="addr:housenumber" v="95"/>
    <tag k="addr:street" v="Templeton Avenue"/>
    <tag k="addr:state" v="VT"/>
    <tag k="ref:vcgi:esiteid" v="123239"/>
  </node>
  <node id="-3026" visible="true" lat="43.648187482838" lon="-72.437933817179">
    <!-- duplicates-in-different-towns: "917 Murphys Road, Quechee, VT"  ignoring town mismatch for duplicate housenumber/street when matching to esiteid 123274: "917 Murphys Road, , VT" -->
    <tag k="addr:city" v="Quechee"/>
    <tag k="addr:housenumber" v="917"/>
    <tag k="addr:street" v="Murphys Road"/>
    <tag k="addr:state" v="VT"/>
    <tag k="ref:vcgi:esiteid" v="123241"/>
  </node>
  <node id="-3028" visible="true" lat="43.648049639382" lon="-72.440972499825">
    <!-- duplicates-in-different-towns: "807 Murphys Road, Quechee, VT"  ignoring town mismatch for duplicate housenumber/street when matching to esiteid 123271: "807 Murphys Road, , VT" -->
    <tag k="addr:city" v="Quechee"/>
    <tag k="addr:housenumber" v="807"/>
    <tag k="addr:street" v="Murphys Road"/>
    <tag k="addr:state" v="VT"/>
    <tag k="ref:vcgi:esiteid" v="123243"/>
  </node>
  <node id="-3034" visible="true" lat="43.648170385865" lon="-72.445631248302">
    <!-- duplicates-in-different-towns: "3755 Quechee Main Street, Quechee, VT"  ignoring town mismatch for duplicate housenumber/street when matching to esiteid 123281: "3755 Quechee Main Street, , VT" -->
    <tag k="addr:city" v="Quechee"/>
    <tag k="addr:housenumber" v="3755"/>
    <tag k="addr:street" v="Quechee Main Street"/>
    <tag k="addr:state" v="VT"/>
    <tag k="ref:vcgi:esiteid" v="123249"/>
  </node>
  <node id="-3084" visible="true" lat="43.647565129918" lon="-72.434259776617">
    <!-- duplicates-in-different-towns: "1140 Murphys Road, Quechee, VT"  ignoring town mismatch for duplicate housenumber/street when matching to esiteid 123390: "1140 Murphys Road, , VT" -->
    <tag k="addr:city" v="Quechee"/>
    <tag k="addr:housenumber" v="1140"/>
    <tag k="addr:street" v="Murphys Road"/>
    <tag k="addr:state" v="VT"/>
    <tag k="ref:vcgi:esiteid" v="123309"/>
  </node>
  <node id="-3085" visible="true" lat="43.64750795259" lon="-72.433472801816">
    <!-- duplicates-in-different-towns: "1140 Murphys Road, Quechee, VT"  ignoring town mismatch for duplicate housenumber/street when matching to esiteid 123390: "1140 Murphys Road, , VT" -->
    <tag k="addr:city" v="Quechee"/>
    <tag k="addr:housenumber" v="1140"/>
    <tag k="addr:street" v="Murphys Road"/>
    <tag k="addr:state" v="VT"/>
    <tag k="ref:vcgi:esiteid" v="123310"/>
  </node>
  <node id="-3100" visible="true" lat="43.647362992432" lon="-72.432954003544">
    <!-- duplicates-in-different-towns: "1140 Murphys Road, Quechee, VT"  ignoring town mismatch for duplicate housenumber/street when matching to esiteid 123390: "1140 Murphys Road, , VT" -->
    <tag k="addr:city" v="Quechee"/>
    <tag k="addr:housenumber" v="1140"/>
    <tag k="addr:street" v="Murphys Road"/>
    <tag k="addr:state" v="VT"/>
    <tag k="ref:vcgi:esiteid" v="123326"/>
  </node>
  <node id="-3123" visible="true" lat="43.647023484337" lon="-72.431794336958">
    <!-- duplicates-in-different-towns: "1140 Murphys Road, Quechee, VT"  ignoring town mismatch for duplicate housenumber/street when matching to esiteid 123390: "1140 Murphys Road, , VT" -->
    <tag k="addr:city" v="Quechee"/>
    <tag k="addr:housenumber" v="1140"/>
    <tag k="addr:street" v="Murphys Road"/>
    <tag k="addr:state" v="VT"/>
    <tag k="ref:vcgi:esiteid" v="123354"/>
  </node>
  <node id="-3131" visible="true" lat="43.647020316089" lon="-72.438776188849">
    <!-- duplicates-in-different-towns: "919 Murphys Road, Quechee, VT"  ignoring town mismatch for duplicate housenumber/street when matching to esiteid 123410: "919 Murphys Road, , VT" -->
    <tag k="addr:city" v="Quechee"/>
    <tag k="addr:housenumber" v="919"/>
    <tag k="addr:street" v="Murphys Road"/>
    <tag k="addr:state" v="VT"/>
    <tag k="ref:vcgi:esiteid" v="123364"/>
  </node>
  <node id="-3160" visible="true" lat="43.646729753848" lon="-72.430512598225">
    <!-- duplicates-in-different-towns: "1140 Murphys Road, Quechee, VT"  ignoring town mismatch for duplicate housenumber/street when matching to esiteid 123390: "1140 Murphys Road, , VT" -->
    <tag k="addr:city" v="Quechee"/>
    <tag k="addr:housenumber" v="1140"/>
    <tag k="addr:street" v="Murphys Road"/>
    <tag k="addr:state" v="VT"/>
    <tag k="ref:vcgi:esiteid" v="123394"/>
  </node>
  <node id="-3170" visible="true" lat="43.646630571847" lon="-72.433022668279">
    <!-- duplicates-in-different-towns: "1140 Murphys Road, Quechee, VT"  ignoring town mismatch for duplicate housenumber/street when matching to esiteid 123390: "1140 Murphys Road, , VT" -->
    <tag k="addr:city" v="Quechee"/>
    <tag k="addr:housenumber" v="1140"/>
    <tag k="addr:street" v="Murphys Road"/>
    <tag k="addr:state" v="VT"/>
    <tag k="ref:vcgi:esiteid" v="123408"/>
  </node>
  <node id="-3182" visible="true" lat="43.64648942706" lon="-72.430260827557">
    <!-- duplicates-in-different-towns: "1140 Murphys Road, Quechee, VT"  ignoring town mismatch for duplicate housenumber/street when matching to esiteid 123390: "1140 Murphys Road, , VT" -->
    <tag k="addr:city" v="Quechee"/>
    <tag k="addr:housenumber" v="1140"/>
    <tag k="addr:street" v="Murphys Road"/>
    <tag k="addr:state" v="VT"/>
    <tag k="ref:vcgi:esiteid" v="123423"/>
  </node>
  <node id="-3191" visible="true" lat="43.646510103589" lon="-72.431596981468">
    <!-- duplicates-in-different-towns: "1140 Murphys Road, Quechee, VT"  ignoring town mismatch for duplicate housenumber/street when matching to esiteid 123390: "1140 Murphys Road, , VT" -->
    <tag k="addr:city" v="Quechee"/>
    <tag k="addr:housenumber" v="1140"/>
    <tag k="addr:street" v="Murphys Road"/>
    <tag k="addr:state" v="VT"/>
    <tag k="ref:vcgi:esiteid" v="123435"/>
  </node>
  <node id="-3209" visible="true" lat="43.64617680375" lon="-72.430568801891">
    <!-- duplicates-in-different-towns: "1140 Murphys Road, Quechee, VT"  ignoring town mismatch for duplicate housenumber/street when matching to esiteid 123390: "1140 Murphys Road, , VT" -->
    <tag k="addr:city" v="Quechee"/>
    <tag k="addr:housenumber" v="1140"/>
    <tag k="addr:street" v="Murphys Road"/>
    <tag k="addr:state" v="VT"/>
    <tag k="ref:vcgi:esiteid" v="123454"/>
  </node>
  <node id="-3211" visible="true" lat="43.646214768589" lon="-72.431275537581">
    <!-- duplicates-in-different-towns: "1140 Murphys Road, Quechee, VT"  ignoring town mismatch for duplicate housenumber/street when matching to esiteid 123390: "1140 Murphys Road, , VT" -->
    <tag k="addr:city" v="Quechee"/>
    <tag k="addr:housenumber" v="1140"/>
    <tag k="addr:street" v="Murphys Road"/>
    <tag k="addr:state" v="VT"/>
    <tag k="ref:vcgi:esiteid" v="123456"/>
  </node>
  <node id="-3229" visible="true" lat="43.646010012589" lon="-72.430176831892">
    <!-- duplicates-in-different-towns: "1140 Murphys Road, Quechee, VT"  ignoring town mismatch for duplicate housenumber/street when matching to esiteid 123390: "1140 Murphys Road, , VT" -->
    <tag k="addr:city" v="Quechee"/>
    <tag k="addr:housenumber" v="1140"/>
    <tag k="addr:street" v="Murphys Road"/>
    <tag k="addr:state" v="VT"/>
    <tag k="ref:vcgi:esiteid" v="123476"/>
  </node>
  <node id="-4102" visible="true" lat="43.669487530375" lon="-72.324285703352">
    <!-- duplicates-in-different-towns: "649 Bugbee Street, White River Junction, VT"  ignoring town mismatch for duplicate housenumber/street when matching to esiteid 124430: "649 Bugbee Street, , VT" -->
    <tag k="addr:city" v="White River Junction"/>
    <tag k="addr:housenumber" v="649"/>
    <tag k="addr:street" v="Bugbee Street"/>
    <tag k="addr:state" v="VT"/>
    <tag k="ref:vcgi:esiteid" v="124431"/>
  </node>
  <node id="-4103" visible="true" lat="43.669128803603" lon="-72.323723304103">
    <!-- duplicates-in-different-towns: "649 Bugbee Street, White River Junction, VT"  ignoring town mismatch for duplicate housenumber/street when matching to esiteid 124430: "649 Bugbee Street, , VT" -->
    <tag k="addr:city" v="White River Junction"/>
    <tag k="addr:housenumber" v="649"/>
    <tag k="addr:street" v="Bugbee Street"/>
    <tag k="addr:state" v="VT"/>
    <tag k="ref:vcgi:esiteid" v="124432"/>
  </node>
  <node id="-4104" visible="true" lat="43.668840438701" lon="-72.323271145295">
    <!-- duplicates-in-different-towns: "647 Bugbee Street, White River Junction, VT"  ignoring town mismatch for duplicate housenumber/street when matching to esiteid 124434: "647 Bugbee Street, , VT" -->
    <tag k="addr:city" v="White River Junction"/>
    <tag k="addr:housenumber" v="647"/>
    <tag k="addr:street" v="Bugbee Street"/>
    <tag k="addr:state" v="VT"/>
    <tag k="ref:vcgi:esiteid" v="124433"/>
  </node>
  <node id="-4108" visible="true" lat="43.668360619808" lon="-72.32253939579">
    <!-- duplicates-in-different-towns: "647 Bugbee Street, White River Junction, VT"  ignoring town mismatch for duplicate housenumber/street when matching to esiteid 124434: "647 Bugbee Street, , VT" -->
    <tag k="addr:city" v="White River Junction"/>
    <tag k="addr:housenumber" v="647"/>
    <tag k="addr:street" v="Bugbee Street"/>
    <tag k="addr:state" v="VT"/>
    <tag k="ref:vcgi:esiteid" v="124437"/>
  </node>
  <node id="-4230" visible="true" lat="43.648264001248" lon="-72.43470695527">
    <!-- duplicates-in-different-towns: "580 Murphys Road, Quechee, VT"  ignoring town mismatch for duplicate housenumber/street when matching to esiteid 124572: "580 Murphys Road, , VT" -->
    <tag k="addr:city" v="Quechee"/>
    <tag k="addr:housenumber" v="580"/>
    <tag k="addr:street" v="Murphys Road"/>
    <tag k="addr:state" v="VT"/>
    <tag k="ref:vcgi:esiteid" v="124564"/>
  </node>
  <node id="-4231" visible="true" lat="43.648328591016" lon="-72.435091247234">
    <!-- duplicates-in-different-towns: "580 Murphys Road, Quechee, VT"  ignoring town mismatch for duplicate housenumber/street when matching to esiteid 124572: "580 Murphys Road, , VT" -->
    <tag k="addr:city" v="Quechee"/>
    <tag k="addr:housenumber" v="580"/>
    <tag k="addr:street" v="Murphys Road"/>
    <tag k="addr:state" v="VT"/>
    <tag k="ref:vcgi:esiteid" v="124565"/>
  </node>
  <node id="-4232" visible="true" lat="43.648593490543" lon="-72.435283461119">
    <!-- duplicates-in-different-towns: "580 Murphys Road, Quechee, VT"  ignoring town mismatch for duplicate housenumber/street when matching to esiteid 124572: "580 Murphys Road, , VT" -->
    <tag k="addr:city" v="Quechee"/>
    <tag k="addr:housenumber" v="580"/>
    <tag k="addr:street" v="Murphys Road"/>
    <tag k="addr:state" v="VT"/>
    <tag k="ref:vcgi:esiteid" v="124566"/>
  </node>
  <node id="-4233" visible="true" lat="43.649238631482" lon="-72.434997330631">
    <!-- duplicates-in-different-towns: "580 Murphys Road, Quechee, VT"  ignoring town mismatch for duplicate housenumber/street when matching to esiteid 124572: "580 Murphys Road, , VT" -->
    <tag k="addr:city" v="Quechee"/>
    <tag k="addr:housenumber" v="580"/>
    <tag k="addr:street" v="Murphys Road"/>
    <tag k="addr:state" v="VT"/>
    <tag k="ref:vcgi:esiteid" v="124567"/>
  </node>
  <node id="-4234" visible="true" lat="43.649464786804" lon="-72.434846738438">
    <!-- duplicates-in-different-towns: "580 Murphys Road, Quechee, VT"  ignoring town mismatch for duplicate housenumber/street when matching to esiteid 124572: "580 Murphys Road, , VT" -->
    <tag k="addr:city" v="Quechee"/>
    <tag k="addr:housenumber" v="580"/>
    <tag k="addr:street" v="Murphys Road"/>
    <tag k="addr:state" v="VT"/>
    <tag k="ref:vcgi:esiteid" v="124568"/>
  </node>
  <node id="-4235" visible="true" lat="43.649647131114" lon="-72.434574263218">
    <!-- duplicates-in-different-towns: "580 Murphys Road, Quechee, VT"  ignoring town mismatch for duplicate housenumber/street when matching to esiteid 124572: "580 Murphys Road, , VT" -->
    <tag k="addr:city" v="Quechee"/>
    <tag k="addr:housenumber" v="580"/>
    <tag k="addr:street" v="Murphys Road"/>
    <tag k="addr:state" v="VT"/>
    <tag k="ref:vcgi:esiteid" v="124569"/>
  </node>
  <node id="-4236" visible="true" lat="43.649701038995" lon="-72.434217315107">
    <!-- duplicates-in-different-towns: "580 Murphys Road, Quechee, VT"  ignoring town mismatch for duplicate housenumber/street when matching to esiteid 124572: "580 Murphys Road, , VT" -->
    <tag k="addr:city" v="Quechee"/>
    <tag k="addr:housenumber" v="580"/>
    <tag k="addr:street" v="Murphys Road"/>
    <tag k="addr:state" v="VT"/>
    <tag k="ref:vcgi:esiteid" v="124570"/>
  </node>
  <node id="-4237" visible="true" lat="43.649566558429" lon="-72.433879040017">
    <!-- duplicates-in-different-towns: "580 Murphys Road, Quechee, VT"  ignoring town mismatch for duplicate housenumber/street when matching to esiteid 124572: "580 Murphys Road, , VT" -->
    <tag k="addr:city" v="Quechee"/>
    <tag k="addr:housenumber" v="580"/>
    <tag k="addr:street" v="Murphys Road"/>
    <tag k="addr:state" v="VT"/>
    <tag k="ref:vcgi:esiteid" v="124571"/>
  </node>
  <node id="-4265" visible="true" lat="43.693685689387" lon="-72.397102022098">
    <!-- duplicates-in-different-towns: "406 Rays Way, White River Junction, VT"  ignoring town mismatch for duplicate housenumber/street when matching to esiteid 120359: "406 Rays Way, Hartford, VT" -->
    <tag k="addr:city" v="White River Junction"/>
    <tag k="addr:housenumber" v="406"/>
    <tag k="addr:street" v="Rays Way"/>
    <tag k="addr:state" v="VT"/>
    <tag k="ref:vcgi:esiteid" v="124601"/>
  </node>
  <node id="-4359" visible="true" lat="43.665357179894" lon="-72.315152215258">
    <!-- duplicates-in-different-towns: "60 Hollow Drive, White River Junction, VT"  ignoring town mismatch for duplicate housenumber/street when matching to esiteid 124698: "60 Hollow Drive, Hartford, VT" -->
    <tag k="addr:city" v="White River Junction"/>
    <tag k="addr:housenumber" v="60"/>
    <tag k="addr:street" v="Hollow Drive"/>
    <tag k="addr:state" v="VT"/>
    <tag k="ref:vcgi:esiteid" v="124699"/>
  </node>
  <node id="-4361" visible="true" lat="43.665441508555" lon="-72.315459517439">
    <!-- duplicates-in-different-towns: "60 Hollow Drive, White River Junction, VT"  ignoring town mismatch for duplicate housenumber/street when matching to esiteid 124698: "60 Hollow Drive, Hartford, VT" -->
    <tag k="addr:city" v="White River Junction"/>
    <tag k="addr:housenumber" v="60"/>
    <tag k="addr:street" v="Hollow Drive"/>
    <tag k="addr:state" v="VT"/>
    <tag k="ref:vcgi:esiteid" v="124701"/>
  </node>
  <node id="-4365" visible="true" lat="43.666552014794" lon="-72.316361053624">
    <!-- duplicates-in-different-towns: "151 Hollow Drive, White River Junction, VT"  ignoring town mismatch for duplicate housenumber/street when matching to esiteid 124704: "151 Hollow Drive, Hartford, VT" -->
    <tag k="addr:city" v="White River Junction"/>
    <tag k="addr:housenumber" v="151"/>
    <tag k="addr:street" v="Hollow Drive"/>
    <tag k="addr:state" v="VT"/>
    <tag k="ref:vcgi:esiteid" v="124705"/>
  </node>
  <node id="-4366" visible="true" lat="43.666524846788" lon="-72.316646387063">
    <!-- duplicates-in-different-towns: "151 Hollow Drive, White River Junction, VT"  ignoring town mismatch for duplicate housenumber/street when matching to esiteid 124704: "151 Hollow Drive, Hartford, VT" -->
    <tag k="addr:city" v="White River Junction"/>
    <tag k="addr:housenumber" v="151"/>
    <tag k="addr:street" v="Hollow Drive"/>
    <tag k="addr:state" v="VT"/>
    <tag k="ref:vcgi:esiteid" v="124706"/>
  </node>
  <node id="-4378" visible="true" lat="43.661083099066" lon="-72.311164216216">
    <!-- duplicates-in-different-towns: "150 Advent Lane, White River Junction, VT"  ignoring town mismatch for duplicate housenumber/street when matching to esiteid 124742: "150 Advent Lane, , VT" -->
    <tag k="addr:city" v="White River Junction"/>
    <tag k="addr:housenumber" v="150"/>
    <tag k="addr:street" v="Advent Lane"/>
    <tag k="addr:state" v="VT"/>
    <tag k="ref:vcgi:esiteid" v="124720"/>
  </node>
  <node id="-4379" visible="true" lat="43.661079879002" lon="-72.311335632971">
    <!-- duplicates-in-different-towns: "150 Advent Lane, White River Junction, VT"  ignoring town mismatch for duplicate housenumber/street when matching to esiteid 124742: "150 Advent Lane, , VT" -->
    <tag k="addr:city" v="White River Junction"/>
    <tag k="addr:housenumber" v="150"/>
    <tag k="addr:street" v="Advent Lane"/>
    <tag k="addr:state" v="VT"/>
    <tag k="ref:vcgi:esiteid" v="124721"/>
  </node>
  <node id="-4380" visible="true" lat="43.6610896851" lon="-72.311477340649">
    <!-- duplicates-in-different-towns: "150 Advent Lane, White River Junction, VT"  ignoring town mismatch for duplicate housenumber/street when matching to esiteid 124742: "150 Advent Lane, , VT" -->
    <tag k="addr:city" v="White River Junction"/>
    <tag k="addr:housenumber" v="150"/>
    <tag k="addr:street" v="Advent Lane"/>
    <tag k="addr:state" v="VT"/>
    <tag k="ref:vcgi:esiteid" v="124722"/>
  </node>
  <node id="-4381" visible="true" lat="43.660635061993" lon="-72.311567507029">
    <!-- duplicates-in-different-towns: "150 Advent Lane, White River Junction, VT"  ignoring town mismatch for duplicate housenumber/street when matching to esiteid 124742: "150 Advent Lane, , VT" -->
    <tag k="addr:city" v="White River Junction"/>
    <tag k="addr:housenumber" v="150"/>
    <tag k="addr:street" v="Advent Lane"/>
    <tag k="addr:state" v="VT"/>
    <tag k="ref:vcgi:esiteid" v="124723"/>
  </node>
  <node id="-4382" visible="true" lat="43.660767778202" lon="-72.311448459047">
    <!-- duplicates-in-different-towns: "150 Advent Lane, White River Junction, VT"  ignoring town mismatch for duplicate housenumber/street when matching to esiteid 124742: "150 Advent Lane, , VT" -->
    <tag k="addr:city" v="White River Junction"/>
    <tag k="addr:housenumber" v="150"/>
    <tag k="addr:street" v="Advent Lane"/>
    <tag k="addr:state" v="VT"/>
    <tag k="ref:vcgi:esiteid" v="124724"/>
  </node>
  <node id="-4383" visible="true" lat="43.660695047661" lon="-72.311656572964">
    <!-- duplicates-in-different-towns: "150 Advent Lane, White River Junction, VT"  ignoring town mismatch for duplicate housenumber/street when matching to esiteid 124742: "150 Advent Lane, , VT" -->
    <tag k="addr:city" v="White River Junction"/>
    <tag k="addr:housenumber" v="150"/>
    <tag k="addr:street" v="Advent Lane"/>
    <tag k="addr:state" v="VT"/>
    <tag k="ref:vcgi:esiteid" v="124725"/>
  </node>
  <node id="-4384" visible="true" lat="43.660791931967" lon="-72.311549022125">
    <!-- duplicates-in-different-towns: "150 Advent Lane, White River Junction, VT"  ignoring town mismatch for duplicate housenumber/street when matching to esiteid 124742: "150 Advent Lane, , VT" -->
    <tag k="addr:city" v="White River Junction"/>
    <tag k="addr:housenumber" v="150"/>
    <tag k="addr:street" v="Advent Lane"/>
    <tag k="addr:state" v="VT"/>
    <tag k="ref:vcgi:esiteid" v="124726"/>
  </node>
  <node id="-4385" visible="true" lat="43.66126101995" lon="-72.310936089744">
    <!-- duplicates-in-different-towns: "150 Advent Lane, White River Junction, VT"  ignoring town mismatch for duplicate housenumber/street when matching to esiteid 124742: "150 Advent Lane, , VT" -->
    <tag k="addr:city" v="White River Junction"/>
    <tag k="addr:housenumber" v="150"/>
    <tag k="addr:street" v="Advent Lane"/>
    <tag k="addr:state" v="VT"/>
    <tag k="ref:vcgi:esiteid" v="124727"/>
  </node>
  <node id="-4386" visible="true" lat="43.661367505268" lon="-72.31090777576">
    <!-- duplicates-in-different-towns: "150 Advent Lane, White River Junction, VT"  ignoring town mismatch for duplicate housenumber/street when matching to esiteid 124742: "150 Advent Lane, , VT" -->
    <tag k="addr:city" v="White River Junction"/>
    <tag k="addr:housenumber" v="150"/>
    <tag k="addr:street" v="Advent Lane"/>
    <tag k="addr:state" v="VT"/>
    <tag k="ref:vcgi:esiteid" v="124728"/>
  </node>
  <node id="-4387" visible="true" lat="43.661309507255" lon="-72.311272284187">
    <!-- duplicates-in-different-towns: "150 Advent Lane, White River Junction, VT"  ignoring town mismatch for duplicate housenumber/street when matching to esiteid 124742: "150 Advent Lane, , VT" -->
    <tag k="addr:city" v="White River Junction"/>
    <tag k="addr:housenumber" v="150"/>
    <tag k="addr:street" v="Advent Lane"/>
    <tag k="addr:state" v="VT"/>
    <tag k="ref:vcgi:esiteid" v="124729"/>
  </node>
  <node id="-4388" visible="true" lat="43.661541575945" lon="-72.31123859456">
    <!-- duplicates-in-different-towns: "150 Advent Lane, White River Junction, VT"  ignoring town mismatch for duplicate housenumber/street when matching to esiteid 124742: "150 Advent Lane, , VT" -->
    <tag k="addr:city" v="White River Junction"/>
    <tag k="addr:housenumber" v="150"/>
    <tag k="addr:street" v="Advent Lane"/>
    <tag k="addr:state" v="VT"/>
    <tag k="ref:vcgi:esiteid" v="124730"/>
  </node>
  <node id="-4389" visible="true" lat="43.661548918164" lon="-72.311337460882">
    <!-- duplicates-in-different-towns: "150 Advent Lane, White River Junction, VT"  ignoring town mismatch for duplicate housenumber/street when matching to esiteid 124742: "150 Advent Lane, , VT" -->
    <tag k="addr:city" v="White River Junction"/>
    <tag k="addr:housenumber" v="150"/>
    <tag k="addr:street" v="Advent Lane"/>
    <tag k="addr:state" v="VT"/>
    <tag k="ref:vcgi:esiteid" v="124731"/>
  </node>
  <node id="-4390" visible="true" lat="43.661726410523" lon="-72.31158412665">
    <!-- duplicates-in-different-towns: "150 Advent Lane, White River Junction, VT"  ignoring town mismatch for duplicate housenumber/street when matching to esiteid 124742: "150 Advent Lane, , VT" -->
    <tag k="addr:city" v="White River Junction"/>
    <tag k="addr:housenumber" v="150"/>
    <tag k="addr:street" v="Advent Lane"/>
    <tag k="addr:state" v="VT"/>
    <tag k="ref:vcgi:esiteid" v="124732"/>
  </node>
  <node id="-4391" visible="true" lat="43.661551784383" lon="-72.31162422873">
    <!-- duplicates-in-different-towns: "150 Advent Lane, White River Junction, VT"  ignoring town mismatch for duplicate housenumber/street when matching to esiteid 124742: "150 Advent Lane, , VT" -->
    <tag k="addr:city" v="White River Junction"/>
    <tag k="addr:housenumber" v="150"/>
    <tag k="addr:street" v="Advent Lane"/>
    <tag k="addr:state" v="VT"/>
    <tag k="ref:vcgi:esiteid" v="124733"/>
  </node>
  <node id="-4392" visible="true" lat="43.661571260074" lon="-72.311825241963">
    <!-- duplicates-in-different-towns: "150 Advent Lane, White River Junction, VT"  ignoring town mismatch for duplicate housenumber/street when matching to esiteid 124742: "150 Advent Lane, , VT" -->
    <tag k="addr:city" v="White River Junction"/>
    <tag k="addr:housenumber" v="150"/>
    <tag k="addr:street" v="Advent Lane"/>
    <tag k="addr:state" v="VT"/>
    <tag k="ref:vcgi:esiteid" v="124734"/>
  </node>
  <node id="-4393" visible="true" lat="43.66147085663" lon="-72.311888182975">
    <!-- duplicates-in-different-towns: "150 Advent Lane, White River Junction, VT"  ignoring town mismatch for duplicate housenumber/street when matching to esiteid 124742: "150 Advent Lane, , VT" -->
    <tag k="addr:city" v="White River Junction"/>
    <tag k="addr:housenumber" v="150"/>
    <tag k="addr:street" v="Advent Lane"/>
    <tag k="addr:state" v="VT"/>
    <tag k="ref:vcgi:esiteid" v="124735"/>
  </node>
  <node id="-4394" visible="true" lat="43.661339082685" lon="-72.311793002047">
    <!-- duplicates-in-different-towns: "150 Advent Lane, White River Junction, VT"  ignoring town mismatch for duplicate housenumber/street when matching to esiteid 124742: "150 Advent Lane, , VT" -->
    <tag k="addr:city" v="White River Junction"/>
    <tag k="addr:housenumber" v="150"/>
    <tag k="addr:street" v="Advent Lane"/>
    <tag k="addr:state" v="VT"/>
    <tag k="ref:vcgi:esiteid" v="124736"/>
  </node>
  <node id="-4395" visible="true" lat="43.661139733758" lon="-72.312075863209">
    <!-- duplicates-in-different-towns: "150 Advent Lane, White River Junction, VT"  ignoring town mismatch for duplicate housenumber/street when matching to esiteid 124742: "150 Advent Lane, , VT" -->
    <tag k="addr:city" v="White River Junction"/>
    <tag k="addr:housenumber" v="150"/>
    <tag k="addr:street" v="Advent Lane"/>
    <tag k="addr:state" v="VT"/>
    <tag k="ref:vcgi:esiteid" v="124737"/>
  </node>
  <node id="-4396" visible="true" lat="43.660798243152" lon="-72.311835792979">
    <!-- duplicates-in-different-towns: "150 Advent Lane, White River Junction, VT"  ignoring town mismatch for duplicate housenumber/street when matching to esiteid 124742: "150 Advent Lane, , VT" -->
    <tag k="addr:city" v="White River Junction"/>
    <tag k="addr:housenumber" v="150"/>
    <tag k="addr:street" v="Advent Lane"/>
    <tag k="addr:state" v="VT"/>
    <tag k="ref:vcgi:esiteid" v="124738"/>
  </node>
  <node id="-4397" visible="true" lat="43.660946880211" lon="-72.311949152903">
    <!-- duplicates-in-different-towns: "150 Advent Lane, White River Junction, VT"  ignoring town mismatch for duplicate housenumber/street when matching to esiteid 124742: "150 Advent Lane, , VT" -->
    <tag k="addr:city" v="White River Junction"/>
    <tag k="addr:housenumber" v="150"/>
    <tag k="addr:street" v="Advent Lane"/>
    <tag k="addr:state" v="VT"/>
    <tag k="ref:vcgi:esiteid" v="124739"/>
  </node>
  <node id="-4398" visible="true" lat="43.660814034538" lon="-72.312004011661">
    <!-- duplicates-in-different-towns: "150 Advent Lane, White River Junction, VT"  ignoring town mismatch for duplicate housenumber/street when matching to esiteid 124742: "150 Advent Lane, , VT" -->
    <tag k="addr:city" v="White River Junction"/>
    <tag k="addr:housenumber" v="150"/>
    <tag k="addr:street" v="Advent Lane"/>
    <tag k="addr:state" v="VT"/>
    <tag k="ref:vcgi:esiteid" v="124740"/>
  </node>
  <node id="-4399" visible="true" lat="43.660634413805" lon="-72.312002579775">
    <!-- duplicates-in-different-towns: "150 Advent Lane, White River Junction, VT"  ignoring town mismatch for duplicate housenumber/street when matching to esiteid 124742: "150 Advent Lane, , VT" -->
    <tag k="addr:city" v="White River Junction"/>
    <tag k="addr:housenumber" v="150"/>
    <tag k="addr:street" v="Advent Lane"/>
    <tag k="addr:state" v="VT"/>
    <tag k="ref:vcgi:esiteid" v="124741"/>
  </node>
  <node id="-4494" visible="true" lat="43.683306879065" lon="-72.318056740302">
    <!-- duplicates-in-different-towns: "2680 Hartford Avenue, White River Junction, VT"  ignoring town mismatch for duplicate housenumber/street when matching to esiteid 333250: "2680 Hartford Avenue, , VT" -->
    <tag k="addr:city" v="White River Junction"/>
    <tag k="addr:housenumber" v="2680"/>
    <tag k="addr:street" v="Hartford Avenue"/>
    <tag k="addr:state" v="VT"/>
    <tag k="ref:vcgi:esiteid" v="124843"/>
  </node>
  <node id="-4825" visible="true" lat="43.683398307441" lon="-72.318323763724">
    <!-- duplicates-in-different-towns: "2680 Hartford Avenue, White River Junction, VT"  ignoring town mismatch for duplicate housenumber/street when matching to esiteid 333250: "2680 Hartford Avenue, , VT" -->
    <tag k="addr:city" v="White River Junction"/>
    <tag k="addr:housenumber" v="2680"/>
    <tag k="addr:street" v="Hartford Avenue"/>
    <tag k="addr:state" v="VT"/>
    <tag k="ref:vcgi:esiteid" v="333245"/>
  </node>
  <node id="-4826" visible="true" lat="43.683498371828" lon="-72.318563839677">
    <!-- duplicates-in-different-towns: "2680 Hartford Avenue, White River Junction, VT"  ignoring town mismatch for duplicate housenumber/street when matching to esiteid 333250: "2680 Hartford Avenue, , VT" -->
    <tag k="addr:city" v="White River Junction"/>
    <tag k="addr:housenumber" v="2680"/>
    <tag k="addr:street" v="Hartford Avenue"/>
    <tag k="addr:state" v="VT"/>
    <tag k="ref:vcgi:esiteid" v="333246"/>
  </node>
  <node id="-4827" visible="true" lat="43.683493481867" lon="-72.318972113479">
    <!-- duplicates-in-different-towns: "2680 Hartford Avenue, White River Junction, VT"  ignoring town mismatch for duplicate housenumber/street when matching to esiteid 333250: "2680 Hartford Avenue, , VT" -->
    <tag k="addr:city" v="White River Junction"/>
    <tag k="addr:housenumber" v="2680"/>
    <tag k="addr:street" v="Hartford Avenue"/>
    <tag k="addr:state" v="VT"/>
    <tag k="ref:vcgi:esiteid" v="333247"/>
  </node>
  <node id="-4828" visible="true" lat="43.683269456147" lon="-72.319136853871">
    <!-- duplicates-in-different-towns: "2680 Hartford Avenue, White River Junction, VT"  ignoring town mismatch for duplicate housenumber/street when matching to esiteid 333250: "2680 Hartford Avenue, , VT" -->
    <tag k="addr:city" v="White River Junction"/>
    <tag k="addr:housenumber" v="2680"/>
    <tag k="addr:street" v="Hartford Avenue"/>
    <tag k="addr:state" v="VT"/>
    <tag k="ref:vcgi:esiteid" v="333248"/>
  </node>
  <node id="-4829" visible="true" lat="43.68283365873" lon="-72.318462824577">
    <!-- duplicates-in-different-towns: "2680 Hartford Avenue, White River Junction, VT"  ignoring town mismatch for duplicate housenumber/street when matching to esiteid 333250: "2680 Hartford Avenue, , VT" -->
    <tag k="addr:city" v="White River Junction"/>
    <tag k="addr:housenumber" v="2680"/>
    <tag k="addr:street" v="Hartford Avenue"/>
    <tag k="addr:state" v="VT"/>
    <tag k="ref:vcgi:esiteid" v="333249"/>
  </node>
  <node id="-4831" visible="true" lat="43.682970087692" lon="-72.317195674248">
    <!-- duplicates-in-different-towns: "2680 Hartford Avenue, White River Junction, VT"  ignoring town mismatch for duplicate housenumber/street when matching to esiteid 333250: "2680 Hartford Avenue, , VT" -->
    <tag k="addr:city" v="White River Junction"/>
    <tag k="addr:housenumber" v="2680"/>
    <tag k="addr:street" v="Hartford Avenue"/>
    <tag k="addr:state" v="VT"/>
    <tag k="ref:vcgi:esiteid" v="333251"/>
  </node>
  <node id="-4832" visible="true" lat="43.682932437094" lon="-72.317894020616">
    <!-- duplicates-in-different-towns: "2680 Hartford Avenue, White River Junction, VT"  ignoring town mismatch for duplicate housenumber/street when matching to esiteid 333250: "2680 Hartford Avenue, , VT" -->
    <tag k="addr:city" v="White River Junction"/>
    <tag k="addr:housenumber" v="2680"/>
    <tag k="addr:street" v="Hartford Avenue"/>
    <tag k="addr:state" v="VT"/>
    <tag k="ref:vcgi:esiteid" v="333252"/>
  </node>
  <node id="-4833" visible="true" lat="43.682851821219" lon="-72.317695860209">
    <!-- duplicates-in-different-towns: "2680 Hartford Avenue, White River Junction, VT"  ignoring town mismatch for duplicate housenumber/street when matching to esiteid 333250: "2680 Hartford Avenue, , VT" -->
    <tag k="addr:city" v="White River Junction"/>
    <tag k="addr:housenumber" v="2680"/>
    <tag k="addr:street" v="Hartford Avenue"/>
    <tag k="addr:state" v="VT"/>
    <tag k="ref:vcgi:esiteid" v="333253"/>
  </node>
  <node id="-4834" visible="true" lat="43.682771174542" lon="-72.317478623025">
    <!-- duplicates-in-different-towns: "2680 Hartford Avenue, White River Junction, VT"  ignoring town mismatch for duplicate housenumber/street when matching to esiteid 333250: "2680 Hartford Avenue, , VT" -->
    <tag k="addr:city" v="White River Junction"/>
    <tag k="addr:housenumber" v="2680"/>
    <tag k="addr:street" v="Hartford Avenue"/>
    <tag k="addr:state" v="VT"/>
    <tag k="ref:vcgi:esiteid" v="333254"/>
  </node>
  <node id="-4835" visible="true" lat="43.682707194911" lon="-72.317295675616">
    <!-- duplicates-in-different-towns: "2680 Hartford Avenue, White River Junction, VT"  ignoring town mismatch for duplicate housenumber/street when matching to esiteid 333250: "2680 Hartford Avenue, , VT" -->
    <tag k="addr:city" v="White River Junction"/>
    <tag k="addr:housenumber" v="2680"/>
    <tag k="addr:street" v="Hartford Avenue"/>
    <tag k="addr:state" v="VT"/>
    <tag k="ref:vcgi:esiteid" v="333255"/>
  </node>
  <node id="-4836" visible="true" lat="43.682864477101" lon="-72.316951805787">
    <!-- duplicates-in-different-towns: "2680 Hartford Avenue, White River Junction, VT"  ignoring town mismatch for duplicate housenumber/street when matching to esiteid 333250: "2680 Hartford Avenue, , VT" -->
    <tag k="addr:city" v="White River Junction"/>
    <tag k="addr:housenumber" v="2680"/>
    <tag k="addr:street" v="Hartford Avenue"/>
    <tag k="addr:state" v="VT"/>
    <tag k="ref:vcgi:esiteid" v="333256"/>
  </node>
  <node id="-4837" visible="true" lat="43.682562849097" lon="-72.317071001843">
    <!-- duplicates-in-different-towns: "2680 Hartford Avenue, White River Junction, VT"  ignoring town mismatch for duplicate housenumber/street when matching to esiteid 333250: "2680 Hartford Avenue, , VT" -->
    <tag k="addr:city" v="White River Junction"/>
    <tag k="addr:housenumber" v="2680"/>
    <tag k="addr:street" v="Hartford Avenue"/>
    <tag k="addr:state" v="VT"/>
    <tag k="ref:vcgi:esiteid" v="333257"/>
  </node>
  <node id="-4838" visible="true" lat="43.682565141976" lon="-72.316773389916">
    <!-- duplicates-in-different-towns: "2680 Hartford Avenue, White River Junction, VT"  ignoring town mismatch for duplicate housenumber/street when matching to esiteid 333250: "2680 Hartford Avenue, , VT" -->
    <tag k="addr:city" v="White River Junction"/>
    <tag k="addr:housenumber" v="2680"/>
    <tag k="addr:street" v="Hartford Avenue"/>
    <tag k="addr:state" v="VT"/>
    <tag k="ref:vcgi:esiteid" v="333258"/>
  </node>
  <node id="-4839" visible="true" lat="43.68262585674" lon="-72.31664729484">
    <!-- duplicates-in-different-towns: "2680 Hartford Avenue, White River Junction, VT"  ignoring town mismatch for duplicate housenumber/street when matching to esiteid 333250: "2680 Hartford Avenue, , VT" -->
    <tag k="addr:city" v="White River Junction"/>
    <tag k="addr:housenumber" v="2680"/>
    <tag k="addr:street" v="Hartford Avenue"/>
    <tag k="addr:state" v="VT"/>
    <tag k="ref:vcgi:esiteid" v="333259"/>
  </node>
  <node id="-4888" visible="true" lat="43.700251303846" lon="-72.343351920857">
    <!-- duplicates-in-different-towns: "221 Newton Lane, White River Junction, VT"  ignoring town mismatch for duplicate housenumber/street when matching to esiteid 183536: "221 Newton Lane, Norwich, VT" -->
    <tag k="addr:city" v="White River Junction"/>
    <tag k="addr:housenumber" v="221"/>
    <tag k="addr:street" v="Newton Lane"/>
    <tag k="addr:state" v="VT"/>
    <tag k="ref:vcgi:esiteid" v="341216"/>
  </node>
  <node id="-4891" visible="true" lat="43.672342550164" lon="-72.447987825569">
    <!-- duplicates-in-different-towns: "332 Cushing Road, Quechee, VT"  ignoring town mismatch for duplicate housenumber/street when matching to esiteid 124414: "332 Cushing Road, Pomfret, VT" -->
    <tag k="addr:city" v="Quechee"/>
    <tag k="addr:housenumber" v="332"/>
    <tag k="addr:street" v="Cushing Road"/>
    <tag k="addr:state" v="VT"/>
    <tag k="ref:vcgi:esiteid" v="342142"/>
  </node>
  <node id="-4939" visible="true" lat="43.707458502103" lon="-72.369774441249">
    <!-- duplicates-in-different-towns: "179 Sugartop Road, White River Junction, VT"  ignoring town mismatch for duplicate housenumber/street when matching to esiteid 183393: "179 Sugartop Road, Norwich, VT" -->
    <tag k="addr:city" v="White River Junction"/>
    <tag k="addr:housenumber" v="179"/>
    <tag k="addr:street" v="Sugartop Road"/>
    <tag k="addr:state" v="VT"/>
    <tag k="ref:vcgi:esiteid" v="452463"/>
  </node>
  <node id="-4951" visible="true" lat="43.650645046671" lon="-72.470127228004">
    <!-- duplicates-in-different-towns: "1455 High Pastures Road, Woodstock, VT"  ignoring town mismatch for duplicate housenumber/street when matching to esiteid 190727: "1455 High Pastures Road, Pomfret, VT" -->
    <tag k="addr:city" v="Woodstock"/>
    <tag k="addr:housenumber" v="1455"/>
    <tag k="addr:street" v="High Pastures Road"/>
    <tag k="addr:state" v="VT"/>
    <tag k="ref:vcgi:esiteid" v="455202"/>
  </node>
  <node id="-4989" visible="true" lat="43.64849865531" lon="-72.327562825348">
    <!-- duplicates-in-different-towns: "95 Templeton Avenue, White River Junction, VT"  ignoring town mismatch for duplicate housenumber/street when matching to esiteid 620535: "95 Templeton Avenue, , VT" -->
    <tag k="addr:city" v="White River Junction"/>
    <tag k="addr:housenumber" v="95"/>
    <tag k="addr:street" v="Templeton Avenue"/>
    <tag k="addr:state" v="VT"/>
    <tag k="ref:vcgi:esiteid" v="620534"/>
  </node>
  <node id="-5207" visible="true" lat="43.662705634747" lon="-72.450163535467">
    <!-- duplicates-in-different-towns: "105 Williams Lane, Quechee, VT"  ignoring town mismatch for duplicate housenumber/street when matching to esiteid 121868: "105 Williams Lane, Hartford, VT" -->
    <tag k="addr:city" v="Quechee"/>
    <tag k="addr:housenumber" v="105"/>
    <tag k="addr:street" v="Williams Lane"/>
    <tag k="addr:state" v="VT"/>
    <tag k="ref:vcgi:esiteid" v="1051570"/>
  </node>
</osm>
