<?xml version="1.0" encoding="UTF-8"?>
<osm version="0.6" generator="JOSM" upload="false">
  <node id="-249" visible="true" lat="43.702494668949" lon="-72.374098217888">
    <!-- multiple: "3473 Jericho Street, White River Junction, VT" Multiple exact matches in OSM. -->
    <tag k="addr:city" v="White River Junction"/>
    <tag k="addr:housenumber" v="3473"/>
    <tag k="addr:street" v="Jericho Street"/>
    <tag k="addr:state" v="VT"/>
    <tag k="ref:vcgi:esiteid" v="120221"/>
  </node>
  <node id="-330" visible="true" lat="43.696099348433" lon="-72.319629300965">
    <!-- multiple: "20 Palmer Court, White River Junction, VT" Multiple exact matches in OSM. -->
    <tag k="addr:city" v="White River Junction"/>
    <tag k="addr:housenumber" v="20"/>
    <tag k="addr:street" v="Palmer Court"/>
    <tag k="addr:state" v="VT"/>
    <tag k="ref:vcgi:esiteid" v="120304"/>
  </node>
  <node id="-1651" visible="true" lat="43.664877576139" lon="-72.312306841872">
    <!-- multiple: "1167 Hartford Avenue, White River Junction, VT" Multiple exact matches in OSM. -->
    <tag k="addr:city" v="White River Junction"/>
    <tag k="addr:housenumber" v="1167"/>
    <tag k="addr:street" v="Hartford Avenue"/>
    <tag k="addr:state" v="VT"/>
    <tag k="ref:vcgi:esiteid" v="121721"/>
  </node>
  <node id="-2631" visible="true" lat="43.652512839027" lon="-72.330773490123">
    <!-- multiple: "50 Woodstock Road, White River Junction, VT" Multiple exact matches in OSM. -->
    <tag k="addr:city" v="White River Junction"/>
    <tag k="addr:housenumber" v="50"/>
    <tag k="addr:street" v="Woodstock Road"/>
    <tag k="addr:state" v="VT"/>
    <tag k="ref:vcgi:esiteid" v="122776"/>
  </node>
  <node id="-2706" visible="true" lat="43.651552077991" lon="-72.31652993225">
    <!-- multiple: "87 Maple Street, White River Junction, VT" Multiple exact matches in OSM. -->
    <tag k="addr:city" v="White River Junction"/>
    <tag k="addr:housenumber" v="87"/>
    <tag k="addr:street" v="Maple Street"/>
    <tag k="addr:state" v="VT"/>
    <tag k="ref:vcgi:esiteid" v="122865"/>
  </node>
  <node id="-2768" visible="true" lat="43.65049941005" lon="-72.32340921535">
    <!-- multiple: "262 North Main Street, White River Junction, VT" Multiple exact matches in OSM. -->
    <tag k="addr:city" v="White River Junction"/>
    <tag k="addr:housenumber" v="262"/>
    <tag k="addr:street" v="North Main Street"/>
    <tag k="addr:state" v="VT"/>
    <tag k="ref:vcgi:esiteid" v="122937"/>
  </node>
  <node id="-2823" visible="true" lat="43.649958363947" lon="-72.319023674446">
    <!-- multiple: "58 Bridge Street, White River Junction, VT" Multiple exact matches in OSM. -->
    <tag k="addr:city" v="White River Junction"/>
    <tag k="addr:housenumber" v="58"/>
    <tag k="addr:street" v="Bridge Street"/>
    <tag k="addr:state" v="VT"/>
    <tag k="ref:vcgi:esiteid" v="123001"/>
  </node>
  <node id="-2834" visible="true" lat="43.649839491851" lon="-72.319318641047">
    <!-- multiple: "52 Bridge Street, White River Junction, VT" Multiple exact matches in OSM. -->
    <tag k="addr:city" v="White River Junction"/>
    <tag k="addr:housenumber" v="52"/>
    <tag k="addr:street" v="Bridge Street"/>
    <tag k="addr:state" v="VT"/>
    <tag k="ref:vcgi:esiteid" v="123014"/>
  </node>
  <node id="-2841" visible="true" lat="43.649503453741" lon="-72.318823764739">
    <!-- multiple: "15 Railroad Row, White River Junction, VT" Multiple exact matches in OSM. -->
    <tag k="addr:city" v="White River Junction"/>
    <tag k="addr:housenumber" v="15"/>
    <tag k="addr:street" v="Railroad Row"/>
    <tag k="addr:state" v="VT"/>
    <tag k="ref:vcgi:esiteid" v="123022"/>
  </node>
  <node id="-2873" visible="true" lat="43.64953541105" lon="-72.320286411419">
    <!-- multiple: "85 North Main Street, White River Junction, VT" Multiple exact matches in OSM. -->
    <tag k="addr:city" v="White River Junction"/>
    <tag k="addr:housenumber" v="85"/>
    <tag k="addr:street" v="North Main Street"/>
    <tag k="addr:state" v="VT"/>
    <tag k="ref:vcgi:esiteid" v="123058"/>
  </node>
  <node id="-2878" visible="true" lat="43.649220600538" lon="-72.318587110694">
    <!-- multiple: "35 Railroad Row, White River Junction, VT" Multiple exact matches in OSM. -->
    <tag k="addr:city" v="White River Junction"/>
    <tag k="addr:housenumber" v="35"/>
    <tag k="addr:street" v="Railroad Row"/>
    <tag k="addr:state" v="VT"/>
    <tag k="ref:vcgi:esiteid" v="123065"/>
  </node>
  <node id="-2919" visible="true" lat="43.648904134079" lon="-72.319069993251">
    <!-- multiple: "27 North Main Street, White River Junction, VT" Multiple exact matches in OSM. -->
    <tag k="addr:city" v="White River Junction"/>
    <tag k="addr:housenumber" v="27"/>
    <tag k="addr:street" v="North Main Street"/>
    <tag k="addr:state" v="VT"/>
    <tag k="ref:vcgi:esiteid" v="123111"/>
  </node>
  <node id="-2924" visible="true" lat="43.648915140232" lon="-72.320074824727">
    <!-- multiple: "70 North Main Street, White River Junction, VT" Multiple exact matches in OSM. -->
    <tag k="addr:city" v="White River Junction"/>
    <tag k="addr:housenumber" v="70"/>
    <tag k="addr:street" v="North Main Street"/>
    <tag k="addr:state" v="VT"/>
    <tag k="ref:vcgi:esiteid" v="123116"/>
  </node>
  <node id="-2934" visible="true" lat="43.648837287288" lon="-72.319846373735">
    <!-- multiple: "58 North Main Street, White River Junction, VT" Multiple exact matches in OSM. -->
    <tag k="addr:city" v="White River Junction"/>
    <tag k="addr:housenumber" v="58"/>
    <tag k="addr:street" v="North Main Street"/>
    <tag k="addr:state" v="VT"/>
    <tag k="ref:vcgi:esiteid" v="123128"/>
  </node>
  <node id="-2945" visible="true" lat="43.648763108157" lon="-72.319607750574">
    <!-- multiple: "42 North Main Street, White River Junction, VT" Multiple exact matches in OSM. -->
    <tag k="addr:city" v="White River Junction"/>
    <tag k="addr:housenumber" v="42"/>
    <tag k="addr:street" v="North Main Street"/>
    <tag k="addr:state" v="VT"/>
    <tag k="ref:vcgi:esiteid" v="123141"/>
  </node>
  <node id="-2990" visible="true" lat="43.648393825447" lon="-72.319452477309">
    <!-- multiple: "40 Currier Street, White River Junction, VT" Multiple exact matches in OSM. -->
    <tag k="addr:city" v="White River Junction"/>
    <tag k="addr:housenumber" v="40"/>
    <tag k="addr:street" v="Currier Street"/>
    <tag k="addr:state" v="VT"/>
    <tag k="ref:vcgi:esiteid" v="123196"/>
  </node>
  <node id="-3020" visible="true" lat="43.647836200736" lon="-72.335691621718">
    <!-- multiple: "1049 North Main Street, White River Junction, VT" Multiple exact matches in OSM. -->
    <tag k="addr:city" v="White River Junction"/>
    <tag k="addr:housenumber" v="1049"/>
    <tag k="addr:street" v="North Main Street"/>
    <tag k="addr:state" v="VT"/>
    <tag k="ref:vcgi:esiteid" v="123233"/>
  </node>
  <node id="-3033" visible="true" lat="43.647985842819" lon="-72.318949118029">
    <!-- multiple: "39 South Main Street, White River Junction, VT" Multiple exact matches in OSM. -->
    <tag k="addr:city" v="White River Junction"/>
    <tag k="addr:housenumber" v="39"/>
    <tag k="addr:street" v="South Main Street"/>
    <tag k="addr:state" v="VT"/>
    <tag k="ref:vcgi:esiteid" v="123248"/>
  </node>
  <node id="-3051" visible="true" lat="43.647752095274" lon="-72.334519524177">
    <!-- multiple: "1038 North Main Street, White River Junction, VT" Multiple exact matches in OSM. -->
    <tag k="addr:city" v="White River Junction"/>
    <tag k="addr:housenumber" v="1038"/>
    <tag k="addr:street" v="North Main Street"/>
    <tag k="addr:state" v="VT"/>
    <tag k="ref:vcgi:esiteid" v="123269"/>
  </node>
  <node id="-3095" visible="true" lat="43.647297194" lon="-72.319012496377">
    <!-- multiple: "93 South Main Street, White River Junction, VT" Multiple exact matches in OSM. -->
    <tag k="addr:city" v="White River Junction"/>
    <tag k="addr:housenumber" v="93"/>
    <tag k="addr:street" v="South Main Street"/>
    <tag k="addr:state" v="VT"/>
    <tag k="ref:vcgi:esiteid" v="123320"/>
  </node>
  <node id="-3108" visible="true" lat="43.647217072297" lon="-72.318547857403">
    <!-- multiple: "104 South Main Street, White River Junction, VT" Multiple exact matches in OSM. -->
    <tag k="addr:city" v="White River Junction"/>
    <tag k="addr:housenumber" v="104"/>
    <tag k="addr:street" v="South Main Street"/>
    <tag k="addr:state" v="VT"/>
    <tag k="ref:vcgi:esiteid" v="123335"/>
  </node>
  <node id="-3145" visible="true" lat="43.646828487863" lon="-72.318973249195">
    <!-- multiple: "129 South Main Street, White River Junction, VT" Multiple exact matches in OSM. -->
    <tag k="addr:city" v="White River Junction"/>
    <tag k="addr:housenumber" v="129"/>
    <tag k="addr:street" v="South Main Street"/>
    <tag k="addr:state" v="VT"/>
    <tag k="ref:vcgi:esiteid" v="123378"/>
  </node>
  <node id="-3166" visible="true" lat="43.646766427937" lon="-72.333646882023">
    <!-- multiple: "80 Sykes Mountain Avenue, White River Junction, VT" Multiple exact matches in OSM. -->
    <tag k="addr:city" v="White River Junction"/>
    <tag k="addr:housenumber" v="80"/>
    <tag k="addr:street" v="Sykes Mountain Avenue"/>
    <tag k="addr:state" v="VT"/>
    <tag k="ref:vcgi:esiteid" v="123402"/>
  </node>
  <node id="-3181" visible="true" lat="43.646382618769" lon="-72.318802964226">
    <!-- multiple: "153 South Main Street, White River Junction, VT" Multiple exact matches in OSM. -->
    <tag k="addr:city" v="White River Junction"/>
    <tag k="addr:housenumber" v="153"/>
    <tag k="addr:street" v="South Main Street"/>
    <tag k="addr:state" v="VT"/>
    <tag k="ref:vcgi:esiteid" v="123422"/>
  </node>
  <node id="-3187" visible="true" lat="43.646502948223" lon="-72.333892252078">
    <!-- multiple: "96 Sykes Mountain Avenue, White River Junction, VT" Multiple exact matches in OSM. -->
    <tag k="addr:city" v="White River Junction"/>
    <tag k="addr:housenumber" v="96"/>
    <tag k="addr:street" v="Sykes Mountain Avenue"/>
    <tag k="addr:state" v="VT"/>
    <tag k="ref:vcgi:esiteid" v="123431"/>
  </node>
  <node id="-3236" visible="true" lat="43.646053046829" lon="-72.419362732066">
    <!-- multiple: "1760 Quechee Main Street, Quechee, VT" Multiple exact matches in OSM. -->
    <tag k="addr:city" v="Quechee"/>
    <tag k="addr:housenumber" v="1760"/>
    <tag k="addr:street" v="Quechee Main Street"/>
    <tag k="addr:state" v="VT"/>
    <tag k="ref:vcgi:esiteid" v="123484"/>
  </node>
  <node id="-3288" visible="true" lat="43.645389812878" lon="-72.336639574965">
    <!-- multiple: "135 Beswick Drive, White River Junction, VT" Multiple exact matches in OSM. -->
    <tag k="addr:city" v="White River Junction"/>
    <tag k="addr:housenumber" v="135"/>
    <tag k="addr:street" v="Beswick Drive"/>
    <tag k="addr:state" v="VT"/>
    <tag k="ref:vcgi:esiteid" v="123547"/>
  </node>
  <node id="-3321" visible="true" lat="43.645048142328" lon="-72.34033034298">
    <!-- multiple: "4 Ballardvale Drive, White River Junction, VT" Multiple exact matches in OSM. -->
    <tag k="addr:city" v="White River Junction"/>
    <tag k="addr:housenumber" v="4"/>
    <tag k="addr:street" v="Ballardvale Drive"/>
    <tag k="addr:state" v="VT"/>
    <tag k="ref:vcgi:esiteid" v="123582"/>
  </node>
  <node id="-3365" visible="true" lat="43.644589712549" lon="-72.318558825839">
    <!-- multiple: "279 South Main Street, White River Junction, VT" Multiple exact matches in OSM. -->
    <tag k="addr:city" v="White River Junction"/>
    <tag k="addr:housenumber" v="279"/>
    <tag k="addr:street" v="South Main Street"/>
    <tag k="addr:state" v="VT"/>
    <tag k="ref:vcgi:esiteid" v="123630"/>
  </node>
  <node id="-3366" visible="true" lat="43.644691952137" lon="-72.342185415649">
    <!-- multiple: "60 Jasmin Lane, White River Junction, VT" Multiple exact matches in OSM. -->
    <tag k="addr:city" v="White River Junction"/>
    <tag k="addr:housenumber" v="60"/>
    <tag k="addr:street" v="Jasmin Lane"/>
    <tag k="addr:state" v="VT"/>
    <tag k="ref:vcgi:esiteid" v="123631"/>
  </node>
  <node id="-3410" visible="true" lat="43.644303844387" lon="-72.421964163564">
    <!-- multiple: "6985 Woodstock Road, Quechee, VT" Multiple exact matches in OSM. -->
    <tag k="addr:city" v="Quechee"/>
    <tag k="addr:housenumber" v="6985"/>
    <tag k="addr:street" v="Woodstock Road"/>
    <tag k="addr:state" v="VT"/>
    <tag k="ref:vcgi:esiteid" v="123679"/>
  </node>
  <node id="-3445" visible="true" lat="43.643971540245" lon="-72.420036112251">
    <!-- multiple: "6931 Woodstock Road, Quechee, VT" Multiple exact matches in OSM. -->
    <tag k="addr:city" v="Quechee"/>
    <tag k="addr:housenumber" v="6931"/>
    <tag k="addr:street" v="Woodstock Road"/>
    <tag k="addr:state" v="VT"/>
    <tag k="ref:vcgi:esiteid" v="123722"/>
  </node>
  <node id="-3455" visible="true" lat="43.643519710692" lon="-72.422091124888">
    <!-- multiple: "6990 Woodstock Road, Quechee, VT" Multiple exact matches in OSM. -->
    <tag k="addr:city" v="Quechee"/>
    <tag k="addr:housenumber" v="6990"/>
    <tag k="addr:street" v="Woodstock Road"/>
    <tag k="addr:state" v="VT"/>
    <tag k="ref:vcgi:esiteid" v="123734"/>
  </node>
  <node id="-3502" visible="true" lat="43.64261077613" lon="-72.418563955533">
    <!-- multiple: "6800 Woodstock Road, Quechee, VT" Multiple exact matches in OSM. -->
    <tag k="addr:city" v="Quechee"/>
    <tag k="addr:housenumber" v="6800"/>
    <tag k="addr:street" v="Woodstock Road"/>
    <tag k="addr:state" v="VT"/>
    <tag k="ref:vcgi:esiteid" v="123791"/>
  </node>
  <node id="-3705" visible="true" lat="43.637544389572" lon="-72.407618084413">
    <!-- multiple: "6053 Woodstock Road, Quechee, VT" Multiple exact matches in OSM. -->
    <tag k="addr:city" v="Quechee"/>
    <tag k="addr:housenumber" v="6053"/>
    <tag k="addr:street" v="Woodstock Road"/>
    <tag k="addr:state" v="VT"/>
    <tag k="ref:vcgi:esiteid" v="124014"/>
  </node>
  <node id="-3711" visible="true" lat="43.637346667444" lon="-72.406127955226">
    <!-- multiple: "5967 Woodstock Road, Quechee, VT" Multiple exact matches in OSM. -->
    <tag k="addr:city" v="Quechee"/>
    <tag k="addr:housenumber" v="5967"/>
    <tag k="addr:street" v="Woodstock Road"/>
    <tag k="addr:state" v="VT"/>
    <tag k="ref:vcgi:esiteid" v="124021"/>
  </node>
  <node id="-4171" visible="true" lat="43.645647546028" lon="-72.318221330014">
    <!-- multiple: "230 South Main Street, White River Junction, VT" Multiple exact matches in OSM. -->
    <tag k="addr:city" v="White River Junction"/>
    <tag k="addr:housenumber" v="230"/>
    <tag k="addr:street" v="South Main Street"/>
    <tag k="addr:state" v="VT"/>
    <tag k="ref:vcgi:esiteid" v="124504"/>
  </node>
  <node id="-4313" visible="true" lat="43.645720747006" lon="-72.317847154624">
    <!-- multiple: "188 South Main Street, White River Junction, VT" Multiple exact matches in OSM. -->
    <tag k="addr:city" v="White River Junction"/>
    <tag k="addr:housenumber" v="188"/>
    <tag k="addr:street" v="South Main Street"/>
    <tag k="addr:state" v="VT"/>
    <tag k="ref:vcgi:esiteid" v="124653"/>
  </node>
  <node id="-4511" visible="true" lat="43.649028702468" lon="-72.318412216674">
    <!-- multiple: "55 Railroad Row, White River Junction, VT" Multiple exact matches in OSM. -->
    <tag k="addr:city" v="White River Junction"/>
    <tag k="addr:housenumber" v="55"/>
    <tag k="addr:street" v="Railroad Row"/>
    <tag k="addr:state" v="VT"/>
    <tag k="ref:vcgi:esiteid" v="124863"/>
  </node>
  <node id="-4661" visible="true" lat="43.648457754254" lon="-72.318900976291">
    <!-- multiple: "5 South Main Street, White River Junction, VT" Multiple exact matches in OSM. -->
    <tag k="addr:city" v="White River Junction"/>
    <tag k="addr:housenumber" v="5"/>
    <tag k="addr:street" v="South Main Street"/>
    <tag k="addr:state" v="VT"/>
    <tag k="ref:vcgi:esiteid" v="317148"/>
  </node>
  <node id="-4679" visible="true" lat="43.641390752863" lon="-72.343027750093">
    <!-- multiple: "100 Arboretum Lane, White River Junction, VT" Multiple exact matches in OSM. -->
    <tag k="addr:city" v="White River Junction"/>
    <tag k="addr:housenumber" v="100"/>
    <tag k="addr:street" v="Arboretum Lane"/>
    <tag k="addr:state" v="VT"/>
    <tag k="ref:vcgi:esiteid" v="326145"/>
  </node>
  <node id="-4924" visible="true" lat="43.658059153966" lon="-72.319380176265">
    <!-- multiple: "1 Gifford Road, White River Junction, VT" Multiple exact matches in OSM. -->
    <tag k="addr:city" v="White River Junction"/>
    <tag k="addr:housenumber" v="1"/>
    <tag k="addr:street" v="Gifford Road"/>
    <tag k="addr:state" v="VT"/>
    <tag k="ref:vcgi:esiteid" v="447940"/>
  </node>
  <node id="-4949" visible="true" lat="43.647484497318" lon="-72.319687794808">
    <!-- multiple: "74 Gates Street, White River Junction, VT" Multiple exact matches in OSM. -->
    <tag k="addr:city" v="White River Junction"/>
    <tag k="addr:housenumber" v="74"/>
    <tag k="addr:street" v="Gates Street"/>
    <tag k="addr:state" v="VT"/>
    <tag k="ref:vcgi:esiteid" v="454267"/>
  </node>
  <node id="-5045" visible="true" lat="43.652308407653" lon="-72.31539971668">
    <!-- multiple: "88 Prospect Street, White River Junction, VT" Multiple exact matches in OSM. -->
    <tag k="addr:city" v="White River Junction"/>
    <tag k="addr:housenumber" v="88"/>
    <tag k="addr:street" v="Prospect Street"/>
    <tag k="addr:state" v="VT"/>
    <tag k="ref:vcgi:esiteid" v="750910"/>
  </node>
</osm>
