<?xml version="1.0" encoding="UTF-8"?>
<osm version="0.6" generator="JOSM" upload="false">
  <node id="-943" visible="true" lat="44.93948364" lon="-73.04330444">
    <!-- multiple: "60 Gore Road, , VT" Multiple exact matches in OSM. -->
    <tag k="addr:housenumber" v="60"/>
    <tag k="addr:street" v="Gore Road"/>
    <tag k="addr:state" v="VT"/>
    <tag k="ref:vcgi:esiteid" v="127347"/>
  </node>
  <node id="-1013" visible="true" lat="44.93808209" lon="-73.03080479">
    <!-- multiple: "27 Meadow Lane, , VT" Multiple exact matches in OSM. -->
    <tag k="addr:housenumber" v="27"/>
    <tag k="addr:street" v="Meadow Lane"/>
    <tag k="addr:state" v="VT"/>
    <tag k="ref:vcgi:esiteid" v="127423"/>
  </node>
  <node id="-1027" visible="true" lat="44.93792187" lon="-73.03007285">
    <!-- multiple: "20 Meadow Lane, , VT" Multiple exact matches in OSM. -->
    <tag k="addr:housenumber" v="20"/>
    <tag k="addr:street" v="Meadow Lane"/>
    <tag k="addr:state" v="VT"/>
    <tag k="ref:vcgi:esiteid" v="127437"/>
  </node>
  <node id="-1455" visible="true" lat="44.97418212" lon="-73.10477447">
    <!-- multiple: "2934 U.S. Route 7, , VT" Multiple exact matches in OSM. -->
    <tag k="addr:housenumber" v="2934"/>
    <tag k="addr:street" v="U.S. Route 7"/>
    <tag k="addr:state" v="VT"/>
    <tag k="ref:vcgi:esiteid" v="127874"/>
  </node>
  <node id="-1472" visible="true" lat="44.91582271" lon="-73.02437959">
    <!-- multiple: "1735 Morey Road, , VT" Multiple exact matches in OSM. -->
    <tag k="addr:housenumber" v="1735"/>
    <tag k="addr:street" v="Morey Road"/>
    <tag k="addr:state" v="VT"/>
    <tag k="ref:vcgi:esiteid" v="127892"/>
  </node>
  <node id="-1973" visible="true" lat="44.97563561" lon="-72.98387879">
    <!-- multiple: "1042 Bouchard Road, , VT" Multiple exact matches in OSM. -->
    <tag k="addr:housenumber" v="1042"/>
    <tag k="addr:street" v="Bouchard Road"/>
    <tag k="addr:state" v="VT"/>
    <tag k="ref:vcgi:esiteid" v="752333"/>
  </node>
  <node id="-2006" visible="true" lat="44.9231549" lon="-73.08835919">
    <!-- multiple: "10 Endeavors Lane, , VT" Multiple exact matches in OSM. -->
    <tag k="addr:housenumber" v="10"/>
    <tag k="addr:street" v="Endeavors Lane"/>
    <tag k="addr:state" v="VT"/>
    <tag k="ref:vcgi:esiteid" v="757134"/>
  </node>
  <node id="-2067" visible="true" lat="44.92576776" lon="-73.09819728">
    <!-- multiple: "4 Vermont Route 78, , VT" Multiple exact matches in OSM. -->
    <tag k="addr:housenumber" v="4"/>
    <tag k="addr:street" v="Vermont Route 78"/>
    <tag k="addr:state" v="VT"/>
    <tag k="ref:vcgi:esiteid" v="770141"/>
  </node>
  <node id="-2068" visible="true" lat="44.92525104" lon="-73.09674314">
    <!-- multiple: "26 Vermont Route 78, , VT" Multiple exact matches in OSM. -->
    <tag k="addr:housenumber" v="26"/>
    <tag k="addr:street" v="Vermont Route 78"/>
    <tag k="addr:state" v="VT"/>
    <tag k="ref:vcgi:esiteid" v="770142"/>
  </node>
</osm>
