<?xml version="1.0" encoding="UTF-8"?>
<osm version="0.6" generator="JOSM" upload="false">
  <node id="-855" visible="true" lat="44.94134082224" lon="-73.044095307473">
    <tag k="addr:city" v="Highgate Center"/>
    <tag k="addr:housenumber" v="219"/>
    <tag k="addr:street" v="Gore Road"/>
    <tag k="addr:state" v="VT"/>
    <tag k="ref:vcgi:esiteid" v="127258"/>
  </node>
  <node id="-999" visible="true" lat="44.938307403826" lon="-73.044678761015">
    <tag k="addr:city" v="Highgate Center"/>
    <tag k="addr:housenumber" v="17"/>
    <tag k="addr:street" v="Mill Hill Road"/>
    <tag k="addr:state" v="VT"/>
    <tag k="ref:vcgi:esiteid" v="127410"/>
  </node>
  <node id="-1540" visible="true" lat="44.927871895293" lon="-73.101825224481">
    <tag k="addr:city" v="Swanton"/>
    <tag k="addr:housenumber" v="175"/>
    <tag k="addr:street" v="Thunderbird Drive"/>
    <tag k="addr:state" v="VT"/>
    <tag k="ref:vcgi:esiteid" v="127967"/>
  </node>
</osm>
