<?xml version="1.0" encoding="UTF-8"?>
<osm version="0.6" generator="JOSM" upload="false">
  <node id="-1500" visible="true" lat="44.672645427057" lon="-72.601002785981">
    <!-- offset: "3 Windy Hill Drive, Johnson, VT" Significant offset - 185.7m -->
    <tag k="addr:city" v="Johnson"/>
    <tag k="addr:housenumber" v="3"/>
    <tag k="addr:street" v="Windy Hill Drive"/>
    <tag k="addr:state" v="VT"/>
    <tag k="ref:vcgi:esiteid" v="610110"/>
  </node>
  <node id="-1554" visible="true" lat="44.574639116807" lon="-72.527160022953">
    <!-- offset: "3489 Vermont Route 15 East, Morrisville, VT" Significant offset - 518.1m -->
    <tag k="addr:city" v="Morrisville"/>
    <tag k="addr:housenumber" v="3489"/>
    <tag k="addr:street" v="Vermont Route 15 East"/>
    <tag k="addr:state" v="VT"/>
    <tag k="ref:vcgi:esiteid" v="753177"/>
  </node>
</osm>
