<?xml version="1.0" encoding="UTF-8"?>
<osm version="0.6" generator="JOSM" upload="false">
  <node id="-738" visible="true" lat="44.833134731326" lon="-72.344279011085">
    <!-- duplicates-in-different-towns: "349 McCoy Road, Irasburg, VT"  ignoring town mismatch for duplicate housenumber/street when matching to esiteid 611601: "349 McCoy Road, , VT" -->
    <tag k="addr:city" v="Irasburg"/>
    <tag k="addr:housenumber" v="349"/>
    <tag k="addr:street" v="McCoy Road"/>
    <tag k="addr:state" v="VT"/>
    <tag k="ref:vcgi:esiteid" v="618230"/>
  </node>
  <node id="-801" visible="true" lat="44.757807884265" lon="-72.255633566348">
    <!-- duplicates-in-different-towns: "2576 West Glover Road, Irasburg, VT"  ignoring town mismatch for duplicate housenumber/street when matching to esiteid 773039: "2576 West Glover Road, , VT" -->
    <tag k="addr:city" v="Irasburg"/>
    <tag k="addr:housenumber" v="2576"/>
    <tag k="addr:street" v="West Glover Road"/>
    <tag k="addr:state" v="VT"/>
    <tag k="ref:vcgi:esiteid" v="773038"/>
  </node>
</osm>
