<?xml version="1.0" encoding="UTF-8"?>
<osm version="0.6" generator="JOSM" upload="false">
  <node id="-164" visible="true" lat="44.901086093296" lon="-73.329066426454">
    <!-- multiple: "568 Main Street, Isle La Motte, VT" Multiple exact matches in OSM. -->
    <tag k="addr:city" v="Isle La Motte"/>
    <tag k="addr:housenumber" v="568"/>
    <tag k="addr:street" v="Main Street"/>
    <tag k="addr:state" v="VT"/>
    <tag k="ref:vcgi:esiteid" v="134072"/>
  </node>
  <node id="-354" visible="true" lat="44.874886340383" lon="-73.339376810779">
    <!-- multiple: "2468 Main Street, Isle La Motte, VT" Multiple exact matches in OSM. -->
    <tag k="addr:city" v="Isle La Motte"/>
    <tag k="addr:housenumber" v="2468"/>
    <tag k="addr:street" v="Main Street"/>
    <tag k="addr:state" v="VT"/>
    <tag k="ref:vcgi:esiteid" v="134276"/>
  </node>
  <node id="-391" visible="true" lat="44.864159510065" lon="-73.35945160205">
    <!-- multiple: "2551 West Shore Road, Isle La Motte, VT" Multiple exact matches in OSM. -->
    <tag k="addr:city" v="Isle La Motte"/>
    <tag k="addr:housenumber" v="2551"/>
    <tag k="addr:street" v="West Shore Road"/>
    <tag k="addr:state" v="VT"/>
    <tag k="ref:vcgi:esiteid" v="134313"/>
  </node>
</osm>
