<?xml version="1.0" encoding="UTF-8"?>
<osm version="0.6" generator="JOSM" upload="false">
  <node id="-151" visible="true" lat="44.523032375928" lon="-72.943090543301">
    <!-- duplicates-in-different-towns: "10 Park Street, Underhill, VT"  ignoring town mismatch for duplicate housenumber/street when matching to esiteid 135935: "10 Park Street, Jericho, VT" -->
    <tag k="addr:city" v="Underhill"/>
    <tag k="addr:housenumber" v="10"/>
    <tag k="addr:street" v="Park Street"/>
    <tag k="addr:state" v="VT"/>
    <tag k="ref:vcgi:esiteid" v="135932"/>
  </node>
  <node id="-2158" visible="true" lat="44.52278661184" lon="-72.943205687923">
    <!-- duplicates-in-different-towns: "36 Ecuarico Road, Underhill, VT"  ignoring town mismatch for duplicate housenumber/street when matching to esiteid 135932: "36 Ecuarico Road, Jericho, VT" -->
    <tag k="addr:city" v="Underhill"/>
    <tag k="addr:housenumber" v="36"/>
    <tag k="addr:street" v="Ecuarico Road"/>
    <tag k="addr:state" v="VT"/>
    <tag k="ref:vcgi:esiteid" v="656850"/>
  </node>
</osm>
