<?xml version="1.0" encoding="UTF-8"?>
<osm version="0.6" generator="JOSM" upload="false">
  <node id="-555" visible="true" lat="44.637149583666" lon="-72.674911686513">
    <!-- multiple: "57 College Hill, Johnson, VT" Multiple exact matches in OSM. -->
    <tag k="addr:city" v="Johnson"/>
    <tag k="addr:housenumber" v="57"/>
    <tag k="addr:street" v="College Hill"/>
    <tag k="addr:state" v="VT"/>
    <tag k="ref:vcgi:esiteid" v="138149"/>
  </node>
  <node id="-584" visible="true" lat="44.636212800427" lon="-72.698518209415">
    <!-- multiple: "275 Vermont Route 15 West, Johnson, VT" Multiple exact matches in OSM. -->
    <tag k="addr:city" v="Johnson"/>
    <tag k="addr:housenumber" v="275"/>
    <tag k="addr:street" v="Vermont Route 15 West"/>
    <tag k="addr:state" v="VT"/>
    <tag k="ref:vcgi:esiteid" v="138188"/>
  </node>
  <node id="-618" visible="true" lat="44.635593389124" lon="-72.682155603095">
    <!-- multiple: "131 Lower Main Street West, Johnson, VT" Multiple exact matches in OSM. -->
    <tag k="addr:city" v="Johnson"/>
    <tag k="addr:housenumber" v="131"/>
    <tag k="addr:street" v="Lower Main Street West"/>
    <tag k="addr:state" v="VT"/>
    <tag k="ref:vcgi:esiteid" v="138226"/>
  </node>
  <node id="-620" visible="true" lat="44.635726301532" lon="-72.679859254041">
    <!-- multiple: "38 Lower Main Street West, Johnson, VT" Multiple exact matches in OSM. -->
    <tag k="addr:city" v="Johnson"/>
    <tag k="addr:housenumber" v="38"/>
    <tag k="addr:street" v="Lower Main Street West"/>
    <tag k="addr:state" v="VT"/>
    <tag k="ref:vcgi:esiteid" v="138228"/>
  </node>
  <node id="-633" visible="true" lat="44.635499871692" lon="-72.679298004942">
    <!-- multiple: "2 Lower Main Street West, Johnson, VT" Multiple exact matches in OSM. -->
    <tag k="addr:city" v="Johnson"/>
    <tag k="addr:housenumber" v="2"/>
    <tag k="addr:street" v="Lower Main Street West"/>
    <tag k="addr:state" v="VT"/>
    <tag k="ref:vcgi:esiteid" v="138241"/>
  </node>
  <node id="-635" visible="true" lat="44.635194183116" lon="-72.679743538134">
    <!-- multiple: "21 Lower Main Street West, Johnson, VT" Multiple exact matches in OSM. -->
    <tag k="addr:city" v="Johnson"/>
    <tag k="addr:housenumber" v="21"/>
    <tag k="addr:street" v="Lower Main Street West"/>
    <tag k="addr:state" v="VT"/>
    <tag k="ref:vcgi:esiteid" v="138243"/>
  </node>
  <node id="-637" visible="true" lat="44.63513844909" lon="-72.679605691327">
    <!-- multiple: "17 Lower Main Street West, Johnson, VT" Multiple exact matches in OSM. -->
    <tag k="addr:city" v="Johnson"/>
    <tag k="addr:housenumber" v="17"/>
    <tag k="addr:street" v="Lower Main Street West"/>
    <tag k="addr:state" v="VT"/>
    <tag k="ref:vcgi:esiteid" v="138245"/>
  </node>
  <node id="-1071" visible="true" lat="44.635072345618" lon="-72.678127566596">
    <!-- multiple: "51 Lower Main Street East, Johnson, VT" Multiple exact matches in OSM. -->
    <tag k="addr:city" v="Johnson"/>
    <tag k="addr:housenumber" v="51"/>
    <tag k="addr:street" v="Lower Main Street East"/>
    <tag k="addr:state" v="VT"/>
    <tag k="ref:vcgi:esiteid" v="138697"/>
  </node>
</osm>
