<?xml version="1.0" encoding="UTF-8"?>
<osm version="0.6" generator="JOSM" upload="false">
  <node id="-259" visible="true" lat="43.274289297029" lon="-72.822607952539">
    <!-- offset: "239 Holden Hill Road, Weston, VT" Significant offset - 380m -->
    <tag k="addr:city" v="Weston"/>
    <tag k="addr:housenumber" v="239"/>
    <tag k="addr:street" v="Holden Hill Road"/>
    <tag k="addr:state" v="VT"/>
    <tag k="ref:vcgi:esiteid" v="284986"/>
  </node>
  <node id="-267" visible="true" lat="43.264950382142" lon="-72.819761003423">
    <!-- offset: "5 Shaw Knoll Road, Weston, VT" Significant offset - 167.3m -->
    <tag k="addr:city" v="Weston"/>
    <tag k="addr:housenumber" v="5"/>
    <tag k="addr:street" v="Shaw Knoll Road"/>
    <tag k="addr:state" v="VT"/>
    <tag k="ref:vcgi:esiteid" v="452509"/>
  </node>
</osm>
