<?xml version="1.0" encoding="UTF-8"?>
<osm version="0.6" generator="JOSM" upload="false">
  <node id="-246" visible="true" lat="43.298077982152" lon="-72.860115145606">
    <!-- duplicates-in-different-towns: "70 Russet Hill Road, Londonderry, VT"  ignoring town mismatch for duplicate housenumber/street when matching to esiteid 750891: "70 Russet Hill Road, Peru, VT" -->
    <tag k="addr:city" v="Londonderry"/>
    <tag k="addr:housenumber" v="70"/>
    <tag k="addr:street" v="Russet Hill Road"/>
    <tag k="addr:state" v="VT"/>
    <tag k="ref:vcgi:esiteid" v="139316"/>
  </node>
  <node id="-258" visible="true" lat="43.208036611452" lon="-72.851790896428">
    <!-- duplicates-in-different-towns: "243 Beattie Road, South Londonderry, VT"  ignoring town mismatch for duplicate housenumber/street when matching to esiteid 453731: "243 Beattie Road, , VT" -->
    <tag k="addr:city" v="South Londonderry"/>
    <tag k="addr:housenumber" v="243"/>
    <tag k="addr:street" v="Beattie Road"/>
    <tag k="addr:state" v="VT"/>
    <tag k="ref:vcgi:esiteid" v="141978"/>
  </node>
  <node id="-317" visible="true" lat="43.258787438007" lon="-72.84845916705">
    <!-- duplicates-in-different-towns: "10 Landgrove Road, Londonderry, VT"  ignoring town mismatch for duplicate housenumber/street when matching to esiteid 139277: "10 Landgrove Road, Landgrove, VT" -->
    <tag k="addr:city" v="Londonderry"/>
    <tag k="addr:housenumber" v="10"/>
    <tag k="addr:street" v="Landgrove Road"/>
    <tag k="addr:state" v="VT"/>
    <tag k="ref:vcgi:esiteid" v="750889"/>
  </node>
</osm>
