<?xml version="1.0" encoding="UTF-8"?>
<osm version="0.6" generator="JOSM" upload="false">
  <node id="-769" visible="true" lat="43.892399581911" lon="-73.0935640629">
    <!-- offset: "1951 West Shore Road, Salisbury, VT" Significant offset - 365.9m -->
    <tag k="addr:city" v="Salisbury"/>
    <tag k="addr:housenumber" v="1951"/>
    <tag k="addr:street" v="West Shore Road"/>
    <tag k="addr:state" v="VT"/>
    <tag k="ref:vcgi:esiteid" v="216836"/>
  </node>
  <node id="-773" visible="true" lat="43.893671398821" lon="-73.09711112693">
    <!-- offset: "2063 West Shore Road, Salisbury, VT" Significant offset - 147.3m -->
    <tag k="addr:city" v="Salisbury"/>
    <tag k="addr:housenumber" v="2063"/>
    <tag k="addr:street" v="West Shore Road"/>
    <tag k="addr:state" v="VT"/>
    <tag k="ref:vcgi:esiteid" v="315370"/>
  </node>
  <node id="-782" visible="true" lat="43.884511974604" lon="-73.145644984771">
    <!-- offset: "3606 Old Jerusalem Road, Salisbury, VT" Significant offset - 120.1m -->
    <tag k="addr:city" v="Salisbury"/>
    <tag k="addr:housenumber" v="3606"/>
    <tag k="addr:street" v="Old Jerusalem Road"/>
    <tag k="addr:state" v="VT"/>
    <tag k="ref:vcgi:esiteid" v="341551"/>
  </node>
</osm>
