<?xml version="1.0" encoding="UTF-8"?>
<osm version="0.6" generator="JOSM" upload="false">
  <node id="-222" visible="true" lat="43.88592575" lon="-73.06399307">
    <!-- multiple: "2997 Lake Dunmore Road, , VT" Multiple exact matches in OSM. -->
    <tag k="addr:housenumber" v="2997"/>
    <tag k="addr:street" v="Lake Dunmore Road"/>
    <tag k="addr:state" v="VT"/>
    <tag k="ref:vcgi:esiteid" v="139454"/>
  </node>
  <node id="-387" visible="true" lat="43.87456277" lon="-73.10645686">
    <!-- multiple: "2078 U.S. Route 7, , VT" Multiple exact matches in OSM. -->
    <tag k="addr:housenumber" v="2078"/>
    <tag k="addr:street" v="U.S. Route 7"/>
    <tag k="addr:state" v="VT"/>
    <tag k="ref:vcgi:esiteid" v="139620"/>
  </node>
  <node id="-413" visible="true" lat="43.87167903" lon="-73.06534854">
    <!-- multiple: "1994 Lake Dunmore Road, , VT" Multiple exact matches in OSM. -->
    <tag k="addr:housenumber" v="1994"/>
    <tag k="addr:street" v="Lake Dunmore Road"/>
    <tag k="addr:state" v="VT"/>
    <tag k="ref:vcgi:esiteid" v="139646"/>
  </node>
  <node id="-427" visible="true" lat="43.86950352" lon="-73.06466829">
    <!-- multiple: "1865 Lake Dunmore Road, , VT" Multiple exact matches in OSM. -->
    <tag k="addr:housenumber" v="1865"/>
    <tag k="addr:street" v="Lake Dunmore Road"/>
    <tag k="addr:state" v="VT"/>
    <tag k="ref:vcgi:esiteid" v="139660"/>
  </node>
  <node id="-430" visible="true" lat="43.86891998" lon="-73.06483988">
    <!-- multiple: "1823 Lake Dunmore Road, , VT" Multiple exact matches in OSM. -->
    <tag k="addr:housenumber" v="1823"/>
    <tag k="addr:street" v="Lake Dunmore Road"/>
    <tag k="addr:state" v="VT"/>
    <tag k="ref:vcgi:esiteid" v="139663"/>
  </node>
  <node id="-769" visible="true" lat="43.89714115" lon="-73.06999033">
    <!-- multiple: "605 Kelsey Lane, , VT" Multiple exact matches in OSM. -->
    <tag k="addr:housenumber" v="605"/>
    <tag k="addr:street" v="Kelsey Lane"/>
    <tag k="addr:state" v="VT"/>
    <tag k="ref:vcgi:esiteid" v="216787"/>
  </node>
  <node id="-770" visible="true" lat="43.89239069" lon="-73.0935627">
    <!-- multiple: "1951 West Shore Road, , VT" Multiple exact matches in OSM. -->
    <tag k="addr:housenumber" v="1951"/>
    <tag k="addr:street" v="West Shore Road"/>
    <tag k="addr:state" v="VT"/>
    <tag k="ref:vcgi:esiteid" v="216836"/>
  </node>
  <node id="-774" visible="true" lat="43.89366251" lon="-73.09710977">
    <!-- multiple: "2063 West Shore Road, , VT" Multiple exact matches in OSM. -->
    <tag k="addr:housenumber" v="2063"/>
    <tag k="addr:street" v="West Shore Road"/>
    <tag k="addr:state" v="VT"/>
    <tag k="ref:vcgi:esiteid" v="315370"/>
  </node>
  <node id="-783" visible="true" lat="43.88450181" lon="-73.14564983">
    <!-- multiple: "3606 Old Jerusalem Road, , VT" Multiple exact matches in OSM. -->
    <tag k="addr:housenumber" v="3606"/>
    <tag k="addr:street" v="Old Jerusalem Road"/>
    <tag k="addr:state" v="VT"/>
    <tag k="ref:vcgi:esiteid" v="341551"/>
  </node>
</osm>
