<?xml version="1.0" encoding="UTF-8"?>
<osm version="0.6" generator="JOSM" upload="false">
  <node id="-100" visible="true" lat="43.845215857993" lon="-73.084015267733">
    <tag k="addr:city" v="Brandon"/>
    <tag k="addr:housenumber" v="2559"/>
    <tag k="addr:street" v="Town Farm Road"/>
    <tag k="addr:state" v="VT"/>
    <tag k="ref:vcgi:esiteid" v="27711"/>
  </node>
  <node id="-768" visible="true" lat="43.897150042601" lon="-73.069991684131">
    <tag k="addr:city" v="Salisbury"/>
    <tag k="addr:housenumber" v="605"/>
    <tag k="addr:street" v="Kelsey Lane"/>
    <tag k="addr:state" v="VT"/>
    <tag k="ref:vcgi:esiteid" v="216787"/>
  </node>
</osm>
