<?xml version="1.0" encoding="UTF-8"?>
<osm version="0.6" generator="JOSM" upload="false">
  <node id="-110" visible="true" lat="44.909828120621" lon="-71.505297837469">
    <!-- offset: "7218 Vermont Route 102, Guildhall, VT" Significant offset - 38591.8m -->
    <tag k="addr:city" v="Guildhall"/>
    <tag k="addr:housenumber" v="7218"/>
    <tag k="addr:street" v="Vermont Route 102"/>
    <tag k="addr:state" v="VT"/>
    <tag k="ref:vcgi:esiteid" v="140014"/>
  </node>
  <node id="-195" visible="true" lat="44.913886059845" lon="-71.522577001874">
    <!-- offset: "463 Vermont Route 102, Canaan, VT" Significant offset - 783.9m -->
    <tag k="addr:city" v="Canaan"/>
    <tag k="addr:housenumber" v="463"/>
    <tag k="addr:street" v="Vermont Route 102"/>
    <tag k="addr:state" v="VT"/>
    <tag k="ref:vcgi:esiteid" v="752061"/>
  </node>
  <node id="-196" visible="true" lat="44.910156810998" lon="-71.526815006657">
    <!-- offset: "465 Vermont Route 102, Canaan, VT" Significant offset - 1240.7m -->
    <tag k="addr:city" v="Canaan"/>
    <tag k="addr:housenumber" v="465"/>
    <tag k="addr:street" v="Vermont Route 102"/>
    <tag k="addr:state" v="VT"/>
    <tag k="ref:vcgi:esiteid" v="752062"/>
  </node>
  <node id="-197" visible="true" lat="44.936356095525" lon="-71.570881072447">
    <!-- offset: "2111 Hudson Road, Canaan, VT" Significant offset - 474.2m -->
    <tag k="addr:city" v="Canaan"/>
    <tag k="addr:housenumber" v="2111"/>
    <tag k="addr:street" v="Hudson Road"/>
    <tag k="addr:state" v="VT"/>
    <tag k="ref:vcgi:esiteid" v="752287"/>
  </node>
</osm>
