<?xml version="1.0" encoding="UTF-8"?>
<osm version="0.6" generator="JOSM" upload="false">
  <node id="-904" visible="true" lat="44.113698365274" lon="-72.99968222078">
    <!-- duplicates-in-different-towns: "497 Quaker Street, Bristol, VT"  ignoring town mismatch for duplicate housenumber/street when matching to esiteid 656164: "497 Quaker Street, Lincoln, VT" -->
    <tag k="addr:city" v="Bristol"/>
    <tag k="addr:housenumber" v="497"/>
    <tag k="addr:street" v="Quaker Street"/>
    <tag k="addr:state" v="VT"/>
    <tag k="ref:vcgi:esiteid" v="770171"/>
  </node>
  <node id="-911" visible="true" lat="44.084838529566" lon="-72.961315125668">
    <!-- duplicates-in-different-towns: "199 Geary Camp Road, Bristol, VT"  ignoring town mismatch for duplicate housenumber/street when matching to esiteid 773004: "199 Geary Camp Road, Lincoln, VT" -->
    <tag k="addr:city" v="Bristol"/>
    <tag k="addr:housenumber" v="199"/>
    <tag k="addr:street" v="Geary Camp Road"/>
    <tag k="addr:state" v="VT"/>
    <tag k="ref:vcgi:esiteid" v="773003"/>
  </node>
</osm>
