<?xml version="1.0" encoding="UTF-8"?>
<osm version="0.6" generator="JOSM" upload="false">
  <node id="-775" visible="true" lat="44.1116696" lon="-72.93679398">
    <!-- offset: "1937 Elder Hill Road, Lincoln, VT" Significant offset - 2130.2m -->
    <tag k="addr:city" v="Lincoln"/>
    <tag k="addr:housenumber" v="1937"/>
    <tag k="addr:street" v="Elder Hill Road"/>
    <tag k="addr:state" v="VT"/>
    <tag k="ref:vcgi:esiteid" v="450412"/>
  </node>
  <node id="-829" visible="true" lat="44.03647357" lon="-73.01535241">
    <!-- offset: "4035 Ripton Road, Lincoln, VT" Significant offset - 116.7m -->
    <tag k="addr:city" v="Lincoln"/>
    <tag k="addr:housenumber" v="4035"/>
    <tag k="addr:street" v="Ripton Road"/>
    <tag k="addr:state" v="VT"/>
    <tag k="ref:vcgi:esiteid" v="754622"/>
  </node>
  <node id="-836" visible="true" lat="44.08316385" lon="-73.00723174">
    <!-- offset: "751 Green Road North, Lincoln, VT" Significant offset - 117.8m -->
    <tag k="addr:city" v="Lincoln"/>
    <tag k="addr:housenumber" v="751"/>
    <tag k="addr:street" v="Green Road North"/>
    <tag k="addr:state" v="VT"/>
    <tag k="ref:vcgi:esiteid" v="756376"/>
  </node>
</osm>
