<?xml version="1.0" encoding="UTF-8"?>
<osm version="0.6" generator="JOSM" upload="false">
  <node id="-111" visible="true" lat="43.26117440173" lon="-72.845612806033">
    <tag k="addr:city" v="Londonderry"/>
    <tag k="addr:housenumber" v="2"/>
    <tag k="addr:street" v="Cody Road"/>
    <tag k="addr:state" v="VT"/>
    <tag k="ref:vcgi:esiteid" v="140651"/>
  </node>
  <node id="-112" visible="true" lat="43.257494723808" lon="-72.846791136806">
    <tag k="addr:city" v="Londonderry"/>
    <tag k="addr:housenumber" v="2460"/>
    <tag k="addr:street" v="Landgrove Road"/>
    <tag k="addr:state" v="VT"/>
    <tag k="ref:vcgi:esiteid" v="140652"/>
  </node>
  <node id="-114" visible="true" lat="43.255905993599" lon="-72.847294351873">
    <tag k="addr:city" v="Londonderry"/>
    <tag k="addr:housenumber" v="1627"/>
    <tag k="addr:street" v="Reilly Road"/>
    <tag k="addr:state" v="VT"/>
    <tag k="ref:vcgi:esiteid" v="140654"/>
  </node>
  <node id="-145" visible="true" lat="43.24743071101" lon="-72.796792544576">
    <tag k="addr:city" v="Londonderry"/>
    <tag k="addr:housenumber" v="7455"/>
    <tag k="addr:street" v="Vermont Route 100"/>
    <tag k="addr:state" v="VT"/>
    <tag k="ref:vcgi:esiteid" v="140686"/>
  </node>
  <node id="-210" visible="true" lat="43.238087850709" lon="-72.797120356692">
    <tag k="addr:city" v="Londonderry"/>
    <tag k="addr:housenumber" v="6795"/>
    <tag k="addr:street" v="Vermont Route 100"/>
    <tag k="addr:state" v="VT"/>
    <tag k="ref:vcgi:esiteid" v="140751"/>
  </node>
  <node id="-219" visible="true" lat="43.236975822668" lon="-72.848159780577">
    <tag k="addr:city" v="Londonderry"/>
    <tag k="addr:housenumber" v="91"/>
    <tag k="addr:street" v="Vermont Route 11"/>
    <tag k="addr:state" v="VT"/>
    <tag k="ref:vcgi:esiteid" v="140760"/>
  </node>
  <node id="-383" visible="true" lat="43.229025901593" lon="-72.813261239707">
    <tag k="addr:city" v="Londonderry"/>
    <tag k="addr:housenumber" v="2000"/>
    <tag k="addr:street" v="North Main Street"/>
    <tag k="addr:state" v="VT"/>
    <tag k="ref:vcgi:esiteid" v="140924"/>
  </node>
  <node id="-384" visible="true" lat="43.229043199638" lon="-72.812249451566">
    <tag k="addr:city" v="Londonderry"/>
    <tag k="addr:housenumber" v="2051"/>
    <tag k="addr:street" v="North Main Street"/>
    <tag k="addr:state" v="VT"/>
    <tag k="ref:vcgi:esiteid" v="140925"/>
  </node>
  <node id="-392" visible="true" lat="43.228905871271" lon="-72.813027649673">
    <tag k="addr:city" v="Londonderry"/>
    <tag k="addr:housenumber" v="2022"/>
    <tag k="addr:street" v="North Main Street"/>
    <tag k="addr:state" v="VT"/>
    <tag k="ref:vcgi:esiteid" v="140933"/>
  </node>
  <node id="-416" visible="true" lat="43.228205163716" lon="-72.811407631968">
    <tag k="addr:city" v="Londonderry"/>
    <tag k="addr:housenumber" v="2116"/>
    <tag k="addr:street" v="North Main Street"/>
    <tag k="addr:state" v="VT"/>
    <tag k="ref:vcgi:esiteid" v="140958"/>
  </node>
  <node id="-417" visible="true" lat="43.22827288492" lon="-72.811543273283">
    <tag k="addr:city" v="Londonderry"/>
    <tag k="addr:housenumber" v="2102"/>
    <tag k="addr:street" v="North Main Street"/>
    <tag k="addr:state" v="VT"/>
    <tag k="ref:vcgi:esiteid" v="140959"/>
  </node>
  <node id="-457" visible="true" lat="43.227263561691" lon="-72.809193352913">
    <tag k="addr:city" v="Londonderry"/>
    <tag k="addr:housenumber" v="2242"/>
    <tag k="addr:street" v="North Main Street"/>
    <tag k="addr:state" v="VT"/>
    <tag k="ref:vcgi:esiteid" v="141013"/>
  </node>
  <node id="-488" visible="true" lat="43.226358484121" lon="-72.783906078783">
    <tag k="addr:city" v="Londonderry"/>
    <tag k="addr:housenumber" v="615"/>
    <tag k="addr:street" v="Little Pond Road"/>
    <tag k="addr:state" v="VT"/>
    <tag k="ref:vcgi:esiteid" v="141048"/>
  </node>
  <node id="-489" visible="true" lat="43.226468529257" lon="-72.728430148621">
    <tag k="addr:city" v="Londonderry"/>
    <tag k="addr:housenumber" v="7451"/>
    <tag k="addr:street" v="Vermont Route 11"/>
    <tag k="addr:state" v="VT"/>
    <tag k="ref:vcgi:esiteid" v="141049"/>
  </node>
  <node id="-507" visible="true" lat="43.225785448583" lon="-72.806626584313">
    <tag k="addr:city" v="Londonderry"/>
    <tag k="addr:housenumber" v="2461"/>
    <tag k="addr:street" v="Middletown Road"/>
    <tag k="addr:state" v="VT"/>
    <tag k="ref:vcgi:esiteid" v="141067"/>
  </node>
  <node id="-697" visible="true" lat="43.213070578073" lon="-72.788308435878">
    <tag k="addr:city" v="Londonderry"/>
    <tag k="addr:housenumber" v="3806"/>
    <tag k="addr:street" v="Vermont Route 11"/>
    <tag k="addr:state" v="VT"/>
    <tag k="ref:vcgi:esiteid" v="141264"/>
  </node>
  <node id="-701" visible="true" lat="43.211987202105" lon="-72.787514978162">
    <tag k="addr:city" v="Londonderry"/>
    <tag k="addr:housenumber" v="38"/>
    <tag k="addr:street" v="Maurice Lane"/>
    <tag k="addr:state" v="VT"/>
    <tag k="ref:vcgi:esiteid" v="141268"/>
  </node>
  <node id="-702" visible="true" lat="43.211880392066" lon="-72.787675195367">
    <tag k="addr:city" v="Londonderry"/>
    <tag k="addr:housenumber" v="50"/>
    <tag k="addr:street" v="Maurice Lane"/>
    <tag k="addr:state" v="VT"/>
    <tag k="ref:vcgi:esiteid" v="141269"/>
  </node>
  <node id="-706" visible="true" lat="43.211678333479" lon="-72.786603171053">
    <tag k="addr:city" v="Londonderry"/>
    <tag k="addr:housenumber" v="3928"/>
    <tag k="addr:street" v="Vermont Route 11"/>
    <tag k="addr:state" v="VT"/>
    <tag k="ref:vcgi:esiteid" v="141274"/>
  </node>
  <node id="-707" visible="true" lat="43.211499406308" lon="-72.785676260583">
    <tag k="addr:city" v="Londonderry"/>
    <tag k="addr:housenumber" v="3969"/>
    <tag k="addr:street" v="Vermont Route 11"/>
    <tag k="addr:state" v="VT"/>
    <tag k="ref:vcgi:esiteid" v="141275"/>
  </node>
  <node id="-709" visible="true" lat="43.211323444515" lon="-72.789086633348">
    <tag k="addr:city" v="Londonderry"/>
    <tag k="addr:housenumber" v="92"/>
    <tag k="addr:street" v="Maurice Lane"/>
    <tag k="addr:state" v="VT"/>
    <tag k="ref:vcgi:esiteid" v="141277"/>
  </node>
  <node id="-710" visible="true" lat="43.211316299527" lon="-72.785134573875">
    <tag k="addr:city" v="Londonderry"/>
    <tag k="addr:housenumber" v="3997"/>
    <tag k="addr:street" v="Vermont Route 11"/>
    <tag k="addr:state" v="VT"/>
    <tag k="ref:vcgi:esiteid" v="141278"/>
  </node>
  <node id="-712" visible="true" lat="43.211209004231" lon="-72.787949852767">
    <tag k="addr:city" v="Londonderry"/>
    <tag k="addr:housenumber" v="82"/>
    <tag k="addr:street" v="Maurice Lane"/>
    <tag k="addr:state" v="VT"/>
    <tag k="ref:vcgi:esiteid" v="141280"/>
  </node>
  <node id="-717" visible="true" lat="43.210909565519" lon="-72.787648676649">
    <tag k="addr:city" v="Londonderry"/>
    <tag k="addr:housenumber" v="94"/>
    <tag k="addr:street" v="Maurice Lane"/>
    <tag k="addr:state" v="VT"/>
    <tag k="ref:vcgi:esiteid" v="141285"/>
  </node>
  <node id="-720" visible="true" lat="43.210728353245" lon="-72.787209802894">
    <tag k="addr:city" v="Londonderry"/>
    <tag k="addr:housenumber" v="120"/>
    <tag k="addr:street" v="Maurice Lane"/>
    <tag k="addr:state" v="VT"/>
    <tag k="ref:vcgi:esiteid" v="141288"/>
  </node>
  <node id="-731" visible="true" lat="43.209927267545" lon="-72.784745507727">
    <tag k="addr:city" v="Londonderry"/>
    <tag k="addr:housenumber" v="4080"/>
    <tag k="addr:street" v="Vermont Route 11"/>
    <tag k="addr:state" v="VT"/>
    <tag k="ref:vcgi:esiteid" v="141299"/>
  </node>
  <node id="-732" visible="true" lat="43.209874344391" lon="-72.783341665088">
    <tag k="addr:city" v="Londonderry"/>
    <tag k="addr:housenumber" v="4071"/>
    <tag k="addr:street" v="Vermont Route 11"/>
    <tag k="addr:state" v="VT"/>
    <tag k="ref:vcgi:esiteid" v="141300"/>
  </node>
  <node id="-738" visible="true" lat="43.209542538666" lon="-72.777937481813">
    <tag k="addr:city" v="Londonderry"/>
    <tag k="addr:housenumber" v="175"/>
    <tag k="addr:street" v="Mansfield Lane"/>
    <tag k="addr:state" v="VT"/>
    <tag k="ref:vcgi:esiteid" v="141306"/>
  </node>
  <node id="-746" visible="true" lat="43.208991239737" lon="-72.77867569241">
    <tag k="addr:city" v="Londonderry"/>
    <tag k="addr:housenumber" v="117"/>
    <tag k="addr:street" v="Mansfield Lane"/>
    <tag k="addr:state" v="VT"/>
    <tag k="ref:vcgi:esiteid" v="141314"/>
  </node>
  <node id="-748" visible="true" lat="43.208925140167" lon="-72.783192121041">
    <tag k="addr:city" v="Londonderry"/>
    <tag k="addr:housenumber" v="4174"/>
    <tag k="addr:street" v="Vermont Route 11"/>
    <tag k="addr:state" v="VT"/>
    <tag k="ref:vcgi:esiteid" v="141316"/>
  </node>
  <node id="-753" visible="true" lat="43.208598028097" lon="-72.782279104848">
    <tag k="addr:city" v="Londonderry"/>
    <tag k="addr:housenumber" v="4232"/>
    <tag k="addr:street" v="Vermont Route 11"/>
    <tag k="addr:state" v="VT"/>
    <tag k="ref:vcgi:esiteid" v="141321"/>
  </node>
  <node id="-760" visible="true" lat="43.208345757962" lon="-72.780571402338">
    <tag k="addr:city" v="Londonderry"/>
    <tag k="addr:housenumber" v="4323"/>
    <tag k="addr:street" v="Vermont Route 11"/>
    <tag k="addr:state" v="VT"/>
    <tag k="ref:vcgi:esiteid" v="141328"/>
  </node>
  <node id="-761" visible="true" lat="43.208287819211" lon="-72.778124260588">
    <tag k="addr:city" v="Londonderry"/>
    <tag k="addr:housenumber" v="75"/>
    <tag k="addr:street" v="Mansfield Lane"/>
    <tag k="addr:state" v="VT"/>
    <tag k="ref:vcgi:esiteid" v="141329"/>
  </node>
  <node id="-841" visible="true" lat="43.204919651455" lon="-72.821595506716">
    <tag k="addr:city" v="South Londonderry"/>
    <tag k="addr:housenumber" v="52"/>
    <tag k="addr:street" v="Hearthstone Lane"/>
    <tag k="addr:state" v="VT"/>
    <tag k="ref:vcgi:esiteid" v="141413"/>
  </node>
  <node id="-848" visible="true" lat="43.204972379156" lon="-72.773117985334">
    <tag k="addr:city" v="Londonderry"/>
    <tag k="addr:housenumber" v="289"/>
    <tag k="addr:street" v="Magic Mountain Access Road"/>
    <tag k="addr:state" v="VT"/>
    <tag k="ref:vcgi:esiteid" v="141420"/>
  </node>
  <node id="-891" visible="true" lat="43.20300405513" lon="-72.773553657429">
    <tag k="addr:city" v="Londonderry"/>
    <tag k="addr:housenumber" v="420"/>
    <tag k="addr:street" v="Magic Mountain Access Road"/>
    <tag k="addr:state" v="VT"/>
    <tag k="ref:vcgi:esiteid" v="141466"/>
  </node>
  <node id="-985" visible="true" lat="43.194168401094" lon="-72.814430532925">
    <tag k="addr:city" v="South Londonderry"/>
    <tag k="addr:housenumber" v="95"/>
    <tag k="addr:street" v="Middletown Road"/>
    <tag k="addr:state" v="VT"/>
    <tag k="ref:vcgi:esiteid" v="141565"/>
  </node>
  <node id="-1009" visible="true" lat="43.192422099651" lon="-72.81422546199">
    <tag k="addr:city" v="South Londonderry"/>
    <tag k="addr:housenumber" v="45"/>
    <tag k="addr:street" v="Main Street"/>
    <tag k="addr:state" v="VT"/>
    <tag k="ref:vcgi:esiteid" v="141590"/>
  </node>
  <node id="-1031" visible="true" lat="43.190970200532" lon="-72.812431319152">
    <tag k="addr:city" v="South Londonderry"/>
    <tag k="addr:housenumber" v="15"/>
    <tag k="addr:street" v="Old School Street"/>
    <tag k="addr:state" v="VT"/>
    <tag k="ref:vcgi:esiteid" v="141613"/>
  </node>
  <node id="-1038" visible="true" lat="43.190560044315" lon="-72.81057101797">
    <tag k="addr:city" v="South Londonderry"/>
    <tag k="addr:housenumber" v="100"/>
    <tag k="addr:street" v="Old School Street"/>
    <tag k="addr:state" v="VT"/>
    <tag k="ref:vcgi:esiteid" v="141620"/>
  </node>
  <node id="-1301" visible="true" lat="43.258543840935" lon="-72.845758643141">
    <tag k="addr:city" v="Londonderry"/>
    <tag k="addr:housenumber" v="2564"/>
    <tag k="addr:street" v="Landgrove Road"/>
    <tag k="addr:state" v="VT"/>
    <tag k="ref:vcgi:esiteid" v="141887"/>
  </node>
  <node id="-1433" visible="true" lat="43.209426425841" lon="-72.776944620407">
    <tag k="addr:city" v="Londonderry"/>
    <tag k="addr:housenumber" v="250"/>
    <tag k="addr:street" v="Mansfield Lane"/>
    <tag k="addr:state" v="VT"/>
    <tag k="ref:vcgi:esiteid" v="142039"/>
  </node>
  <node id="-1513" visible="true" lat="43.188986722765" lon="-72.760732848173">
    <tag k="addr:city" v="Londonderry"/>
    <tag k="addr:housenumber" v="1800"/>
    <tag k="addr:street" v="Magic Maintenance Trail"/>
    <tag k="addr:state" v="VT"/>
    <tag k="ref:vcgi:esiteid" v="452410"/>
  </node>
  <node id="-1559" visible="true" lat="43.209235531171" lon="-72.780773610477">
    <tag k="addr:city" v="Londonderry"/>
    <tag k="addr:housenumber" v="4325"/>
    <tag k="addr:street" v="Vermont Route 11"/>
    <tag k="addr:state" v="VT"/>
    <tag k="ref:vcgi:esiteid" v="757655"/>
  </node>
</osm>
