<?xml version="1.0" encoding="UTF-8"?>
<osm version="0.6" generator="JOSM" upload="false">
  <node id="-1520" visible="true" lat="43.226267653809" lon="-72.728215463598">
    <!-- duplicates-in-different-towns: "7452 Vermont Route 11, Londonderry, VT"  ignoring town mismatch for duplicate housenumber/street when matching to esiteid 294953: "7452 Vermont Route 11, Windham, VT" -->
    <tag k="addr:city" v="Londonderry"/>
    <tag k="addr:housenumber" v="7452"/>
    <tag k="addr:street" v="Vermont Route 11"/>
    <tag k="addr:state" v="VT"/>
    <tag k="ref:vcgi:esiteid" v="454903"/>
  </node>
  <node id="-1575" visible="true" lat="43.249300838297" lon="-72.796009747722">
    <!-- duplicates-in-different-towns: "7587 Vermont Route 100, Londonderry, VT"  ignoring town mismatch for duplicate housenumber/street when matching to esiteid 140667: "7587 Vermont Route 100, Weston, VT" -->
    <tag k="addr:city" v="Londonderry"/>
    <tag k="addr:housenumber" v="7587"/>
    <tag k="addr:street" v="Vermont Route 100"/>
    <tag k="addr:state" v="VT"/>
    <tag k="ref:vcgi:esiteid" v="759986"/>
  </node>
</osm>
