<?xml version="1.0" encoding="UTF-8"?>
<osm version="0.6" generator="JOSM" upload="false">
  <node id="-1424" visible="true" lat="44.417298158375" lon="-71.715137633299">
    <!-- duplicates-in-different-towns: "1955 Baptist Hill Road, Gilman, VT"  ignoring town mismatch for duplicate housenumber/street when matching to esiteid 646554: "1955 Baptist Hill Road, Lunenburg, VT" -->
    <tag k="addr:city" v="Gilman"/>
    <tag k="addr:housenumber" v="1955"/>
    <tag k="addr:street" v="Baptist Hill Road"/>
    <tag k="addr:state" v="VT"/>
    <tag k="ref:vcgi:esiteid" v="500062"/>
  </node>
</osm>
