<?xml version="1.0" encoding="UTF-8"?>
<osm version="0.6" generator="JOSM" upload="false">
  <node id="-269" visible="true" lat="44.572001501257" lon="-72.016093103653">
    <!-- offset: "2107 Pudding Hill Road, Lyndonville, VT" Significant offset - 461m -->
    <tag k="addr:city" v="Lyndonville"/>
    <tag k="addr:housenumber" v="2107"/>
    <tag k="addr:street" v="Pudding Hill Road"/>
    <tag k="addr:state" v="VT"/>
    <tag k="ref:vcgi:esiteid" v="146549"/>
  </node>
  <node id="-557" visible="true" lat="44.546545684394" lon="-71.98538605171">
    <!-- offset: "2591 Lily Pond Road, Lyndonville, VT" Significant offset - 136.5m -->
    <tag k="addr:city" v="Lyndonville"/>
    <tag k="addr:housenumber" v="2591"/>
    <tag k="addr:street" v="Lily Pond Road"/>
    <tag k="addr:state" v="VT"/>
    <tag k="ref:vcgi:esiteid" v="146844"/>
  </node>
  <node id="-931" visible="true" lat="44.53839359458" lon="-72.015438806577">
    <!-- offset: "168 Institute Circle, Lyndon Center, VT" Significant offset - 103.9m -->
    <tag k="addr:city" v="Lyndon Center"/>
    <tag k="addr:housenumber" v="168"/>
    <tag k="addr:street" v="Institute Circle"/>
    <tag k="addr:state" v="VT"/>
    <tag k="ref:vcgi:esiteid" v="147248"/>
  </node>
  <node id="-1102" visible="true" lat="44.535092672989" lon="-72.025322209971">
    <!-- offset: "1001 College Road, Lyndonville, VT" Significant offset - 134.1m -->
    <tag k="addr:city" v="Lyndonville"/>
    <tag k="addr:housenumber" v="1001"/>
    <tag k="addr:street" v="College Road"/>
    <tag k="addr:state" v="VT"/>
    <tag k="ref:vcgi:esiteid" v="147439"/>
  </node>
</osm>
