<?xml version="1.0" encoding="UTF-8"?>
<osm version="0.6" generator="JOSM" upload="false">
  <node id="-903" visible="true" lat="43.178302125297" lon="-73.055555708237">
    <!-- multiple: "4971 Main Street, Manchester Center, VT" Multiple exact matches in OSM. -->
    <tag k="addr:city" v="Manchester Center"/>
    <tag k="addr:housenumber" v="4971"/>
    <tag k="addr:street" v="Main Street"/>
    <tag k="addr:state" v="VT"/>
    <tag k="ref:vcgi:esiteid" v="149857"/>
  </node>
  <node id="-933" visible="true" lat="43.177956055099" lon="-73.055023660052">
    <!-- multiple: "4993 Main Street, Manchester Center, VT" Multiple exact matches in OSM. -->
    <tag k="addr:city" v="Manchester Center"/>
    <tag k="addr:housenumber" v="4993"/>
    <tag k="addr:street" v="Main Street"/>
    <tag k="addr:state" v="VT"/>
    <tag k="ref:vcgi:esiteid" v="149891"/>
  </node>
  <node id="-945" visible="true" lat="43.177741401988" lon="-73.053657916454">
    <!-- multiple: "5053 Main Street, Manchester Center, VT" Multiple exact matches in OSM. -->
    <tag k="addr:city" v="Manchester Center"/>
    <tag k="addr:housenumber" v="5053"/>
    <tag k="addr:street" v="Main Street"/>
    <tag k="addr:state" v="VT"/>
    <tag k="ref:vcgi:esiteid" v="149904"/>
  </node>
  <node id="-946" visible="true" lat="43.177791023341" lon="-73.055857831426">
    <!-- multiple: "4961 Main Street, Manchester Center, VT" Multiple exact matches in OSM. -->
    <tag k="addr:city" v="Manchester Center"/>
    <tag k="addr:housenumber" v="4961"/>
    <tag k="addr:street" v="Main Street"/>
    <tag k="addr:state" v="VT"/>
    <tag k="ref:vcgi:esiteid" v="149905"/>
  </node>
  <node id="-990" visible="true" lat="43.177362183258" lon="-73.055780267963">
    <!-- multiple: "4935 Main Street, Manchester Center, VT" Multiple exact matches in OSM. -->
    <tag k="addr:city" v="Manchester Center"/>
    <tag k="addr:housenumber" v="4935"/>
    <tag k="addr:street" v="Main Street"/>
    <tag k="addr:state" v="VT"/>
    <tag k="ref:vcgi:esiteid" v="149957"/>
  </node>
  <node id="-1099" visible="true" lat="43.175793186453" lon="-73.054956045788">
    <!-- multiple: "135 Depot Street, Manchester Center, VT" Multiple exact matches in OSM. -->
    <tag k="addr:city" v="Manchester Center"/>
    <tag k="addr:housenumber" v="135"/>
    <tag k="addr:street" v="Depot Street"/>
    <tag k="addr:state" v="VT"/>
    <tag k="ref:vcgi:esiteid" v="150088"/>
  </node>
  <node id="-1101" visible="true" lat="43.175721514109" lon="-73.052132121957">
    <!-- multiple: "263 Depot Street, Manchester Center, VT" Multiple exact matches in OSM. -->
    <tag k="addr:city" v="Manchester Center"/>
    <tag k="addr:housenumber" v="263"/>
    <tag k="addr:street" v="Depot Street"/>
    <tag k="addr:state" v="VT"/>
    <tag k="ref:vcgi:esiteid" v="150091"/>
  </node>
  <node id="-1150" visible="true" lat="43.175102267107" lon="-73.054750507052">
    <!-- multiple: "152 Depot Street, Manchester Center, VT" Multiple exact matches in OSM. -->
    <tag k="addr:city" v="Manchester Center"/>
    <tag k="addr:housenumber" v="152"/>
    <tag k="addr:street" v="Depot Street"/>
    <tag k="addr:state" v="VT"/>
    <tag k="ref:vcgi:esiteid" v="150144"/>
  </node>
  <node id="-1187" visible="true" lat="43.17470814498" lon="-73.050235278746">
    <!-- multiple: "367 Depot Street, Manchester Center, VT" Multiple exact matches in OSM. -->
    <tag k="addr:city" v="Manchester Center"/>
    <tag k="addr:housenumber" v="367"/>
    <tag k="addr:street" v="Depot Street"/>
    <tag k="addr:state" v="VT"/>
    <tag k="ref:vcgi:esiteid" v="150185"/>
  </node>
  <node id="-1210" visible="true" lat="43.174362627702" lon="-73.05203658301">
    <!-- multiple: "302 Depot Street, Manchester Center, VT" Multiple exact matches in OSM. -->
    <tag k="addr:city" v="Manchester Center"/>
    <tag k="addr:housenumber" v="302"/>
    <tag k="addr:street" v="Depot Street"/>
    <tag k="addr:state" v="VT"/>
    <tag k="ref:vcgi:esiteid" v="150211"/>
  </node>
  <node id="-1245" visible="true" lat="43.174073499574" lon="-73.051397553331">
    <!-- multiple: "342 Depot Street, Manchester Center, VT" Multiple exact matches in OSM. -->
    <tag k="addr:city" v="Manchester Center"/>
    <tag k="addr:housenumber" v="342"/>
    <tag k="addr:street" v="Depot Street"/>
    <tag k="addr:state" v="VT"/>
    <tag k="ref:vcgi:esiteid" v="150250"/>
  </node>
  <node id="-1836" visible="true" lat="43.165625272755" lon="-73.07049316429">
    <!-- multiple: "3835 Main Street, Manchester, VT" Multiple exact matches in OSM. -->
    <tag k="addr:city" v="Manchester"/>
    <tag k="addr:housenumber" v="3835"/>
    <tag k="addr:street" v="Main Street"/>
    <tag k="addr:state" v="VT"/>
    <tag k="ref:vcgi:esiteid" v="150911"/>
  </node>
  <node id="-2499" visible="true" lat="43.174290419376" lon="-73.050345837628">
    <!-- multiple: "365 Depot Street, Manchester Center, VT" Multiple exact matches in OSM. -->
    <tag k="addr:city" v="Manchester Center"/>
    <tag k="addr:housenumber" v="365"/>
    <tag k="addr:street" v="Depot Street"/>
    <tag k="addr:state" v="VT"/>
    <tag k="ref:vcgi:esiteid" v="151648"/>
  </node>
  <node id="-2500" visible="true" lat="43.175106005381" lon="-73.050689902965">
    <!-- multiple: "369 Depot Street, Manchester Center, VT" Multiple exact matches in OSM. -->
    <tag k="addr:city" v="Manchester Center"/>
    <tag k="addr:housenumber" v="369"/>
    <tag k="addr:street" v="Depot Street"/>
    <tag k="addr:state" v="VT"/>
    <tag k="ref:vcgi:esiteid" v="151649"/>
  </node>
</osm>
