<?xml version="1.0" encoding="UTF-8"?>
<osm version="0.6" generator="JOSM" upload="false">
  <node id="-819" visible="true" lat="43.179524598123" lon="-73.048127515342">
    <tag k="addr:city" v="Manchester Center"/>
    <tag k="addr:housenumber" v="5383"/>
    <tag k="addr:street" v="Main Street"/>
    <tag k="addr:state" v="VT"/>
    <tag k="ref:vcgi:esiteid" v="149764"/>
  </node>
  <node id="-832" visible="true" lat="43.179229238339" lon="-73.05528263489">
    <tag k="addr:city" v="Manchester Center"/>
    <tag k="addr:housenumber" v="102"/>
    <tag k="addr:street" v="School Street"/>
    <tag k="addr:state" v="VT"/>
    <tag k="ref:vcgi:esiteid" v="149780"/>
  </node>
  <node id="-847" visible="true" lat="43.178942947001" lon="-73.055542675977">
    <tag k="addr:city" v="Manchester Center"/>
    <tag k="addr:housenumber" v="82"/>
    <tag k="addr:street" v="School Street"/>
    <tag k="addr:state" v="VT"/>
    <tag k="ref:vcgi:esiteid" v="149798"/>
  </node>
  <node id="-848" visible="true" lat="43.178896650386" lon="-73.069724586704">
    <tag k="addr:city" v="Manchester"/>
    <tag k="addr:housenumber" v="114"/>
    <tag k="addr:street" v="Village Glen"/>
    <tag k="addr:state" v="VT"/>
    <tag k="ref:vcgi:esiteid" v="149799"/>
  </node>
  <node id="-866" visible="true" lat="43.178706411" lon="-73.05546146168">
    <tag k="addr:city" v="Manchester Center"/>
    <tag k="addr:housenumber" v="4975"/>
    <tag k="addr:street" v="Main Street"/>
    <tag k="addr:state" v="VT"/>
    <tag k="ref:vcgi:esiteid" v="149818"/>
  </node>
  <node id="-868" visible="true" lat="43.178751477365" lon="-73.053670080987">
    <tag k="addr:city" v="Manchester Center"/>
    <tag k="addr:housenumber" v="80"/>
    <tag k="addr:street" v="Memorial Avenue"/>
    <tag k="addr:state" v="VT"/>
    <tag k="ref:vcgi:esiteid" v="149820"/>
  </node>
  <node id="-889" visible="true" lat="43.178263318994" lon="-73.052182952139">
    <tag k="addr:city" v="Manchester Center"/>
    <tag k="addr:housenumber" v="5143"/>
    <tag k="addr:street" v="Main Street"/>
    <tag k="addr:state" v="VT"/>
    <tag k="ref:vcgi:esiteid" v="149842"/>
  </node>
  <node id="-892" visible="true" lat="43.178263887922" lon="-73.051623141963">
    <tag k="addr:city" v="Manchester Center"/>
    <tag k="addr:housenumber" v="5167"/>
    <tag k="addr:street" v="Main Street"/>
    <tag k="addr:state" v="VT"/>
    <tag k="ref:vcgi:esiteid" v="149845"/>
  </node>
  <node id="-899" visible="true" lat="43.17828100755" lon="-73.054314956747">
    <tag k="addr:city" v="Manchester Center"/>
    <tag k="addr:housenumber" v="51"/>
    <tag k="addr:street" v="Memorial Avenue"/>
    <tag k="addr:state" v="VT"/>
    <tag k="ref:vcgi:esiteid" v="149852"/>
  </node>
  <node id="-904" visible="true" lat="43.178236921764" lon="-73.051938827901">
    <tag k="addr:city" v="Manchester Center"/>
    <tag k="addr:housenumber" v="5151"/>
    <tag k="addr:street" v="Main Street"/>
    <tag k="addr:state" v="VT"/>
    <tag k="ref:vcgi:esiteid" v="149858"/>
  </node>
  <node id="-908" visible="true" lat="43.178202958453" lon="-73.055583326203">
    <tag k="addr:city" v="Manchester Center"/>
    <tag k="addr:housenumber" v="4969"/>
    <tag k="addr:street" v="Main Street"/>
    <tag k="addr:state" v="VT"/>
    <tag k="ref:vcgi:esiteid" v="149862"/>
  </node>
  <node id="-911" visible="true" lat="43.17809611158" lon="-73.066838842705">
    <tag k="addr:city" v="Manchester"/>
    <tag k="addr:housenumber" v="265"/>
    <tag k="addr:street" v="Village Glen"/>
    <tag k="addr:state" v="VT"/>
    <tag k="ref:vcgi:esiteid" v="149865"/>
  </node>
  <node id="-913" visible="true" lat="43.178126639718" lon="-73.055598792443">
    <tag k="addr:city" v="Manchester Center"/>
    <tag k="addr:housenumber" v="4967"/>
    <tag k="addr:street" v="Main Street"/>
    <tag k="addr:state" v="VT"/>
    <tag k="ref:vcgi:esiteid" v="149868"/>
  </node>
  <node id="-917" visible="true" lat="43.178097110151" lon="-73.070712312835">
    <tag k="addr:city" v="Manchester"/>
    <tag k="addr:housenumber" v="1016"/>
    <tag k="addr:street" v="West Road"/>
    <tag k="addr:state" v="VT"/>
    <tag k="ref:vcgi:esiteid" v="149872"/>
  </node>
  <node id="-921" visible="true" lat="43.178054222219" lon="-73.055590906042">
    <tag k="addr:city" v="Manchester Center"/>
    <tag k="addr:housenumber" v="4965"/>
    <tag k="addr:street" v="Main Street"/>
    <tag k="addr:state" v="VT"/>
    <tag k="ref:vcgi:esiteid" v="149876"/>
  </node>
  <node id="-922" visible="true" lat="43.178007445424" lon="-73.054198114171">
    <tag k="addr:city" v="Manchester Center"/>
    <tag k="addr:housenumber" v="31"/>
    <tag k="addr:street" v="Memorial Avenue"/>
    <tag k="addr:state" v="VT"/>
    <tag k="ref:vcgi:esiteid" v="149878"/>
  </node>
  <node id="-926" visible="true" lat="43.177948786125" lon="-73.052848492584">
    <tag k="addr:city" v="Manchester Center"/>
    <tag k="addr:housenumber" v="5103"/>
    <tag k="addr:street" v="Main Street"/>
    <tag k="addr:state" v="VT"/>
    <tag k="ref:vcgi:esiteid" v="149882"/>
  </node>
  <node id="-930" visible="true" lat="43.17789986985" lon="-73.055602768119">
    <tag k="addr:city" v="Manchester Center"/>
    <tag k="addr:housenumber" v="4963"/>
    <tag k="addr:street" v="Main Street"/>
    <tag k="addr:state" v="VT"/>
    <tag k="ref:vcgi:esiteid" v="149887"/>
  </node>
  <node id="-931" visible="true" lat="43.177880918376" lon="-73.065346826413">
    <tag k="addr:city" v="Manchester"/>
    <tag k="addr:housenumber" v="371"/>
    <tag k="addr:street" v="Village Glen"/>
    <tag k="addr:state" v="VT"/>
    <tag k="ref:vcgi:esiteid" v="149888"/>
  </node>
  <node id="-936" visible="true" lat="43.177814285326" lon="-73.053332683244">
    <tag k="addr:city" v="Manchester Center"/>
    <tag k="addr:housenumber" v="5073"/>
    <tag k="addr:street" v="Main Street"/>
    <tag k="addr:state" v="VT"/>
    <tag k="ref:vcgi:esiteid" v="149894"/>
  </node>
  <node id="-939" visible="true" lat="43.177842541973" lon="-73.053090669788">
    <tag k="addr:city" v="Manchester Center"/>
    <tag k="addr:housenumber" v="5081"/>
    <tag k="addr:street" v="Main Street"/>
    <tag k="addr:state" v="VT"/>
    <tag k="ref:vcgi:esiteid" v="149898"/>
  </node>
  <node id="-942" visible="true" lat="43.177817608287" lon="-73.067944488114">
    <tag k="addr:city" v="Manchester"/>
    <tag k="addr:housenumber" v="214"/>
    <tag k="addr:street" v="Village Glen"/>
    <tag k="addr:state" v="VT"/>
    <tag k="ref:vcgi:esiteid" v="149901"/>
  </node>
  <node id="-944" visible="true" lat="43.177714118997" lon="-73.056771960906">
    <tag k="addr:city" v="Manchester Center"/>
    <tag k="addr:housenumber" v="58"/>
    <tag k="addr:street" v="Bonnet Street"/>
    <tag k="addr:state" v="VT"/>
    <tag k="ref:vcgi:esiteid" v="149903"/>
  </node>
  <node id="-952" visible="true" lat="43.17771086473" lon="-73.052214946736">
    <tag k="addr:city" v="Manchester Center"/>
    <tag k="addr:housenumber" v="34"/>
    <tag k="addr:street" v="Park Place"/>
    <tag k="addr:state" v="VT"/>
    <tag k="ref:vcgi:esiteid" v="149911"/>
  </node>
  <node id="-953" visible="true" lat="43.177744884007" lon="-73.051816096379">
    <tag k="addr:city" v="Manchester Center"/>
    <tag k="addr:housenumber" v="5138"/>
    <tag k="addr:street" v="Main Street"/>
    <tag k="addr:state" v="VT"/>
    <tag k="ref:vcgi:esiteid" v="149912"/>
  </node>
  <node id="-956" visible="true" lat="43.177259875262" lon="-73.049986422525">
    <tag k="addr:city" v="Manchester Center"/>
    <tag k="addr:housenumber" v="114"/>
    <tag k="addr:street" v="Cemetery Avenue"/>
    <tag k="addr:state" v="VT"/>
    <tag k="ref:vcgi:esiteid" v="149915"/>
  </node>
  <node id="-963" visible="true" lat="43.177488325472" lon="-73.052370561176">
    <tag k="addr:city" v="Manchester Center"/>
    <tag k="addr:housenumber" v="18"/>
    <tag k="addr:street" v="Park Place"/>
    <tag k="addr:state" v="VT"/>
    <tag k="ref:vcgi:esiteid" v="149925"/>
  </node>
  <node id="-968" visible="true" lat="43.177499919364" lon="-73.057354280824">
    <tag k="addr:city" v="Manchester Center"/>
    <tag k="addr:housenumber" v="39"/>
    <tag k="addr:street" v="Bonnet Street"/>
    <tag k="addr:state" v="VT"/>
    <tag k="ref:vcgi:esiteid" v="149932"/>
  </node>
  <node id="-970" visible="true" lat="43.177392496146" lon="-73.053990474779">
    <tag k="addr:city" v="Manchester Center"/>
    <tag k="addr:housenumber" v="5032"/>
    <tag k="addr:street" v="Main Street"/>
    <tag k="addr:state" v="VT"/>
    <tag k="ref:vcgi:esiteid" v="149935"/>
  </node>
  <node id="-973" visible="true" lat="43.177398213586" lon="-73.053888844276">
    <tag k="addr:city" v="Manchester Center"/>
    <tag k="addr:housenumber" v="5036"/>
    <tag k="addr:street" v="Main Street"/>
    <tag k="addr:state" v="VT"/>
    <tag k="ref:vcgi:esiteid" v="149938"/>
  </node>
  <node id="-974" visible="true" lat="43.177376922952" lon="-73.053719862972">
    <tag k="addr:city" v="Manchester Center"/>
    <tag k="addr:housenumber" v="5046"/>
    <tag k="addr:street" v="Main Street"/>
    <tag k="addr:state" v="VT"/>
    <tag k="ref:vcgi:esiteid" v="149939"/>
  </node>
  <node id="-977" visible="true" lat="43.177386790362" lon="-73.054242254186">
    <tag k="addr:city" v="Manchester Center"/>
    <tag k="addr:housenumber" v="5018"/>
    <tag k="addr:street" v="Main Street"/>
    <tag k="addr:state" v="VT"/>
    <tag k="ref:vcgi:esiteid" v="149943"/>
  </node>
  <node id="-981" visible="true" lat="43.177300781304" lon="-73.056236842939">
    <tag k="addr:city" v="Manchester Center"/>
    <tag k="addr:housenumber" v="4919"/>
    <tag k="addr:street" v="Main Street"/>
    <tag k="addr:state" v="VT"/>
    <tag k="ref:vcgi:esiteid" v="149948"/>
  </node>
  <node id="-982" visible="true" lat="43.177289547527" lon="-73.056050162213">
    <tag k="addr:city" v="Manchester Center"/>
    <tag k="addr:housenumber" v="4927"/>
    <tag k="addr:street" v="Main Street"/>
    <tag k="addr:state" v="VT"/>
    <tag k="ref:vcgi:esiteid" v="149949"/>
  </node>
  <node id="-984" visible="true" lat="43.177315788302" lon="-73.054497688521">
    <tag k="addr:city" v="Manchester Center"/>
    <tag k="addr:housenumber" v="4996"/>
    <tag k="addr:street" v="Main Street"/>
    <tag k="addr:state" v="VT"/>
    <tag k="ref:vcgi:esiteid" v="149951"/>
  </node>
  <node id="-987" visible="true" lat="43.177310613823" lon="-73.055907516856">
    <tag k="addr:city" v="Manchester Center"/>
    <tag k="addr:housenumber" v="4931"/>
    <tag k="addr:street" v="Main Street"/>
    <tag k="addr:state" v="VT"/>
    <tag k="ref:vcgi:esiteid" v="149954"/>
  </node>
  <node id="-988" visible="true" lat="43.177262392713" lon="-73.056347339641">
    <tag k="addr:city" v="Manchester Center"/>
    <tag k="addr:housenumber" v="4915"/>
    <tag k="addr:street" v="Main Street"/>
    <tag k="addr:state" v="VT"/>
    <tag k="ref:vcgi:esiteid" v="149955"/>
  </node>
  <node id="-993" visible="true" lat="43.177218814086" lon="-73.056562138746">
    <tag k="addr:city" v="Manchester Center"/>
    <tag k="addr:housenumber" v="4903"/>
    <tag k="addr:street" v="Main Street"/>
    <tag k="addr:state" v="VT"/>
    <tag k="ref:vcgi:esiteid" v="149960"/>
  </node>
  <node id="-994" visible="true" lat="43.177295503575" lon="-73.055176633513">
    <tag k="addr:city" v="Manchester Center"/>
    <tag k="addr:housenumber" v="4964"/>
    <tag k="addr:street" v="Main Street"/>
    <tag k="addr:state" v="VT"/>
    <tag k="ref:vcgi:esiteid" v="149962"/>
  </node>
  <node id="-998" visible="true" lat="43.177195076533" lon="-73.056783892428">
    <tag k="addr:city" v="Manchester Center"/>
    <tag k="addr:housenumber" v="4895"/>
    <tag k="addr:street" v="Main Street"/>
    <tag k="addr:state" v="VT"/>
    <tag k="ref:vcgi:esiteid" v="149966"/>
  </node>
  <node id="-999" visible="true" lat="43.177246841077" lon="-73.055318969967">
    <tag k="addr:city" v="Manchester Center"/>
    <tag k="addr:housenumber" v="4960"/>
    <tag k="addr:street" v="Main Street"/>
    <tag k="addr:state" v="VT"/>
    <tag k="ref:vcgi:esiteid" v="149967"/>
  </node>
  <node id="-1007" visible="true" lat="43.177098450932" lon="-73.055711137362">
    <tag k="addr:city" v="Manchester Center"/>
    <tag k="addr:housenumber" v="4940"/>
    <tag k="addr:street" v="Main Street"/>
    <tag k="addr:state" v="VT"/>
    <tag k="ref:vcgi:esiteid" v="149977"/>
  </node>
  <node id="-1008" visible="true" lat="43.177107475416" lon="-73.063714025874">
    <tag k="addr:city" v="Manchester"/>
    <tag k="addr:housenumber" v="422"/>
    <tag k="addr:street" v="Village Glen"/>
    <tag k="addr:state" v="VT"/>
    <tag k="ref:vcgi:esiteid" v="149979"/>
  </node>
  <node id="-1009" visible="true" lat="43.177043020489" lon="-73.05709638303">
    <tag k="addr:city" v="Manchester Center"/>
    <tag k="addr:housenumber" v="15"/>
    <tag k="addr:street" v="Bonnet Street"/>
    <tag k="addr:state" v="VT"/>
    <tag k="ref:vcgi:esiteid" v="149980"/>
  </node>
  <node id="-1010" visible="true" lat="43.17713078666" lon="-73.055455595926">
    <tag k="addr:city" v="Manchester Center"/>
    <tag k="addr:housenumber" v="4952"/>
    <tag k="addr:street" v="Main Street"/>
    <tag k="addr:state" v="VT"/>
    <tag k="ref:vcgi:esiteid" v="149981"/>
  </node>
  <node id="-1017" visible="true" lat="43.177056721592" lon="-73.051842619994">
    <tag k="addr:city" v="Manchester Center"/>
    <tag k="addr:housenumber" v="13"/>
    <tag k="addr:street" v="Cemetery Avenue"/>
    <tag k="addr:state" v="VT"/>
    <tag k="ref:vcgi:esiteid" v="149989"/>
  </node>
  <node id="-1018" visible="true" lat="43.17701287487" lon="-73.055860046753">
    <tag k="addr:city" v="Manchester Center"/>
    <tag k="addr:housenumber" v="4928"/>
    <tag k="addr:street" v="Main Street"/>
    <tag k="addr:state" v="VT"/>
    <tag k="ref:vcgi:esiteid" v="149990"/>
  </node>
  <node id="-1021" visible="true" lat="43.176971751802" lon="-73.057084588053">
    <tag k="addr:city" v="Manchester Center"/>
    <tag k="addr:housenumber" v="7"/>
    <tag k="addr:street" v="Bonnet Street"/>
    <tag k="addr:state" v="VT"/>
    <tag k="ref:vcgi:esiteid" v="149994"/>
  </node>
  <node id="-1023" visible="true" lat="43.176900085909" lon="-73.056229936597">
    <tag k="addr:city" v="Manchester Center"/>
    <tag k="addr:housenumber" v="4912"/>
    <tag k="addr:street" v="Main Street"/>
    <tag k="addr:state" v="VT"/>
    <tag k="ref:vcgi:esiteid" v="149997"/>
  </node>
  <node id="-1027" visible="true" lat="43.17688266825" lon="-73.05727906624">
    <tag k="addr:city" v="Manchester Center"/>
    <tag k="addr:housenumber" v="4869"/>
    <tag k="addr:street" v="Main Street"/>
    <tag k="addr:state" v="VT"/>
    <tag k="ref:vcgi:esiteid" v="150001"/>
  </node>
  <node id="-1028" visible="true" lat="43.176838843654" lon="-73.056462357984">
    <tag k="addr:city" v="Manchester Center"/>
    <tag k="addr:housenumber" v="4900"/>
    <tag k="addr:street" v="Main Street"/>
    <tag k="addr:state" v="VT"/>
    <tag k="ref:vcgi:esiteid" v="150002"/>
  </node>
  <node id="-1031" visible="true" lat="43.176770386167" lon="-73.056634293326">
    <tag k="addr:city" v="Manchester Center"/>
    <tag k="addr:housenumber" v="4886"/>
    <tag k="addr:street" v="Main Street"/>
    <tag k="addr:state" v="VT"/>
    <tag k="ref:vcgi:esiteid" v="150009"/>
  </node>
  <node id="-1034" visible="true" lat="43.176754996095" lon="-73.058433846999">
    <tag k="addr:city" v="Manchester Center"/>
    <tag k="addr:housenumber" v="4847"/>
    <tag k="addr:street" v="Main Street"/>
    <tag k="addr:state" v="VT"/>
    <tag k="ref:vcgi:esiteid" v="150012"/>
  </node>
  <node id="-1046" visible="true" lat="43.176550851831" lon="-73.056662462378">
    <tag k="addr:city" v="Manchester Center"/>
    <tag k="addr:housenumber" v="4858"/>
    <tag k="addr:street" v="Main Street"/>
    <tag k="addr:state" v="VT"/>
    <tag k="ref:vcgi:esiteid" v="150025"/>
  </node>
  <node id="-1049" visible="true" lat="43.176500095882" lon="-73.057095406516">
    <tag k="addr:city" v="Manchester Center"/>
    <tag k="addr:housenumber" v="4854"/>
    <tag k="addr:street" v="Main Street"/>
    <tag k="addr:state" v="VT"/>
    <tag k="ref:vcgi:esiteid" v="150028"/>
  </node>
  <node id="-1056" visible="true" lat="43.176316437347" lon="-73.054314957385">
    <tag k="addr:city" v="Manchester Center"/>
    <tag k="addr:housenumber" v="159"/>
    <tag k="addr:street" v="Depot Street"/>
    <tag k="addr:state" v="VT"/>
    <tag k="ref:vcgi:esiteid" v="150036"/>
  </node>
  <node id="-1059" visible="true" lat="43.176221069749" lon="-73.058114396471">
    <tag k="addr:city" v="Manchester Center"/>
    <tag k="addr:housenumber" v="4803"/>
    <tag k="addr:street" v="Main Street"/>
    <tag k="addr:state" v="VT"/>
    <tag k="ref:vcgi:esiteid" v="150039"/>
  </node>
  <node id="-1061" visible="true" lat="43.176141717092" lon="-73.05728671718">
    <tag k="addr:city" v="Manchester Center"/>
    <tag k="addr:housenumber" v="4826"/>
    <tag k="addr:street" v="Main Street"/>
    <tag k="addr:state" v="VT"/>
    <tag k="ref:vcgi:esiteid" v="150041"/>
  </node>
  <node id="-1065" visible="true" lat="43.176237237981" lon="-73.053286505415">
    <tag k="addr:city" v="Manchester Center"/>
    <tag k="addr:housenumber" v="265"/>
    <tag k="addr:street" v="Depot Street"/>
    <tag k="addr:state" v="VT"/>
    <tag k="ref:vcgi:esiteid" v="150045"/>
  </node>
  <node id="-1068" visible="true" lat="43.176076424373" lon="-73.057161839667">
    <tag k="addr:city" v="Manchester Center"/>
    <tag k="addr:housenumber" v="18"/>
    <tag k="addr:street" v="Depot Street"/>
    <tag k="addr:state" v="VT"/>
    <tag k="ref:vcgi:esiteid" v="150050"/>
  </node>
  <node id="-1073" visible="true" lat="43.176019551127" lon="-73.05828729301">
    <tag k="addr:city" v="Manchester Center"/>
    <tag k="addr:housenumber" v="4783"/>
    <tag k="addr:street" v="Main Street"/>
    <tag k="addr:state" v="VT"/>
    <tag k="ref:vcgi:esiteid" v="150056"/>
  </node>
  <node id="-1075" visible="true" lat="43.175959782431" lon="-73.055852826472">
    <tag k="addr:city" v="Manchester Center"/>
    <tag k="addr:housenumber" v="65"/>
    <tag k="addr:street" v="Depot Street"/>
    <tag k="addr:state" v="VT"/>
    <tag k="ref:vcgi:esiteid" v="150059"/>
  </node>
  <node id="-1076" visible="true" lat="43.175935431568" lon="-73.056947283779">
    <tag k="addr:city" v="Manchester Center"/>
    <tag k="addr:housenumber" v="32"/>
    <tag k="addr:street" v="Depot Street"/>
    <tag k="addr:state" v="VT"/>
    <tag k="ref:vcgi:esiteid" v="150060"/>
  </node>
  <node id="-1079" visible="true" lat="43.175925915341" lon="-73.057551214654">
    <tag k="addr:city" v="Manchester Center"/>
    <tag k="addr:housenumber" v="4802"/>
    <tag k="addr:street" v="Main Street"/>
    <tag k="addr:state" v="VT"/>
    <tag k="ref:vcgi:esiteid" v="150064"/>
  </node>
  <node id="-1095" visible="true" lat="43.175774981779" lon="-73.055628726129">
    <tag k="addr:city" v="Manchester Center"/>
    <tag k="addr:housenumber" v="97"/>
    <tag k="addr:street" v="Depot Street"/>
    <tag k="addr:state" v="VT"/>
    <tag k="ref:vcgi:esiteid" v="150083"/>
  </node>
  <node id="-1096" visible="true" lat="43.175732788252" lon="-73.057847367169">
    <tag k="addr:city" v="Manchester Center"/>
    <tag k="addr:housenumber" v="4788"/>
    <tag k="addr:street" v="Main Street"/>
    <tag k="addr:state" v="VT"/>
    <tag k="ref:vcgi:esiteid" v="150084"/>
  </node>
  <node id="-1103" visible="true" lat="43.175667938182" lon="-73.056268082796">
    <tag k="addr:city" v="Manchester Center"/>
    <tag k="addr:housenumber" v="72"/>
    <tag k="addr:street" v="Depot Street"/>
    <tag k="addr:state" v="VT"/>
    <tag k="ref:vcgi:esiteid" v="150093"/>
  </node>
  <node id="-1119" visible="true" lat="43.175488526837" lon="-73.054193366231">
    <tag k="addr:city" v="Manchester Center"/>
    <tag k="addr:housenumber" v="175"/>
    <tag k="addr:street" v="Depot Street"/>
    <tag k="addr:state" v="VT"/>
    <tag k="ref:vcgi:esiteid" v="150110"/>
  </node>
  <node id="-1137" visible="true" lat="43.175301726803" lon="-73.053620680477">
    <tag k="addr:city" v="Manchester Center"/>
    <tag k="addr:housenumber" v="203"/>
    <tag k="addr:street" v="Depot Street"/>
    <tag k="addr:state" v="VT"/>
    <tag k="ref:vcgi:esiteid" v="150130"/>
  </node>
  <node id="-1138" visible="true" lat="43.175421316072" lon="-73.055623187634">
    <tag k="addr:city" v="Manchester Center"/>
    <tag k="addr:housenumber" v="96"/>
    <tag k="addr:street" v="Depot Street"/>
    <tag k="addr:state" v="VT"/>
    <tag k="ref:vcgi:esiteid" v="150131"/>
  </node>
  <node id="-1142" visible="true" lat="43.175240692538" lon="-73.058366166457">
    <tag k="addr:city" v="Manchester Center"/>
    <tag k="addr:housenumber" v="4746"/>
    <tag k="addr:street" v="Main Street"/>
    <tag k="addr:state" v="VT"/>
    <tag k="ref:vcgi:esiteid" v="150135"/>
  </node>
  <node id="-1152" visible="true" lat="43.17503437094" lon="-73.058396383703">
    <tag k="addr:city" v="Manchester Center"/>
    <tag k="addr:housenumber" v="4732"/>
    <tag k="addr:street" v="Main Street"/>
    <tag k="addr:state" v="VT"/>
    <tag k="ref:vcgi:esiteid" v="150146"/>
  </node>
  <node id="-1155" visible="true" lat="43.17501965924" lon="-73.058863465783">
    <tag k="addr:city" v="Manchester Center"/>
    <tag k="addr:housenumber" v="4716"/>
    <tag k="addr:street" v="Main Street"/>
    <tag k="addr:state" v="VT"/>
    <tag k="ref:vcgi:esiteid" v="150151"/>
  </node>
  <node id="-1156" visible="true" lat="43.175080473886" lon="-73.049912794915">
    <tag k="addr:city" v="Manchester Center"/>
    <tag k="addr:housenumber" v="38"/>
    <tag k="addr:street" v="Spruce Street"/>
    <tag k="addr:state" v="VT"/>
    <tag k="ref:vcgi:esiteid" v="150153"/>
  </node>
  <node id="-1157" visible="true" lat="43.175061401883" lon="-73.052964552491">
    <tag k="addr:city" v="Manchester Center"/>
    <tag k="addr:housenumber" v="241"/>
    <tag k="addr:street" v="Depot Street"/>
    <tag k="addr:state" v="VT"/>
    <tag k="ref:vcgi:esiteid" v="150154"/>
  </node>
  <node id="-1162" visible="true" lat="43.174946532331" lon="-73.054105509767">
    <tag k="addr:city" v="Manchester Center"/>
    <tag k="addr:housenumber" v="188"/>
    <tag k="addr:street" v="Depot Street"/>
    <tag k="addr:state" v="VT"/>
    <tag k="ref:vcgi:esiteid" v="150159"/>
  </node>
  <node id="-1167" visible="true" lat="43.17492886923" lon="-73.052292702587">
    <tag k="addr:city" v="Manchester Center"/>
    <tag k="addr:housenumber" v="271"/>
    <tag k="addr:street" v="Depot Street"/>
    <tag k="addr:state" v="VT"/>
    <tag k="ref:vcgi:esiteid" v="150164"/>
  </node>
  <node id="-1174" visible="true" lat="43.174776928872" lon="-73.053722265287">
    <tag k="addr:city" v="Manchester Center"/>
    <tag k="addr:housenumber" v="210"/>
    <tag k="addr:street" v="Depot Street"/>
    <tag k="addr:state" v="VT"/>
    <tag k="ref:vcgi:esiteid" v="150172"/>
  </node>
  <node id="-1182" visible="true" lat="43.174763856156" lon="-73.053307875637">
    <tag k="addr:city" v="Manchester Center"/>
    <tag k="addr:housenumber" v="13"/>
    <tag k="addr:street" v="Riverside Heights"/>
    <tag k="addr:state" v="VT"/>
    <tag k="ref:vcgi:esiteid" v="150180"/>
  </node>
  <node id="-1188" visible="true" lat="43.174676243221" lon="-73.059895843512">
    <tag k="addr:city" v="Manchester Center"/>
    <tag k="addr:housenumber" v="4659"/>
    <tag k="addr:street" v="Main Street"/>
    <tag k="addr:state" v="VT"/>
    <tag k="ref:vcgi:esiteid" v="150186"/>
  </node>
  <node id="-1192" visible="true" lat="43.174657043958" lon="-73.052903517765">
    <tag k="addr:city" v="Manchester Center"/>
    <tag k="addr:housenumber" v="256"/>
    <tag k="addr:street" v="Depot Street"/>
    <tag k="addr:state" v="VT"/>
    <tag k="ref:vcgi:esiteid" v="150190"/>
  </node>
  <node id="-1199" visible="true" lat="43.174568143614" lon="-73.060209840774">
    <tag k="addr:city" v="Manchester Center"/>
    <tag k="addr:housenumber" v="4645"/>
    <tag k="addr:street" v="Main Street"/>
    <tag k="addr:state" v="VT"/>
    <tag k="ref:vcgi:esiteid" v="150197"/>
  </node>
  <node id="-1205" visible="true" lat="43.174443420225" lon="-73.052499160155">
    <tag k="addr:city" v="Manchester Center"/>
    <tag k="addr:housenumber" v="280"/>
    <tag k="addr:street" v="Depot Street"/>
    <tag k="addr:state" v="VT"/>
    <tag k="ref:vcgi:esiteid" v="150206"/>
  </node>
  <node id="-1208" visible="true" lat="43.174359836792" lon="-73.053817293497">
    <tag k="addr:city" v="Manchester Center"/>
    <tag k="addr:housenumber" v="34"/>
    <tag k="addr:street" v="Riverside Heights"/>
    <tag k="addr:state" v="VT"/>
    <tag k="ref:vcgi:esiteid" v="150209"/>
  </node>
  <node id="-1219" visible="true" lat="43.174321349819" lon="-73.051026685648">
    <tag k="addr:city" v="Manchester Center"/>
    <tag k="addr:housenumber" v="351"/>
    <tag k="addr:street" v="Depot Street"/>
    <tag k="addr:state" v="VT"/>
    <tag k="ref:vcgi:esiteid" v="150221"/>
  </node>
  <node id="-1221" visible="true" lat="43.174322704882" lon="-73.051969278694">
    <tag k="addr:city" v="Manchester Center"/>
    <tag k="addr:housenumber" v="306"/>
    <tag k="addr:street" v="Depot Street"/>
    <tag k="addr:state" v="VT"/>
    <tag k="ref:vcgi:esiteid" v="150223"/>
  </node>
  <node id="-1226" visible="true" lat="43.174254455253" lon="-73.053634461281">
    <tag k="addr:city" v="Manchester Center"/>
    <tag k="addr:housenumber" v="40"/>
    <tag k="addr:street" v="Riverside Heights"/>
    <tag k="addr:state" v="VT"/>
    <tag k="ref:vcgi:esiteid" v="150228"/>
  </node>
  <node id="-1266" visible="true" lat="43.173855957685" lon="-73.051041945856">
    <tag k="addr:city" v="Manchester Center"/>
    <tag k="addr:housenumber" v="366"/>
    <tag k="addr:street" v="Depot Street"/>
    <tag k="addr:state" v="VT"/>
    <tag k="ref:vcgi:esiteid" v="150274"/>
  </node>
  <node id="-1272" visible="true" lat="43.173791108237" lon="-73.050881726787">
    <tag k="addr:city" v="Manchester Center"/>
    <tag k="addr:housenumber" v="374"/>
    <tag k="addr:street" v="Depot Street"/>
    <tag k="addr:state" v="VT"/>
    <tag k="ref:vcgi:esiteid" v="150281"/>
  </node>
  <node id="-1278" visible="true" lat="43.173734467405" lon="-73.05158844539">
    <tag k="addr:city" v="Manchester Center"/>
    <tag k="addr:housenumber" v="348"/>
    <tag k="addr:street" v="Depot Street"/>
    <tag k="addr:state" v="VT"/>
    <tag k="ref:vcgi:esiteid" v="150287"/>
  </node>
  <node id="-1281" visible="true" lat="43.173764404437" lon="-73.0507672854">
    <tag k="addr:city" v="Manchester Center"/>
    <tag k="addr:housenumber" v="380"/>
    <tag k="addr:street" v="Depot Street"/>
    <tag k="addr:state" v="VT"/>
    <tag k="ref:vcgi:esiteid" v="150290"/>
  </node>
  <node id="-1301" visible="true" lat="43.173599964876" lon="-73.049004340505">
    <tag k="addr:city" v="Manchester Center"/>
    <tag k="addr:housenumber" v="467"/>
    <tag k="addr:street" v="Depot Street"/>
    <tag k="addr:state" v="VT"/>
    <tag k="ref:vcgi:esiteid" v="150316"/>
  </node>
  <node id="-1316" visible="true" lat="43.173459227644" lon="-73.050011977447">
    <tag k="addr:city" v="Manchester Center"/>
    <tag k="addr:housenumber" v="424"/>
    <tag k="addr:street" v="Depot Street"/>
    <tag k="addr:state" v="VT"/>
    <tag k="ref:vcgi:esiteid" v="150333"/>
  </node>
  <node id="-1336" visible="true" lat="43.173287567435" lon="-73.049599987972">
    <tag k="addr:city" v="Manchester Center"/>
    <tag k="addr:housenumber" v="448"/>
    <tag k="addr:street" v="Depot Street"/>
    <tag k="addr:state" v="VT"/>
    <tag k="ref:vcgi:esiteid" v="150356"/>
  </node>
  <node id="-1349" visible="true" lat="43.173213539378" lon="-73.049300762602">
    <tag k="addr:city" v="Manchester Center"/>
    <tag k="addr:housenumber" v="460"/>
    <tag k="addr:street" v="Depot Street"/>
    <tag k="addr:state" v="VT"/>
    <tag k="ref:vcgi:esiteid" v="150370"/>
  </node>
  <node id="-1350" visible="true" lat="43.173218534017" lon="-73.051079449838">
    <tag k="addr:city" v="Manchester Center"/>
    <tag k="addr:housenumber" v="390"/>
    <tag k="addr:street" v="Depot Street"/>
    <tag k="addr:state" v="VT"/>
    <tag k="ref:vcgi:esiteid" v="150372"/>
  </node>
  <node id="-1353" visible="true" lat="43.173133283169" lon="-73.049227561753">
    <tag k="addr:city" v="Manchester Center"/>
    <tag k="addr:housenumber" v="468"/>
    <tag k="addr:street" v="Depot Street"/>
    <tag k="addr:state" v="VT"/>
    <tag k="ref:vcgi:esiteid" v="150376"/>
  </node>
  <node id="-1362" visible="true" lat="43.173114055357" lon="-73.046178141555">
    <tag k="addr:city" v="Manchester Center"/>
    <tag k="addr:housenumber" v="609"/>
    <tag k="addr:street" v="Depot Street"/>
    <tag k="addr:state" v="VT"/>
    <tag k="ref:vcgi:esiteid" v="150386"/>
  </node>
  <node id="-1413" visible="true" lat="43.172511714095" lon="-73.063890381967">
    <tag k="addr:city" v="Manchester Center"/>
    <tag k="addr:housenumber" v="34"/>
    <tag k="addr:street" v="Ways Lane"/>
    <tag k="addr:state" v="VT"/>
    <tag k="ref:vcgi:esiteid" v="150441"/>
  </node>
  <node id="-1455" visible="true" lat="43.172047790189" lon="-73.061448442385">
    <tag k="addr:city" v="Manchester Center"/>
    <tag k="addr:housenumber" v="64"/>
    <tag k="addr:street" v="Equinox Terrace"/>
    <tag k="addr:state" v="VT"/>
    <tag k="ref:vcgi:esiteid" v="150491"/>
  </node>
  <node id="-1481" visible="true" lat="43.171698070807" lon="-73.06463127316">
    <tag k="addr:city" v="Manchester"/>
    <tag k="addr:housenumber" v="4351"/>
    <tag k="addr:street" v="Main Street"/>
    <tag k="addr:state" v="VT"/>
    <tag k="ref:vcgi:esiteid" v="150522"/>
  </node>
  <node id="-1490" visible="true" lat="43.171678735839" lon="-73.064165729505">
    <tag k="addr:city" v="Manchester"/>
    <tag k="addr:housenumber" v="4361"/>
    <tag k="addr:street" v="Main Street"/>
    <tag k="addr:state" v="VT"/>
    <tag k="ref:vcgi:esiteid" v="150531"/>
  </node>
  <node id="-1508" visible="true" lat="43.171291204885" lon="-73.06471960063">
    <tag k="addr:city" v="Manchester"/>
    <tag k="addr:housenumber" v="4331"/>
    <tag k="addr:street" v="Main Street"/>
    <tag k="addr:state" v="VT"/>
    <tag k="ref:vcgi:esiteid" v="150551"/>
  </node>
  <node id="-1509" visible="true" lat="43.171336787886" lon="-73.062845154981">
    <tag k="addr:city" v="Manchester"/>
    <tag k="addr:housenumber" v="4382"/>
    <tag k="addr:street" v="Main Street"/>
    <tag k="addr:state" v="VT"/>
    <tag k="ref:vcgi:esiteid" v="150552"/>
  </node>
  <node id="-1517" visible="true" lat="43.171049937546" lon="-73.06839871865">
    <tag k="addr:city" v="Manchester"/>
    <tag k="addr:housenumber" v="4263"/>
    <tag k="addr:street" v="Main Street"/>
    <tag k="addr:state" v="VT"/>
    <tag k="ref:vcgi:esiteid" v="150561"/>
  </node>
  <node id="-1520" visible="true" lat="43.171094114849" lon="-73.064866411558">
    <tag k="addr:city" v="Manchester"/>
    <tag k="addr:housenumber" v="4313"/>
    <tag k="addr:street" v="Main Street"/>
    <tag k="addr:state" v="VT"/>
    <tag k="ref:vcgi:esiteid" v="150564"/>
  </node>
  <node id="-1537" visible="true" lat="43.170605060762" lon="-73.063027270411">
    <tag k="addr:city" v="Manchester"/>
    <tag k="addr:housenumber" v="74"/>
    <tag k="addr:street" v="Long View Drive"/>
    <tag k="addr:state" v="VT"/>
    <tag k="ref:vcgi:esiteid" v="150582"/>
  </node>
  <node id="-1540" visible="true" lat="43.170563872908" lon="-73.068856587098">
    <tag k="addr:city" v="Manchester"/>
    <tag k="addr:housenumber" v="4265"/>
    <tag k="addr:street" v="Main Street"/>
    <tag k="addr:state" v="VT"/>
    <tag k="ref:vcgi:esiteid" v="150585"/>
  </node>
  <node id="-1562" visible="true" lat="43.169957334431" lon="-73.065934526446">
    <tag k="addr:city" v="Manchester"/>
    <tag k="addr:housenumber" v="4217"/>
    <tag k="addr:street" v="Main Street"/>
    <tag k="addr:state" v="VT"/>
    <tag k="ref:vcgi:esiteid" v="150610"/>
  </node>
  <node id="-1571" visible="true" lat="43.169829229824" lon="-73.066103104165">
    <tag k="addr:city" v="Manchester"/>
    <tag k="addr:housenumber" v="4201"/>
    <tag k="addr:street" v="Main Street"/>
    <tag k="addr:state" v="VT"/>
    <tag k="ref:vcgi:esiteid" v="150619"/>
  </node>
  <node id="-1573" visible="true" lat="43.169719221842" lon="-73.066568368545">
    <tag k="addr:city" v="Manchester"/>
    <tag k="addr:housenumber" v="4189"/>
    <tag k="addr:street" v="Main Street"/>
    <tag k="addr:state" v="VT"/>
    <tag k="ref:vcgi:esiteid" v="150622"/>
  </node>
  <node id="-1586" visible="true" lat="43.169582978218" lon="-73.066331526531">
    <tag k="addr:city" v="Manchester"/>
    <tag k="addr:housenumber" v="4181"/>
    <tag k="addr:street" v="Main Street"/>
    <tag k="addr:state" v="VT"/>
    <tag k="ref:vcgi:esiteid" v="150636"/>
  </node>
  <node id="-1593" visible="true" lat="43.169277966015" lon="-73.06662811896">
    <tag k="addr:city" v="Manchester"/>
    <tag k="addr:housenumber" v="4169"/>
    <tag k="addr:street" v="Main Street"/>
    <tag k="addr:state" v="VT"/>
    <tag k="ref:vcgi:esiteid" v="150644"/>
  </node>
  <node id="-1624" visible="true" lat="43.169017940973" lon="-73.065760674705">
    <tag k="addr:city" v="Manchester"/>
    <tag k="addr:housenumber" v="4180"/>
    <tag k="addr:street" v="Main Street"/>
    <tag k="addr:state" v="VT"/>
    <tag k="ref:vcgi:esiteid" v="150678"/>
  </node>
  <node id="-1638" visible="true" lat="43.168689511725" lon="-73.058331113688">
    <tag k="addr:city" v="Manchester"/>
    <tag k="addr:housenumber" v="774"/>
    <tag k="addr:street" v="Long View Drive"/>
    <tag k="addr:state" v="VT"/>
    <tag k="ref:vcgi:esiteid" v="150693"/>
  </node>
  <node id="-1664" visible="true" lat="43.168097534213" lon="-73.059521599501">
    <tag k="addr:city" v="Manchester"/>
    <tag k="addr:housenumber" v="310"/>
    <tag k="addr:street" v="Long View Drive"/>
    <tag k="addr:state" v="VT"/>
    <tag k="ref:vcgi:esiteid" v="150723"/>
  </node>
  <node id="-1692" visible="true" lat="43.16773323397" lon="-73.055416582224">
    <tag k="addr:city" v="Manchester"/>
    <tag k="addr:housenumber" v="622"/>
    <tag k="addr:street" v="Long View Drive"/>
    <tag k="addr:state" v="VT"/>
    <tag k="ref:vcgi:esiteid" v="150754"/>
  </node>
  <node id="-1697" visible="true" lat="43.16748412943" lon="-73.067652092557">
    <tag k="addr:city" v="Manchester"/>
    <tag k="addr:housenumber" v="4026"/>
    <tag k="addr:street" v="Main Street"/>
    <tag k="addr:state" v="VT"/>
    <tag k="ref:vcgi:esiteid" v="150759"/>
  </node>
  <node id="-1703" visible="true" lat="43.167476212275" lon="-73.057287423358">
    <tag k="addr:city" v="Manchester"/>
    <tag k="addr:housenumber" v="693"/>
    <tag k="addr:street" v="Long View Drive"/>
    <tag k="addr:state" v="VT"/>
    <tag k="ref:vcgi:esiteid" v="150767"/>
  </node>
  <node id="-1718" visible="true" lat="43.16719549375" lon="-73.06794868851">
    <tag k="addr:city" v="Manchester"/>
    <tag k="addr:housenumber" v="4002"/>
    <tag k="addr:street" v="Main Street"/>
    <tag k="addr:state" v="VT"/>
    <tag k="ref:vcgi:esiteid" v="150782"/>
  </node>
  <node id="-1722" visible="true" lat="43.16730730853" lon="-73.068971995126">
    <tag k="addr:city" v="Manchester"/>
    <tag k="addr:housenumber" v="3967"/>
    <tag k="addr:street" v="Main Street"/>
    <tag k="addr:state" v="VT"/>
    <tag k="ref:vcgi:esiteid" v="150786"/>
  </node>
  <node id="-1736" visible="true" lat="43.166958981864" lon="-73.059365616937">
    <tag k="addr:city" v="Manchester"/>
    <tag k="addr:housenumber" v="434"/>
    <tag k="addr:street" v="Long View Drive"/>
    <tag k="addr:state" v="VT"/>
    <tag k="ref:vcgi:esiteid" v="150801"/>
  </node>
  <node id="-1743" visible="true" lat="43.166825684554" lon="-73.05602888746">
    <tag k="addr:city" v="Manchester"/>
    <tag k="addr:housenumber" v="600"/>
    <tag k="addr:street" v="Long View Drive"/>
    <tag k="addr:state" v="VT"/>
    <tag k="ref:vcgi:esiteid" v="150809"/>
  </node>
  <node id="-1750" visible="true" lat="43.166758932925" lon="-73.068359211666">
    <tag k="addr:city" v="Manchester"/>
    <tag k="addr:housenumber" v="3962"/>
    <tag k="addr:street" v="Main Street"/>
    <tag k="addr:state" v="VT"/>
    <tag k="ref:vcgi:esiteid" v="150816"/>
  </node>
  <node id="-1753" visible="true" lat="43.166806684805" lon="-73.058305645417">
    <tag k="addr:city" v="Manchester"/>
    <tag k="addr:housenumber" v="503"/>
    <tag k="addr:street" v="Long View Drive"/>
    <tag k="addr:state" v="VT"/>
    <tag k="ref:vcgi:esiteid" v="150819"/>
  </node>
  <node id="-1755" visible="true" lat="43.166768475391" lon="-73.057227828528">
    <tag k="addr:city" v="Manchester"/>
    <tag k="addr:housenumber" v="577"/>
    <tag k="addr:street" v="Long View Drive"/>
    <tag k="addr:state" v="VT"/>
    <tag k="ref:vcgi:esiteid" v="150821"/>
  </node>
  <node id="-1758" visible="true" lat="43.166486850509" lon="-73.068656625806">
    <tag k="addr:city" v="Manchester"/>
    <tag k="addr:housenumber" v="3952"/>
    <tag k="addr:street" v="Main Street"/>
    <tag k="addr:state" v="VT"/>
    <tag k="ref:vcgi:esiteid" v="150824"/>
  </node>
  <node id="-1763" visible="true" lat="43.166639093213" lon="-73.070666631249">
    <tag k="addr:city" v="Manchester"/>
    <tag k="addr:housenumber" v="107"/>
    <tag k="addr:street" v="Shepards Lane"/>
    <tag k="addr:state" v="VT"/>
    <tag k="ref:vcgi:esiteid" v="150829"/>
  </node>
  <node id="-1773" visible="true" lat="43.166419801149" lon="-73.069662102105">
    <tag k="addr:city" v="Manchester"/>
    <tag k="addr:housenumber" v="21"/>
    <tag k="addr:street" v="Shepards Lane"/>
    <tag k="addr:state" v="VT"/>
    <tag k="ref:vcgi:esiteid" v="150844"/>
  </node>
  <node id="-1791" visible="true" lat="43.166188412374" lon="-73.069093098533">
    <tag k="addr:city" v="Manchester"/>
    <tag k="addr:housenumber" v="3912"/>
    <tag k="addr:street" v="Main Street"/>
    <tag k="addr:state" v="VT"/>
    <tag k="ref:vcgi:esiteid" v="150863"/>
  </node>
  <node id="-1798" visible="true" lat="43.1660919064" lon="-73.071697215304">
    <tag k="addr:city" v="Manchester"/>
    <tag k="addr:housenumber" v="176"/>
    <tag k="addr:street" v="West Road"/>
    <tag k="addr:state" v="VT"/>
    <tag k="ref:vcgi:esiteid" v="150870"/>
  </node>
  <node id="-1805" visible="true" lat="43.166060074126" lon="-73.0562750865">
    <tag k="addr:city" v="Manchester"/>
    <tag k="addr:housenumber" v="556"/>
    <tag k="addr:street" v="Long View Drive"/>
    <tag k="addr:state" v="VT"/>
    <tag k="ref:vcgi:esiteid" v="150878"/>
  </node>
  <node id="-1806" visible="true" lat="43.165899715952" lon="-73.069395349988">
    <tag k="addr:city" v="Manchester"/>
    <tag k="addr:housenumber" v="3888"/>
    <tag k="addr:street" v="Main Street"/>
    <tag k="addr:state" v="VT"/>
    <tag k="ref:vcgi:esiteid" v="150880"/>
  </node>
  <node id="-1807" visible="true" lat="43.166062264805" lon="-73.057588087773">
    <tag k="addr:city" v="Manchester"/>
    <tag k="addr:housenumber" v="536"/>
    <tag k="addr:street" v="Long View Drive"/>
    <tag k="addr:state" v="VT"/>
    <tag k="ref:vcgi:esiteid" v="150881"/>
  </node>
  <node id="-1808" visible="true" lat="43.166034689583" lon="-73.058553060055">
    <tag k="addr:city" v="Manchester"/>
    <tag k="addr:housenumber" v="448"/>
    <tag k="addr:street" v="Long View Drive"/>
    <tag k="addr:state" v="VT"/>
    <tag k="ref:vcgi:esiteid" v="150882"/>
  </node>
  <node id="-1811" visible="true" lat="43.165925378004" lon="-73.071719967948">
    <tag k="addr:city" v="Manchester"/>
    <tag k="addr:housenumber" v="164"/>
    <tag k="addr:street" v="West Road"/>
    <tag k="addr:state" v="VT"/>
    <tag k="ref:vcgi:esiteid" v="150886"/>
  </node>
  <node id="-1823" visible="true" lat="43.165667391193" lon="-73.069557029811">
    <tag k="addr:city" v="Manchester"/>
    <tag k="addr:housenumber" v="3868"/>
    <tag k="addr:street" v="Main Street"/>
    <tag k="addr:state" v="VT"/>
    <tag k="ref:vcgi:esiteid" v="150898"/>
  </node>
  <node id="-1824" visible="true" lat="43.165725226439" lon="-73.071716917098">
    <tag k="addr:city" v="Manchester"/>
    <tag k="addr:housenumber" v="150"/>
    <tag k="addr:street" v="West Road"/>
    <tag k="addr:state" v="VT"/>
    <tag k="ref:vcgi:esiteid" v="150899"/>
  </node>
  <node id="-1840" visible="true" lat="43.165459983966" lon="-73.058993350996">
    <tag k="addr:city" v="Manchester"/>
    <tag k="addr:housenumber" v="30"/>
    <tag k="addr:street" v="Falcons Bluff"/>
    <tag k="addr:state" v="VT"/>
    <tag k="ref:vcgi:esiteid" v="150915"/>
  </node>
  <node id="-1841" visible="true" lat="43.165419826416" lon="-73.058896055711">
    <tag k="addr:city" v="Manchester"/>
    <tag k="addr:housenumber" v="36"/>
    <tag k="addr:street" v="Falcons Bluff"/>
    <tag k="addr:state" v="VT"/>
    <tag k="ref:vcgi:esiteid" v="150916"/>
  </node>
  <node id="-1849" visible="true" lat="43.165297266667" lon="-73.058617453474">
    <tag k="addr:city" v="Manchester"/>
    <tag k="addr:housenumber" v="50"/>
    <tag k="addr:street" v="Falcons Bluff"/>
    <tag k="addr:state" v="VT"/>
    <tag k="ref:vcgi:esiteid" v="150924"/>
  </node>
  <node id="-1851" visible="true" lat="43.165330676981" lon="-73.057402043368">
    <tag k="addr:city" v="Manchester"/>
    <tag k="addr:housenumber" v="106"/>
    <tag k="addr:street" v="Falcons Bluff"/>
    <tag k="addr:state" v="VT"/>
    <tag k="ref:vcgi:esiteid" v="150927"/>
  </node>
  <node id="-1852" visible="true" lat="43.165272986637" lon="-73.058507792189">
    <tag k="addr:city" v="Manchester"/>
    <tag k="addr:housenumber" v="58"/>
    <tag k="addr:street" v="Falcons Bluff"/>
    <tag k="addr:state" v="VT"/>
    <tag k="ref:vcgi:esiteid" v="150928"/>
  </node>
  <node id="-1853" visible="true" lat="43.165286460025" lon="-73.057540903314">
    <tag k="addr:city" v="Manchester"/>
    <tag k="addr:housenumber" v="102"/>
    <tag k="addr:street" v="Falcons Bluff"/>
    <tag k="addr:state" v="VT"/>
    <tag k="ref:vcgi:esiteid" v="150929"/>
  </node>
  <node id="-1859" visible="true" lat="43.165238160893" lon="-73.058072757317">
    <tag k="addr:city" v="Manchester"/>
    <tag k="addr:housenumber" v="78"/>
    <tag k="addr:street" v="Falcons Bluff"/>
    <tag k="addr:state" v="VT"/>
    <tag k="ref:vcgi:esiteid" v="150935"/>
  </node>
  <node id="-1860" visible="true" lat="43.165236182619" lon="-73.057919142619">
    <tag k="addr:city" v="Manchester"/>
    <tag k="addr:housenumber" v="82"/>
    <tag k="addr:street" v="Falcons Bluff"/>
    <tag k="addr:state" v="VT"/>
    <tag k="ref:vcgi:esiteid" v="150937"/>
  </node>
  <node id="-1861" visible="true" lat="43.165254159828" lon="-73.058361753947">
    <tag k="addr:city" v="Manchester"/>
    <tag k="addr:housenumber" v="64"/>
    <tag k="addr:street" v="Falcons Bluff"/>
    <tag k="addr:state" v="VT"/>
    <tag k="ref:vcgi:esiteid" v="150938"/>
  </node>
  <node id="-1865" visible="true" lat="43.165237110133" lon="-73.057654298097">
    <tag k="addr:city" v="Manchester"/>
    <tag k="addr:housenumber" v="94"/>
    <tag k="addr:street" v="Falcons Bluff"/>
    <tag k="addr:state" v="VT"/>
    <tag k="ref:vcgi:esiteid" v="150942"/>
  </node>
  <node id="-1886" visible="true" lat="43.164864700716" lon="-73.071745397209">
    <tag k="addr:city" v="Manchester"/>
    <tag k="addr:housenumber" v="90"/>
    <tag k="addr:street" v="West Road"/>
    <tag k="addr:state" v="VT"/>
    <tag k="ref:vcgi:esiteid" v="150965"/>
  </node>
  <node id="-1898" visible="true" lat="43.164730880669" lon="-73.071191372252">
    <tag k="addr:city" v="Manchester"/>
    <tag k="addr:housenumber" v="3765"/>
    <tag k="addr:street" v="Main Street"/>
    <tag k="addr:state" v="VT"/>
    <tag k="ref:vcgi:esiteid" v="150979"/>
  </node>
  <node id="-1909" visible="true" lat="43.164603690133" lon="-73.071413089699">
    <tag k="addr:city" v="Manchester"/>
    <tag k="addr:housenumber" v="3749"/>
    <tag k="addr:street" v="Main Street"/>
    <tag k="addr:state" v="VT"/>
    <tag k="ref:vcgi:esiteid" v="150991"/>
  </node>
  <node id="-1923" visible="true" lat="43.164114415434" lon="-73.071825065292">
    <tag k="addr:city" v="Manchester"/>
    <tag k="addr:housenumber" v="48"/>
    <tag k="addr:street" v="West Road"/>
    <tag k="addr:state" v="VT"/>
    <tag k="ref:vcgi:esiteid" v="151005"/>
  </node>
  <node id="-1951" visible="true" lat="43.163745732196" lon="-73.077433196138">
    <tag k="addr:city" v="Manchester"/>
    <tag k="addr:housenumber" v="57"/>
    <tag k="addr:street" v="Seminary Avenue"/>
    <tag k="addr:state" v="VT"/>
    <tag k="ref:vcgi:esiteid" v="151036"/>
  </node>
  <node id="-2004" visible="true" lat="43.162809909175" lon="-73.071512132299">
    <tag k="addr:city" v="Manchester"/>
    <tag k="addr:housenumber" v="3624"/>
    <tag k="addr:street" v="Main Street"/>
    <tag k="addr:state" v="VT"/>
    <tag k="ref:vcgi:esiteid" v="151096"/>
  </node>
  <node id="-2027" visible="true" lat="43.162245713418" lon="-73.071673019557">
    <tag k="addr:city" v="Manchester"/>
    <tag k="addr:housenumber" v="45"/>
    <tag k="addr:street" v="Union Street"/>
    <tag k="addr:state" v="VT"/>
    <tag k="ref:vcgi:esiteid" v="151122"/>
  </node>
  <node id="-2050" visible="true" lat="43.16146814339" lon="-73.071786896672">
    <tag k="addr:city" v="Manchester"/>
    <tag k="addr:housenumber" v="3532"/>
    <tag k="addr:street" v="Main Street"/>
    <tag k="addr:state" v="VT"/>
    <tag k="ref:vcgi:esiteid" v="151155"/>
  </node>
  <node id="-2051" visible="true" lat="43.16144558306" lon="-73.070969615187">
    <tag k="addr:city" v="Manchester"/>
    <tag k="addr:housenumber" v="86"/>
    <tag k="addr:street" v="Union Street"/>
    <tag k="addr:state" v="VT"/>
    <tag k="ref:vcgi:esiteid" v="151156"/>
  </node>
  <node id="-2053" visible="true" lat="43.16135900499" lon="-73.079186791334">
    <tag k="addr:city" v="Manchester"/>
    <tag k="addr:housenumber" v="748"/>
    <tag k="addr:street" v="Prospect Street"/>
    <tag k="addr:state" v="VT"/>
    <tag k="ref:vcgi:esiteid" v="151158"/>
  </node>
  <node id="-2054" visible="true" lat="43.161303891614" lon="-73.072615203908">
    <tag k="addr:city" v="Manchester"/>
    <tag k="addr:housenumber" v="3519"/>
    <tag k="addr:street" v="Main Street"/>
    <tag k="addr:state" v="VT"/>
    <tag k="ref:vcgi:esiteid" v="151159"/>
  </node>
  <node id="-2057" visible="true" lat="43.161139827942" lon="-73.071669093933">
    <tag k="addr:city" v="Manchester"/>
    <tag k="addr:housenumber" v="3512"/>
    <tag k="addr:street" v="Main Street"/>
    <tag k="addr:state" v="VT"/>
    <tag k="ref:vcgi:esiteid" v="151162"/>
  </node>
  <node id="-2059" visible="true" lat="43.161096042349" lon="-73.072535239996">
    <tag k="addr:city" v="Manchester"/>
    <tag k="addr:housenumber" v="3505"/>
    <tag k="addr:street" v="Main Street"/>
    <tag k="addr:state" v="VT"/>
    <tag k="ref:vcgi:esiteid" v="151164"/>
  </node>
  <node id="-2062" visible="true" lat="43.160911286917" lon="-73.071623579257">
    <tag k="addr:city" v="Manchester"/>
    <tag k="addr:housenumber" v="3496"/>
    <tag k="addr:street" v="Main Street"/>
    <tag k="addr:state" v="VT"/>
    <tag k="ref:vcgi:esiteid" v="151167"/>
  </node>
  <node id="-2067" visible="true" lat="43.160849959213" lon="-73.072550942682">
    <tag k="addr:city" v="Manchester"/>
    <tag k="addr:housenumber" v="3485"/>
    <tag k="addr:street" v="Main Street"/>
    <tag k="addr:state" v="VT"/>
    <tag k="ref:vcgi:esiteid" v="151172"/>
  </node>
  <node id="-2069" visible="true" lat="43.160492873383" lon="-73.071725183786">
    <tag k="addr:city" v="Manchester"/>
    <tag k="addr:housenumber" v="3474"/>
    <tag k="addr:street" v="Main Street"/>
    <tag k="addr:state" v="VT"/>
    <tag k="ref:vcgi:esiteid" v="151174"/>
  </node>
  <node id="-2070" visible="true" lat="43.160504111165" lon="-73.072693633754">
    <tag k="addr:city" v="Manchester"/>
    <tag k="addr:housenumber" v="3467"/>
    <tag k="addr:street" v="Main Street"/>
    <tag k="addr:state" v="VT"/>
    <tag k="ref:vcgi:esiteid" v="151175"/>
  </node>
  <node id="-2072" visible="true" lat="43.160477813702" lon="-73.073207627234">
    <tag k="addr:city" v="Manchester"/>
    <tag k="addr:housenumber" v="3453"/>
    <tag k="addr:street" v="Main Street"/>
    <tag k="addr:state" v="VT"/>
    <tag k="ref:vcgi:esiteid" v="151181"/>
  </node>
  <node id="-2075" visible="true" lat="43.160245545635" lon="-73.071803706533">
    <tag k="addr:city" v="Manchester"/>
    <tag k="addr:housenumber" v="3452"/>
    <tag k="addr:street" v="Main Street"/>
    <tag k="addr:state" v="VT"/>
    <tag k="ref:vcgi:esiteid" v="151184"/>
  </node>
  <node id="-2081" visible="true" lat="43.1600731006" lon="-73.071915913934">
    <tag k="addr:city" v="Manchester"/>
    <tag k="addr:housenumber" v="3436"/>
    <tag k="addr:street" v="Main Street"/>
    <tag k="addr:state" v="VT"/>
    <tag k="ref:vcgi:esiteid" v="151190"/>
  </node>
  <node id="-2083" visible="true" lat="43.159913788688" lon="-73.07329404411">
    <tag k="addr:city" v="Manchester"/>
    <tag k="addr:housenumber" v="3431"/>
    <tag k="addr:street" v="Main Street"/>
    <tag k="addr:state" v="VT"/>
    <tag k="ref:vcgi:esiteid" v="151192"/>
  </node>
  <node id="-2084" visible="true" lat="43.15988149281" lon="-73.071892389693">
    <tag k="addr:city" v="Manchester"/>
    <tag k="addr:housenumber" v="3424"/>
    <tag k="addr:street" v="Main Street"/>
    <tag k="addr:state" v="VT"/>
    <tag k="ref:vcgi:esiteid" v="151193"/>
  </node>
  <node id="-2086" visible="true" lat="43.159907964527" lon="-73.072761001307">
    <tag k="addr:city" v="Manchester"/>
    <tag k="addr:housenumber" v="3419"/>
    <tag k="addr:street" v="Main Street"/>
    <tag k="addr:state" v="VT"/>
    <tag k="ref:vcgi:esiteid" v="151195"/>
  </node>
  <node id="-2092" visible="true" lat="43.159699303913" lon="-73.071961845317">
    <tag k="addr:city" v="Manchester"/>
    <tag k="addr:housenumber" v="3408"/>
    <tag k="addr:street" v="Main Street"/>
    <tag k="addr:state" v="VT"/>
    <tag k="ref:vcgi:esiteid" v="151201"/>
  </node>
  <node id="-2094" visible="true" lat="43.159518740369" lon="-73.08143579768">
    <tag k="addr:city" v="Manchester"/>
    <tag k="addr:housenumber" v="578"/>
    <tag k="addr:street" v="Prospect Street"/>
    <tag k="addr:state" v="VT"/>
    <tag k="ref:vcgi:esiteid" v="151203"/>
  </node>
  <node id="-2095" visible="true" lat="43.159585170916" lon="-73.07394539412">
    <tag k="addr:city" v="Manchester"/>
    <tag k="addr:housenumber" v="3407"/>
    <tag k="addr:street" v="Main Street"/>
    <tag k="addr:state" v="VT"/>
    <tag k="ref:vcgi:esiteid" v="151204"/>
  </node>
  <node id="-2102" visible="true" lat="43.158928773271" lon="-73.072688409131">
    <tag k="addr:city" v="Manchester"/>
    <tag k="addr:housenumber" v="3357"/>
    <tag k="addr:street" v="Main Street"/>
    <tag k="addr:state" v="VT"/>
    <tag k="ref:vcgi:esiteid" v="151212"/>
  </node>
  <node id="-2104" visible="true" lat="43.159192255496" lon="-73.081788415449">
    <tag k="addr:city" v="Manchester"/>
    <tag k="addr:housenumber" v="548"/>
    <tag k="addr:street" v="Prospect Street"/>
    <tag k="addr:state" v="VT"/>
    <tag k="ref:vcgi:esiteid" v="151214"/>
  </node>
  <node id="-2106" visible="true" lat="43.159196071753" lon="-73.072678913354">
    <tag k="addr:city" v="Manchester"/>
    <tag k="addr:housenumber" v="3373"/>
    <tag k="addr:street" v="Main Street"/>
    <tag k="addr:state" v="VT"/>
    <tag k="ref:vcgi:esiteid" v="151216"/>
  </node>
  <node id="-2107" visible="true" lat="43.159333506417" lon="-73.071952223713">
    <tag k="addr:city" v="Manchester"/>
    <tag k="addr:housenumber" v="3372"/>
    <tag k="addr:street" v="Main Street"/>
    <tag k="addr:state" v="VT"/>
    <tag k="ref:vcgi:esiteid" v="151218"/>
  </node>
  <node id="-2108" visible="true" lat="43.159129821709" lon="-73.079502468044">
    <tag k="addr:city" v="Manchester"/>
    <tag k="addr:housenumber" v="368"/>
    <tag k="addr:street" v="Taconic Road"/>
    <tag k="addr:state" v="VT"/>
    <tag k="ref:vcgi:esiteid" v="151219"/>
  </node>
  <node id="-2109" visible="true" lat="43.159070591751" lon="-73.074037695816">
    <tag k="addr:city" v="Manchester"/>
    <tag k="addr:housenumber" v="3343"/>
    <tag k="addr:street" v="Main Street"/>
    <tag k="addr:state" v="VT"/>
    <tag k="ref:vcgi:esiteid" v="151220"/>
  </node>
  <node id="-2110" visible="true" lat="43.159031816009" lon="-73.076858288992">
    <tag k="addr:city" v="Manchester"/>
    <tag k="addr:housenumber" v="240"/>
    <tag k="addr:street" v="Taconic Road"/>
    <tag k="addr:state" v="VT"/>
    <tag k="ref:vcgi:esiteid" v="151221"/>
  </node>
  <node id="-2111" visible="true" lat="43.158936774677" lon="-73.078227735044">
    <tag k="addr:city" v="Manchester"/>
    <tag k="addr:housenumber" v="306"/>
    <tag k="addr:street" v="Taconic Road"/>
    <tag k="addr:state" v="VT"/>
    <tag k="ref:vcgi:esiteid" v="151224"/>
  </node>
  <node id="-2114" visible="true" lat="43.158973209851" lon="-73.073475266342">
    <tag k="addr:city" v="Manchester"/>
    <tag k="addr:housenumber" v="3359"/>
    <tag k="addr:street" v="Main Street"/>
    <tag k="addr:state" v="VT"/>
    <tag k="ref:vcgi:esiteid" v="151227"/>
  </node>
  <node id="-2115" visible="true" lat="43.158826046828" lon="-73.082154624173">
    <tag k="addr:city" v="Manchester"/>
    <tag k="addr:housenumber" v="508"/>
    <tag k="addr:street" v="Prospect Street"/>
    <tag k="addr:state" v="VT"/>
    <tag k="ref:vcgi:esiteid" v="151228"/>
  </node>
  <node id="-2117" visible="true" lat="43.158845274879" lon="-73.078647067192">
    <tag k="addr:city" v="Manchester"/>
    <tag k="addr:housenumber" v="308"/>
    <tag k="addr:street" v="Taconic Road"/>
    <tag k="addr:state" v="VT"/>
    <tag k="ref:vcgi:esiteid" v="151230"/>
  </node>
  <node id="-2119" visible="true" lat="43.15864895563" lon="-73.076713313156">
    <tag k="addr:city" v="Manchester"/>
    <tag k="addr:housenumber" v="222"/>
    <tag k="addr:street" v="Taconic Road"/>
    <tag k="addr:state" v="VT"/>
    <tag k="ref:vcgi:esiteid" v="151232"/>
  </node>
  <node id="-2120" visible="true" lat="43.158629332915" lon="-73.081550307854">
    <tag k="addr:city" v="Manchester"/>
    <tag k="addr:housenumber" v="462"/>
    <tag k="addr:street" v="Taconic Road"/>
    <tag k="addr:state" v="VT"/>
    <tag k="ref:vcgi:esiteid" v="151233"/>
  </node>
  <node id="-2122" visible="true" lat="43.158713336583" lon="-73.071822270426">
    <tag k="addr:city" v="Manchester"/>
    <tag k="addr:housenumber" v="3340"/>
    <tag k="addr:street" v="Main Street"/>
    <tag k="addr:state" v="VT"/>
    <tag k="ref:vcgi:esiteid" v="151235"/>
  </node>
  <node id="-2125" visible="true" lat="43.158492588955" lon="-73.082178639513">
    <tag k="addr:city" v="Manchester"/>
    <tag k="addr:housenumber" v="482"/>
    <tag k="addr:street" v="Prospect Street"/>
    <tag k="addr:state" v="VT"/>
    <tag k="ref:vcgi:esiteid" v="151238"/>
  </node>
  <node id="-2126" visible="true" lat="43.158574427778" lon="-73.075427639077">
    <tag k="addr:city" v="Manchester"/>
    <tag k="addr:housenumber" v="162"/>
    <tag k="addr:street" v="Taconic Road"/>
    <tag k="addr:state" v="VT"/>
    <tag k="ref:vcgi:esiteid" v="151239"/>
  </node>
  <node id="-2127" visible="true" lat="43.158452595835" lon="-73.071723317997">
    <tag k="addr:city" v="Manchester"/>
    <tag k="addr:housenumber" v="3322"/>
    <tag k="addr:street" v="Main Street"/>
    <tag k="addr:state" v="VT"/>
    <tag k="ref:vcgi:esiteid" v="151240"/>
  </node>
  <node id="-2128" visible="true" lat="43.15847001933" lon="-73.073661912809">
    <tag k="addr:city" v="Manchester"/>
    <tag k="addr:housenumber" v="3321"/>
    <tag k="addr:street" v="Main Street"/>
    <tag k="addr:state" v="VT"/>
    <tag k="ref:vcgi:esiteid" v="151241"/>
  </node>
  <node id="-2130" visible="true" lat="43.158406883154" lon="-73.07800722843">
    <tag k="addr:city" v="Manchester"/>
    <tag k="addr:housenumber" v="292"/>
    <tag k="addr:street" v="Taconic Road"/>
    <tag k="addr:state" v="VT"/>
    <tag k="ref:vcgi:esiteid" v="151243"/>
  </node>
  <node id="-2132" visible="true" lat="43.158347389016" lon="-73.079023812657">
    <tag k="addr:city" v="Manchester"/>
    <tag k="addr:housenumber" v="340"/>
    <tag k="addr:street" v="Taconic Road"/>
    <tag k="addr:state" v="VT"/>
    <tag k="ref:vcgi:esiteid" v="151245"/>
  </node>
  <node id="-2134" visible="true" lat="43.158225647424" lon="-73.081229525118">
    <tag k="addr:city" v="Manchester"/>
    <tag k="addr:housenumber" v="454"/>
    <tag k="addr:street" v="Taconic Road"/>
    <tag k="addr:state" v="VT"/>
    <tag k="ref:vcgi:esiteid" v="151247"/>
  </node>
  <node id="-2135" visible="true" lat="43.158236403262" lon="-73.07660678551">
    <tag k="addr:city" v="Manchester"/>
    <tag k="addr:housenumber" v="212"/>
    <tag k="addr:street" v="Taconic Road"/>
    <tag k="addr:state" v="VT"/>
    <tag k="ref:vcgi:esiteid" v="151248"/>
  </node>
  <node id="-2137" visible="true" lat="43.158172037329" lon="-73.075139842029">
    <tag k="addr:city" v="Manchester"/>
    <tag k="addr:housenumber" v="144"/>
    <tag k="addr:street" v="Taconic Road"/>
    <tag k="addr:state" v="VT"/>
    <tag k="ref:vcgi:esiteid" v="151251"/>
  </node>
  <node id="-2138" visible="true" lat="43.158122654049" lon="-73.074459685761">
    <tag k="addr:city" v="Manchester"/>
    <tag k="addr:housenumber" v="110"/>
    <tag k="addr:street" v="Taconic Road"/>
    <tag k="addr:state" v="VT"/>
    <tag k="ref:vcgi:esiteid" v="151252"/>
  </node>
  <node id="-2139" visible="true" lat="43.158174084535" lon="-73.071761925583">
    <tag k="addr:city" v="Manchester"/>
    <tag k="addr:housenumber" v="3302"/>
    <tag k="addr:street" v="Main Street"/>
    <tag k="addr:state" v="VT"/>
    <tag k="ref:vcgi:esiteid" v="151253"/>
  </node>
  <node id="-2140" visible="true" lat="43.158082400287" lon="-73.082130813674">
    <tag k="addr:city" v="Manchester"/>
    <tag k="addr:housenumber" v="498"/>
    <tag k="addr:street" v="Taconic Road"/>
    <tag k="addr:state" v="VT"/>
    <tag k="ref:vcgi:esiteid" v="151254"/>
  </node>
  <node id="-2143" visible="true" lat="43.158092177402" lon="-73.074116469485">
    <tag k="addr:city" v="Manchester"/>
    <tag k="addr:housenumber" v="94"/>
    <tag k="addr:street" v="Taconic Road"/>
    <tag k="addr:state" v="VT"/>
    <tag k="ref:vcgi:esiteid" v="151259"/>
  </node>
  <node id="-2150" visible="true" lat="43.157708262912" lon="-73.076437742259">
    <tag k="addr:city" v="Manchester"/>
    <tag k="addr:housenumber" v="203"/>
    <tag k="addr:street" v="Taconic Road"/>
    <tag k="addr:state" v="VT"/>
    <tag k="ref:vcgi:esiteid" v="151267"/>
  </node>
  <node id="-2152" visible="true" lat="43.157606727406" lon="-73.080490668501">
    <tag k="addr:city" v="Manchester"/>
    <tag k="addr:housenumber" v="413"/>
    <tag k="addr:street" v="Taconic Road"/>
    <tag k="addr:state" v="VT"/>
    <tag k="ref:vcgi:esiteid" v="151269"/>
  </node>
  <node id="-2154" visible="true" lat="43.157601126859" lon="-73.081097971152">
    <tag k="addr:city" v="Manchester"/>
    <tag k="addr:housenumber" v="441"/>
    <tag k="addr:street" v="Taconic Road"/>
    <tag k="addr:state" v="VT"/>
    <tag k="ref:vcgi:esiteid" v="151271"/>
  </node>
  <node id="-2156" visible="true" lat="43.157742629455" lon="-73.078426704861">
    <tag k="addr:city" v="Manchester"/>
    <tag k="addr:housenumber" v="303"/>
    <tag k="addr:street" v="Taconic Road"/>
    <tag k="addr:state" v="VT"/>
    <tag k="ref:vcgi:esiteid" v="151273"/>
  </node>
  <node id="-2158" visible="true" lat="43.157649552041" lon="-73.074808355401">
    <tag k="addr:city" v="Manchester"/>
    <tag k="addr:housenumber" v="125"/>
    <tag k="addr:street" v="Taconic Road"/>
    <tag k="addr:state" v="VT"/>
    <tag k="ref:vcgi:esiteid" v="151275"/>
  </node>
  <node id="-2159" visible="true" lat="43.157982957177" lon="-73.082799457714">
    <tag k="addr:city" v="Manchester"/>
    <tag k="addr:housenumber" v="425"/>
    <tag k="addr:street" v="Prospect Street"/>
    <tag k="addr:state" v="VT"/>
    <tag k="ref:vcgi:esiteid" v="151276"/>
  </node>
  <node id="-2163" visible="true" lat="43.157647304591" lon="-73.073495260437">
    <tag k="addr:city" v="Manchester"/>
    <tag k="addr:housenumber" v="57"/>
    <tag k="addr:street" v="Taconic Road"/>
    <tag k="addr:state" v="VT"/>
    <tag k="ref:vcgi:esiteid" v="151280"/>
  </node>
  <node id="-2164" visible="true" lat="43.157635859413" lon="-73.075608602715">
    <tag k="addr:city" v="Manchester"/>
    <tag k="addr:housenumber" v="163"/>
    <tag k="addr:street" v="Taconic Road"/>
    <tag k="addr:state" v="VT"/>
    <tag k="ref:vcgi:esiteid" v="151281"/>
  </node>
  <node id="-2166" visible="true" lat="43.157489095868" lon="-73.079651481644">
    <tag k="addr:city" v="Manchester"/>
    <tag k="addr:housenumber" v="379"/>
    <tag k="addr:street" v="Taconic Road"/>
    <tag k="addr:state" v="VT"/>
    <tag k="ref:vcgi:esiteid" v="151284"/>
  </node>
  <node id="-2172" visible="true" lat="43.157284661229" lon="-73.075281390073">
    <tag k="addr:city" v="Manchester"/>
    <tag k="addr:housenumber" v="135"/>
    <tag k="addr:street" v="Taconic Road"/>
    <tag k="addr:state" v="VT"/>
    <tag k="ref:vcgi:esiteid" v="151291"/>
  </node>
  <node id="-2187" visible="true" lat="43.156895809463" lon="-73.083337182837">
    <tag k="addr:city" v="Manchester"/>
    <tag k="addr:housenumber" v="345"/>
    <tag k="addr:street" v="Prospect Street"/>
    <tag k="addr:state" v="VT"/>
    <tag k="ref:vcgi:esiteid" v="151307"/>
  </node>
  <node id="-2194" visible="true" lat="43.156415156429" lon="-73.081666344495">
    <tag k="addr:city" v="Manchester"/>
    <tag k="addr:housenumber" v="324"/>
    <tag k="addr:street" v="Prospect Street"/>
    <tag k="addr:state" v="VT"/>
    <tag k="ref:vcgi:esiteid" v="151316"/>
  </node>
  <node id="-2198" visible="true" lat="43.156152878656" lon="-73.072218477813">
    <tag k="addr:city" v="Manchester"/>
    <tag k="addr:housenumber" v="3174"/>
    <tag k="addr:street" v="Main Street"/>
    <tag k="addr:state" v="VT"/>
    <tag k="ref:vcgi:esiteid" v="151322"/>
  </node>
  <node id="-2202" visible="true" lat="43.155987801689" lon="-73.076082230223">
    <tag k="addr:city" v="Manchester"/>
    <tag k="addr:housenumber" v="3229"/>
    <tag k="addr:street" v="Main Street"/>
    <tag k="addr:state" v="VT"/>
    <tag k="ref:vcgi:esiteid" v="151326"/>
  </node>
  <node id="-2214" visible="true" lat="43.15553621747" lon="-73.072950761101">
    <tag k="addr:city" v="Manchester"/>
    <tag k="addr:housenumber" v="3116"/>
    <tag k="addr:street" v="Main Street"/>
    <tag k="addr:state" v="VT"/>
    <tag k="ref:vcgi:esiteid" v="151338"/>
  </node>
  <node id="-2215" visible="true" lat="43.155183009826" lon="-73.073357931455">
    <tag k="addr:city" v="Manchester"/>
    <tag k="addr:housenumber" v="3088"/>
    <tag k="addr:street" v="Main Street"/>
    <tag k="addr:state" v="VT"/>
    <tag k="ref:vcgi:esiteid" v="151340"/>
  </node>
  <node id="-2221" visible="true" lat="43.154876377687" lon="-73.073582816648">
    <tag k="addr:city" v="Manchester"/>
    <tag k="addr:housenumber" v="3062"/>
    <tag k="addr:street" v="Main Street"/>
    <tag k="addr:state" v="VT"/>
    <tag k="ref:vcgi:esiteid" v="151347"/>
  </node>
  <node id="-2223" visible="true" lat="43.154743526166" lon="-73.082923036732">
    <tag k="addr:city" v="Manchester"/>
    <tag k="addr:housenumber" v="227"/>
    <tag k="addr:street" v="Prospect Street"/>
    <tag k="addr:state" v="VT"/>
    <tag k="ref:vcgi:esiteid" v="151349"/>
  </node>
  <node id="-2225" visible="true" lat="43.154782975235" lon="-73.071895868224">
    <tag k="addr:city" v="Manchester"/>
    <tag k="addr:housenumber" v="3049"/>
    <tag k="addr:street" v="River Road"/>
    <tag k="addr:state" v="VT"/>
    <tag k="ref:vcgi:esiteid" v="151351"/>
  </node>
  <node id="-2227" visible="true" lat="43.154537977592" lon="-73.075025340816">
    <tag k="addr:city" v="Manchester"/>
    <tag k="addr:housenumber" v="2991"/>
    <tag k="addr:street" v="Main Street"/>
    <tag k="addr:state" v="VT"/>
    <tag k="ref:vcgi:esiteid" v="151353"/>
  </node>
  <node id="-2228" visible="true" lat="43.154475888103" lon="-73.073934715459">
    <tag k="addr:city" v="Manchester"/>
    <tag k="addr:housenumber" v="3032"/>
    <tag k="addr:street" v="Main Street"/>
    <tag k="addr:state" v="VT"/>
    <tag k="ref:vcgi:esiteid" v="151354"/>
  </node>
  <node id="-2233" visible="true" lat="43.154092006877" lon="-73.078446737876">
    <tag k="addr:city" v="Manchester"/>
    <tag k="addr:housenumber" v="2809"/>
    <tag k="addr:street" v="Main Street"/>
    <tag k="addr:state" v="VT"/>
    <tag k="ref:vcgi:esiteid" v="151360"/>
  </node>
  <node id="-2236" visible="true" lat="43.154075035764" lon="-73.078003508809">
    <tag k="addr:city" v="Manchester"/>
    <tag k="addr:housenumber" v="2837"/>
    <tag k="addr:street" v="Main Street"/>
    <tag k="addr:state" v="VT"/>
    <tag k="ref:vcgi:esiteid" v="151363"/>
  </node>
  <node id="-2237" visible="true" lat="43.153981710455" lon="-73.077550220475">
    <tag k="addr:city" v="Manchester"/>
    <tag k="addr:housenumber" v="2853"/>
    <tag k="addr:street" v="Main Street"/>
    <tag k="addr:state" v="VT"/>
    <tag k="ref:vcgi:esiteid" v="151364"/>
  </node>
  <node id="-2243" visible="true" lat="43.153588196217" lon="-73.07692687316">
    <tag k="addr:city" v="Manchester"/>
    <tag k="addr:housenumber" v="2882"/>
    <tag k="addr:street" v="Main Street"/>
    <tag k="addr:state" v="VT"/>
    <tag k="ref:vcgi:esiteid" v="151372"/>
  </node>
  <node id="-2244" visible="true" lat="43.153617248945" lon="-73.079018106392">
    <tag k="addr:city" v="Manchester"/>
    <tag k="addr:housenumber" v="2781"/>
    <tag k="addr:street" v="Main Street"/>
    <tag k="addr:state" v="VT"/>
    <tag k="ref:vcgi:esiteid" v="151373"/>
  </node>
  <node id="-2247" visible="true" lat="43.153449347967" lon="-73.07744442165">
    <tag k="addr:city" v="Manchester"/>
    <tag k="addr:housenumber" v="2844"/>
    <tag k="addr:street" v="Main Street"/>
    <tag k="addr:state" v="VT"/>
    <tag k="ref:vcgi:esiteid" v="151376"/>
  </node>
  <node id="-2252" visible="true" lat="43.153069667047" lon="-73.078782430067">
    <tag k="addr:city" v="Manchester"/>
    <tag k="addr:housenumber" v="2774"/>
    <tag k="addr:street" v="Main Street"/>
    <tag k="addr:state" v="VT"/>
    <tag k="ref:vcgi:esiteid" v="151382"/>
  </node>
  <node id="-2267" visible="true" lat="43.152309448202" lon="-73.079674151135">
    <tag k="addr:city" v="Manchester"/>
    <tag k="addr:housenumber" v="2694"/>
    <tag k="addr:street" v="Main Street"/>
    <tag k="addr:state" v="VT"/>
    <tag k="ref:vcgi:esiteid" v="151398"/>
  </node>
  <node id="-2274" visible="true" lat="43.151441640169" lon="-73.087182791874">
    <tag k="addr:city" v="Manchester"/>
    <tag k="addr:housenumber" v="99"/>
    <tag k="addr:street" v="Rabbit Road"/>
    <tag k="addr:state" v="VT"/>
    <tag k="ref:vcgi:esiteid" v="151408"/>
  </node>
  <node id="-2278" visible="true" lat="43.151429346" lon="-73.07912575338">
    <tag k="addr:city" v="Manchester"/>
    <tag k="addr:housenumber" v="2668"/>
    <tag k="addr:street" v="Main Street"/>
    <tag k="addr:state" v="VT"/>
    <tag k="ref:vcgi:esiteid" v="151412"/>
  </node>
  <node id="-2283" visible="true" lat="43.151047876303" lon="-73.083909385677">
    <tag k="addr:city" v="Manchester"/>
    <tag k="addr:housenumber" v="2479"/>
    <tag k="addr:street" v="Main Street"/>
    <tag k="addr:state" v="VT"/>
    <tag k="ref:vcgi:esiteid" v="151417"/>
  </node>
  <node id="-2291" visible="true" lat="43.150189471243" lon="-73.083781478596">
    <tag k="addr:city" v="Manchester"/>
    <tag k="addr:housenumber" v="2448"/>
    <tag k="addr:street" v="Main Street"/>
    <tag k="addr:state" v="VT"/>
    <tag k="ref:vcgi:esiteid" v="151425"/>
  </node>
  <node id="-2292" visible="true" lat="43.150178124246" lon="-73.081094137274">
    <tag k="addr:city" v="Manchester"/>
    <tag k="addr:housenumber" v="2584"/>
    <tag k="addr:street" v="Main Street"/>
    <tag k="addr:state" v="VT"/>
    <tag k="ref:vcgi:esiteid" v="151426"/>
  </node>
  <node id="-2345" visible="true" lat="43.143163585005" lon="-73.089547122778">
    <tag k="addr:city" v="Manchester Center"/>
    <tag k="addr:housenumber" v="1842"/>
    <tag k="addr:street" v="Main Street"/>
    <tag k="addr:state" v="VT"/>
    <tag k="ref:vcgi:esiteid" v="151486"/>
  </node>
  <node id="-2353" visible="true" lat="43.140942193619" lon="-73.081004231109">
    <tag k="addr:city" v="Manchester"/>
    <tag k="addr:housenumber" v="1005"/>
    <tag k="addr:street" v="Hildene Road"/>
    <tag k="addr:state" v="VT"/>
    <tag k="ref:vcgi:esiteid" v="151494"/>
  </node>
  <node id="-2491" visible="true" lat="43.17457130247" lon="-73.051578023035">
    <tag k="addr:city" v="Manchester Center"/>
    <tag k="addr:housenumber" v="321"/>
    <tag k="addr:street" v="Depot Street"/>
    <tag k="addr:state" v="VT"/>
    <tag k="ref:vcgi:esiteid" v="151638"/>
  </node>
  <node id="-2492" visible="true" lat="43.174468335355" lon="-73.05138954713">
    <tag k="addr:city" v="Manchester Center"/>
    <tag k="addr:housenumber" v="341"/>
    <tag k="addr:street" v="Depot Street"/>
    <tag k="addr:state" v="VT"/>
    <tag k="ref:vcgi:esiteid" v="151639"/>
  </node>
  <node id="-2493" visible="true" lat="43.174318632918" lon="-73.052020333306">
    <tag k="addr:city" v="Manchester Center"/>
    <tag k="addr:housenumber" v="304"/>
    <tag k="addr:street" v="Depot Street"/>
    <tag k="addr:state" v="VT"/>
    <tag k="ref:vcgi:esiteid" v="151640"/>
  </node>
  <node id="-2494" visible="true" lat="43.174233611859" lon="-73.052033766669">
    <tag k="addr:city" v="Manchester Center"/>
    <tag k="addr:housenumber" v="308"/>
    <tag k="addr:street" v="Depot Street"/>
    <tag k="addr:state" v="VT"/>
    <tag k="ref:vcgi:esiteid" v="151641"/>
  </node>
  <node id="-2497" visible="true" lat="43.177562051021" lon="-73.052846795536">
    <tag k="addr:city" v="Manchester Center"/>
    <tag k="addr:housenumber" v="5080"/>
    <tag k="addr:street" v="Main Street"/>
    <tag k="addr:state" v="VT"/>
    <tag k="ref:vcgi:esiteid" v="151644"/>
  </node>
  <node id="-2527" visible="true" lat="43.159147853275" lon="-73.072041924729">
    <tag k="addr:city" v="Manchester"/>
    <tag k="addr:housenumber" v="3370"/>
    <tag k="addr:street" v="Main Street"/>
    <tag k="addr:state" v="VT"/>
    <tag k="ref:vcgi:esiteid" v="151676"/>
  </node>
  <node id="-2528" visible="true" lat="43.160860684061" lon="-73.072679276021">
    <tag k="addr:city" v="Manchester"/>
    <tag k="addr:housenumber" v="3487"/>
    <tag k="addr:street" v="Main Street"/>
    <tag k="addr:state" v="VT"/>
    <tag k="ref:vcgi:esiteid" v="151677"/>
  </node>
  <node id="-2532" visible="true" lat="43.175660770067" lon="-73.056125923019">
    <tag k="addr:city" v="Manchester Center"/>
    <tag k="addr:housenumber" v="74"/>
    <tag k="addr:street" v="Depot Street"/>
    <tag k="addr:state" v="VT"/>
    <tag k="ref:vcgi:esiteid" v="151682"/>
  </node>
  <node id="-2536" visible="true" lat="43.160177798316" lon="-73.08176742461">
    <tag k="addr:city" v="Manchester"/>
    <tag k="addr:housenumber" v="575"/>
    <tag k="addr:street" v="Prospect Street"/>
    <tag k="addr:state" v="VT"/>
    <tag k="ref:vcgi:esiteid" v="151686"/>
  </node>
  <node id="-2537" visible="true" lat="43.157577645201" lon="-73.082081193262">
    <tag k="addr:city" v="Manchester"/>
    <tag k="addr:housenumber" v="430"/>
    <tag k="addr:street" v="Prospect Street"/>
    <tag k="addr:state" v="VT"/>
    <tag k="ref:vcgi:esiteid" v="151687"/>
  </node>
  <node id="-2548" visible="true" lat="43.178274577438" lon="-73.069346291337">
    <tag k="addr:city" v="Manchester"/>
    <tag k="addr:housenumber" v="150"/>
    <tag k="addr:street" v="Village Glen"/>
    <tag k="addr:state" v="VT"/>
    <tag k="ref:vcgi:esiteid" v="151699"/>
  </node>
  <node id="-2564" visible="true" lat="43.177602836301" lon="-73.064346319327">
    <tag k="addr:city" v="Manchester"/>
    <tag k="addr:housenumber" v="374"/>
    <tag k="addr:street" v="Village Glen"/>
    <tag k="addr:state" v="VT"/>
    <tag k="ref:vcgi:esiteid" v="151716"/>
  </node>
  <node id="-2576" visible="true" lat="43.193346362708" lon="-73.050771533612">
    <tag k="addr:city" v="Manchester Center"/>
    <tag k="addr:housenumber" v="184"/>
    <tag k="addr:street" v="Pig Pen Road"/>
    <tag k="addr:state" v="VT"/>
    <tag k="ref:vcgi:esiteid" v="151728"/>
  </node>
  <node id="-2579" visible="true" lat="43.158223657109" lon="-73.072628896602">
    <tag k="addr:city" v="Manchester"/>
    <tag k="addr:housenumber" v="3309"/>
    <tag k="addr:street" v="Main Street"/>
    <tag k="addr:state" v="VT"/>
    <tag k="ref:vcgi:esiteid" v="151731"/>
  </node>
  <node id="-2586" visible="true" lat="43.178810031896" lon="-73.068155156432">
    <tag k="addr:city" v="Manchester"/>
    <tag k="addr:housenumber" v="175"/>
    <tag k="addr:street" v="Village Glen"/>
    <tag k="addr:state" v="VT"/>
    <tag k="ref:vcgi:esiteid" v="151738"/>
  </node>
  <node id="-2595" visible="true" lat="43.171963630824" lon="-73.064468162964">
    <tag k="addr:city" v="Manchester"/>
    <tag k="addr:housenumber" v="4367"/>
    <tag k="addr:street" v="Main Street"/>
    <tag k="addr:state" v="VT"/>
    <tag k="ref:vcgi:esiteid" v="151748"/>
  </node>
  <node id="-2606" visible="true" lat="43.1772095313" lon="-73.065671914135">
    <tag k="addr:city" v="Manchester"/>
    <tag k="addr:housenumber" v="326"/>
    <tag k="addr:street" v="Village Glen"/>
    <tag k="addr:state" v="VT"/>
    <tag k="ref:vcgi:esiteid" v="151759"/>
  </node>
  <node id="-2639" visible="true" lat="43.178124416017" lon="-73.063425600062">
    <tag k="addr:city" v="Manchester"/>
    <tag k="addr:housenumber" v="448"/>
    <tag k="addr:street" v="Village Glen"/>
    <tag k="addr:state" v="VT"/>
    <tag k="ref:vcgi:esiteid" v="151794"/>
  </node>
  <node id="-2652" visible="true" lat="43.173228122543" lon="-73.04938328901">
    <tag k="addr:city" v="Manchester Center"/>
    <tag k="addr:housenumber" v="454"/>
    <tag k="addr:street" v="Depot Street"/>
    <tag k="addr:state" v="VT"/>
    <tag k="ref:vcgi:esiteid" v="151808"/>
  </node>
  <node id="-2685" visible="true" lat="43.17715925161" lon="-73.066904203992">
    <tag k="addr:city" v="Manchester"/>
    <tag k="addr:housenumber" v="260"/>
    <tag k="addr:street" v="Village Glen"/>
    <tag k="addr:state" v="VT"/>
    <tag k="ref:vcgi:esiteid" v="151841"/>
  </node>
  <node id="-2772" visible="true" lat="43.177091139857" lon="-73.058866207867">
    <tag k="addr:city" v="Manchester Center"/>
    <tag k="addr:housenumber" v="4849"/>
    <tag k="addr:street" v="Main Street"/>
    <tag k="addr:state" v="VT"/>
    <tag k="ref:vcgi:esiteid" v="151938"/>
  </node>
  <node id="-2805" visible="true" lat="43.176216474796" lon="-73.056202698463">
    <tag k="addr:city" v="Manchester Center"/>
    <tag k="addr:housenumber" v="39"/>
    <tag k="addr:street" v="Depot Street"/>
    <tag k="addr:state" v="VT"/>
    <tag k="ref:vcgi:esiteid" v="311422"/>
  </node>
  <node id="-2833" visible="true" lat="43.175801559207" lon="-73.055362585177">
    <tag k="addr:city" v="Manchester Center"/>
    <tag k="addr:housenumber" v="103"/>
    <tag k="addr:street" v="Depot Street"/>
    <tag k="addr:state" v="VT"/>
    <tag k="ref:vcgi:esiteid" v="330998"/>
  </node>
  <node id="-2884" visible="true" lat="43.167283932582" lon="-73.070253512764">
    <tag k="addr:city" v="Manchester"/>
    <tag k="addr:housenumber" v="116"/>
    <tag k="addr:street" v="Shepards Lane"/>
    <tag k="addr:state" v="VT"/>
    <tag k="ref:vcgi:esiteid" v="341384"/>
  </node>
  <node id="-2899" visible="true" lat="43.177745556651" lon="-73.049914550605">
    <tag k="addr:city" v="Manchester Center"/>
    <tag k="addr:housenumber" v="138"/>
    <tag k="addr:street" v="Cemetery Avenue"/>
    <tag k="addr:state" v="VT"/>
    <tag k="ref:vcgi:esiteid" v="345436"/>
  </node>
  <node id="-2930" visible="true" lat="43.178032680589" lon="-73.054422848465">
    <tag k="addr:city" v="Manchester Center"/>
    <tag k="addr:housenumber" v="33"/>
    <tag k="addr:street" v="Memorial Avenue"/>
    <tag k="addr:state" v="VT"/>
    <tag k="ref:vcgi:esiteid" v="611104"/>
  </node>
  <node id="-2994" visible="true" lat="43.177152646639" lon="-73.055363847401">
    <tag k="addr:city" v="Manchester Center"/>
    <tag k="addr:housenumber" v="4954"/>
    <tag k="addr:street" v="Main Street"/>
    <tag k="addr:state" v="VT"/>
    <tag k="ref:vcgi:esiteid" v="750728"/>
  </node>
  <node id="-3013" visible="true" lat="43.151144270897" lon="-73.085876666549">
    <tag k="addr:city" v="Manchester"/>
    <tag k="addr:housenumber" v="89"/>
    <tag k="addr:street" v="Rabbit Road"/>
    <tag k="addr:state" v="VT"/>
    <tag k="ref:vcgi:esiteid" v="753963"/>
  </node>
  <node id="-3021" visible="true" lat="43.177494174436" lon="-73.057664653014">
    <tag k="addr:city" v="Manchester Center"/>
    <tag k="addr:housenumber" v="41"/>
    <tag k="addr:street" v="Bonnet Street"/>
    <tag k="addr:state" v="VT"/>
    <tag k="ref:vcgi:esiteid" v="754134"/>
  </node>
  <node id="-3027" visible="true" lat="43.174511866029" lon="-73.048974034361">
    <tag k="addr:city" v="Manchester Center"/>
    <tag k="addr:housenumber" v="37"/>
    <tag k="addr:street" v="Elm Street"/>
    <tag k="addr:state" v="VT"/>
    <tag k="ref:vcgi:esiteid" v="754623"/>
  </node>
  <node id="-3115" visible="true" lat="43.16731252024" lon="-73.066745081954">
    <tag k="addr:city" v="Manchester"/>
    <tag k="addr:housenumber" v="4016"/>
    <tag k="addr:street" v="Main Street"/>
    <tag k="addr:state" v="VT"/>
    <tag k="ref:vcgi:esiteid" v="760718"/>
  </node>
  <node id="-3143" visible="true" lat="43.156263718891" lon="-73.075460573601">
    <tag k="addr:city" v="Manchester"/>
    <tag k="addr:housenumber" v="3227"/>
    <tag k="addr:street" v="Main Street"/>
    <tag k="addr:state" v="VT"/>
    <tag k="ref:vcgi:esiteid" v="766092"/>
  </node>
</osm>
