<?xml version="1.0" encoding="UTF-8"?>
<osm version="0.6" generator="JOSM" upload="false">
  <node id="-1666" visible="true" lat="43.168004635662" lon="-73.067114859291">
    <!-- offset: "4070 Main Street, Manchester, VT" Significant offset - 711.8m -->
    <tag k="addr:city" v="Manchester"/>
    <tag k="addr:housenumber" v="4070"/>
    <tag k="addr:street" v="Main Street"/>
    <tag k="addr:state" v="VT"/>
    <tag k="ref:vcgi:esiteid" v="150725"/>
  </node>
  <node id="-2036" visible="true" lat="43.162045286675" lon="-73.072532362114">
    <!-- offset: "3567 Main Street, Manchester, VT" Significant offset - 106.5m -->
    <tag k="addr:city" v="Manchester"/>
    <tag k="addr:housenumber" v="3567"/>
    <tag k="addr:street" v="Main Street"/>
    <tag k="addr:state" v="VT"/>
    <tag k="ref:vcgi:esiteid" v="151136"/>
  </node>
</osm>
