<?xml version="1.0" encoding="UTF-8"?>
<osm version="0.6" generator="JOSM" upload="false">
  <node id="-125" visible="true" lat="44.362267910893" lon="-72.337548442576">
    <tag k="addr:city" v="Marshfield"/>
    <tag k="addr:housenumber" v="989"/>
    <tag k="addr:street" v="Cabot Road"/>
    <tag k="addr:state" v="VT"/>
    <tag k="ref:vcgi:esiteid" v="152538"/>
  </node>
  <node id="-131" visible="true" lat="44.360167451504" lon="-72.33524291732">
    <tag k="addr:city" v="Marshfield"/>
    <tag k="addr:housenumber" v="78"/>
    <tag k="addr:street" v="Power Plant Road"/>
    <tag k="addr:state" v="VT"/>
    <tag k="ref:vcgi:esiteid" v="152544"/>
  </node>
  <node id="-164" visible="true" lat="44.35386413135" lon="-72.3465435006">
    <tag k="addr:city" v="Marshfield"/>
    <tag k="addr:housenumber" v="159"/>
    <tag k="addr:street" v="Cabot Road"/>
    <tag k="addr:state" v="VT"/>
    <tag k="ref:vcgi:esiteid" v="152577"/>
  </node>
  <node id="-166" visible="true" lat="44.353757319913" lon="-72.346749494595">
    <tag k="addr:city" v="Marshfield"/>
    <tag k="addr:housenumber" v="145"/>
    <tag k="addr:street" v="Cabot Road"/>
    <tag k="addr:state" v="VT"/>
    <tag k="ref:vcgi:esiteid" v="152579"/>
  </node>
  <node id="-171" visible="true" lat="44.353168733579" lon="-72.346969892943">
    <tag k="addr:city" v="Marshfield"/>
    <tag k="addr:housenumber" v="110"/>
    <tag k="addr:street" v="Cabot Road"/>
    <tag k="addr:state" v="VT"/>
    <tag k="ref:vcgi:esiteid" v="152584"/>
  </node>
  <node id="-177" visible="true" lat="44.352977098992" lon="-72.347756502326">
    <tag k="addr:city" v="Marshfield"/>
    <tag k="addr:housenumber" v="77"/>
    <tag k="addr:street" v="Cabot Road"/>
    <tag k="addr:state" v="VT"/>
    <tag k="ref:vcgi:esiteid" v="152590"/>
  </node>
  <node id="-180" visible="true" lat="44.35265459501" lon="-72.34761085689">
    <tag k="addr:city" v="Marshfield"/>
    <tag k="addr:housenumber" v="58"/>
    <tag k="addr:street" v="Cabot Road"/>
    <tag k="addr:state" v="VT"/>
    <tag k="ref:vcgi:esiteid" v="152594"/>
  </node>
  <node id="-181" visible="true" lat="44.352584165667" lon="-72.35437856379">
    <tag k="addr:city" v="Marshfield"/>
    <tag k="addr:housenumber" v="90"/>
    <tag k="addr:street" v="Creamery Street"/>
    <tag k="addr:state" v="VT"/>
    <tag k="ref:vcgi:esiteid" v="152595"/>
  </node>
  <node id="-183" visible="true" lat="44.35261092731" lon="-72.354814254392">
    <tag k="addr:city" v="Marshfield"/>
    <tag k="addr:housenumber" v="83"/>
    <tag k="addr:street" v="Creamery Street"/>
    <tag k="addr:state" v="VT"/>
    <tag k="ref:vcgi:esiteid" v="152597"/>
  </node>
  <node id="-186" visible="true" lat="44.352403101828" lon="-72.344292829435">
    <tag k="addr:city" v="Marshfield"/>
    <tag k="addr:housenumber" v="19"/>
    <tag k="addr:street" v="Folsom Hill Road"/>
    <tag k="addr:state" v="VT"/>
    <tag k="ref:vcgi:esiteid" v="152600"/>
  </node>
  <node id="-187" visible="true" lat="44.352332753877" lon="-72.347963241007">
    <tag k="addr:city" v="Marshfield"/>
    <tag k="addr:housenumber" v="34"/>
    <tag k="addr:street" v="Cabot Road"/>
    <tag k="addr:state" v="VT"/>
    <tag k="ref:vcgi:esiteid" v="152601"/>
  </node>
  <node id="-188" visible="true" lat="44.352279300115" lon="-72.354339176832">
    <tag k="addr:city" v="Marshfield"/>
    <tag k="addr:housenumber" v="84"/>
    <tag k="addr:street" v="Creamery Street"/>
    <tag k="addr:state" v="VT"/>
    <tag k="ref:vcgi:esiteid" v="152602"/>
  </node>
  <node id="-189" visible="true" lat="44.352343646614" lon="-72.354874216498">
    <tag k="addr:city" v="Marshfield"/>
    <tag k="addr:housenumber" v="71"/>
    <tag k="addr:street" v="Creamery Street"/>
    <tag k="addr:state" v="VT"/>
    <tag k="ref:vcgi:esiteid" v="152603"/>
  </node>
  <node id="-191" visible="true" lat="44.352672788216" lon="-72.348118606913">
    <tag k="addr:city" v="Marshfield"/>
    <tag k="addr:housenumber" v="17"/>
    <tag k="addr:street" v="Cabot Road"/>
    <tag k="addr:state" v="VT"/>
    <tag k="ref:vcgi:esiteid" v="152605"/>
  </node>
  <node id="-192" visible="true" lat="44.352148927987" lon="-72.352916121269">
    <tag k="addr:city" v="Marshfield"/>
    <tag k="addr:housenumber" v="71"/>
    <tag k="addr:street" v="Church Street"/>
    <tag k="addr:state" v="VT"/>
    <tag k="ref:vcgi:esiteid" v="152606"/>
  </node>
  <node id="-195" visible="true" lat="44.352157290875" lon="-72.352382704145">
    <tag k="addr:city" v="Marshfield"/>
    <tag k="addr:housenumber" v="64"/>
    <tag k="addr:street" v="Church Street"/>
    <tag k="addr:state" v="VT"/>
    <tag k="ref:vcgi:esiteid" v="152609"/>
  </node>
  <node id="-196" visible="true" lat="44.352204736791" lon="-72.348763655003">
    <tag k="addr:city" v="Marshfield"/>
    <tag k="addr:housenumber" v="1"/>
    <tag k="addr:street" v="Cabot Road"/>
    <tag k="addr:state" v="VT"/>
    <tag k="ref:vcgi:esiteid" v="152610"/>
  </node>
  <node id="-197" visible="true" lat="44.352051350949" lon="-72.344466904147">
    <tag k="addr:city" v="Marshfield"/>
    <tag k="addr:housenumber" v="28"/>
    <tag k="addr:street" v="Folsom Hill Road"/>
    <tag k="addr:state" v="VT"/>
    <tag k="ref:vcgi:esiteid" v="152611"/>
  </node>
  <node id="-198" visible="true" lat="44.35209125038" lon="-72.354876744584">
    <tag k="addr:city" v="Marshfield"/>
    <tag k="addr:housenumber" v="51"/>
    <tag k="addr:street" v="Creamery Street"/>
    <tag k="addr:state" v="VT"/>
    <tag k="ref:vcgi:esiteid" v="152612"/>
  </node>
  <node id="-201" visible="true" lat="44.351978957623" lon="-72.354560972005">
    <tag k="addr:city" v="Marshfield"/>
    <tag k="addr:housenumber" v="48"/>
    <tag k="addr:street" v="Creamery Street"/>
    <tag k="addr:state" v="VT"/>
    <tag k="ref:vcgi:esiteid" v="152615"/>
  </node>
  <node id="-208" visible="true" lat="44.351614797975" lon="-72.354567704898">
    <tag k="addr:city" v="Marshfield"/>
    <tag k="addr:housenumber" v="30"/>
    <tag k="addr:street" v="Creamery Street"/>
    <tag k="addr:state" v="VT"/>
    <tag k="ref:vcgi:esiteid" v="152622"/>
  </node>
  <node id="-209" visible="true" lat="44.351949001481" lon="-72.355514941712">
    <tag k="addr:city" v="Marshfield"/>
    <tag k="addr:housenumber" v="20"/>
    <tag k="addr:street" v="English Cemetery Road"/>
    <tag k="addr:state" v="VT"/>
    <tag k="ref:vcgi:esiteid" v="152623"/>
  </node>
  <node id="-219" visible="true" lat="44.351518091799" lon="-72.3396236383">
    <tag k="addr:city" v="Marshfield"/>
    <tag k="addr:housenumber" v="255"/>
    <tag k="addr:street" v="Folsom Hill Road"/>
    <tag k="addr:state" v="VT"/>
    <tag k="ref:vcgi:esiteid" v="152634"/>
  </node>
  <node id="-222" visible="true" lat="44.351329174932" lon="-72.341311825225">
    <tag k="addr:city" v="Marshfield"/>
    <tag k="addr:housenumber" v="192"/>
    <tag k="addr:street" v="Folsom Hill Road"/>
    <tag k="addr:state" v="VT"/>
    <tag k="ref:vcgi:esiteid" v="152637"/>
  </node>
  <node id="-223" visible="true" lat="44.351461567606" lon="-72.354981023475">
    <tag k="addr:city" v="Marshfield"/>
    <tag k="addr:housenumber" v="9"/>
    <tag k="addr:street" v="Creamery Street"/>
    <tag k="addr:state" v="VT"/>
    <tag k="ref:vcgi:esiteid" v="152638"/>
  </node>
  <node id="-224" visible="true" lat="44.351464686565" lon="-72.349465560032">
    <tag k="addr:city" v="Marshfield"/>
    <tag k="addr:housenumber" v="18"/>
    <tag k="addr:street" v="Gilman Street"/>
    <tag k="addr:state" v="VT"/>
    <tag k="ref:vcgi:esiteid" v="152639"/>
  </node>
  <node id="-225" visible="true" lat="44.351517270184" lon="-72.355877700892">
    <tag k="addr:city" v="Marshfield"/>
    <tag k="addr:housenumber" v="36"/>
    <tag k="addr:street" v="English Cemetery Road"/>
    <tag k="addr:state" v="VT"/>
    <tag k="ref:vcgi:esiteid" v="152640"/>
  </node>
  <node id="-233" visible="true" lat="44.351384621318" lon="-72.355557815339">
    <tag k="addr:city" v="Marshfield"/>
    <tag k="addr:housenumber" v="8"/>
    <tag k="addr:street" v="English Cemetery Road"/>
    <tag k="addr:state" v="VT"/>
    <tag k="ref:vcgi:esiteid" v="152648"/>
  </node>
  <node id="-236" visible="true" lat="44.351323541857" lon="-72.349847030742">
    <tag k="addr:city" v="Marshfield"/>
    <tag k="addr:housenumber" v="20"/>
    <tag k="addr:street" v="Gilman Street"/>
    <tag k="addr:state" v="VT"/>
    <tag k="ref:vcgi:esiteid" v="152651"/>
  </node>
  <node id="-238" visible="true" lat="44.351395293966" lon="-72.35534511472">
    <tag k="addr:city" v="Marshfield"/>
    <tag k="addr:housenumber" v="4"/>
    <tag k="addr:street" v="English Cemetery Road"/>
    <tag k="addr:state" v="VT"/>
    <tag k="ref:vcgi:esiteid" v="152653"/>
  </node>
  <node id="-250" visible="true" lat="44.351106104768" lon="-72.33803672412">
    <tag k="addr:city" v="Marshfield"/>
    <tag k="addr:housenumber" v="325"/>
    <tag k="addr:street" v="Folsom Hill Road"/>
    <tag k="addr:state" v="VT"/>
    <tag k="ref:vcgi:esiteid" v="152665"/>
  </node>
  <node id="-255" visible="true" lat="44.350714481429" lon="-72.353530308063">
    <tag k="addr:city" v="Marshfield"/>
    <tag k="addr:housenumber" v="23"/>
    <tag k="addr:street" v="School Street"/>
    <tag k="addr:state" v="VT"/>
    <tag k="ref:vcgi:esiteid" v="152670"/>
  </node>
  <node id="-264" visible="true" lat="44.350480494289" lon="-72.337639995662">
    <tag k="addr:city" v="Marshfield"/>
    <tag k="addr:housenumber" v="363"/>
    <tag k="addr:street" v="Folsom Hill Road"/>
    <tag k="addr:state" v="VT"/>
    <tag k="ref:vcgi:esiteid" v="152679"/>
  </node>
  <node id="-288" visible="true" lat="44.34846251884" lon="-72.33597678593">
    <tag k="addr:city" v="Marshfield"/>
    <tag k="addr:housenumber" v="531"/>
    <tag k="addr:street" v="Folsom Hill Road"/>
    <tag k="addr:state" v="VT"/>
    <tag k="ref:vcgi:esiteid" v="152703"/>
  </node>
  <node id="-318" visible="true" lat="44.343644555206" lon="-72.334130471696">
    <tag k="addr:city" v="Marshfield"/>
    <tag k="addr:housenumber" v="906"/>
    <tag k="addr:street" v="Folsom Hill Road"/>
    <tag k="addr:state" v="VT"/>
    <tag k="ref:vcgi:esiteid" v="152734"/>
  </node>
  <node id="-329" visible="true" lat="44.34228970339" lon="-72.331504722921">
    <tag k="addr:city" v="Marshfield"/>
    <tag k="addr:housenumber" v="1040"/>
    <tag k="addr:street" v="Folsom Hill Road"/>
    <tag k="addr:state" v="VT"/>
    <tag k="ref:vcgi:esiteid" v="152745"/>
  </node>
  <node id="-369" visible="true" lat="44.337830946557" lon="-72.289224238768">
    <tag k="addr:city" v="Marshfield"/>
    <tag k="addr:housenumber" v="108"/>
    <tag k="addr:street" v="Pleasant Avenue"/>
    <tag k="addr:state" v="VT"/>
    <tag k="ref:vcgi:esiteid" v="152785"/>
  </node>
  <node id="-372" visible="true" lat="44.337332413564" lon="-72.288332464513">
    <tag k="addr:city" v="Marshfield"/>
    <tag k="addr:housenumber" v="93"/>
    <tag k="addr:street" v="Pleasant Avenue"/>
    <tag k="addr:state" v="VT"/>
    <tag k="ref:vcgi:esiteid" v="152788"/>
  </node>
  <node id="-389" visible="true" lat="44.335895685048" lon="-72.290136849898">
    <tag k="addr:city" v="Marshfield"/>
    <tag k="addr:housenumber" v="216"/>
    <tag k="addr:street" v="Pleasant Avenue"/>
    <tag k="addr:state" v="VT"/>
    <tag k="ref:vcgi:esiteid" v="152806"/>
  </node>
  <node id="-420" visible="true" lat="44.330331262549" lon="-72.282242941443">
    <tag k="addr:city" v="Marshfield"/>
    <tag k="addr:housenumber" v="3545"/>
    <tag k="addr:street" v="Vermont Route 232"/>
    <tag k="addr:state" v="VT"/>
    <tag k="ref:vcgi:esiteid" v="152837"/>
  </node>
  <node id="-446" visible="true" lat="44.326450219779" lon="-72.289431095546">
    <tag k="addr:city" v="Marshfield"/>
    <tag k="addr:housenumber" v="4000"/>
    <tag k="addr:street" v="Vermont Route 232"/>
    <tag k="addr:state" v="VT"/>
    <tag k="ref:vcgi:esiteid" v="152864"/>
  </node>
  <node id="-449" visible="true" lat="44.325959617843" lon="-72.288300681769">
    <tag k="addr:city" v="Marshfield"/>
    <tag k="addr:housenumber" v="4005"/>
    <tag k="addr:street" v="Vermont Route 232"/>
    <tag k="addr:state" v="VT"/>
    <tag k="ref:vcgi:esiteid" v="152867"/>
  </node>
  <node id="-503" visible="true" lat="44.307174062045" lon="-72.312310717343">
    <tag k="addr:city" v="Marshfield"/>
    <tag k="addr:housenumber" v="338"/>
    <tag k="addr:street" v="Lanesboro Road"/>
    <tag k="addr:state" v="VT"/>
    <tag k="ref:vcgi:esiteid" v="152922"/>
  </node>
  <node id="-506" visible="true" lat="44.306798764558" lon="-72.312466868374">
    <tag k="addr:city" v="Marshfield"/>
    <tag k="addr:housenumber" v="361"/>
    <tag k="addr:street" v="Lanesboro Road"/>
    <tag k="addr:state" v="VT"/>
    <tag k="ref:vcgi:esiteid" v="152926"/>
  </node>
  <node id="-516" visible="true" lat="44.303316600154" lon="-72.40869367234">
    <tag k="addr:city" v="Marshfield"/>
    <tag k="addr:housenumber" v="589"/>
    <tag k="addr:street" v="Eaton Cemetery Road"/>
    <tag k="addr:state" v="VT"/>
    <tag k="ref:vcgi:esiteid" v="152936"/>
  </node>
  <node id="-743" visible="true" lat="44.34936536392" lon="-72.355112273266">
    <tag k="addr:city" v="Marshfield"/>
    <tag k="addr:housenumber" v="122"/>
    <tag k="addr:street" v="School Street"/>
    <tag k="addr:state" v="VT"/>
    <tag k="ref:vcgi:esiteid" v="153171"/>
  </node>
  <node id="-744" visible="true" lat="44.351955755318" lon="-72.341491126841">
    <tag k="addr:city" v="Marshfield"/>
    <tag k="addr:housenumber" v="183"/>
    <tag k="addr:street" v="Folsom Hill Road"/>
    <tag k="addr:state" v="VT"/>
    <tag k="ref:vcgi:esiteid" v="153172"/>
  </node>
  <node id="-745" visible="true" lat="44.351583714903" lon="-72.343339793461">
    <tag k="addr:city" v="Marshfield"/>
    <tag k="addr:housenumber" v="110"/>
    <tag k="addr:street" v="Folsom Hill Road"/>
    <tag k="addr:state" v="VT"/>
    <tag k="ref:vcgi:esiteid" v="153173"/>
  </node>
  <node id="-750" visible="true" lat="44.308423105139" lon="-72.306163919067">
    <tag k="addr:city" v="Marshfield"/>
    <tag k="addr:housenumber" v="11"/>
    <tag k="addr:street" v="Lanesboro Road"/>
    <tag k="addr:state" v="VT"/>
    <tag k="ref:vcgi:esiteid" v="153179"/>
  </node>
  <node id="-754" visible="true" lat="44.352535669063" lon="-72.34775276344">
    <tag k="addr:city" v="Marshfield"/>
    <tag k="addr:housenumber" v="42"/>
    <tag k="addr:street" v="Cabot Road"/>
    <tag k="addr:state" v="VT"/>
    <tag k="ref:vcgi:esiteid" v="153183"/>
  </node>
  <node id="-773" visible="true" lat="44.351431620149" lon="-72.342165451568">
    <tag k="addr:city" v="Marshfield"/>
    <tag k="addr:housenumber" v="142"/>
    <tag k="addr:street" v="Folsom Hill Road"/>
    <tag k="addr:state" v="VT"/>
    <tag k="ref:vcgi:esiteid" v="153203"/>
  </node>
  <node id="-777" visible="true" lat="44.336988770799" lon="-72.289371378385">
    <tag k="addr:city" v="Marshfield"/>
    <tag k="addr:housenumber" v="172"/>
    <tag k="addr:street" v="Pleasant Avenue"/>
    <tag k="addr:state" v="VT"/>
    <tag k="ref:vcgi:esiteid" v="153207"/>
  </node>
  <node id="-781" visible="true" lat="44.35252371565" lon="-72.353796517375">
    <tag k="addr:city" v="Marshfield"/>
    <tag k="addr:housenumber" v="54"/>
    <tag k="addr:street" v="Creamery Street"/>
    <tag k="addr:state" v="VT"/>
    <tag k="ref:vcgi:esiteid" v="153211"/>
  </node>
  <node id="-787" visible="true" lat="44.344687191242" lon="-72.332832081753">
    <tag k="addr:city" v="Marshfield"/>
    <tag k="addr:housenumber" v="865"/>
    <tag k="addr:street" v="Folsom Hill Road"/>
    <tag k="addr:state" v="VT"/>
    <tag k="ref:vcgi:esiteid" v="153217"/>
  </node>
  <node id="-788" visible="true" lat="44.354056714256" lon="-72.346396080216">
    <tag k="addr:city" v="Marshfield"/>
    <tag k="addr:housenumber" v="175"/>
    <tag k="addr:street" v="Cabot Road"/>
    <tag k="addr:state" v="VT"/>
    <tag k="ref:vcgi:esiteid" v="153218"/>
  </node>
  <node id="-795" visible="true" lat="44.352392041614" lon="-72.353271648118">
    <tag k="addr:city" v="Marshfield"/>
    <tag k="addr:housenumber" v="81"/>
    <tag k="addr:street" v="Church Street"/>
    <tag k="addr:state" v="VT"/>
    <tag k="ref:vcgi:esiteid" v="153225"/>
  </node>
  <node id="-801" visible="true" lat="44.352782867157" lon="-72.353375645536">
    <tag k="addr:city" v="Marshfield"/>
    <tag k="addr:housenumber" v="83"/>
    <tag k="addr:street" v="Church Street"/>
    <tag k="addr:state" v="VT"/>
    <tag k="ref:vcgi:esiteid" v="153231"/>
  </node>
  <node id="-806" visible="true" lat="44.351719465373" lon="-72.338751362872">
    <tag k="addr:city" v="Marshfield"/>
    <tag k="addr:housenumber" v="281"/>
    <tag k="addr:street" v="Folsom Hill Road"/>
    <tag k="addr:state" v="VT"/>
    <tag k="ref:vcgi:esiteid" v="153236"/>
  </node>
  <node id="-820" visible="true" lat="44.331693606003" lon="-72.28113084624">
    <tag k="addr:city" v="Marshfield"/>
    <tag k="addr:housenumber" v="3477"/>
    <tag k="addr:street" v="Vermont Route 232"/>
    <tag k="addr:state" v="VT"/>
    <tag k="ref:vcgi:esiteid" v="185951"/>
  </node>
  <node id="-832" visible="true" lat="44.336258523567" lon="-72.288719783321">
    <tag k="addr:city" v="Marshfield"/>
    <tag k="addr:housenumber" v="223"/>
    <tag k="addr:street" v="Pleasant Avenue"/>
    <tag k="addr:state" v="VT"/>
    <tag k="ref:vcgi:esiteid" v="315301"/>
  </node>
  <node id="-848" visible="true" lat="44.362339448435" lon="-72.335650448506">
    <tag k="addr:city" v="Marshfield"/>
    <tag k="addr:housenumber" v="978"/>
    <tag k="addr:street" v="Cabot Road"/>
    <tag k="addr:state" v="VT"/>
    <tag k="ref:vcgi:esiteid" v="331618"/>
  </node>
  <node id="-851" visible="true" lat="44.310276983822" lon="-72.307969517814">
    <tag k="addr:city" v="Marshfield"/>
    <tag k="addr:housenumber" v="128"/>
    <tag k="addr:street" v="Lanesboro Road"/>
    <tag k="addr:state" v="VT"/>
    <tag k="ref:vcgi:esiteid" v="332435"/>
  </node>
  <node id="-856" visible="true" lat="44.344678374228" lon="-72.337205112797">
    <tag k="addr:city" v="Marshfield"/>
    <tag k="addr:housenumber" v="682"/>
    <tag k="addr:street" v="Folsom Hill Road"/>
    <tag k="addr:state" v="VT"/>
    <tag k="ref:vcgi:esiteid" v="340877"/>
  </node>
  <node id="-874" visible="true" lat="44.351747915925" lon="-72.343532300894">
    <tag k="addr:city" v="Marshfield"/>
    <tag k="addr:housenumber" v="108"/>
    <tag k="addr:street" v="Folsom Hill Road"/>
    <tag k="addr:state" v="VT"/>
    <tag k="ref:vcgi:esiteid" v="455435"/>
  </node>
</osm>
