<?xml version="1.0" encoding="UTF-8"?>
<osm version="0.6" generator="JOSM" upload="false">
  <node id="-809" visible="true" lat="44.278101830105" lon="-72.418237593564">
    <!-- duplicates-in-different-towns: "355 Main Street, Plainfield, VT"  ignoring town mismatch for duplicate housenumber/street when matching to esiteid 753587: "355 Main Street, , VT" -->
    <tag k="addr:city" v="Plainfield"/>
    <tag k="addr:housenumber" v="355"/>
    <tag k="addr:street" v="Main Street"/>
    <tag k="addr:state" v="VT"/>
    <tag k="ref:vcgi:esiteid" v="153239"/>
  </node>
  <node id="-855" visible="true" lat="44.342170924184" lon="-72.407235013921">
    <!-- duplicates-in-different-towns: "4869 Hollister Hill Road, Marshfield, VT"  ignoring town mismatch for duplicate housenumber/street when matching to esiteid 152706: "4869 Hollister Hill Road, , VT" -->
    <tag k="addr:city" v="Marshfield"/>
    <tag k="addr:housenumber" v="4869"/>
    <tag k="addr:street" v="Hollister Hill Road"/>
    <tag k="addr:state" v="VT"/>
    <tag k="ref:vcgi:esiteid" v="340865"/>
  </node>
  <node id="-867" visible="true" lat="44.327345904796" lon="-72.287266386417">
    <!-- duplicates-in-different-towns: "3889 Vermont Route 232, Marshfield, VT"  ignoring town mismatch for duplicate housenumber/street when matching to esiteid 186487: "3889 Vermont Route 232, Peacham, VT" -->
    <tag k="addr:city" v="Marshfield"/>
    <tag k="addr:housenumber" v="3889"/>
    <tag k="addr:street" v="Vermont Route 232"/>
    <tag k="addr:state" v="VT"/>
    <tag k="ref:vcgi:esiteid" v="451416"/>
  </node>
  <node id="-872" visible="true" lat="44.382346904297" lon="-72.378598468662">
    <!-- duplicates-in-different-towns: "2509 Ducharme Road, Marshfield, VT"  ignoring town mismatch for duplicate housenumber/street when matching to esiteid 452630: "2509 Ducharme Road, , VT" -->
    <tag k="addr:city" v="Marshfield"/>
    <tag k="addr:housenumber" v="2509"/>
    <tag k="addr:street" v="Ducharme Road"/>
    <tag k="addr:state" v="VT"/>
    <tag k="ref:vcgi:esiteid" v="452465"/>
  </node>
</osm>
