<?xml version="1.0" encoding="UTF-8"?>
<osm version="0.6" generator="JOSM" upload="false">
  <node id="-756" visible="true" lat="43.673092038908" lon="-72.842931285583">
    <tag k="addr:city" v="Killington"/>
    <tag k="addr:housenumber" v="58"/>
    <tag k="addr:street" v="Windrift Ridge Road"/>
    <tag k="addr:state" v="VT"/>
    <tag k="ref:vcgi:esiteid" v="341012"/>
  </node>
  <node id="-760" visible="true" lat="43.672836614857" lon="-72.843039318916">
    <tag k="addr:city" v="Killington"/>
    <tag k="addr:housenumber" v="42"/>
    <tag k="addr:street" v="Windrift Ridge Road"/>
    <tag k="addr:state" v="VT"/>
    <tag k="ref:vcgi:esiteid" v="342535"/>
  </node>
  <node id="-761" visible="true" lat="43.672843171692" lon="-72.843014792377">
    <tag k="addr:city" v="Killington"/>
    <tag k="addr:housenumber" v="44"/>
    <tag k="addr:street" v="Windrift Ridge Road"/>
    <tag k="addr:state" v="VT"/>
    <tag k="ref:vcgi:esiteid" v="342536"/>
  </node>
</osm>
