<?xml version="1.0" encoding="UTF-8"?>
<osm version="0.6" generator="JOSM" upload="false">
  <node id="-376" visible="true" lat="43.485354392389" lon="-73.117441284606">
    <!-- multiple: "8 East Street, Middletown Springs, VT" Multiple exact matches in OSM. -->
    <tag k="addr:city" v="Middletown Springs"/>
    <tag k="addr:housenumber" v="8"/>
    <tag k="addr:street" v="East Street"/>
    <tag k="addr:state" v="VT"/>
    <tag k="ref:vcgi:esiteid" v="157925"/>
  </node>
  <node id="-703" visible="true" lat="43.485268787963" lon="-73.117909042553">
    <!-- multiple: "5 South Street, Middletown Springs, VT" Multiple exact matches in OSM. -->
    <tag k="addr:city" v="Middletown Springs"/>
    <tag k="addr:housenumber" v="5"/>
    <tag k="addr:street" v="South Street"/>
    <tag k="addr:state" v="VT"/>
    <tag k="ref:vcgi:esiteid" v="761220"/>
  </node>
</osm>
