<?xml version="1.0" encoding="UTF-8"?>
<osm version="0.6" generator="JOSM" upload="false">
  <node id="-177" visible="true" lat="44.036641842823" lon="-73.163403236023">
    <!-- multiple: "1469 Exchange Street, Middlebury, VT" Multiple exact matches in OSM. -->
    <tag k="addr:city" v="Middlebury"/>
    <tag k="addr:housenumber" v="1469"/>
    <tag k="addr:street" v="Exchange Street"/>
    <tag k="addr:state" v="VT"/>
    <tag k="ref:vcgi:esiteid" v="153948"/>
  </node>
  <node id="-192" visible="true" lat="44.035491081997" lon="-73.168963661377">
    <!-- multiple: "1197 Exchange Street, Middlebury, VT" Multiple exact matches in OSM. -->
    <tag k="addr:city" v="Middlebury"/>
    <tag k="addr:housenumber" v="1197"/>
    <tag k="addr:street" v="Exchange Street"/>
    <tag k="addr:state" v="VT"/>
    <tag k="ref:vcgi:esiteid" v="153966"/>
  </node>
  <node id="-252" visible="true" lat="44.02964774339" lon="-73.169888290559">
    <!-- multiple: "812 Exchange Street, Middlebury, VT" Multiple exact matches in OSM. -->
    <tag k="addr:city" v="Middlebury"/>
    <tag k="addr:housenumber" v="812"/>
    <tag k="addr:street" v="Exchange Street"/>
    <tag k="addr:state" v="VT"/>
    <tag k="ref:vcgi:esiteid" v="154031"/>
  </node>
  <node id="-317" visible="true" lat="44.027138963072" lon="-73.170084700627">
    <!-- multiple: "616 Exchange Street, Middlebury, VT" Multiple exact matches in OSM. -->
    <tag k="addr:city" v="Middlebury"/>
    <tag k="addr:housenumber" v="616"/>
    <tag k="addr:street" v="Exchange Street"/>
    <tag k="addr:state" v="VT"/>
    <tag k="ref:vcgi:esiteid" v="154107"/>
  </node>
  <node id="-503" visible="true" lat="44.021412417437" lon="-73.169960934725">
    <!-- multiple: "213 Exchange Street, Middlebury, VT" Multiple exact matches in OSM. -->
    <tag k="addr:city" v="Middlebury"/>
    <tag k="addr:housenumber" v="213"/>
    <tag k="addr:street" v="Exchange Street"/>
    <tag k="addr:state" v="VT"/>
    <tag k="ref:vcgi:esiteid" v="154307"/>
  </node>
  <node id="-684" visible="true" lat="44.018651333136" lon="-73.1698393433">
    <!-- multiple: "21 Macintyre Lane, Middlebury, VT" Multiple exact matches in OSM. -->
    <tag k="addr:city" v="Middlebury"/>
    <tag k="addr:housenumber" v="21"/>
    <tag k="addr:street" v="Macintyre Lane"/>
    <tag k="addr:state" v="VT"/>
    <tag k="ref:vcgi:esiteid" v="154505"/>
  </node>
  <node id="-705" visible="true" lat="44.018511156458" lon="-73.165212295994">
    <!-- multiple: "25 Stewart Lane, Middlebury, VT" Multiple exact matches in OSM. -->
    <tag k="addr:city" v="Middlebury"/>
    <tag k="addr:housenumber" v="25"/>
    <tag k="addr:street" v="Stewart Lane"/>
    <tag k="addr:state" v="VT"/>
    <tag k="ref:vcgi:esiteid" v="154527"/>
  </node>
  <node id="-709" visible="true" lat="44.018500100556" lon="-73.159468342911">
    <!-- multiple: "139 Washington Street Extension, Middlebury, VT" Multiple exact matches in OSM. -->
    <tag k="addr:city" v="Middlebury"/>
    <tag k="addr:housenumber" v="139"/>
    <tag k="addr:street" v="Washington Street Extension"/>
    <tag k="addr:state" v="VT"/>
    <tag k="ref:vcgi:esiteid" v="154532"/>
  </node>
  <node id="-763" visible="true" lat="44.017571775312" lon="-73.169579944035">
    <!-- multiple: "29 Seymour Street, Middlebury, VT" Multiple exact matches in OSM. -->
    <tag k="addr:city" v="Middlebury"/>
    <tag k="addr:housenumber" v="29"/>
    <tag k="addr:street" v="Seymour Street"/>
    <tag k="addr:state" v="VT"/>
    <tag k="ref:vcgi:esiteid" v="154593"/>
  </node>
  <node id="-849" visible="true" lat="44.016623204296" lon="-73.168543183639">
    <!-- multiple: "20 Seymour Street, Middlebury, VT" Multiple exact matches in OSM. -->
    <tag k="addr:city" v="Middlebury"/>
    <tag k="addr:housenumber" v="20"/>
    <tag k="addr:street" v="Seymour Street"/>
    <tag k="addr:state" v="VT"/>
    <tag k="ref:vcgi:esiteid" v="154690"/>
  </node>
  <node id="-896" visible="true" lat="44.016253192293" lon="-73.169822785667">
    <!-- multiple: "63 Maple Street, Middlebury, VT" Multiple exact matches in OSM. -->
    <tag k="addr:city" v="Middlebury"/>
    <tag k="addr:housenumber" v="63"/>
    <tag k="addr:street" v="Maple Street"/>
    <tag k="addr:state" v="VT"/>
    <tag k="ref:vcgi:esiteid" v="154738"/>
  </node>
  <node id="-933" visible="true" lat="44.01563637533" lon="-73.169657141554">
    <!-- multiple: "99 Maple Street, Middlebury, VT" Multiple exact matches in OSM. -->
    <tag k="addr:city" v="Middlebury"/>
    <tag k="addr:housenumber" v="99"/>
    <tag k="addr:street" v="Maple Street"/>
    <tag k="addr:state" v="VT"/>
    <tag k="ref:vcgi:esiteid" v="154778"/>
  </node>
  <node id="-948" visible="true" lat="44.01536790436" lon="-73.169914910469">
    <!-- multiple: "111 Maple Street, Middlebury, VT" Multiple exact matches in OSM. -->
    <tag k="addr:city" v="Middlebury"/>
    <tag k="addr:housenumber" v="111"/>
    <tag k="addr:street" v="Maple Street"/>
    <tag k="addr:state" v="VT"/>
    <tag k="ref:vcgi:esiteid" v="154795"/>
  </node>
  <node id="-977" visible="true" lat="44.015117350616" lon="-73.169816866391">
    <!-- multiple: "137 Maple Street, Middlebury, VT" Multiple exact matches in OSM. -->
    <tag k="addr:city" v="Middlebury"/>
    <tag k="addr:housenumber" v="137"/>
    <tag k="addr:street" v="Maple Street"/>
    <tag k="addr:state" v="VT"/>
    <tag k="ref:vcgi:esiteid" v="154834"/>
  </node>
  <node id="-981" visible="true" lat="44.015142461251" lon="-73.164464081522">
    <!-- multiple: "15 Washington Street, Middlebury, VT" Multiple exact matches in OSM. -->
    <tag k="addr:city" v="Middlebury"/>
    <tag k="addr:housenumber" v="15"/>
    <tag k="addr:street" v="Washington Street"/>
    <tag k="addr:state" v="VT"/>
    <tag k="ref:vcgi:esiteid" v="154839"/>
  </node>
  <node id="-991" visible="true" lat="44.014991868548" lon="-73.164698310588">
    <!-- multiple: "11 Washington Street, Middlebury, VT" Multiple exact matches in OSM. -->
    <tag k="addr:city" v="Middlebury"/>
    <tag k="addr:housenumber" v="11"/>
    <tag k="addr:street" v="Washington Street"/>
    <tag k="addr:state" v="VT"/>
    <tag k="ref:vcgi:esiteid" v="154851"/>
  </node>
  <node id="-992" visible="true" lat="44.014988939796" lon="-73.163915987938">
    <!-- multiple: "10 Washington Street, Middlebury, VT" Multiple exact matches in OSM. -->
    <tag k="addr:city" v="Middlebury"/>
    <tag k="addr:housenumber" v="10"/>
    <tag k="addr:street" v="Washington Street"/>
    <tag k="addr:state" v="VT"/>
    <tag k="ref:vcgi:esiteid" v="154852"/>
  </node>
  <node id="-1006" visible="true" lat="44.014871035572" lon="-73.166068370586">
    <!-- multiple: "14 Court Square, Middlebury, VT" Multiple exact matches in OSM. -->
    <tag k="addr:city" v="Middlebury"/>
    <tag k="addr:housenumber" v="14"/>
    <tag k="addr:street" v="Court Square"/>
    <tag k="addr:state" v="VT"/>
    <tag k="ref:vcgi:esiteid" v="154868"/>
  </node>
  <node id="-1012" visible="true" lat="44.014791461578" lon="-73.165063902847">
    <!-- multiple: "7 Washington Street, Middlebury, VT" Multiple exact matches in OSM. -->
    <tag k="addr:city" v="Middlebury"/>
    <tag k="addr:housenumber" v="7"/>
    <tag k="addr:street" v="Washington Street"/>
    <tag k="addr:state" v="VT"/>
    <tag k="ref:vcgi:esiteid" v="154876"/>
  </node>
  <node id="-1018" visible="true" lat="44.014671203931" lon="-73.165309214754">
    <!-- multiple: "1 Washington Street, Middlebury, VT" Multiple exact matches in OSM. -->
    <tag k="addr:city" v="Middlebury"/>
    <tag k="addr:housenumber" v="1"/>
    <tag k="addr:street" v="Washington Street"/>
    <tag k="addr:state" v="VT"/>
    <tag k="ref:vcgi:esiteid" v="154885"/>
  </node>
  <node id="-1041" visible="true" lat="44.014307086875" lon="-73.168437956514">
    <!-- multiple: "30 Main Street, Middlebury, VT" Multiple exact matches in OSM. -->
    <tag k="addr:city" v="Middlebury"/>
    <tag k="addr:housenumber" v="30"/>
    <tag k="addr:street" v="Main Street"/>
    <tag k="addr:state" v="VT"/>
    <tag k="ref:vcgi:esiteid" v="154912"/>
  </node>
  <node id="-1055" visible="true" lat="44.014040025312" lon="-73.16851562669">
    <!-- multiple: "34 Main Street, Middlebury, VT" Multiple exact matches in OSM. -->
    <tag k="addr:city" v="Middlebury"/>
    <tag k="addr:housenumber" v="34"/>
    <tag k="addr:street" v="Main Street"/>
    <tag k="addr:state" v="VT"/>
    <tag k="ref:vcgi:esiteid" v="154929"/>
  </node>
  <node id="-1057" visible="true" lat="44.014062616297" lon="-73.165264459201">
    <!-- multiple: "3 Court Street, Middlebury, VT" Multiple exact matches in OSM. -->
    <tag k="addr:city" v="Middlebury"/>
    <tag k="addr:housenumber" v="3"/>
    <tag k="addr:street" v="Court Street"/>
    <tag k="addr:state" v="VT"/>
    <tag k="ref:vcgi:esiteid" v="154931"/>
  </node>
  <node id="-1060" visible="true" lat="44.013958900056" lon="-73.16850459741">
    <!-- multiple: "38 Main Street, Middlebury, VT" Multiple exact matches in OSM. -->
    <tag k="addr:city" v="Middlebury"/>
    <tag k="addr:housenumber" v="38"/>
    <tag k="addr:street" v="Main Street"/>
    <tag k="addr:state" v="VT"/>
    <tag k="ref:vcgi:esiteid" v="154934"/>
  </node>
  <node id="-1063" visible="true" lat="44.013852359921" lon="-73.168524973177">
    <!-- multiple: "40 Main Street, Middlebury, VT" Multiple exact matches in OSM. -->
    <tag k="addr:city" v="Middlebury"/>
    <tag k="addr:housenumber" v="40"/>
    <tag k="addr:street" v="Main Street"/>
    <tag k="addr:state" v="VT"/>
    <tag k="ref:vcgi:esiteid" v="154939"/>
  </node>
  <node id="-1065" visible="true" lat="44.013774053351" lon="-73.168573807261">
    <!-- multiple: "42 Main Street, Middlebury, VT" Multiple exact matches in OSM. -->
    <tag k="addr:city" v="Middlebury"/>
    <tag k="addr:housenumber" v="42"/>
    <tag k="addr:street" v="Main Street"/>
    <tag k="addr:state" v="VT"/>
    <tag k="ref:vcgi:esiteid" v="154941"/>
  </node>
  <node id="-1072" visible="true" lat="44.013753262706" lon="-73.164834459503">
    <!-- multiple: "7 Court Street, Middlebury, VT" Multiple exact matches in OSM. -->
    <tag k="addr:city" v="Middlebury"/>
    <tag k="addr:housenumber" v="7"/>
    <tag k="addr:street" v="Court Street"/>
    <tag k="addr:state" v="VT"/>
    <tag k="ref:vcgi:esiteid" v="154950"/>
  </node>
  <node id="-1073" visible="true" lat="44.013700554865" lon="-73.168609533187">
    <!-- multiple: "44 Main Street, Middlebury, VT" Multiple exact matches in OSM. -->
    <tag k="addr:city" v="Middlebury"/>
    <tag k="addr:housenumber" v="44"/>
    <tag k="addr:street" v="Main Street"/>
    <tag k="addr:state" v="VT"/>
    <tag k="ref:vcgi:esiteid" v="154951"/>
  </node>
  <node id="-1076" visible="true" lat="44.013707484609" lon="-73.165269334741">
    <!-- multiple: "7 Court Street, Middlebury, VT" Multiple exact matches in OSM. -->
    <tag k="addr:city" v="Middlebury"/>
    <tag k="addr:housenumber" v="7"/>
    <tag k="addr:street" v="Court Street"/>
    <tag k="addr:state" v="VT"/>
    <tag k="ref:vcgi:esiteid" v="154954"/>
  </node>
  <node id="-1091" visible="true" lat="44.013557452331" lon="-73.168710033877">
    <!-- multiple: "48 Main Street, Middlebury, VT" Multiple exact matches in OSM. -->
    <tag k="addr:city" v="Middlebury"/>
    <tag k="addr:housenumber" v="48"/>
    <tag k="addr:street" v="Main Street"/>
    <tag k="addr:state" v="VT"/>
    <tag k="ref:vcgi:esiteid" v="154970"/>
  </node>
  <node id="-1097" visible="true" lat="44.014540846821" lon="-73.13951995949">
    <!-- multiple: "217 Quarry Road, Middlebury, VT" Multiple exact matches in OSM. -->
    <tag k="addr:city" v="Middlebury"/>
    <tag k="addr:housenumber" v="217"/>
    <tag k="addr:street" v="Quarry Road"/>
    <tag k="addr:state" v="VT"/>
    <tag k="ref:vcgi:esiteid" v="154977"/>
  </node>
  <node id="-1112" visible="true" lat="44.013291685771" lon="-73.170040880279">
    <!-- multiple: "3 Mill Street, Middlebury, VT" Multiple exact matches in OSM. -->
    <tag k="addr:city" v="Middlebury"/>
    <tag k="addr:housenumber" v="3"/>
    <tag k="addr:street" v="Mill Street"/>
    <tag k="addr:state" v="VT"/>
    <tag k="ref:vcgi:esiteid" v="154995"/>
  </node>
  <node id="-1124" visible="true" lat="44.013103563325" lon="-73.169024675541">
    <!-- multiple: "64 Main Street, Middlebury, VT" Multiple exact matches in OSM. -->
    <tag k="addr:city" v="Middlebury"/>
    <tag k="addr:housenumber" v="64"/>
    <tag k="addr:street" v="Main Street"/>
    <tag k="addr:state" v="VT"/>
    <tag k="ref:vcgi:esiteid" v="155008"/>
  </node>
  <node id="-1131" visible="true" lat="44.013053911738" lon="-73.169066985202">
    <!-- multiple: "66 Main Street, Middlebury, VT" Multiple exact matches in OSM. -->
    <tag k="addr:city" v="Middlebury"/>
    <tag k="addr:housenumber" v="66"/>
    <tag k="addr:street" v="Main Street"/>
    <tag k="addr:state" v="VT"/>
    <tag k="ref:vcgi:esiteid" v="155015"/>
  </node>
  <node id="-1138" visible="true" lat="44.013001765287" lon="-73.164849718634">
    <!-- multiple: "13 Court Street, Middlebury, VT" Multiple exact matches in OSM. -->
    <tag k="addr:city" v="Middlebury"/>
    <tag k="addr:housenumber" v="13"/>
    <tag k="addr:street" v="Court Street"/>
    <tag k="addr:state" v="VT"/>
    <tag k="ref:vcgi:esiteid" v="155024"/>
  </node>
  <node id="-1151" visible="true" lat="44.012854205363" lon="-73.168777871277">
    <!-- multiple: "63 Main Street, Middlebury, VT" Multiple exact matches in OSM. -->
    <tag k="addr:city" v="Middlebury"/>
    <tag k="addr:housenumber" v="63"/>
    <tag k="addr:street" v="Main Street"/>
    <tag k="addr:state" v="VT"/>
    <tag k="ref:vcgi:esiteid" v="155039"/>
  </node>
  <node id="-1159" visible="true" lat="44.012777911125" lon="-73.16884653696">
    <!-- multiple: "65 Main Street, Middlebury, VT" Multiple exact matches in OSM. -->
    <tag k="addr:city" v="Middlebury"/>
    <tag k="addr:housenumber" v="65"/>
    <tag k="addr:street" v="Main Street"/>
    <tag k="addr:state" v="VT"/>
    <tag k="ref:vcgi:esiteid" v="155050"/>
  </node>
  <node id="-1168" visible="true" lat="44.012715812203" lon="-73.169884798474">
    <!-- multiple: "2 Park Street, Middlebury, VT" Multiple exact matches in OSM. -->
    <tag k="addr:city" v="Middlebury"/>
    <tag k="addr:housenumber" v="2"/>
    <tag k="addr:street" v="Park Street"/>
    <tag k="addr:state" v="VT"/>
    <tag k="ref:vcgi:esiteid" v="155059"/>
  </node>
  <node id="-1170" visible="true" lat="44.01281822728" lon="-73.168158203608">
    <!-- multiple: "7 Bakery Lane, Middlebury, VT" Multiple exact matches in OSM. -->
    <tag k="addr:city" v="Middlebury"/>
    <tag k="addr:housenumber" v="7"/>
    <tag k="addr:street" v="Bakery Lane"/>
    <tag k="addr:state" v="VT"/>
    <tag k="ref:vcgi:esiteid" v="155062"/>
  </node>
  <node id="-1186" visible="true" lat="44.0126674976" lon="-73.16605624603">
    <!-- multiple: "111 South Pleasant Street, Middlebury, VT" Multiple exact matches in OSM. -->
    <tag k="addr:city" v="Middlebury"/>
    <tag k="addr:housenumber" v="111"/>
    <tag k="addr:street" v="South Pleasant Street"/>
    <tag k="addr:state" v="VT"/>
    <tag k="ref:vcgi:esiteid" v="155080"/>
  </node>
  <node id="-1187" visible="true" lat="44.012559261196" lon="-73.165162522516">
    <!-- multiple: "16 Court Street, Middlebury, VT" Multiple exact matches in OSM. -->
    <tag k="addr:city" v="Middlebury"/>
    <tag k="addr:housenumber" v="16"/>
    <tag k="addr:street" v="Court Street"/>
    <tag k="addr:state" v="VT"/>
    <tag k="ref:vcgi:esiteid" v="155081"/>
  </node>
  <node id="-1188" visible="true" lat="44.012601139539" lon="-73.168176753497">
    <!-- multiple: "8 Bakery Lane, Middlebury, VT" Multiple exact matches in OSM. -->
    <tag k="addr:city" v="Middlebury"/>
    <tag k="addr:housenumber" v="8"/>
    <tag k="addr:street" v="Bakery Lane"/>
    <tag k="addr:state" v="VT"/>
    <tag k="ref:vcgi:esiteid" v="155082"/>
  </node>
  <node id="-1208" visible="true" lat="44.012270812328" lon="-73.169872655896">
    <!-- multiple: "86 Main Street, Middlebury, VT" Multiple exact matches in OSM. -->
    <tag k="addr:city" v="Middlebury"/>
    <tag k="addr:housenumber" v="86"/>
    <tag k="addr:street" v="Main Street"/>
    <tag k="addr:state" v="VT"/>
    <tag k="ref:vcgi:esiteid" v="155106"/>
  </node>
  <node id="-1214" visible="true" lat="44.012215833367" lon="-73.164045147516">
    <!-- multiple: "25 Court Street, Middlebury, VT" Multiple exact matches in OSM. -->
    <tag k="addr:city" v="Middlebury"/>
    <tag k="addr:housenumber" v="25"/>
    <tag k="addr:street" v="Court Street"/>
    <tag k="addr:state" v="VT"/>
    <tag k="ref:vcgi:esiteid" v="155114"/>
  </node>
  <node id="-1215" visible="true" lat="44.012143458312" lon="-73.170007190505">
    <!-- multiple: "88 Main Street, Middlebury, VT" Multiple exact matches in OSM. -->
    <tag k="addr:city" v="Middlebury"/>
    <tag k="addr:housenumber" v="88"/>
    <tag k="addr:street" v="Main Street"/>
    <tag k="addr:state" v="VT"/>
    <tag k="ref:vcgi:esiteid" v="155116"/>
  </node>
  <node id="-1237" visible="true" lat="44.011707354239" lon="-73.181242202784">
    <!-- multiple: "160 HMKL Way, Middlebury, VT" Multiple exact matches in OSM. -->
    <tag k="addr:city" v="Middlebury"/>
    <tag k="addr:housenumber" v="160"/>
    <tag k="addr:street" v="HMKL Way"/>
    <tag k="addr:state" v="VT"/>
    <tag k="ref:vcgi:esiteid" v="155140"/>
  </node>
  <node id="-1241" visible="true" lat="44.011789226818" lon="-73.170789514403">
    <!-- multiple: "54 College Street, Middlebury, VT" Multiple exact matches in OSM. -->
    <tag k="addr:city" v="Middlebury"/>
    <tag k="addr:housenumber" v="54"/>
    <tag k="addr:street" v="College Street"/>
    <tag k="addr:state" v="VT"/>
    <tag k="ref:vcgi:esiteid" v="155144"/>
  </node>
  <node id="-1244" visible="true" lat="44.011720027034" lon="-73.164498765216">
    <!-- multiple: "28 Court Street, Middlebury, VT" Multiple exact matches in OSM. -->
    <tag k="addr:city" v="Middlebury"/>
    <tag k="addr:housenumber" v="28"/>
    <tag k="addr:street" v="Court Street"/>
    <tag k="addr:state" v="VT"/>
    <tag k="ref:vcgi:esiteid" v="155148"/>
  </node>
  <node id="-1298" visible="true" lat="44.011027586988" lon="-73.162901422144">
    <!-- multiple: "43 Court Street, Middlebury, VT" Multiple exact matches in OSM. -->
    <tag k="addr:city" v="Middlebury"/>
    <tag k="addr:housenumber" v="43"/>
    <tag k="addr:street" v="Court Street"/>
    <tag k="addr:state" v="VT"/>
    <tag k="ref:vcgi:esiteid" v="155213"/>
  </node>
  <node id="-1306" visible="true" lat="44.010744563165" lon="-73.164505675175">
    <!-- multiple: "40 Court Street, Middlebury, VT" Multiple exact matches in OSM. -->
    <tag k="addr:city" v="Middlebury"/>
    <tag k="addr:housenumber" v="40"/>
    <tag k="addr:street" v="Court Street"/>
    <tag k="addr:state" v="VT"/>
    <tag k="ref:vcgi:esiteid" v="155221"/>
  </node>
  <node id="-1310" visible="true" lat="44.010908428838" lon="-73.161814363607">
    <!-- multiple: "201 Mary Hogan Drive, Middlebury, VT" Multiple exact matches in OSM. -->
    <tag k="addr:city" v="Middlebury"/>
    <tag k="addr:housenumber" v="201"/>
    <tag k="addr:street" v="Mary Hogan Drive"/>
    <tag k="addr:state" v="VT"/>
    <tag k="ref:vcgi:esiteid" v="155225"/>
  </node>
  <node id="-1484" visible="true" lat="44.008294500429" lon="-73.177256463414">
    <!-- multiple: "14 Old Chapel Road, Middlebury, VT" Multiple exact matches in OSM. -->
    <tag k="addr:city" v="Middlebury"/>
    <tag k="addr:housenumber" v="14"/>
    <tag k="addr:street" v="Old Chapel Road"/>
    <tag k="addr:state" v="VT"/>
    <tag k="ref:vcgi:esiteid" v="155420"/>
  </node>
  <node id="-1606" visible="true" lat="44.006802881375" lon="-73.17637010803">
    <!-- multiple: "136 South Main Street, Middlebury, VT" Multiple exact matches in OSM. -->
    <tag k="addr:city" v="Middlebury"/>
    <tag k="addr:housenumber" v="136"/>
    <tag k="addr:street" v="South Main Street"/>
    <tag k="addr:state" v="VT"/>
    <tag k="ref:vcgi:esiteid" v="155558"/>
  </node>
  <node id="-1625" visible="true" lat="44.006703030092" lon="-73.163137918657">
    <!-- multiple: "73 Charles Avenue, Middlebury, VT" Multiple exact matches in OSM. -->
    <tag k="addr:city" v="Middlebury"/>
    <tag k="addr:housenumber" v="73"/>
    <tag k="addr:street" v="Charles Avenue"/>
    <tag k="addr:state" v="VT"/>
    <tag k="ref:vcgi:esiteid" v="155579"/>
  </node>
  <node id="-1629" visible="true" lat="44.006478318254" lon="-73.160066813959">
    <!-- multiple: "93 Court Street, Middlebury, VT" Multiple exact matches in OSM. -->
    <tag k="addr:city" v="Middlebury"/>
    <tag k="addr:housenumber" v="93"/>
    <tag k="addr:street" v="Court Street"/>
    <tag k="addr:state" v="VT"/>
    <tag k="ref:vcgi:esiteid" v="155583"/>
  </node>
  <node id="-1673" visible="true" lat="44.005309045039" lon="-73.175964115831">
    <!-- multiple: "72 Porter Field Road, Middlebury, VT" Multiple exact matches in OSM. -->
    <tag k="addr:city" v="Middlebury"/>
    <tag k="addr:housenumber" v="72"/>
    <tag k="addr:street" v="Porter Field Road"/>
    <tag k="addr:state" v="VT"/>
    <tag k="ref:vcgi:esiteid" v="155634"/>
  </node>
  <node id="-1689" visible="true" lat="44.004809459258" lon="-73.158503363006">
    <!-- multiple: "105 Court Street, Middlebury, VT" Multiple exact matches in OSM. -->
    <tag k="addr:city" v="Middlebury"/>
    <tag k="addr:housenumber" v="105"/>
    <tag k="addr:street" v="Court Street"/>
    <tag k="addr:state" v="VT"/>
    <tag k="ref:vcgi:esiteid" v="155655"/>
  </node>
  <node id="-1716" visible="true" lat="44.00379120253" lon="-73.156156876388">
    <!-- multiple: "173 Court Street, Middlebury, VT" Multiple exact matches in OSM. -->
    <tag k="addr:city" v="Middlebury"/>
    <tag k="addr:housenumber" v="173"/>
    <tag k="addr:street" v="Court Street"/>
    <tag k="addr:state" v="VT"/>
    <tag k="ref:vcgi:esiteid" v="155686"/>
  </node>
  <node id="-1770" visible="true" lat="44.00087354465" lon="-73.146855625663">
    <!-- multiple: "49 Wilson Road, Middlebury, VT" Multiple exact matches in OSM. -->
    <tag k="addr:city" v="Middlebury"/>
    <tag k="addr:housenumber" v="49"/>
    <tag k="addr:street" v="Wilson Road"/>
    <tag k="addr:state" v="VT"/>
    <tag k="ref:vcgi:esiteid" v="155753"/>
  </node>
  <node id="-1773" visible="true" lat="44.000478522056" lon="-73.169212393163">
    <!-- multiple: "44 Collins Drive, Middlebury, VT" Multiple exact matches in OSM. -->
    <tag k="addr:city" v="Middlebury"/>
    <tag k="addr:housenumber" v="44"/>
    <tag k="addr:street" v="Collins Drive"/>
    <tag k="addr:state" v="VT"/>
    <tag k="ref:vcgi:esiteid" v="155756"/>
  </node>
  <node id="-1778" visible="true" lat="44.000356042537" lon="-73.144662332191">
    <!-- multiple: "236 Boardman Street, Middlebury, VT" Multiple exact matches in OSM. -->
    <tag k="addr:city" v="Middlebury"/>
    <tag k="addr:housenumber" v="236"/>
    <tag k="addr:street" v="Boardman Street"/>
    <tag k="addr:state" v="VT"/>
    <tag k="ref:vcgi:esiteid" v="155762"/>
  </node>
  <node id="-1784" visible="true" lat="44.000323701575" lon="-73.145729978592">
    <!-- multiple: "99 Wilson Road, Middlebury, VT" Multiple exact matches in OSM. -->
    <tag k="addr:city" v="Middlebury"/>
    <tag k="addr:housenumber" v="99"/>
    <tag k="addr:street" v="Wilson Road"/>
    <tag k="addr:state" v="VT"/>
    <tag k="ref:vcgi:esiteid" v="155768"/>
  </node>
  <node id="-1786" visible="true" lat="43.999722801964" lon="-73.168527085888">
    <!-- multiple: "115 Porter Drive, Middlebury, VT" Multiple exact matches in OSM. -->
    <tag k="addr:city" v="Middlebury"/>
    <tag k="addr:housenumber" v="115"/>
    <tag k="addr:street" v="Porter Drive"/>
    <tag k="addr:state" v="VT"/>
    <tag k="ref:vcgi:esiteid" v="155771"/>
  </node>
  <node id="-2431" visible="true" lat="43.999267205795" lon="-73.159242400837">
    <!-- multiple: "399 Creek Road, Middlebury, VT" Multiple exact matches in OSM. -->
    <tag k="addr:city" v="Middlebury"/>
    <tag k="addr:housenumber" v="399"/>
    <tag k="addr:street" v="Creek Road"/>
    <tag k="addr:state" v="VT"/>
    <tag k="ref:vcgi:esiteid" v="156479"/>
  </node>
  <node id="-2436" visible="true" lat="44.013394534709" lon="-73.181275910241">
    <!-- multiple: "276 Bicentennial Way, Middlebury, VT" Multiple exact matches in OSM. -->
    <tag k="addr:city" v="Middlebury"/>
    <tag k="addr:housenumber" v="276"/>
    <tag k="addr:street" v="Bicentennial Way"/>
    <tag k="addr:state" v="VT"/>
    <tag k="ref:vcgi:esiteid" v="156484"/>
  </node>
  <node id="-2447" visible="true" lat="43.998362318873" lon="-73.152620383621">
    <!-- multiple: "48 Deerfield Lane, Middlebury, VT" Multiple exact matches in OSM. -->
    <tag k="addr:city" v="Middlebury"/>
    <tag k="addr:housenumber" v="48"/>
    <tag k="addr:street" v="Deerfield Lane"/>
    <tag k="addr:state" v="VT"/>
    <tag k="ref:vcgi:esiteid" v="156495"/>
  </node>
  <node id="-2486" visible="true" lat="44.011108032171" lon="-73.163085587534">
    <!-- multiple: "43 Court Street, Middlebury, VT" Multiple exact matches in OSM. -->
    <tag k="addr:city" v="Middlebury"/>
    <tag k="addr:housenumber" v="43"/>
    <tag k="addr:street" v="Court Street"/>
    <tag k="addr:state" v="VT"/>
    <tag k="ref:vcgi:esiteid" v="156542"/>
  </node>
  <node id="-2489" visible="true" lat="44.013495974111" lon="-73.16835466966">
    <!-- multiple: "51 Main Street, Middlebury, VT" Multiple exact matches in OSM. -->
    <tag k="addr:city" v="Middlebury"/>
    <tag k="addr:housenumber" v="51"/>
    <tag k="addr:street" v="Main Street"/>
    <tag k="addr:state" v="VT"/>
    <tag k="ref:vcgi:esiteid" v="156545"/>
  </node>
  <node id="-2490" visible="true" lat="44.041699650154" lon="-73.175057982748">
    <!-- multiple: "243 Industrial Avenue, Middlebury, VT" Multiple exact matches in OSM. -->
    <tag k="addr:city" v="Middlebury"/>
    <tag k="addr:housenumber" v="243"/>
    <tag k="addr:street" v="Industrial Avenue"/>
    <tag k="addr:state" v="VT"/>
    <tag k="ref:vcgi:esiteid" v="156546"/>
  </node>
  <node id="-2494" visible="true" lat="43.998833948972" lon="-73.142900996375">
    <!-- multiple: "360 Boardman Street, Middlebury, VT" Multiple exact matches in OSM. -->
    <tag k="addr:city" v="Middlebury"/>
    <tag k="addr:housenumber" v="360"/>
    <tag k="addr:street" v="Boardman Street"/>
    <tag k="addr:state" v="VT"/>
    <tag k="ref:vcgi:esiteid" v="156550"/>
  </node>
  <node id="-2507" visible="true" lat="44.027997594426" lon="-73.172778125027">
    <!-- multiple: "82 Catamount Park, Middlebury, VT" Multiple exact matches in OSM. -->
    <tag k="addr:city" v="Middlebury"/>
    <tag k="addr:housenumber" v="82"/>
    <tag k="addr:street" v="Catamount Park"/>
    <tag k="addr:state" v="VT"/>
    <tag k="ref:vcgi:esiteid" v="156563"/>
  </node>
  <node id="-2556" visible="true" lat="44.006750439418" lon="-73.159271147596">
    <!-- multiple: "93 Court Street, Middlebury, VT" Multiple exact matches in OSM. -->
    <tag k="addr:city" v="Middlebury"/>
    <tag k="addr:housenumber" v="93"/>
    <tag k="addr:street" v="Court Street"/>
    <tag k="addr:state" v="VT"/>
    <tag k="ref:vcgi:esiteid" v="156616"/>
  </node>
  <node id="-2870" visible="true" lat="44.015275174666" lon="-73.169049206157">
    <!-- multiple: "211 Maple Street, Middlebury, VT" Multiple exact matches in OSM. -->
    <tag k="addr:city" v="Middlebury"/>
    <tag k="addr:housenumber" v="211"/>
    <tag k="addr:street" v="Maple Street"/>
    <tag k="addr:state" v="VT"/>
    <tag k="ref:vcgi:esiteid" v="332727"/>
  </node>
  <node id="-2895" visible="true" lat="44.023994191102" lon="-73.171065119812">
    <!-- multiple: "383 Exchange Street, Middlebury, VT" Multiple exact matches in OSM. -->
    <tag k="addr:city" v="Middlebury"/>
    <tag k="addr:housenumber" v="383"/>
    <tag k="addr:street" v="Exchange Street"/>
    <tag k="addr:state" v="VT"/>
    <tag k="ref:vcgi:esiteid" v="337740"/>
  </node>
</osm>
