<?xml version="1.0" encoding="UTF-8"?>
<osm version="0.6" generator="JOSM" upload="false">
  <node id="-486" visible="true" lat="44.022267666305" lon="-73.173036061507">
    <!-- offset: "88 Seymour Street, Middlebury, VT" Significant offset - 160.3m -->
    <tag k="addr:city" v="Middlebury"/>
    <tag k="addr:housenumber" v="88"/>
    <tag k="addr:street" v="Seymour Street"/>
    <tag k="addr:state" v="VT"/>
    <tag k="ref:vcgi:esiteid" v="154289"/>
  </node>
  <node id="-2552" visible="true" lat="44.047400179135" lon="-73.120725800868">
    <!-- offset: "1967 Munger Street, Middlebury, VT" Significant offset - 294.9m -->
    <tag k="addr:city" v="Middlebury"/>
    <tag k="addr:housenumber" v="1967"/>
    <tag k="addr:street" v="Munger Street"/>
    <tag k="addr:state" v="VT"/>
    <tag k="ref:vcgi:esiteid" v="156612"/>
  </node>
  <node id="-3149" visible="true" lat="43.955982653107" lon="-73.137704838809">
    <!-- offset: "2189 Middle Road, Salisbury, VT" Significant offset - 327.9m -->
    <tag k="addr:city" v="Salisbury"/>
    <tag k="addr:housenumber" v="2189"/>
    <tag k="addr:street" v="Middle Road"/>
    <tag k="addr:state" v="VT"/>
    <tag k="ref:vcgi:esiteid" v="760752"/>
  </node>
</osm>
