<?xml version="1.0" encoding="UTF-8"?>
<osm version="0.6" generator="JOSM" upload="false">
  <node id="-272" visible="true" lat="44.68603402514" lon="-73.159326455967">
    <!-- multiple: "350 Murray Avenue, Milton, VT" Multiple exact matches in OSM. -->
    <tag k="addr:city" v="Milton"/>
    <tag k="addr:housenumber" v="350"/>
    <tag k="addr:street" v="Murray Avenue"/>
    <tag k="addr:state" v="VT"/>
    <tag k="ref:vcgi:esiteid" v="158397"/>
  </node>
  <node id="-465" visible="true" lat="44.665146912519" lon="-73.160360101881">
    <!-- multiple: "524 Lake Road, Milton, VT" Multiple exact matches in OSM. -->
    <tag k="addr:city" v="Milton"/>
    <tag k="addr:housenumber" v="524"/>
    <tag k="addr:street" v="Lake Road"/>
    <tag k="addr:state" v="VT"/>
    <tag k="ref:vcgi:esiteid" v="158590"/>
  </node>
  <node id="-697" visible="true" lat="44.659231723949" lon="-73.14475570892">
    <!-- multiple: "7 Sanderson Road, Milton, VT" Multiple exact matches in OSM. -->
    <tag k="addr:city" v="Milton"/>
    <tag k="addr:housenumber" v="7"/>
    <tag k="addr:street" v="Sanderson Road"/>
    <tag k="addr:state" v="VT"/>
    <tag k="ref:vcgi:esiteid" v="158822"/>
  </node>
  <node id="-698" visible="true" lat="44.658918864031" lon="-73.145512862714">
    <!-- multiple: "7 Sanderson Road, Milton, VT" Multiple exact matches in OSM. -->
    <tag k="addr:city" v="Milton"/>
    <tag k="addr:housenumber" v="7"/>
    <tag k="addr:street" v="Sanderson Road"/>
    <tag k="addr:state" v="VT"/>
    <tag k="ref:vcgi:esiteid" v="158823"/>
  </node>
  <node id="-818" visible="true" lat="44.644992768972" lon="-73.133239417768">
    <!-- multiple: "215 Poor Farm Road, Milton, VT" Multiple exact matches in OSM. -->
    <tag k="addr:city" v="Milton"/>
    <tag k="addr:housenumber" v="215"/>
    <tag k="addr:street" v="Poor Farm Road"/>
    <tag k="addr:state" v="VT"/>
    <tag k="ref:vcgi:esiteid" v="158947"/>
  </node>
  <node id="-821" visible="true" lat="44.645094807752" lon="-73.134417208056">
    <!-- multiple: "215 Poor Farm Road, Milton, VT" Multiple exact matches in OSM. -->
    <tag k="addr:city" v="Milton"/>
    <tag k="addr:housenumber" v="215"/>
    <tag k="addr:street" v="Poor Farm Road"/>
    <tag k="addr:state" v="VT"/>
    <tag k="ref:vcgi:esiteid" v="158950"/>
  </node>
  <node id="-900" visible="true" lat="44.640208286925" lon="-73.113280704576">
    <!-- multiple: "2 River Street, Milton, VT" Multiple exact matches in OSM. -->
    <tag k="addr:city" v="Milton"/>
    <tag k="addr:housenumber" v="2"/>
    <tag k="addr:street" v="River Street"/>
    <tag k="addr:state" v="VT"/>
    <tag k="ref:vcgi:esiteid" v="159033"/>
  </node>
  <node id="-1104" visible="true" lat="44.632077551436" lon="-73.170360159844">
    <!-- multiple: "308 West Milton Road, Milton, VT" Multiple exact matches in OSM. -->
    <tag k="addr:city" v="Milton"/>
    <tag k="addr:housenumber" v="308"/>
    <tag k="addr:street" v="West Milton Road"/>
    <tag k="addr:state" v="VT"/>
    <tag k="ref:vcgi:esiteid" v="159238"/>
  </node>
  <node id="-1315" visible="true" lat="44.632411445764" lon="-73.115472359718">
    <!-- multiple: "105 River Street, Milton, VT" Multiple exact matches in OSM. -->
    <tag k="addr:city" v="Milton"/>
    <tag k="addr:housenumber" v="105"/>
    <tag k="addr:street" v="River Street"/>
    <tag k="addr:state" v="VT"/>
    <tag k="ref:vcgi:esiteid" v="159453"/>
  </node>
  <node id="-1365" visible="true" lat="44.631317605803" lon="-73.119758142593">
    <!-- multiple: "37 Lamoille Terrace, Milton, VT" Multiple exact matches in OSM. -->
    <tag k="addr:city" v="Milton"/>
    <tag k="addr:housenumber" v="37"/>
    <tag k="addr:street" v="Lamoille Terrace"/>
    <tag k="addr:state" v="VT"/>
    <tag k="ref:vcgi:esiteid" v="159503"/>
  </node>
  <node id="-1711" visible="true" lat="44.624242839104" lon="-73.131269411128">
    <!-- multiple: "13 Landfill Road, Milton, VT" Multiple exact matches in OSM. -->
    <tag k="addr:city" v="Milton"/>
    <tag k="addr:housenumber" v="13"/>
    <tag k="addr:street" v="Landfill Road"/>
    <tag k="addr:state" v="VT"/>
    <tag k="ref:vcgi:esiteid" v="159858"/>
  </node>
  <node id="-1772" visible="true" lat="44.623302096237" lon="-73.123421618219">
    <!-- multiple: "11 Haydenberry Drive, Milton, VT" Multiple exact matches in OSM. -->
    <tag k="addr:city" v="Milton"/>
    <tag k="addr:housenumber" v="11"/>
    <tag k="addr:street" v="Haydenberry Drive"/>
    <tag k="addr:state" v="VT"/>
    <tag k="ref:vcgi:esiteid" v="159922"/>
  </node>
  <node id="-1914" visible="true" lat="44.618862030616" lon="-73.120425727173">
    <!-- multiple: "69 Middle Road, Milton, VT" Multiple exact matches in OSM. -->
    <tag k="addr:city" v="Milton"/>
    <tag k="addr:housenumber" v="69"/>
    <tag k="addr:street" v="Middle Road"/>
    <tag k="addr:state" v="VT"/>
    <tag k="ref:vcgi:esiteid" v="160075"/>
  </node>
  <node id="-1918" visible="true" lat="44.619054191058" lon="-73.123964236872">
    <!-- multiple: "43 Bombardier Road, Milton, VT" Multiple exact matches in OSM. -->
    <tag k="addr:city" v="Milton"/>
    <tag k="addr:housenumber" v="43"/>
    <tag k="addr:street" v="Bombardier Road"/>
    <tag k="addr:state" v="VT"/>
    <tag k="ref:vcgi:esiteid" v="160079"/>
  </node>
  <node id="-2192" visible="true" lat="44.609946534454" lon="-73.159329810998">
    <!-- multiple: "37 Precast Road, Milton, VT" Multiple exact matches in OSM. -->
    <tag k="addr:city" v="Milton"/>
    <tag k="addr:housenumber" v="37"/>
    <tag k="addr:street" v="Precast Road"/>
    <tag k="addr:state" v="VT"/>
    <tag k="ref:vcgi:esiteid" v="160359"/>
  </node>
  <node id="-2435" visible="true" lat="44.605918413782" lon="-73.211600209483">
    <!-- multiple: "117 Gravelle Road, Milton, VT" Multiple exact matches in OSM. -->
    <tag k="addr:city" v="Milton"/>
    <tag k="addr:housenumber" v="117"/>
    <tag k="addr:street" v="Gravelle Road"/>
    <tag k="addr:state" v="VT"/>
    <tag k="ref:vcgi:esiteid" v="160605"/>
  </node>
  <node id="-2499" visible="true" lat="44.605407604675" lon="-73.12462528929">
    <!-- multiple: "262 Middle Road, Milton, VT" Multiple exact matches in OSM. -->
    <tag k="addr:city" v="Milton"/>
    <tag k="addr:housenumber" v="262"/>
    <tag k="addr:street" v="Middle Road"/>
    <tag k="addr:state" v="VT"/>
    <tag k="ref:vcgi:esiteid" v="160669"/>
  </node>
  <node id="-2500" visible="true" lat="44.604996268949" lon="-73.124604883056">
    <!-- multiple: "262 Middle Road, Milton, VT" Multiple exact matches in OSM. -->
    <tag k="addr:city" v="Milton"/>
    <tag k="addr:housenumber" v="262"/>
    <tag k="addr:street" v="Middle Road"/>
    <tag k="addr:state" v="VT"/>
    <tag k="ref:vcgi:esiteid" v="160670"/>
  </node>
  <node id="-2702" visible="true" lat="44.60622766373" lon="-73.211753400147">
    <!-- multiple: "117 Gravelle Road, Milton, VT" Multiple exact matches in OSM. -->
    <tag k="addr:city" v="Milton"/>
    <tag k="addr:housenumber" v="117"/>
    <tag k="addr:street" v="Gravelle Road"/>
    <tag k="addr:state" v="VT"/>
    <tag k="ref:vcgi:esiteid" v="160881"/>
  </node>
  <node id="-2830" visible="true" lat="44.613871040425" lon="-73.082660634072">
    <!-- multiple: "313 Hardscrabble Road, Milton, VT" Multiple exact matches in OSM. -->
    <tag k="addr:city" v="Milton"/>
    <tag k="addr:housenumber" v="313"/>
    <tag k="addr:street" v="Hardscrabble Road"/>
    <tag k="addr:state" v="VT"/>
    <tag k="ref:vcgi:esiteid" v="161011"/>
  </node>
  <node id="-2981" visible="true" lat="44.634493393133" lon="-73.109619663718">
    <!-- multiple: "13 Herrick Avenue, Milton, VT" Multiple exact matches in OSM. -->
    <tag k="addr:city" v="Milton"/>
    <tag k="addr:housenumber" v="13"/>
    <tag k="addr:street" v="Herrick Avenue"/>
    <tag k="addr:state" v="VT"/>
    <tag k="ref:vcgi:esiteid" v="161166"/>
  </node>
  <node id="-2994" visible="true" lat="44.632535498901" lon="-73.109869151997">
    <!-- multiple: "42 Herrick Avenue, Milton, VT" Multiple exact matches in OSM. -->
    <tag k="addr:city" v="Milton"/>
    <tag k="addr:housenumber" v="42"/>
    <tag k="addr:street" v="Herrick Avenue"/>
    <tag k="addr:state" v="VT"/>
    <tag k="ref:vcgi:esiteid" v="161179"/>
  </node>
  <node id="-3103" visible="true" lat="44.641860113006" lon="-73.108538087558">
    <!-- multiple: "36 Maplewood Avenue, Milton, VT" Multiple exact matches in OSM. -->
    <tag k="addr:city" v="Milton"/>
    <tag k="addr:housenumber" v="36"/>
    <tag k="addr:street" v="Maplewood Avenue"/>
    <tag k="addr:state" v="VT"/>
    <tag k="ref:vcgi:esiteid" v="161290"/>
  </node>
  <node id="-3438" visible="true" lat="44.609323718198" lon="-73.159457953249">
    <!-- multiple: "37 Precast Road, Milton, VT" Multiple exact matches in OSM. -->
    <tag k="addr:city" v="Milton"/>
    <tag k="addr:housenumber" v="37"/>
    <tag k="addr:street" v="Precast Road"/>
    <tag k="addr:state" v="VT"/>
    <tag k="ref:vcgi:esiteid" v="161653"/>
  </node>
  <node id="-3468" visible="true" lat="44.631292010794" lon="-73.119623362872">
    <!-- multiple: "39 Lamoille Terrace, Milton, VT" Multiple exact matches in OSM. -->
    <tag k="addr:city" v="Milton"/>
    <tag k="addr:housenumber" v="39"/>
    <tag k="addr:street" v="Lamoille Terrace"/>
    <tag k="addr:state" v="VT"/>
    <tag k="ref:vcgi:esiteid" v="161724"/>
  </node>
  <node id="-4002" visible="true" lat="44.67682782451" lon="-73.209191107518">
    <!-- multiple: "365 Eagle Mountain Harbor Road, Milton, VT" Multiple exact matches in OSM. -->
    <tag k="addr:city" v="Milton"/>
    <tag k="addr:housenumber" v="365"/>
    <tag k="addr:street" v="Eagle Mountain Harbor Road"/>
    <tag k="addr:state" v="VT"/>
    <tag k="ref:vcgi:esiteid" v="162414"/>
  </node>
  <node id="-4003" visible="true" lat="44.67700060996" lon="-73.20872607352">
    <!-- multiple: "365 Eagle Mountain Harbor Road, Milton, VT" Multiple exact matches in OSM. -->
    <tag k="addr:city" v="Milton"/>
    <tag k="addr:housenumber" v="365"/>
    <tag k="addr:street" v="Eagle Mountain Harbor Road"/>
    <tag k="addr:state" v="VT"/>
    <tag k="ref:vcgi:esiteid" v="162415"/>
  </node>
  <node id="-4004" visible="true" lat="44.677555645338" lon="-73.209631938458">
    <!-- multiple: "365 Eagle Mountain Harbor Road, Milton, VT" Multiple exact matches in OSM. -->
    <tag k="addr:city" v="Milton"/>
    <tag k="addr:housenumber" v="365"/>
    <tag k="addr:street" v="Eagle Mountain Harbor Road"/>
    <tag k="addr:state" v="VT"/>
    <tag k="ref:vcgi:esiteid" v="162416"/>
  </node>
  <node id="-4005" visible="true" lat="44.677216020532" lon="-73.209359105897">
    <!-- multiple: "365 Eagle Mountain Harbor Road, Milton, VT" Multiple exact matches in OSM. -->
    <tag k="addr:city" v="Milton"/>
    <tag k="addr:housenumber" v="365"/>
    <tag k="addr:street" v="Eagle Mountain Harbor Road"/>
    <tag k="addr:state" v="VT"/>
    <tag k="ref:vcgi:esiteid" v="162417"/>
  </node>
  <node id="-4007" visible="true" lat="44.677427485599" lon="-73.209620518605">
    <!-- multiple: "365 Eagle Mountain Harbor Road, Milton, VT" Multiple exact matches in OSM. -->
    <tag k="addr:city" v="Milton"/>
    <tag k="addr:housenumber" v="365"/>
    <tag k="addr:street" v="Eagle Mountain Harbor Road"/>
    <tag k="addr:state" v="VT"/>
    <tag k="ref:vcgi:esiteid" v="162419"/>
  </node>
  <node id="-4008" visible="true" lat="44.67739158473" lon="-73.20989688719">
    <!-- multiple: "365 Eagle Mountain Harbor Road, Milton, VT" Multiple exact matches in OSM. -->
    <tag k="addr:city" v="Milton"/>
    <tag k="addr:housenumber" v="365"/>
    <tag k="addr:street" v="Eagle Mountain Harbor Road"/>
    <tag k="addr:state" v="VT"/>
    <tag k="ref:vcgi:esiteid" v="162420"/>
  </node>
  <node id="-4009" visible="true" lat="44.677488744332" lon="-73.209947801656">
    <!-- multiple: "365 Eagle Mountain Harbor Road, Milton, VT" Multiple exact matches in OSM. -->
    <tag k="addr:city" v="Milton"/>
    <tag k="addr:housenumber" v="365"/>
    <tag k="addr:street" v="Eagle Mountain Harbor Road"/>
    <tag k="addr:state" v="VT"/>
    <tag k="ref:vcgi:esiteid" v="162421"/>
  </node>
  <node id="-4134" visible="true" lat="44.632231721578" lon="-73.148003222654">
    <!-- multiple: "67 West Milton Road, Milton, VT" Multiple exact matches in OSM. -->
    <tag k="addr:city" v="Milton"/>
    <tag k="addr:housenumber" v="67"/>
    <tag k="addr:street" v="West Milton Road"/>
    <tag k="addr:state" v="VT"/>
    <tag k="ref:vcgi:esiteid" v="162564"/>
  </node>
  <node id="-4562" visible="true" lat="44.623222733716" lon="-73.132989692427">
    <!-- multiple: "7 Southerberry Drive, Milton, VT" Multiple exact matches in OSM. -->
    <tag k="addr:city" v="Milton"/>
    <tag k="addr:housenumber" v="7"/>
    <tag k="addr:street" v="Southerberry Drive"/>
    <tag k="addr:state" v="VT"/>
    <tag k="ref:vcgi:esiteid" v="365108"/>
  </node>
  <node id="-4564" visible="true" lat="44.623585570469" lon="-73.133663139334">
    <!-- multiple: "5 Southerberry Drive, Milton, VT" Multiple exact matches in OSM. -->
    <tag k="addr:city" v="Milton"/>
    <tag k="addr:housenumber" v="5"/>
    <tag k="addr:street" v="Southerberry Drive"/>
    <tag k="addr:state" v="VT"/>
    <tag k="ref:vcgi:esiteid" v="365110"/>
  </node>
  <node id="-4692" visible="true" lat="44.622917147429" lon="-73.132229531106">
    <!-- multiple: "4 Southerberry Drive, Milton, VT" Multiple exact matches in OSM. -->
    <tag k="addr:city" v="Milton"/>
    <tag k="addr:housenumber" v="4"/>
    <tag k="addr:street" v="Southerberry Drive"/>
    <tag k="addr:state" v="VT"/>
    <tag k="ref:vcgi:esiteid" v="451299"/>
  </node>
  <node id="-4954" visible="true" lat="44.697151099776" lon="-73.188707422842">
    <!-- multiple: "105 Beebe Hill Road, Milton, VT" Multiple exact matches in OSM. -->
    <tag k="addr:city" v="Milton"/>
    <tag k="addr:housenumber" v="105"/>
    <tag k="addr:street" v="Beebe Hill Road"/>
    <tag k="addr:state" v="VT"/>
    <tag k="ref:vcgi:esiteid" v="759930"/>
  </node>
</osm>
