<?xml version="1.0" encoding="UTF-8"?>
<osm version="0.6" generator="JOSM" upload="false">
  <node id="-131" visible="true" lat="44.911513259173" lon="-72.60973177392">
    <tag k="addr:city" v="Montgomery"/>
    <tag k="addr:housenumber" v="1283"/>
    <tag k="addr:street" v="North Hill Road"/>
    <tag k="addr:state" v="VT"/>
    <tag k="ref:vcgi:esiteid" v="163410"/>
  </node>
  <node id="-141" visible="true" lat="44.90981539333" lon="-72.62376667406">
    <tag k="addr:city" v="Montgomery"/>
    <tag k="addr:housenumber" v="545"/>
    <tag k="addr:street" v="North Hill Road"/>
    <tag k="addr:state" v="VT"/>
    <tag k="ref:vcgi:esiteid" v="163421"/>
  </node>
  <node id="-142" visible="true" lat="44.909776238293" lon="-72.609750109211">
    <tag k="addr:city" v="Montgomery"/>
    <tag k="addr:housenumber" v="1310"/>
    <tag k="addr:street" v="North Hill Road"/>
    <tag k="addr:state" v="VT"/>
    <tag k="ref:vcgi:esiteid" v="163422"/>
  </node>
  <node id="-147" visible="true" lat="44.907851660575" lon="-72.628494722286">
    <tag k="addr:city" v="Montgomery"/>
    <tag k="addr:housenumber" v="327"/>
    <tag k="addr:street" v="North Hill Road"/>
    <tag k="addr:state" v="VT"/>
    <tag k="ref:vcgi:esiteid" v="163427"/>
  </node>
  <node id="-150" visible="true" lat="44.907260381919" lon="-72.632317048448">
    <tag k="addr:city" v="Montgomery"/>
    <tag k="addr:housenumber" v="61"/>
    <tag k="addr:street" v="North Hill Road"/>
    <tag k="addr:state" v="VT"/>
    <tag k="ref:vcgi:esiteid" v="163430"/>
  </node>
  <node id="-165" visible="true" lat="44.904314391068" lon="-72.640110215869">
    <tag k="addr:city" v="Montgomery"/>
    <tag k="addr:housenumber" v="192"/>
    <tag k="addr:street" v="Fuller Bridge Road"/>
    <tag k="addr:state" v="VT"/>
    <tag k="ref:vcgi:esiteid" v="163445"/>
  </node>
  <node id="-167" visible="true" lat="44.904027483683" lon="-72.640801996845">
    <tag k="addr:city" v="Montgomery"/>
    <tag k="addr:housenumber" v="201"/>
    <tag k="addr:street" v="Fuller Bridge Road"/>
    <tag k="addr:state" v="VT"/>
    <tag k="ref:vcgi:esiteid" v="163447"/>
  </node>
  <node id="-168" visible="true" lat="44.903972107344" lon="-72.639820868729">
    <tag k="addr:city" v="Montgomery"/>
    <tag k="addr:housenumber" v="172"/>
    <tag k="addr:street" v="Fuller Bridge Road"/>
    <tag k="addr:state" v="VT"/>
    <tag k="ref:vcgi:esiteid" v="163448"/>
  </node>
  <node id="-169" visible="true" lat="44.903935059449" lon="-72.64031671663">
    <tag k="addr:city" v="Montgomery"/>
    <tag k="addr:housenumber" v="169"/>
    <tag k="addr:street" v="Fuller Bridge Road"/>
    <tag k="addr:state" v="VT"/>
    <tag k="ref:vcgi:esiteid" v="163449"/>
  </node>
  <node id="-171" visible="true" lat="44.903686491349" lon="-72.639737329689">
    <tag k="addr:city" v="Montgomery"/>
    <tag k="addr:housenumber" v="150"/>
    <tag k="addr:street" v="Fuller Bridge Road"/>
    <tag k="addr:state" v="VT"/>
    <tag k="ref:vcgi:esiteid" v="163451"/>
  </node>
  <node id="-172" visible="true" lat="44.903535230012" lon="-72.639684023247">
    <tag k="addr:city" v="Montgomery"/>
    <tag k="addr:housenumber" v="13"/>
    <tag k="addr:street" v="Brook Road"/>
    <tag k="addr:state" v="VT"/>
    <tag k="ref:vcgi:esiteid" v="163452"/>
  </node>
  <node id="-173" visible="true" lat="44.903896508562" lon="-72.637534556879">
    <tag k="addr:city" v="Montgomery"/>
    <tag k="addr:housenumber" v="65"/>
    <tag k="addr:street" v="Black Falls Road"/>
    <tag k="addr:state" v="VT"/>
    <tag k="ref:vcgi:esiteid" v="163453"/>
  </node>
  <node id="-176" visible="true" lat="44.903345199562" lon="-72.638970793648">
    <tag k="addr:city" v="Montgomery"/>
    <tag k="addr:housenumber" v="37"/>
    <tag k="addr:street" v="Black Falls Road"/>
    <tag k="addr:state" v="VT"/>
    <tag k="ref:vcgi:esiteid" v="163456"/>
  </node>
  <node id="-177" visible="true" lat="44.90327219394" lon="-72.639269346932">
    <tag k="addr:city" v="Montgomery"/>
    <tag k="addr:housenumber" v="25"/>
    <tag k="addr:street" v="Black Falls Road"/>
    <tag k="addr:state" v="VT"/>
    <tag k="ref:vcgi:esiteid" v="163457"/>
  </node>
  <node id="-178" visible="true" lat="44.903169998853" lon="-72.639527533402">
    <tag k="addr:city" v="Montgomery"/>
    <tag k="addr:housenumber" v="11"/>
    <tag k="addr:street" v="Black Falls Road"/>
    <tag k="addr:state" v="VT"/>
    <tag k="ref:vcgi:esiteid" v="163458"/>
  </node>
  <node id="-180" visible="true" lat="44.902948491917" lon="-72.639171742259">
    <tag k="addr:city" v="Montgomery"/>
    <tag k="addr:housenumber" v="18"/>
    <tag k="addr:street" v="Black Falls Road"/>
    <tag k="addr:state" v="VT"/>
    <tag k="ref:vcgi:esiteid" v="163460"/>
  </node>
  <node id="-181" visible="true" lat="44.902949320377" lon="-72.639793863402">
    <tag k="addr:city" v="Montgomery"/>
    <tag k="addr:housenumber" v="105"/>
    <tag k="addr:street" v="Fuller Bridge Road"/>
    <tag k="addr:state" v="VT"/>
    <tag k="ref:vcgi:esiteid" v="163461"/>
  </node>
  <node id="-183" visible="true" lat="44.902770792057" lon="-72.639204639585">
    <tag k="addr:city" v="Montgomery"/>
    <tag k="addr:housenumber" v="82"/>
    <tag k="addr:street" v="Fuller Bridge Road"/>
    <tag k="addr:state" v="VT"/>
    <tag k="ref:vcgi:esiteid" v="163463"/>
  </node>
  <node id="-184" visible="true" lat="44.902563967556" lon="-72.639616397012">
    <tag k="addr:city" v="Montgomery"/>
    <tag k="addr:housenumber" v="77"/>
    <tag k="addr:street" v="Fuller Bridge Road"/>
    <tag k="addr:state" v="VT"/>
    <tag k="ref:vcgi:esiteid" v="163464"/>
  </node>
  <node id="-185" visible="true" lat="44.902446597951" lon="-72.639061768991">
    <tag k="addr:city" v="Montgomery"/>
    <tag k="addr:housenumber" v="60"/>
    <tag k="addr:street" v="Fuller Bridge Road"/>
    <tag k="addr:state" v="VT"/>
    <tag k="ref:vcgi:esiteid" v="163465"/>
  </node>
  <node id="-186" visible="true" lat="44.902346397659" lon="-72.639585089623">
    <tag k="addr:city" v="Montgomery"/>
    <tag k="addr:housenumber" v="4"/>
    <tag k="addr:street" v="On The Common"/>
    <tag k="addr:state" v="VT"/>
    <tag k="ref:vcgi:esiteid" v="163466"/>
  </node>
  <node id="-187" visible="true" lat="44.902324392136" lon="-72.638950347025">
    <tag k="addr:city" v="Montgomery"/>
    <tag k="addr:housenumber" v="52"/>
    <tag k="addr:street" v="Fuller Bridge Road"/>
    <tag k="addr:state" v="VT"/>
    <tag k="ref:vcgi:esiteid" v="163467"/>
  </node>
  <node id="-188" visible="true" lat="44.902392223553" lon="-72.640630749326">
    <tag k="addr:city" v="Montgomery"/>
    <tag k="addr:housenumber" v="50"/>
    <tag k="addr:street" v="Deuso Road"/>
    <tag k="addr:state" v="VT"/>
    <tag k="ref:vcgi:esiteid" v="163468"/>
  </node>
  <node id="-189" visible="true" lat="44.902242208191" lon="-72.640763609372">
    <tag k="addr:city" v="Montgomery"/>
    <tag k="addr:housenumber" v="49"/>
    <tag k="addr:street" v="Deuso Road"/>
    <tag k="addr:state" v="VT"/>
    <tag k="ref:vcgi:esiteid" v="163469"/>
  </node>
  <node id="-190" visible="true" lat="44.902188802956" lon="-72.639726010854">
    <tag k="addr:city" v="Montgomery"/>
    <tag k="addr:housenumber" v="18"/>
    <tag k="addr:street" v="On The Common"/>
    <tag k="addr:state" v="VT"/>
    <tag k="ref:vcgi:esiteid" v="163470"/>
  </node>
  <node id="-191" visible="true" lat="44.902104878954" lon="-72.640527097545">
    <tag k="addr:city" v="Montgomery"/>
    <tag k="addr:housenumber" v="35"/>
    <tag k="addr:street" v="Deuso Road"/>
    <tag k="addr:state" v="VT"/>
    <tag k="ref:vcgi:esiteid" v="163471"/>
  </node>
  <node id="-192" visible="true" lat="44.902136736398" lon="-72.639936516527">
    <tag k="addr:city" v="Montgomery"/>
    <tag k="addr:housenumber" v="28"/>
    <tag k="addr:street" v="On The Common"/>
    <tag k="addr:state" v="VT"/>
    <tag k="ref:vcgi:esiteid" v="163472"/>
  </node>
  <node id="-193" visible="true" lat="44.902043987142" lon="-72.638914482149">
    <tag k="addr:city" v="Montgomery"/>
    <tag k="addr:housenumber" v="32"/>
    <tag k="addr:street" v="Fuller Bridge Road"/>
    <tag k="addr:state" v="VT"/>
    <tag k="ref:vcgi:esiteid" v="163473"/>
  </node>
  <node id="-194" visible="true" lat="44.902095769298" lon="-72.640170631255">
    <tag k="addr:city" v="Montgomery"/>
    <tag k="addr:housenumber" v="42"/>
    <tag k="addr:street" v="On The Common"/>
    <tag k="addr:state" v="VT"/>
    <tag k="ref:vcgi:esiteid" v="163474"/>
  </node>
  <node id="-196" visible="true" lat="44.901652575794" lon="-72.639585546759">
    <tag k="addr:city" v="Montgomery"/>
    <tag k="addr:housenumber" v="2003"/>
    <tag k="addr:street" v="North Main Street"/>
    <tag k="addr:state" v="VT"/>
    <tag k="ref:vcgi:esiteid" v="163476"/>
  </node>
  <node id="-197" visible="true" lat="44.901749223441" lon="-72.640535358922">
    <tag k="addr:city" v="Montgomery"/>
    <tag k="addr:housenumber" v="2044"/>
    <tag k="addr:street" v="North Main Street"/>
    <tag k="addr:state" v="VT"/>
    <tag k="ref:vcgi:esiteid" v="163477"/>
  </node>
  <node id="-198" visible="true" lat="44.901604631241" lon="-72.639344438333">
    <tag k="addr:city" v="Montgomery"/>
    <tag k="addr:housenumber" v="1991"/>
    <tag k="addr:street" v="North Main Street"/>
    <tag k="addr:state" v="VT"/>
    <tag k="ref:vcgi:esiteid" v="163478"/>
  </node>
  <node id="-199" visible="true" lat="44.901582265915" lon="-72.640015928518">
    <tag k="addr:city" v="Montgomery"/>
    <tag k="addr:housenumber" v="2035"/>
    <tag k="addr:street" v="North Main Street"/>
    <tag k="addr:state" v="VT"/>
    <tag k="ref:vcgi:esiteid" v="163479"/>
  </node>
  <node id="-200" visible="true" lat="44.901565026169" lon="-72.638505177914">
    <tag k="addr:city" v="Montgomery"/>
    <tag k="addr:housenumber" v="1962"/>
    <tag k="addr:street" v="North Main Street"/>
    <tag k="addr:state" v="VT"/>
    <tag k="ref:vcgi:esiteid" v="163480"/>
  </node>
  <node id="-202" visible="true" lat="44.901453839234" lon="-72.640083631047">
    <tag k="addr:city" v="Montgomery"/>
    <tag k="addr:housenumber" v="2045"/>
    <tag k="addr:street" v="North Main Street"/>
    <tag k="addr:state" v="VT"/>
    <tag k="ref:vcgi:esiteid" v="163482"/>
  </node>
  <node id="-203" visible="true" lat="44.901533578235" lon="-72.640808302696">
    <tag k="addr:city" v="Montgomery"/>
    <tag k="addr:housenumber" v="2060"/>
    <tag k="addr:street" v="North Main Street"/>
    <tag k="addr:state" v="VT"/>
    <tag k="ref:vcgi:esiteid" v="163483"/>
  </node>
  <node id="-204" visible="true" lat="44.901279997057" lon="-72.640175758487">
    <tag k="addr:city" v="Montgomery"/>
    <tag k="addr:housenumber" v="2057"/>
    <tag k="addr:street" v="North Main Street"/>
    <tag k="addr:state" v="VT"/>
    <tag k="ref:vcgi:esiteid" v="163484"/>
  </node>
  <node id="-206" visible="true" lat="44.901080642226" lon="-72.63859703013">
    <tag k="addr:city" v="Montgomery"/>
    <tag k="addr:housenumber" v="1935"/>
    <tag k="addr:street" v="North Main Street"/>
    <tag k="addr:state" v="VT"/>
    <tag k="ref:vcgi:esiteid" v="163486"/>
  </node>
  <node id="-208" visible="true" lat="44.900829205068" lon="-72.638276102754">
    <tag k="addr:city" v="Montgomery"/>
    <tag k="addr:housenumber" v="1911"/>
    <tag k="addr:street" v="North Main Street"/>
    <tag k="addr:state" v="VT"/>
    <tag k="ref:vcgi:esiteid" v="163488"/>
  </node>
  <node id="-209" visible="true" lat="44.900837399788" lon="-72.637574617202">
    <tag k="addr:city" v="Montgomery"/>
    <tag k="addr:housenumber" v="1884"/>
    <tag k="addr:street" v="North Main Street"/>
    <tag k="addr:state" v="VT"/>
    <tag k="ref:vcgi:esiteid" v="163489"/>
  </node>
  <node id="-210" visible="true" lat="44.900605131785" lon="-72.637788687956">
    <tag k="addr:city" v="Montgomery"/>
    <tag k="addr:housenumber" v="1881"/>
    <tag k="addr:street" v="North Main Street"/>
    <tag k="addr:state" v="VT"/>
    <tag k="ref:vcgi:esiteid" v="163490"/>
  </node>
  <node id="-219" visible="true" lat="44.900401035549" lon="-72.648916885255">
    <tag k="addr:city" v="Montgomery"/>
    <tag k="addr:housenumber" v="47"/>
    <tag k="addr:street" v="Hill West Road"/>
    <tag k="addr:state" v="VT"/>
    <tag k="ref:vcgi:esiteid" v="163500"/>
  </node>
  <node id="-221" visible="true" lat="44.900624949946" lon="-72.634901770354">
    <tag k="addr:city" v="Montgomery"/>
    <tag k="addr:housenumber" v="1748"/>
    <tag k="addr:street" v="North Main Street"/>
    <tag k="addr:state" v="VT"/>
    <tag k="ref:vcgi:esiteid" v="163502"/>
  </node>
  <node id="-222" visible="true" lat="44.900446200541" lon="-72.634432280407">
    <tag k="addr:city" v="Montgomery"/>
    <tag k="addr:housenumber" v="1724"/>
    <tag k="addr:street" v="North Main Street"/>
    <tag k="addr:state" v="VT"/>
    <tag k="ref:vcgi:esiteid" v="163504"/>
  </node>
  <node id="-224" visible="true" lat="44.899985304968" lon="-72.635069925403">
    <tag k="addr:city" v="Montgomery"/>
    <tag k="addr:housenumber" v="1745"/>
    <tag k="addr:street" v="North Main Street"/>
    <tag k="addr:state" v="VT"/>
    <tag k="ref:vcgi:esiteid" v="163506"/>
  </node>
  <node id="-232" visible="true" lat="44.899539385385" lon="-72.648713816957">
    <tag k="addr:city" v="Montgomery"/>
    <tag k="addr:housenumber" v="125"/>
    <tag k="addr:street" v="Hill West Road"/>
    <tag k="addr:state" v="VT"/>
    <tag k="ref:vcgi:esiteid" v="163514"/>
  </node>
  <node id="-435" visible="true" lat="44.877598425732" lon="-72.608993151598">
    <tag k="addr:city" v="Montgomery Center"/>
    <tag k="addr:housenumber" v="57"/>
    <tag k="addr:street" v="Main Street"/>
    <tag k="addr:state" v="VT"/>
    <tag k="ref:vcgi:esiteid" v="163740"/>
  </node>
  <node id="-447" visible="true" lat="44.877350302789" lon="-72.608247219524">
    <tag k="addr:city" v="Montgomery Center"/>
    <tag k="addr:housenumber" v="13"/>
    <tag k="addr:street" v="Main Street"/>
    <tag k="addr:state" v="VT"/>
    <tag k="ref:vcgi:esiteid" v="163754"/>
  </node>
  <node id="-667" visible="true" lat="44.901037668998" lon="-72.640589476571">
    <tag k="addr:city" v="Montgomery"/>
    <tag k="addr:housenumber" v="2057"/>
    <tag k="addr:street" v="North Main Street"/>
    <tag k="addr:state" v="VT"/>
    <tag k="ref:vcgi:esiteid" v="163987"/>
  </node>
  <node id="-668" visible="true" lat="44.900878177998" lon="-72.640739788379">
    <tag k="addr:city" v="Montgomery"/>
    <tag k="addr:housenumber" v="2073"/>
    <tag k="addr:street" v="North Main Street"/>
    <tag k="addr:state" v="VT"/>
    <tag k="ref:vcgi:esiteid" v="163989"/>
  </node>
  <node id="-738" visible="true" lat="44.881515298669" lon="-72.553518350591">
    <tag k="addr:city" v="Montgomery Center"/>
    <tag k="addr:housenumber" v="2956"/>
    <tag k="addr:street" v="Mountain Road"/>
    <tag k="addr:state" v="VT"/>
    <tag k="ref:vcgi:esiteid" v="164065"/>
  </node>
  <node id="-771" visible="true" lat="44.908835157558" lon="-72.625578497595">
    <tag k="addr:city" v="Montgomery"/>
    <tag k="addr:housenumber" v="469"/>
    <tag k="addr:street" v="North Hill Road"/>
    <tag k="addr:state" v="VT"/>
    <tag k="ref:vcgi:esiteid" v="164102"/>
  </node>
  <node id="-772" visible="true" lat="44.910718219825" lon="-72.620223268948">
    <tag k="addr:city" v="Montgomery"/>
    <tag k="addr:housenumber" v="689"/>
    <tag k="addr:street" v="North Hill Road"/>
    <tag k="addr:state" v="VT"/>
    <tag k="ref:vcgi:esiteid" v="164103"/>
  </node>
  <node id="-775" visible="true" lat="44.89954869093" lon="-72.633796311353">
    <tag k="addr:city" v="Montgomery"/>
    <tag k="addr:housenumber" v="1701"/>
    <tag k="addr:street" v="North Main Street"/>
    <tag k="addr:state" v="VT"/>
    <tag k="ref:vcgi:esiteid" v="164106"/>
  </node>
  <node id="-781" visible="true" lat="44.909017503396" lon="-72.620678559814">
    <tag k="addr:city" v="Montgomery"/>
    <tag k="addr:housenumber" v="656"/>
    <tag k="addr:street" v="North Hill Road"/>
    <tag k="addr:state" v="VT"/>
    <tag k="ref:vcgi:esiteid" v="164112"/>
  </node>
  <node id="-835" visible="true" lat="44.908114596722" lon="-72.623821818604">
    <tag k="addr:city" v="Montgomery"/>
    <tag k="addr:housenumber" v="568"/>
    <tag k="addr:street" v="North Hill Road"/>
    <tag k="addr:state" v="VT"/>
    <tag k="ref:vcgi:esiteid" v="328604"/>
  </node>
  <node id="-839" visible="true" lat="44.900858443781" lon="-72.640450926087">
    <tag k="addr:city" v="Montgomery"/>
    <tag k="addr:housenumber" v="2069"/>
    <tag k="addr:street" v="North Main Street"/>
    <tag k="addr:state" v="VT"/>
    <tag k="ref:vcgi:esiteid" v="331016"/>
  </node>
  <node id="-861" visible="true" lat="44.907380349299" lon="-72.62580999853">
    <tag k="addr:city" v="Montgomery"/>
    <tag k="addr:housenumber" v="470"/>
    <tag k="addr:street" v="North Hill Road"/>
    <tag k="addr:state" v="VT"/>
    <tag k="ref:vcgi:esiteid" v="340694"/>
  </node>
  <node id="-874" visible="true" lat="44.909169226384" lon="-72.61105070763">
    <tag k="addr:city" v="Montgomery"/>
    <tag k="addr:housenumber" v="1062"/>
    <tag k="addr:street" v="North Hill Road"/>
    <tag k="addr:state" v="VT"/>
    <tag k="ref:vcgi:esiteid" v="345405"/>
  </node>
</osm>
