<?xml version="1.0" encoding="UTF-8"?>
<osm version="0.6" generator="JOSM" upload="false">
  <node id="-796" visible="true" lat="44.263108912845" lon="-72.559005320794">
    <!-- offset: "7 College Street, Montpelier, VT" Significant offset - 1326.3m -->
    <tag k="addr:city" v="Montpelier"/>
    <tag k="addr:housenumber" v="7"/>
    <tag k="addr:street" v="College Street"/>
    <tag k="addr:state" v="VT"/>
    <tag k="ref:vcgi:esiteid" v="164901"/>
  </node>
  <node id="-2766" visible="true" lat="44.25029993224" lon="-72.555433429371">
    <!-- offset: "192 River Street, Montpelier, VT" Significant offset - 107.9m -->
    <tag k="addr:city" v="Montpelier"/>
    <tag k="addr:housenumber" v="192"/>
    <tag k="addr:street" v="River Street"/>
    <tag k="addr:state" v="VT"/>
    <tag k="ref:vcgi:esiteid" v="167080"/>
  </node>
</osm>
