<?xml version="1.0" encoding="UTF-8"?>
<osm version="0.6" generator="JOSM" upload="false">
  <node id="-241" visible="true" lat="44.297045659212" lon="-72.696811460562">
    <tag k="addr:city" v="Moretown"/>
    <tag k="addr:housenumber" v="6899"/>
    <tag k="addr:street" v="Vermont Route 100B"/>
    <tag k="addr:state" v="VT"/>
    <tag k="ref:vcgi:esiteid" v="167267"/>
  </node>
  <node id="-242" visible="true" lat="44.295942815209" lon="-72.695673504616">
    <tag k="addr:city" v="Moretown"/>
    <tag k="addr:housenumber" v="6970"/>
    <tag k="addr:street" v="Vermont Route 100B"/>
    <tag k="addr:state" v="VT"/>
    <tag k="ref:vcgi:esiteid" v="167268"/>
  </node>
  <node id="-243" visible="true" lat="44.295282870901" lon="-72.694452801381">
    <tag k="addr:city" v="Moretown"/>
    <tag k="addr:housenumber" v="7046"/>
    <tag k="addr:street" v="Vermont Route 100B"/>
    <tag k="addr:state" v="VT"/>
    <tag k="ref:vcgi:esiteid" v="167269"/>
  </node>
  <node id="-244" visible="true" lat="44.295260981724" lon="-72.700960362186">
    <tag k="addr:city" v="Moretown"/>
    <tag k="addr:housenumber" v="6568"/>
    <tag k="addr:street" v="Vermont Route 100B"/>
    <tag k="addr:state" v="VT"/>
    <tag k="ref:vcgi:esiteid" v="167270"/>
  </node>
  <node id="-246" visible="true" lat="44.294245791" lon="-72.693384694497">
    <tag k="addr:city" v="Moretown"/>
    <tag k="addr:housenumber" v="7122"/>
    <tag k="addr:street" v="Vermont Route 100B"/>
    <tag k="addr:state" v="VT"/>
    <tag k="ref:vcgi:esiteid" v="167273"/>
  </node>
  <node id="-247" visible="true" lat="44.29437390493" lon="-72.700486485929">
    <tag k="addr:city" v="Moretown"/>
    <tag k="addr:housenumber" v="6570"/>
    <tag k="addr:street" v="Vermont Route 100B"/>
    <tag k="addr:state" v="VT"/>
    <tag k="ref:vcgi:esiteid" v="167274"/>
  </node>
  <node id="-248" visible="true" lat="44.294312880156" lon="-72.692468987491">
    <tag k="addr:city" v="Moretown"/>
    <tag k="addr:housenumber" v="7166"/>
    <tag k="addr:street" v="Vermont Route 100B"/>
    <tag k="addr:state" v="VT"/>
    <tag k="ref:vcgi:esiteid" v="167275"/>
  </node>
  <node id="-249" visible="true" lat="44.293369976474" lon="-72.700378347788">
    <tag k="addr:city" v="Moretown"/>
    <tag k="addr:housenumber" v="6448"/>
    <tag k="addr:street" v="Vermont Route 100B"/>
    <tag k="addr:state" v="VT"/>
    <tag k="ref:vcgi:esiteid" v="167276"/>
  </node>
  <node id="-250" visible="true" lat="44.293196929946" lon="-72.691116072732">
    <tag k="addr:city" v="Moretown"/>
    <tag k="addr:housenumber" v="52"/>
    <tag k="addr:street" v="Turner Road"/>
    <tag k="addr:state" v="VT"/>
    <tag k="ref:vcgi:esiteid" v="167277"/>
  </node>
  <node id="-251" visible="true" lat="44.29297010745" lon="-72.692087517499">
    <tag k="addr:city" v="Moretown"/>
    <tag k="addr:housenumber" v="70"/>
    <tag k="addr:street" v="Turner Road"/>
    <tag k="addr:state" v="VT"/>
    <tag k="ref:vcgi:esiteid" v="167278"/>
  </node>
  <node id="-252" visible="true" lat="44.292614061702" lon="-72.690376709649">
    <tag k="addr:city" v="Moretown"/>
    <tag k="addr:housenumber" v="19"/>
    <tag k="addr:street" v="Turner Road"/>
    <tag k="addr:state" v="VT"/>
    <tag k="ref:vcgi:esiteid" v="167279"/>
  </node>
  <node id="-253" visible="true" lat="44.292619027269" lon="-72.690959325758">
    <tag k="addr:city" v="Moretown"/>
    <tag k="addr:housenumber" v="45"/>
    <tag k="addr:street" v="Turner Road"/>
    <tag k="addr:state" v="VT"/>
    <tag k="ref:vcgi:esiteid" v="167280"/>
  </node>
  <node id="-254" visible="true" lat="44.292555279317" lon="-72.688733648024">
    <tag k="addr:city" v="Moretown"/>
    <tag k="addr:housenumber" v="7386"/>
    <tag k="addr:street" v="Vermont Route 100B"/>
    <tag k="addr:state" v="VT"/>
    <tag k="ref:vcgi:esiteid" v="167281"/>
  </node>
  <node id="-255" visible="true" lat="44.29253906614" lon="-72.688395685961">
    <tag k="addr:city" v="Moretown"/>
    <tag k="addr:housenumber" v="7402"/>
    <tag k="addr:street" v="Vermont Route 100B"/>
    <tag k="addr:state" v="VT"/>
    <tag k="ref:vcgi:esiteid" v="167282"/>
  </node>
  <node id="-256" visible="true" lat="44.292550001823" lon="-72.686986332908">
    <tag k="addr:city" v="Moretown"/>
    <tag k="addr:housenumber" v="7465"/>
    <tag k="addr:street" v="Vermont Route 100B"/>
    <tag k="addr:state" v="VT"/>
    <tag k="ref:vcgi:esiteid" v="167283"/>
  </node>
  <node id="-257" visible="true" lat="44.292506493325" lon="-72.685755149104">
    <tag k="addr:city" v="Moretown"/>
    <tag k="addr:housenumber" v="7515"/>
    <tag k="addr:street" v="Vermont Route 100B"/>
    <tag k="addr:state" v="VT"/>
    <tag k="ref:vcgi:esiteid" v="167284"/>
  </node>
  <node id="-258" visible="true" lat="44.292477905856" lon="-72.683802687703">
    <tag k="addr:city" v="Moretown"/>
    <tag k="addr:housenumber" v="7517"/>
    <tag k="addr:street" v="Vermont Route 100B"/>
    <tag k="addr:state" v="VT"/>
    <tag k="ref:vcgi:esiteid" v="167285"/>
  </node>
  <node id="-259" visible="true" lat="44.292457065231" lon="-72.686522029955">
    <tag k="addr:city" v="Moretown"/>
    <tag k="addr:housenumber" v="7489"/>
    <tag k="addr:street" v="Vermont Route 100B"/>
    <tag k="addr:state" v="VT"/>
    <tag k="ref:vcgi:esiteid" v="167286"/>
  </node>
  <node id="-260" visible="true" lat="44.292136981861" lon="-72.687370745798">
    <tag k="addr:city" v="Moretown"/>
    <tag k="addr:housenumber" v="7456"/>
    <tag k="addr:street" v="Vermont Route 100B"/>
    <tag k="addr:state" v="VT"/>
    <tag k="ref:vcgi:esiteid" v="167287"/>
  </node>
  <node id="-261" visible="true" lat="44.290886663073" lon="-72.699867344592">
    <tag k="addr:city" v="Moretown"/>
    <tag k="addr:housenumber" v="6276"/>
    <tag k="addr:street" v="Vermont Route 100B"/>
    <tag k="addr:state" v="VT"/>
    <tag k="ref:vcgi:esiteid" v="167288"/>
  </node>
  <node id="-270" visible="true" lat="44.288699256823" lon="-72.726196862622">
    <tag k="addr:city" v="Moretown"/>
    <tag k="addr:housenumber" v="982"/>
    <tag k="addr:street" v="Coreys Drive"/>
    <tag k="addr:state" v="VT"/>
    <tag k="ref:vcgi:esiteid" v="167297"/>
  </node>
  <node id="-271" visible="true" lat="44.288454564382" lon="-72.732126772234">
    <tag k="addr:city" v="Moretown"/>
    <tag k="addr:housenumber" v="82"/>
    <tag k="addr:street" v="Longley Road"/>
    <tag k="addr:state" v="VT"/>
    <tag k="ref:vcgi:esiteid" v="167298"/>
  </node>
  <node id="-272" visible="true" lat="44.288557741437" lon="-72.703780560772">
    <tag k="addr:city" v="Moretown"/>
    <tag k="addr:housenumber" v="187"/>
    <tag k="addr:street" v="Brooks Drive"/>
    <tag k="addr:state" v="VT"/>
    <tag k="ref:vcgi:esiteid" v="167299"/>
  </node>
  <node id="-273" visible="true" lat="44.288593408175" lon="-72.703219451035">
    <tag k="addr:city" v="Moretown"/>
    <tag k="addr:housenumber" v="152"/>
    <tag k="addr:street" v="Brooks Drive"/>
    <tag k="addr:state" v="VT"/>
    <tag k="ref:vcgi:esiteid" v="167300"/>
  </node>
  <node id="-275" visible="true" lat="44.287661106973" lon="-72.73150879151">
    <tag k="addr:city" v="Moretown"/>
    <tag k="addr:housenumber" v="4347"/>
    <tag k="addr:street" v="Vermont Route 100B"/>
    <tag k="addr:state" v="VT"/>
    <tag k="ref:vcgi:esiteid" v="167302"/>
  </node>
  <node id="-278" visible="true" lat="44.286921055042" lon="-72.70436339081">
    <tag k="addr:city" v="Moretown"/>
    <tag k="addr:housenumber" v="73"/>
    <tag k="addr:street" v="Brooks Drive"/>
    <tag k="addr:state" v="VT"/>
    <tag k="ref:vcgi:esiteid" v="167305"/>
  </node>
  <node id="-281" visible="true" lat="44.285591876145" lon="-72.703134776853">
    <tag k="addr:city" v="Moretown"/>
    <tag k="addr:housenumber" v="4486"/>
    <tag k="addr:street" v="Moretown Common Road"/>
    <tag k="addr:state" v="VT"/>
    <tag k="ref:vcgi:esiteid" v="167308"/>
  </node>
  <node id="-282" visible="true" lat="44.285459758333" lon="-72.705957974051">
    <tag k="addr:city" v="Moretown"/>
    <tag k="addr:housenumber" v="5770"/>
    <tag k="addr:street" v="Vermont Route 100B"/>
    <tag k="addr:state" v="VT"/>
    <tag k="ref:vcgi:esiteid" v="167309"/>
  </node>
  <node id="-283" visible="true" lat="44.28561617786" lon="-72.708923688254">
    <tag k="addr:city" v="Moretown"/>
    <tag k="addr:housenumber" v="5668"/>
    <tag k="addr:street" v="Vermont Route 100B"/>
    <tag k="addr:state" v="VT"/>
    <tag k="ref:vcgi:esiteid" v="167310"/>
  </node>
  <node id="-285" visible="true" lat="44.285293486842" lon="-72.703518453687">
    <tag k="addr:city" v="Moretown"/>
    <tag k="addr:housenumber" v="4466"/>
    <tag k="addr:street" v="Moretown Common Road"/>
    <tag k="addr:state" v="VT"/>
    <tag k="ref:vcgi:esiteid" v="167312"/>
  </node>
  <node id="-286" visible="true" lat="44.285345042237" lon="-72.734711101661">
    <tag k="addr:city" v="Moretown"/>
    <tag k="addr:housenumber" v="4129"/>
    <tag k="addr:street" v="Vermont Route 100B"/>
    <tag k="addr:state" v="VT"/>
    <tag k="ref:vcgi:esiteid" v="167313"/>
  </node>
  <node id="-287" visible="true" lat="44.284707459184" lon="-72.703584020941">
    <tag k="addr:city" v="Moretown"/>
    <tag k="addr:housenumber" v="4414"/>
    <tag k="addr:street" v="Moretown Common Road"/>
    <tag k="addr:state" v="VT"/>
    <tag k="ref:vcgi:esiteid" v="167314"/>
  </node>
  <node id="-288" visible="true" lat="44.284525425851" lon="-72.733637394537">
    <tag k="addr:city" v="Moretown"/>
    <tag k="addr:housenumber" v="537"/>
    <tag k="addr:street" v="Old Route 100"/>
    <tag k="addr:state" v="VT"/>
    <tag k="ref:vcgi:esiteid" v="167315"/>
  </node>
  <node id="-290" visible="true" lat="44.28439090647" lon="-72.734975028693">
    <tag k="addr:city" v="Moretown"/>
    <tag k="addr:housenumber" v="3981"/>
    <tag k="addr:street" v="Vermont Route 100B"/>
    <tag k="addr:state" v="VT"/>
    <tag k="ref:vcgi:esiteid" v="167317"/>
  </node>
  <node id="-292" visible="true" lat="44.283712895017" lon="-72.733728945911">
    <tag k="addr:city" v="Moretown"/>
    <tag k="addr:housenumber" v="495"/>
    <tag k="addr:street" v="Old Route 100"/>
    <tag k="addr:state" v="VT"/>
    <tag k="ref:vcgi:esiteid" v="167319"/>
  </node>
  <node id="-293" visible="true" lat="44.280724056312" lon="-72.713844187749">
    <tag k="addr:city" v="Moretown"/>
    <tag k="addr:housenumber" v="3550"/>
    <tag k="addr:street" v="Moretown Common Road"/>
    <tag k="addr:state" v="VT"/>
    <tag k="ref:vcgi:esiteid" v="167320"/>
  </node>
  <node id="-297" visible="true" lat="44.280240459907" lon="-72.735933663342">
    <tag k="addr:city" v="Moretown"/>
    <tag k="addr:housenumber" v="173"/>
    <tag k="addr:street" v="Old Route 100"/>
    <tag k="addr:state" v="VT"/>
    <tag k="ref:vcgi:esiteid" v="167324"/>
  </node>
  <node id="-298" visible="true" lat="44.280062230978" lon="-72.735834662716">
    <tag k="addr:city" v="Moretown"/>
    <tag k="addr:housenumber" v="170"/>
    <tag k="addr:street" v="Old Route 100"/>
    <tag k="addr:state" v="VT"/>
    <tag k="ref:vcgi:esiteid" v="167325"/>
  </node>
  <node id="-300" visible="true" lat="44.279764682239" lon="-72.725565489729">
    <tag k="addr:city" v="Moretown"/>
    <tag k="addr:housenumber" v="335"/>
    <tag k="addr:street" v="Honan Road"/>
    <tag k="addr:state" v="VT"/>
    <tag k="ref:vcgi:esiteid" v="167327"/>
  </node>
  <node id="-301" visible="true" lat="44.279467126014" lon="-72.741835680243">
    <tag k="addr:city" v="Moretown"/>
    <tag k="addr:housenumber" v="3549"/>
    <tag k="addr:street" v="Vermont Route 100B"/>
    <tag k="addr:state" v="VT"/>
    <tag k="ref:vcgi:esiteid" v="167328"/>
  </node>
  <node id="-303" visible="true" lat="44.279263885903" lon="-72.715127298407">
    <tag k="addr:city" v="Moretown"/>
    <tag k="addr:housenumber" v="3452"/>
    <tag k="addr:street" v="Moretown Common Road"/>
    <tag k="addr:state" v="VT"/>
    <tag k="ref:vcgi:esiteid" v="167330"/>
  </node>
  <node id="-304" visible="true" lat="44.2790617198" lon="-72.742655162373">
    <tag k="addr:city" v="Moretown"/>
    <tag k="addr:housenumber" v="3441"/>
    <tag k="addr:street" v="Vermont Route 100B"/>
    <tag k="addr:state" v="VT"/>
    <tag k="ref:vcgi:esiteid" v="167331"/>
  </node>
  <node id="-307" visible="true" lat="44.278788119359" lon="-72.718302302854">
    <tag k="addr:city" v="Moretown"/>
    <tag k="addr:housenumber" v="3301"/>
    <tag k="addr:street" v="Moretown Common Road"/>
    <tag k="addr:state" v="VT"/>
    <tag k="ref:vcgi:esiteid" v="167334"/>
  </node>
  <node id="-308" visible="true" lat="44.278493328948" lon="-72.725763676771">
    <tag k="addr:city" v="Moretown"/>
    <tag k="addr:housenumber" v="247"/>
    <tag k="addr:street" v="Honan Road"/>
    <tag k="addr:state" v="VT"/>
    <tag k="ref:vcgi:esiteid" v="167335"/>
  </node>
  <node id="-309" visible="true" lat="44.27841072376" lon="-72.743254736666">
    <tag k="addr:city" v="Moretown"/>
    <tag k="addr:housenumber" v="3439"/>
    <tag k="addr:street" v="Vermont Route 100B"/>
    <tag k="addr:state" v="VT"/>
    <tag k="ref:vcgi:esiteid" v="167337"/>
  </node>
  <node id="-312" visible="true" lat="44.27765791036" lon="-72.726953863366">
    <tag k="addr:city" v="Moretown"/>
    <tag k="addr:housenumber" v="249"/>
    <tag k="addr:street" v="Honan Road"/>
    <tag k="addr:state" v="VT"/>
    <tag k="ref:vcgi:esiteid" v="167340"/>
  </node>
  <node id="-313" visible="true" lat="44.277665526957" lon="-72.716248817939">
    <tag k="addr:city" v="Moretown"/>
    <tag k="addr:housenumber" v="3342"/>
    <tag k="addr:street" v="Moretown Common Road"/>
    <tag k="addr:state" v="VT"/>
    <tag k="ref:vcgi:esiteid" v="167341"/>
  </node>
  <node id="-314" visible="true" lat="44.277559788325" lon="-72.744333811861">
    <tag k="addr:city" v="Moretown"/>
    <tag k="addr:housenumber" v="18"/>
    <tag k="addr:street" v="Damon Drive"/>
    <tag k="addr:state" v="VT"/>
    <tag k="ref:vcgi:esiteid" v="167342"/>
  </node>
  <node id="-316" visible="true" lat="44.27741376881" lon="-72.718271609483">
    <tag k="addr:city" v="Moretown"/>
    <tag k="addr:housenumber" v="3254"/>
    <tag k="addr:street" v="Moretown Common Road"/>
    <tag k="addr:state" v="VT"/>
    <tag k="ref:vcgi:esiteid" v="167344"/>
  </node>
  <node id="-321" visible="true" lat="44.276844671948" lon="-72.74298966692">
    <tag k="addr:city" v="Moretown"/>
    <tag k="addr:housenumber" v="92"/>
    <tag k="addr:street" v="Spillway Road"/>
    <tag k="addr:state" v="VT"/>
    <tag k="ref:vcgi:esiteid" v="167349"/>
  </node>
  <node id="-322" visible="true" lat="44.276761795793" lon="-72.740852455592">
    <tag k="addr:city" v="Moretown"/>
    <tag k="addr:housenumber" v="75"/>
    <tag k="addr:street" v="Bridge Road"/>
    <tag k="addr:state" v="VT"/>
    <tag k="ref:vcgi:esiteid" v="167350"/>
  </node>
  <node id="-323" visible="true" lat="44.276725461058" lon="-72.744861227619">
    <tag k="addr:city" v="Moretown"/>
    <tag k="addr:housenumber" v="48"/>
    <tag k="addr:street" v="Damon Drive"/>
    <tag k="addr:state" v="VT"/>
    <tag k="ref:vcgi:esiteid" v="167351"/>
  </node>
  <node id="-326" visible="true" lat="44.276399886443" lon="-72.743181484052">
    <tag k="addr:city" v="Moretown"/>
    <tag k="addr:housenumber" v="118"/>
    <tag k="addr:street" v="Spillway Road"/>
    <tag k="addr:state" v="VT"/>
    <tag k="ref:vcgi:esiteid" v="167354"/>
  </node>
  <node id="-330" visible="true" lat="44.275967985754" lon="-72.714631386329">
    <tag k="addr:city" v="Moretown"/>
    <tag k="addr:housenumber" v="3316"/>
    <tag k="addr:street" v="Moretown Common Road"/>
    <tag k="addr:state" v="VT"/>
    <tag k="ref:vcgi:esiteid" v="167358"/>
  </node>
  <node id="-331" visible="true" lat="44.275725669847" lon="-72.745075997081">
    <tag k="addr:city" v="Moretown"/>
    <tag k="addr:housenumber" v="101"/>
    <tag k="addr:street" v="Damon Drive"/>
    <tag k="addr:state" v="VT"/>
    <tag k="ref:vcgi:esiteid" v="167359"/>
  </node>
  <node id="-333" visible="true" lat="44.275038270407" lon="-72.723116455926">
    <tag k="addr:city" v="Moretown"/>
    <tag k="addr:housenumber" v="2987"/>
    <tag k="addr:street" v="Moretown Common Road"/>
    <tag k="addr:state" v="VT"/>
    <tag k="ref:vcgi:esiteid" v="167361"/>
  </node>
  <node id="-336" visible="true" lat="44.273501018398" lon="-72.718528142364">
    <tag k="addr:city" v="Moretown"/>
    <tag k="addr:housenumber" v="2956"/>
    <tag k="addr:street" v="Moretown Common Road"/>
    <tag k="addr:state" v="VT"/>
    <tag k="ref:vcgi:esiteid" v="167364"/>
  </node>
  <node id="-408" visible="true" lat="44.256909168677" lon="-72.775345988636">
    <tag k="addr:city" v="Moretown"/>
    <tag k="addr:housenumber" v="909"/>
    <tag k="addr:street" v="Freeman Hill Road"/>
    <tag k="addr:state" v="VT"/>
    <tag k="ref:vcgi:esiteid" v="167440"/>
  </node>
  <node id="-415" visible="true" lat="44.256548434323" lon="-72.773279754551">
    <tag k="addr:city" v="Moretown"/>
    <tag k="addr:housenumber" v="928"/>
    <tag k="addr:street" v="Freeman Hill Road"/>
    <tag k="addr:state" v="VT"/>
    <tag k="ref:vcgi:esiteid" v="167447"/>
  </node>
  <node id="-434" visible="true" lat="44.254750506488" lon="-72.774244363102">
    <tag k="addr:city" v="Moretown"/>
    <tag k="addr:housenumber" v="784"/>
    <tag k="addr:street" v="Freeman Hill Road"/>
    <tag k="addr:state" v="VT"/>
    <tag k="ref:vcgi:esiteid" v="167467"/>
  </node>
  <node id="-456" visible="true" lat="44.252739631315" lon="-72.775273585742">
    <tag k="addr:city" v="Moretown"/>
    <tag k="addr:housenumber" v="639"/>
    <tag k="addr:street" v="Freeman Hill Road"/>
    <tag k="addr:state" v="VT"/>
    <tag k="ref:vcgi:esiteid" v="167489"/>
  </node>
  <node id="-468" visible="true" lat="44.252156330804" lon="-72.754739181461">
    <tag k="addr:city" v="Moretown"/>
    <tag k="addr:housenumber" v="173"/>
    <tag k="addr:street" v="Moretown Common Road"/>
    <tag k="addr:state" v="VT"/>
    <tag k="ref:vcgi:esiteid" v="167501"/>
  </node>
  <node id="-475" visible="true" lat="44.251758222992" lon="-72.754376645738">
    <tag k="addr:city" v="Moretown"/>
    <tag k="addr:housenumber" v="174"/>
    <tag k="addr:street" v="Moretown Common Road"/>
    <tag k="addr:state" v="VT"/>
    <tag k="ref:vcgi:esiteid" v="167508"/>
  </node>
  <node id="-478" visible="true" lat="44.251833223487" lon="-72.75613694726">
    <tag k="addr:city" v="Moretown"/>
    <tag k="addr:housenumber" v="107"/>
    <tag k="addr:street" v="Moretown Common Road"/>
    <tag k="addr:state" v="VT"/>
    <tag k="ref:vcgi:esiteid" v="167511"/>
  </node>
  <node id="-480" visible="true" lat="44.251511273996" lon="-72.755788865745">
    <tag k="addr:city" v="Moretown"/>
    <tag k="addr:housenumber" v="104"/>
    <tag k="addr:street" v="Moretown Common Road"/>
    <tag k="addr:state" v="VT"/>
    <tag k="ref:vcgi:esiteid" v="167513"/>
  </node>
  <node id="-481" visible="true" lat="44.251352810828" lon="-72.756240429181">
    <tag k="addr:city" v="Moretown"/>
    <tag k="addr:housenumber" v="76"/>
    <tag k="addr:street" v="Moretown Common Road"/>
    <tag k="addr:state" v="VT"/>
    <tag k="ref:vcgi:esiteid" v="167514"/>
  </node>
  <node id="-484" visible="true" lat="44.250975160458" lon="-72.758028587665">
    <tag k="addr:city" v="Moretown"/>
    <tag k="addr:housenumber" v="157"/>
    <tag k="addr:street" v="Moretown Mountain Road"/>
    <tag k="addr:state" v="VT"/>
    <tag k="ref:vcgi:esiteid" v="167517"/>
  </node>
  <node id="-485" visible="true" lat="44.251054786005" lon="-72.75673420952">
    <tag k="addr:city" v="Moretown"/>
    <tag k="addr:housenumber" v="48"/>
    <tag k="addr:street" v="Moretown Common Road"/>
    <tag k="addr:state" v="VT"/>
    <tag k="ref:vcgi:esiteid" v="167518"/>
  </node>
  <node id="-486" visible="true" lat="44.251102537719" lon="-72.774420446728">
    <tag k="addr:city" v="Moretown"/>
    <tag k="addr:housenumber" v="468"/>
    <tag k="addr:street" v="Freeman Hill Road"/>
    <tag k="addr:state" v="VT"/>
    <tag k="ref:vcgi:esiteid" v="167519"/>
  </node>
  <node id="-487" visible="true" lat="44.250876713392" lon="-72.775742960295">
    <tag k="addr:city" v="Moretown"/>
    <tag k="addr:housenumber" v="515"/>
    <tag k="addr:street" v="Freeman Hill Road"/>
    <tag k="addr:state" v="VT"/>
    <tag k="ref:vcgi:esiteid" v="167520"/>
  </node>
  <node id="-488" visible="true" lat="44.250935565877" lon="-72.761804372289">
    <tag k="addr:city" v="Moretown"/>
    <tag k="addr:housenumber" v="1169"/>
    <tag k="addr:street" v="Vermont Route 100B"/>
    <tag k="addr:state" v="VT"/>
    <tag k="ref:vcgi:esiteid" v="167521"/>
  </node>
  <node id="-489" visible="true" lat="44.250850241476" lon="-72.756125184546">
    <tag k="addr:city" v="Moretown"/>
    <tag k="addr:housenumber" v="255"/>
    <tag k="addr:street" v="Moretown Mountain Road"/>
    <tag k="addr:state" v="VT"/>
    <tag k="ref:vcgi:esiteid" v="167522"/>
  </node>
  <node id="-490" visible="true" lat="44.250832954451" lon="-72.761049639903">
    <tag k="addr:city" v="Moretown"/>
    <tag k="addr:housenumber" v="8"/>
    <tag k="addr:street" v="Moretown Mountain Road"/>
    <tag k="addr:state" v="VT"/>
    <tag k="ref:vcgi:esiteid" v="167523"/>
  </node>
  <node id="-496" visible="true" lat="44.25064029858" lon="-72.759982181925">
    <tag k="addr:city" v="Moretown"/>
    <tag k="addr:housenumber" v="84"/>
    <tag k="addr:street" v="Moretown Mountain Road"/>
    <tag k="addr:state" v="VT"/>
    <tag k="ref:vcgi:esiteid" v="167529"/>
  </node>
  <node id="-497" visible="true" lat="44.250388119297" lon="-72.758777800869">
    <tag k="addr:city" v="Moretown"/>
    <tag k="addr:housenumber" v="150"/>
    <tag k="addr:street" v="Moretown Mountain Road"/>
    <tag k="addr:state" v="VT"/>
    <tag k="ref:vcgi:esiteid" v="167530"/>
  </node>
  <node id="-498" visible="true" lat="44.250598058164" lon="-72.761640003952">
    <tag k="addr:city" v="Moretown"/>
    <tag k="addr:housenumber" v="1147"/>
    <tag k="addr:street" v="Vermont Route 100B"/>
    <tag k="addr:state" v="VT"/>
    <tag k="ref:vcgi:esiteid" v="167531"/>
  </node>
  <node id="-501" visible="true" lat="44.250459266938" lon="-72.761627956884">
    <tag k="addr:city" v="Moretown"/>
    <tag k="addr:housenumber" v="1143"/>
    <tag k="addr:street" v="Vermont Route 100B"/>
    <tag k="addr:state" v="VT"/>
    <tag k="ref:vcgi:esiteid" v="167534"/>
  </node>
  <node id="-502" visible="true" lat="44.250459114459" lon="-72.761820208958">
    <tag k="addr:city" v="Moretown"/>
    <tag k="addr:housenumber" v="21"/>
    <tag k="addr:street" v="Fletcher Road"/>
    <tag k="addr:state" v="VT"/>
    <tag k="ref:vcgi:esiteid" v="167535"/>
  </node>
  <node id="-505" visible="true" lat="44.25037625334" lon="-72.762728297335">
    <tag k="addr:city" v="Moretown"/>
    <tag k="addr:housenumber" v="63"/>
    <tag k="addr:street" v="Fletcher Road"/>
    <tag k="addr:state" v="VT"/>
    <tag k="ref:vcgi:esiteid" v="167538"/>
  </node>
  <node id="-506" visible="true" lat="44.250321785063" lon="-72.774439231565">
    <tag k="addr:city" v="Moretown"/>
    <tag k="addr:housenumber" v="437"/>
    <tag k="addr:street" v="Freeman Hill Road"/>
    <tag k="addr:state" v="VT"/>
    <tag k="ref:vcgi:esiteid" v="167539"/>
  </node>
  <node id="-508" visible="true" lat="44.250223481226" lon="-72.761052817663">
    <tag k="addr:city" v="Moretown"/>
    <tag k="addr:housenumber" v="1114"/>
    <tag k="addr:street" v="Vermont Route 100B"/>
    <tag k="addr:state" v="VT"/>
    <tag k="ref:vcgi:esiteid" v="167541"/>
  </node>
  <node id="-509" visible="true" lat="44.250220874992" lon="-72.761627508602">
    <tag k="addr:city" v="Moretown"/>
    <tag k="addr:housenumber" v="1123"/>
    <tag k="addr:street" v="Vermont Route 100B"/>
    <tag k="addr:state" v="VT"/>
    <tag k="ref:vcgi:esiteid" v="167542"/>
  </node>
  <node id="-511" visible="true" lat="44.250070015062" lon="-72.761652362682">
    <tag k="addr:city" v="Moretown"/>
    <tag k="addr:housenumber" v="1115"/>
    <tag k="addr:street" v="Vermont Route 100B"/>
    <tag k="addr:state" v="VT"/>
    <tag k="ref:vcgi:esiteid" v="167544"/>
  </node>
  <node id="-512" visible="true" lat="44.249805082642" lon="-72.761155554582">
    <tag k="addr:city" v="Moretown"/>
    <tag k="addr:housenumber" v="1104"/>
    <tag k="addr:street" v="Vermont Route 100B"/>
    <tag k="addr:state" v="VT"/>
    <tag k="ref:vcgi:esiteid" v="167545"/>
  </node>
  <node id="-513" visible="true" lat="44.249589347173" lon="-72.761269890062">
    <tag k="addr:city" v="Moretown"/>
    <tag k="addr:housenumber" v="11"/>
    <tag k="addr:street" v="Doctors Brook Road"/>
    <tag k="addr:state" v="VT"/>
    <tag k="ref:vcgi:esiteid" v="167546"/>
  </node>
  <node id="-514" visible="true" lat="44.249471092793" lon="-72.761849722428">
    <tag k="addr:city" v="Moretown"/>
    <tag k="addr:housenumber" v="1067"/>
    <tag k="addr:street" v="Vermont Route 100B"/>
    <tag k="addr:state" v="VT"/>
    <tag k="ref:vcgi:esiteid" v="167547"/>
  </node>
  <node id="-516" visible="true" lat="44.249292725296" lon="-72.761050593901">
    <tag k="addr:city" v="Moretown"/>
    <tag k="addr:housenumber" v="33"/>
    <tag k="addr:street" v="Doctors Brook Road"/>
    <tag k="addr:state" v="VT"/>
    <tag k="ref:vcgi:esiteid" v="167549"/>
  </node>
  <node id="-517" visible="true" lat="44.249347290365" lon="-72.762060392648">
    <tag k="addr:city" v="Moretown"/>
    <tag k="addr:housenumber" v="1049"/>
    <tag k="addr:street" v="Vermont Route 100B"/>
    <tag k="addr:state" v="VT"/>
    <tag k="ref:vcgi:esiteid" v="167550"/>
  </node>
  <node id="-519" visible="true" lat="44.249009529628" lon="-72.774408714055">
    <tag k="addr:city" v="Moretown"/>
    <tag k="addr:housenumber" v="343"/>
    <tag k="addr:street" v="Freeman Hill Road"/>
    <tag k="addr:state" v="VT"/>
    <tag k="ref:vcgi:esiteid" v="167552"/>
  </node>
  <node id="-520" visible="true" lat="44.249013327636" lon="-72.762231193419">
    <tag k="addr:city" v="Moretown"/>
    <tag k="addr:housenumber" v="1031"/>
    <tag k="addr:street" v="Vermont Route 100B"/>
    <tag k="addr:state" v="VT"/>
    <tag k="ref:vcgi:esiteid" v="167553"/>
  </node>
  <node id="-522" visible="true" lat="44.248888385306" lon="-72.76243512122">
    <tag k="addr:city" v="Moretown"/>
    <tag k="addr:housenumber" v="1013"/>
    <tag k="addr:street" v="Vermont Route 100B"/>
    <tag k="addr:state" v="VT"/>
    <tag k="ref:vcgi:esiteid" v="167555"/>
  </node>
  <node id="-523" visible="true" lat="44.24879421974" lon="-72.761001054291">
    <tag k="addr:city" v="Moretown"/>
    <tag k="addr:housenumber" v="1054"/>
    <tag k="addr:street" v="Vermont Route 100B"/>
    <tag k="addr:state" v="VT"/>
    <tag k="ref:vcgi:esiteid" v="167556"/>
  </node>
  <node id="-524" visible="true" lat="44.248668262704" lon="-72.762070990185">
    <tag k="addr:city" v="Moretown"/>
    <tag k="addr:housenumber" v="1018"/>
    <tag k="addr:street" v="Vermont Route 100B"/>
    <tag k="addr:state" v="VT"/>
    <tag k="ref:vcgi:esiteid" v="167557"/>
  </node>
  <node id="-525" visible="true" lat="44.248641174082" lon="-72.7614968364">
    <tag k="addr:city" v="Moretown"/>
    <tag k="addr:housenumber" v="1052"/>
    <tag k="addr:street" v="Vermont Route 100B"/>
    <tag k="addr:state" v="VT"/>
    <tag k="ref:vcgi:esiteid" v="167558"/>
  </node>
  <node id="-527" visible="true" lat="44.248593711582" lon="-72.762795767033">
    <tag k="addr:city" v="Moretown"/>
    <tag k="addr:housenumber" v="989"/>
    <tag k="addr:street" v="Vermont Route 100B"/>
    <tag k="addr:state" v="VT"/>
    <tag k="ref:vcgi:esiteid" v="167560"/>
  </node>
  <node id="-528" visible="true" lat="44.248563194329" lon="-72.760361991589">
    <tag k="addr:city" v="Moretown"/>
    <tag k="addr:housenumber" v="73"/>
    <tag k="addr:street" v="Doctors Brook Road"/>
    <tag k="addr:state" v="VT"/>
    <tag k="ref:vcgi:esiteid" v="167561"/>
  </node>
  <node id="-529" visible="true" lat="44.248521059797" lon="-72.762237181021">
    <tag k="addr:city" v="Moretown"/>
    <tag k="addr:housenumber" v="1000"/>
    <tag k="addr:street" v="Vermont Route 100B"/>
    <tag k="addr:state" v="VT"/>
    <tag k="ref:vcgi:esiteid" v="167562"/>
  </node>
  <node id="-530" visible="true" lat="44.248563454025" lon="-72.762895945648">
    <tag k="addr:city" v="Moretown"/>
    <tag k="addr:housenumber" v="981"/>
    <tag k="addr:street" v="Vermont Route 100B"/>
    <tag k="addr:state" v="VT"/>
    <tag k="ref:vcgi:esiteid" v="167563"/>
  </node>
  <node id="-534" visible="true" lat="44.248248525641" lon="-72.763276099143">
    <tag k="addr:city" v="Moretown"/>
    <tag k="addr:housenumber" v="949"/>
    <tag k="addr:street" v="Vermont Route 100B"/>
    <tag k="addr:state" v="VT"/>
    <tag k="ref:vcgi:esiteid" v="167568"/>
  </node>
  <node id="-535" visible="true" lat="44.248167593409" lon="-72.762580617356">
    <tag k="addr:city" v="Moretown"/>
    <tag k="addr:housenumber" v="968"/>
    <tag k="addr:street" v="Vermont Route 100B"/>
    <tag k="addr:state" v="VT"/>
    <tag k="ref:vcgi:esiteid" v="167569"/>
  </node>
  <node id="-537" visible="true" lat="44.247937112047" lon="-72.762722727097">
    <tag k="addr:city" v="Moretown"/>
    <tag k="addr:housenumber" v="962"/>
    <tag k="addr:street" v="Vermont Route 100B"/>
    <tag k="addr:state" v="VT"/>
    <tag k="ref:vcgi:esiteid" v="167571"/>
  </node>
  <node id="-538" visible="true" lat="44.248101448682" lon="-72.763416569042">
    <tag k="addr:city" v="Moretown"/>
    <tag k="addr:housenumber" v="937"/>
    <tag k="addr:street" v="Vermont Route 100B"/>
    <tag k="addr:state" v="VT"/>
    <tag k="ref:vcgi:esiteid" v="167572"/>
  </node>
  <node id="-539" visible="true" lat="44.247933769875" lon="-72.763543449078">
    <tag k="addr:city" v="Moretown"/>
    <tag k="addr:housenumber" v="931"/>
    <tag k="addr:street" v="Vermont Route 100B"/>
    <tag k="addr:state" v="VT"/>
    <tag k="ref:vcgi:esiteid" v="167573"/>
  </node>
  <node id="-542" visible="true" lat="44.247701071882" lon="-72.763825736819">
    <tag k="addr:city" v="Moretown"/>
    <tag k="addr:housenumber" v="909"/>
    <tag k="addr:street" v="Vermont Route 100B"/>
    <tag k="addr:state" v="VT"/>
    <tag k="ref:vcgi:esiteid" v="167576"/>
  </node>
  <node id="-543" visible="true" lat="44.247655296112" lon="-72.763459525243">
    <tag k="addr:city" v="Moretown"/>
    <tag k="addr:housenumber" v="918"/>
    <tag k="addr:street" v="Vermont Route 100B"/>
    <tag k="addr:state" v="VT"/>
    <tag k="ref:vcgi:esiteid" v="167577"/>
  </node>
  <node id="-546" visible="true" lat="44.247617390048" lon="-72.763936967992">
    <tag k="addr:city" v="Moretown"/>
    <tag k="addr:housenumber" v="897"/>
    <tag k="addr:street" v="Vermont Route 100B"/>
    <tag k="addr:state" v="VT"/>
    <tag k="ref:vcgi:esiteid" v="167580"/>
  </node>
  <node id="-547" visible="true" lat="44.247495078804" lon="-72.763589224583">
    <tag k="addr:city" v="Moretown"/>
    <tag k="addr:housenumber" v="906"/>
    <tag k="addr:street" v="Vermont Route 100B"/>
    <tag k="addr:state" v="VT"/>
    <tag k="ref:vcgi:esiteid" v="167581"/>
  </node>
  <node id="-550" visible="true" lat="44.247354132554" lon="-72.771158282002">
    <tag k="addr:city" v="Moretown"/>
    <tag k="addr:housenumber" v="118"/>
    <tag k="addr:street" v="Old Gulf Road"/>
    <tag k="addr:state" v="VT"/>
    <tag k="ref:vcgi:esiteid" v="167584"/>
  </node>
  <node id="-551" visible="true" lat="44.247376822287" lon="-72.763810477417">
    <tag k="addr:city" v="Moretown"/>
    <tag k="addr:housenumber" v="892"/>
    <tag k="addr:street" v="Vermont Route 100B"/>
    <tag k="addr:state" v="VT"/>
    <tag k="ref:vcgi:esiteid" v="167585"/>
  </node>
  <node id="-553" visible="true" lat="44.247197531102" lon="-72.763993584604">
    <tag k="addr:city" v="Moretown"/>
    <tag k="addr:housenumber" v="876"/>
    <tag k="addr:street" v="Vermont Route 100B"/>
    <tag k="addr:state" v="VT"/>
    <tag k="ref:vcgi:esiteid" v="167587"/>
  </node>
  <node id="-562" visible="true" lat="44.246642502005" lon="-72.763732175039">
    <tag k="addr:city" v="Moretown"/>
    <tag k="addr:housenumber" v="70"/>
    <tag k="addr:street" v="Hurdle Road"/>
    <tag k="addr:state" v="VT"/>
    <tag k="ref:vcgi:esiteid" v="167596"/>
  </node>
  <node id="-563" visible="true" lat="44.246587459046" lon="-72.764651700179">
    <tag k="addr:city" v="Moretown"/>
    <tag k="addr:housenumber" v="820"/>
    <tag k="addr:street" v="Vermont Route 100B"/>
    <tag k="addr:state" v="VT"/>
    <tag k="ref:vcgi:esiteid" v="167597"/>
  </node>
  <node id="-569" visible="true" lat="44.246301078041" lon="-72.765694939228">
    <tag k="addr:city" v="Moretown"/>
    <tag k="addr:housenumber" v="778"/>
    <tag k="addr:street" v="Vermont Route 100B"/>
    <tag k="addr:state" v="VT"/>
    <tag k="ref:vcgi:esiteid" v="167603"/>
  </node>
  <node id="-570" visible="true" lat="44.246235835832" lon="-72.765076906123">
    <tag k="addr:city" v="Moretown"/>
    <tag k="addr:housenumber" v="798"/>
    <tag k="addr:street" v="Vermont Route 100B"/>
    <tag k="addr:state" v="VT"/>
    <tag k="ref:vcgi:esiteid" v="167604"/>
  </node>
  <node id="-572" visible="true" lat="44.246175191992" lon="-72.764466606173">
    <tag k="addr:city" v="Moretown"/>
    <tag k="addr:housenumber" v="32"/>
    <tag k="addr:street" v="Hurdle Road"/>
    <tag k="addr:state" v="VT"/>
    <tag k="ref:vcgi:esiteid" v="167606"/>
  </node>
  <node id="-578" visible="true" lat="44.245602703468" lon="-72.763396055303">
    <tag k="addr:city" v="Moretown"/>
    <tag k="addr:housenumber" v="76"/>
    <tag k="addr:street" v="Fox Farm Run"/>
    <tag k="addr:state" v="VT"/>
    <tag k="ref:vcgi:esiteid" v="167612"/>
  </node>
  <node id="-590" visible="true" lat="44.244959382335" lon="-72.769587128167">
    <tag k="addr:city" v="Moretown"/>
    <tag k="addr:housenumber" v="584"/>
    <tag k="addr:street" v="Vermont Route 100B"/>
    <tag k="addr:state" v="VT"/>
    <tag k="ref:vcgi:esiteid" v="167624"/>
  </node>
  <node id="-595" visible="true" lat="44.244630240449" lon="-72.765092216655">
    <tag k="addr:city" v="Moretown"/>
    <tag k="addr:housenumber" v="169"/>
    <tag k="addr:street" v="Austin Heights"/>
    <tag k="addr:state" v="VT"/>
    <tag k="ref:vcgi:esiteid" v="167629"/>
  </node>
  <node id="-602" visible="true" lat="44.244558735979" lon="-72.768326639106">
    <tag k="addr:city" v="Moretown"/>
    <tag k="addr:housenumber" v="148"/>
    <tag k="addr:street" v="Pony Farm Road"/>
    <tag k="addr:state" v="VT"/>
    <tag k="ref:vcgi:esiteid" v="167636"/>
  </node>
  <node id="-610" visible="true" lat="44.244030457776" lon="-72.768021888611">
    <tag k="addr:city" v="Moretown"/>
    <tag k="addr:housenumber" v="171"/>
    <tag k="addr:street" v="Pony Farm Road"/>
    <tag k="addr:state" v="VT"/>
    <tag k="ref:vcgi:esiteid" v="167645"/>
  </node>
  <node id="-612" visible="true" lat="44.244092735055" lon="-72.768661257083">
    <tag k="addr:city" v="Moretown"/>
    <tag k="addr:housenumber" v="182"/>
    <tag k="addr:street" v="Pony Farm Road"/>
    <tag k="addr:state" v="VT"/>
    <tag k="ref:vcgi:esiteid" v="167647"/>
  </node>
  <node id="-744" visible="true" lat="44.278646601183" lon="-72.723593672738">
    <tag k="addr:city" v="Moretown"/>
    <tag k="addr:housenumber" v="244"/>
    <tag k="addr:street" v="Honan Road"/>
    <tag k="addr:state" v="VT"/>
    <tag k="ref:vcgi:esiteid" v="167781"/>
  </node>
  <node id="-756" visible="true" lat="44.287572190251" lon="-72.73280707394">
    <tag k="addr:city" v="Moretown"/>
    <tag k="addr:housenumber" v="47"/>
    <tag k="addr:street" v="Longley Road"/>
    <tag k="addr:state" v="VT"/>
    <tag k="ref:vcgi:esiteid" v="167793"/>
  </node>
  <node id="-757" visible="true" lat="44.288011587231" lon="-72.734098180614">
    <tag k="addr:city" v="Moretown"/>
    <tag k="addr:housenumber" v="109"/>
    <tag k="addr:street" v="Longley Road"/>
    <tag k="addr:state" v="VT"/>
    <tag k="ref:vcgi:esiteid" v="167794"/>
  </node>
  <node id="-761" visible="true" lat="44.269019911258" lon="-72.748735883834">
    <tag k="addr:city" v="Moretown"/>
    <tag k="addr:housenumber" v="145"/>
    <tag k="addr:street" v="Kingdom Farm Lane"/>
    <tag k="addr:state" v="VT"/>
    <tag k="ref:vcgi:esiteid" v="167798"/>
  </node>
  <node id="-765" visible="true" lat="44.28499086835" lon="-72.724923993751">
    <tag k="addr:city" v="Moretown"/>
    <tag k="addr:housenumber" v="313"/>
    <tag k="addr:street" v="Coreys Drive"/>
    <tag k="addr:state" v="VT"/>
    <tag k="ref:vcgi:esiteid" v="167802"/>
  </node>
  <node id="-778" visible="true" lat="44.251114989586" lon="-72.758749708783">
    <tag k="addr:city" v="Moretown"/>
    <tag k="addr:housenumber" v="87"/>
    <tag k="addr:street" v="Moretown Mountain Road"/>
    <tag k="addr:state" v="VT"/>
    <tag k="ref:vcgi:esiteid" v="167815"/>
  </node>
  <node id="-783" visible="true" lat="44.252730434864" lon="-72.75682144088">
    <tag k="addr:city" v="Moretown"/>
    <tag k="addr:housenumber" v="210"/>
    <tag k="addr:street" v="Sitka Lane"/>
    <tag k="addr:state" v="VT"/>
    <tag k="ref:vcgi:esiteid" v="167821"/>
  </node>
  <node id="-784" visible="true" lat="44.281838593486" lon="-72.722929991187">
    <tag k="addr:city" v="Moretown"/>
    <tag k="addr:housenumber" v="130"/>
    <tag k="addr:street" v="Coreys Drive"/>
    <tag k="addr:state" v="VT"/>
    <tag k="ref:vcgi:esiteid" v="167822"/>
  </node>
  <node id="-803" visible="true" lat="44.246677369537" lon="-72.774693698667">
    <tag k="addr:city" v="Moretown"/>
    <tag k="addr:housenumber" v="183"/>
    <tag k="addr:street" v="Freeman Hill Road"/>
    <tag k="addr:state" v="VT"/>
    <tag k="ref:vcgi:esiteid" v="307326"/>
  </node>
  <node id="-804" visible="true" lat="44.256373596081" lon="-72.772023569811">
    <tag k="addr:city" v="Moretown"/>
    <tag k="addr:housenumber" v="52"/>
    <tag k="addr:street" v="Lester Lane"/>
    <tag k="addr:state" v="VT"/>
    <tag k="ref:vcgi:esiteid" v="307327"/>
  </node>
  <node id="-811" visible="true" lat="44.255782949539" lon="-72.77539310242">
    <tag k="addr:city" v="Moretown"/>
    <tag k="addr:housenumber" v="795"/>
    <tag k="addr:street" v="Freeman Hill Road"/>
    <tag k="addr:state" v="VT"/>
    <tag k="ref:vcgi:esiteid" v="313561"/>
  </node>
  <node id="-812" visible="true" lat="44.257335017145" lon="-72.773074581489">
    <tag k="addr:city" v="Moretown"/>
    <tag k="addr:housenumber" v="1836"/>
    <tag k="addr:street" v="Lester Lane"/>
    <tag k="addr:state" v="VT"/>
    <tag k="ref:vcgi:esiteid" v="313564"/>
  </node>
  <node id="-823" visible="true" lat="44.252036148955" lon="-72.775029181503">
    <tag k="addr:city" v="Moretown"/>
    <tag k="addr:housenumber" v="638"/>
    <tag k="addr:street" v="Freeman Hill Road"/>
    <tag k="addr:state" v="VT"/>
    <tag k="ref:vcgi:esiteid" v="317546"/>
  </node>
  <node id="-825" visible="true" lat="44.251503406655" lon="-72.761009137821">
    <tag k="addr:city" v="Moretown"/>
    <tag k="addr:housenumber" v="1245"/>
    <tag k="addr:street" v="Vermont Route 100B"/>
    <tag k="addr:state" v="VT"/>
    <tag k="ref:vcgi:esiteid" v="317549"/>
  </node>
  <node id="-842" visible="true" lat="44.286732765528" lon="-72.706716078732">
    <tag k="addr:city" v="Moretown"/>
    <tag k="addr:housenumber" v="33"/>
    <tag k="addr:street" v="Brooks Drive"/>
    <tag k="addr:state" v="VT"/>
    <tag k="ref:vcgi:esiteid" v="333266"/>
  </node>
  <node id="-855" visible="true" lat="44.291655466997" lon="-72.686095845991">
    <tag k="addr:city" v="Moretown"/>
    <tag k="addr:housenumber" v="7510"/>
    <tag k="addr:street" v="Vermont Route 100B"/>
    <tag k="addr:state" v="VT"/>
    <tag k="ref:vcgi:esiteid" v="339303"/>
  </node>
  <node id="-868" visible="true" lat="44.283426545391" lon="-72.723514600493">
    <tag k="addr:city" v="Moretown"/>
    <tag k="addr:housenumber" v="278"/>
    <tag k="addr:street" v="Coreys Drive"/>
    <tag k="addr:state" v="VT"/>
    <tag k="ref:vcgi:esiteid" v="446066"/>
  </node>
  <node id="-876" visible="true" lat="44.286439539193" lon="-72.73440086193">
    <tag k="addr:city" v="Moretown"/>
    <tag k="addr:housenumber" v="64"/>
    <tag k="addr:street" v="Tac Heights Road"/>
    <tag k="addr:state" v="VT"/>
    <tag k="ref:vcgi:esiteid" v="448622"/>
  </node>
  <node id="-878" visible="true" lat="44.280364512902" lon="-72.723972736867">
    <tag k="addr:city" v="Moretown"/>
    <tag k="addr:housenumber" v="72"/>
    <tag k="addr:street" v="Coreys Drive"/>
    <tag k="addr:state" v="VT"/>
    <tag k="ref:vcgi:esiteid" v="448964"/>
  </node>
  <node id="-885" visible="true" lat="44.248102399101" lon="-72.761480235961">
    <tag k="addr:city" v="Moretown"/>
    <tag k="addr:housenumber" v="79"/>
    <tag k="addr:street" v="School Street"/>
    <tag k="addr:state" v="VT"/>
    <tag k="ref:vcgi:esiteid" v="450662"/>
  </node>
  <node id="-897" visible="true" lat="44.285958210424" lon="-72.710041845227">
    <tag k="addr:city" v="Moretown"/>
    <tag k="addr:housenumber" v="5594"/>
    <tag k="addr:street" v="Vermont Route 100B"/>
    <tag k="addr:state" v="VT"/>
    <tag k="ref:vcgi:esiteid" v="454376"/>
  </node>
  <node id="-947" visible="true" lat="44.286765393913" lon="-72.735254634459">
    <tag k="addr:city" v="Moretown"/>
    <tag k="addr:housenumber" v="120"/>
    <tag k="addr:street" v="Tac Heights Road"/>
    <tag k="addr:state" v="VT"/>
    <tag k="ref:vcgi:esiteid" v="752521"/>
  </node>
  <node id="-970" visible="true" lat="44.280436816569" lon="-72.740699464218">
    <tag k="addr:city" v="Moretown"/>
    <tag k="addr:housenumber" v="94"/>
    <tag k="addr:street" v="River Ledge Road"/>
    <tag k="addr:state" v="VT"/>
    <tag k="ref:vcgi:esiteid" v="757167"/>
  </node>
</osm>
