<?xml version="1.0" encoding="UTF-8"?>
<osm version="0.6" generator="JOSM" upload="false">
  <node id="-907" visible="true" lat="44.930556637674" lon="-72.084724271679">
    <!-- duplicates-in-different-towns: "1334 Hayward Hollow, Derby, VT"  ignoring town mismatch for duplicate housenumber/street when matching to esiteid 83357: "1334 Hayward Hollow, Morgan, VT" -->
    <tag k="addr:city" v="Derby"/>
    <tag k="addr:housenumber" v="1334"/>
    <tag k="addr:street" v="Hayward Hollow"/>
    <tag k="addr:state" v="VT"/>
    <tag k="ref:vcgi:esiteid" v="341722"/>
  </node>
  <node id="-908" visible="true" lat="44.930555841808" lon="-72.08452203061">
    <!-- duplicates-in-different-towns: "1324 Hayward Hollow, Derby, VT"  ignoring town mismatch for duplicate housenumber/street when matching to esiteid 83917: "1324 Hayward Hollow, Morgan, VT" -->
    <tag k="addr:city" v="Derby"/>
    <tag k="addr:housenumber" v="1324"/>
    <tag k="addr:street" v="Hayward Hollow"/>
    <tag k="addr:state" v="VT"/>
    <tag k="ref:vcgi:esiteid" v="341723"/>
  </node>
  <node id="-909" visible="true" lat="44.930344557052" lon="-72.081115278554">
    <!-- duplicates-in-different-towns: "1156 Hayward Hollow, Derby, VT"  ignoring town mismatch for duplicate housenumber/street when matching to esiteid 83362: "1156 Hayward Hollow, Morgan, VT" -->
    <tag k="addr:city" v="Derby"/>
    <tag k="addr:housenumber" v="1156"/>
    <tag k="addr:street" v="Hayward Hollow"/>
    <tag k="addr:state" v="VT"/>
    <tag k="ref:vcgi:esiteid" v="341724"/>
  </node>
</osm>
