<?xml version="1.0" encoding="UTF-8"?>
<osm version="0.6" generator="JOSM" upload="false">
  <node id="-276" visible="true" lat="44.577535120992" lon="-72.594590558147">
    <!-- multiple: "160 Vermont Route 15 West, Morrisville, VT" Multiple exact matches in OSM. -->
    <tag k="addr:city" v="Morrisville"/>
    <tag k="addr:housenumber" v="160"/>
    <tag k="addr:street" v="Vermont Route 15 West"/>
    <tag k="addr:state" v="VT"/>
    <tag k="ref:vcgi:esiteid" v="168787"/>
  </node>
  <node id="-352" visible="true" lat="44.573593230492" lon="-72.592202424521">
    <!-- multiple: "66 Morrisville Plaza, Morrisville, VT" Multiple exact matches in OSM. -->
    <tag k="addr:city" v="Morrisville"/>
    <tag k="addr:housenumber" v="66"/>
    <tag k="addr:street" v="Morrisville Plaza"/>
    <tag k="addr:state" v="VT"/>
    <tag k="ref:vcgi:esiteid" v="168873"/>
  </node>
  <node id="-516" visible="true" lat="44.568235888649" lon="-72.5959631889">
    <!-- multiple: "72 Harrel Street, Morrisville, VT" Multiple exact matches in OSM. -->
    <tag k="addr:city" v="Morrisville"/>
    <tag k="addr:housenumber" v="72"/>
    <tag k="addr:street" v="Harrel Street"/>
    <tag k="addr:state" v="VT"/>
    <tag k="ref:vcgi:esiteid" v="169080"/>
  </node>
  <node id="-734" visible="true" lat="44.562471378329" lon="-72.593844185067">
    <!-- multiple: "122 Park Street, Morrisville, VT" Multiple exact matches in OSM. -->
    <tag k="addr:city" v="Morrisville"/>
    <tag k="addr:housenumber" v="122"/>
    <tag k="addr:street" v="Park Street"/>
    <tag k="addr:state" v="VT"/>
    <tag k="ref:vcgi:esiteid" v="169334"/>
  </node>
  <node id="-738" visible="true" lat="44.56241431979" lon="-72.590315816929">
    <!-- multiple: "202 Copley Avenue, Morrisville, VT" Multiple exact matches in OSM. -->
    <tag k="addr:city" v="Morrisville"/>
    <tag k="addr:housenumber" v="202"/>
    <tag k="addr:street" v="Copley Avenue"/>
    <tag k="addr:state" v="VT"/>
    <tag k="ref:vcgi:esiteid" v="169339"/>
  </node>
  <node id="-739" visible="true" lat="44.562401196238" lon="-72.598795289496">
    <!-- multiple: "43 Portland Street, Morrisville, VT" Multiple exact matches in OSM. -->
    <tag k="addr:city" v="Morrisville"/>
    <tag k="addr:housenumber" v="43"/>
    <tag k="addr:street" v="Portland Street"/>
    <tag k="addr:state" v="VT"/>
    <tag k="ref:vcgi:esiteid" v="169340"/>
  </node>
  <node id="-752" visible="true" lat="44.562081993769" lon="-72.598256320569">
    <!-- multiple: "16 Portland Street, Morrisville, VT" Multiple exact matches in OSM. -->
    <tag k="addr:city" v="Morrisville"/>
    <tag k="addr:housenumber" v="16"/>
    <tag k="addr:street" v="Portland Street"/>
    <tag k="addr:state" v="VT"/>
    <tag k="ref:vcgi:esiteid" v="169354"/>
  </node>
  <node id="-1517" visible="true" lat="44.536803790997" lon="-72.615720031332">
    <!-- multiple: "2305 Laporte Road, Morrisville, VT" Multiple exact matches in OSM. -->
    <tag k="addr:city" v="Morrisville"/>
    <tag k="addr:housenumber" v="2305"/>
    <tag k="addr:street" v="Laporte Road"/>
    <tag k="addr:state" v="VT"/>
    <tag k="ref:vcgi:esiteid" v="170215"/>
  </node>
  <node id="-2258" visible="true" lat="44.555058796066" lon="-72.58920143594">
    <!-- multiple: "90 Doctor Tinker Street, Morrisville, VT" Multiple exact matches in OSM. -->
    <tag k="addr:city" v="Morrisville"/>
    <tag k="addr:housenumber" v="90"/>
    <tag k="addr:street" v="Doctor Tinker Street"/>
    <tag k="addr:state" v="VT"/>
    <tag k="ref:vcgi:esiteid" v="307378"/>
  </node>
  <node id="-2363" visible="true" lat="44.559390264569" lon="-72.61174352633">
    <!-- multiple: "680 Laporte Road, Morrisville, VT" Multiple exact matches in OSM. -->
    <tag k="addr:city" v="Morrisville"/>
    <tag k="addr:housenumber" v="680"/>
    <tag k="addr:street" v="Laporte Road"/>
    <tag k="addr:state" v="VT"/>
    <tag k="ref:vcgi:esiteid" v="336136"/>
  </node>
  <node id="-2395" visible="true" lat="44.571236578073" lon="-72.586003304331">
    <!-- multiple: "28 James Road, Morrisville, VT" Multiple exact matches in OSM. -->
    <tag k="addr:city" v="Morrisville"/>
    <tag k="addr:housenumber" v="28"/>
    <tag k="addr:street" v="James Road"/>
    <tag k="addr:state" v="VT"/>
    <tag k="ref:vcgi:esiteid" v="342920"/>
  </node>
</osm>
