<?xml version="1.0" encoding="UTF-8"?>
<osm version="0.6" generator="JOSM" upload="false">
  <node id="-1208" visible="true" lat="43.477042701212" lon="-72.763652486599">
    <!-- duplicates-in-different-towns: "104 Old County Road, Mount Holly, VT"  ignoring town mismatch for duplicate housenumber/street when matching to esiteid 189916: "104 Old County Road, , VT" -->
    <tag k="addr:city" v="Mount Holly"/>
    <tag k="addr:housenumber" v="104"/>
    <tag k="addr:street" v="Old County Road"/>
    <tag k="addr:state" v="VT"/>
    <tag k="ref:vcgi:esiteid" v="450898"/>
  </node>
  <node id="-1209" visible="true" lat="43.476827637199" lon="-72.762719422014">
    <!-- duplicates-in-different-towns: "50 Old County Road, Mount Holly, VT"  ignoring town mismatch for duplicate housenumber/street when matching to esiteid 189428: "50 Old County Road, , VT" -->
    <tag k="addr:city" v="Mount Holly"/>
    <tag k="addr:housenumber" v="50"/>
    <tag k="addr:street" v="Old County Road"/>
    <tag k="addr:state" v="VT"/>
    <tag k="ref:vcgi:esiteid" v="450899"/>
  </node>
</osm>
