<?xml version="1.0" encoding="UTF-8"?>
<osm version="0.6" generator="JOSM" upload="false">
  <node id="-313" visible="true" lat="44.122486811374" lon="-73.18152422753">
    <!-- multiple: "5356 Ethan Allen Highway, New Haven, VT" Multiple exact matches in OSM. -->
    <tag k="addr:city" v="New Haven"/>
    <tag k="addr:housenumber" v="5356"/>
    <tag k="addr:street" v="Ethan Allen Highway"/>
    <tag k="addr:state" v="VT"/>
    <tag k="ref:vcgi:esiteid" v="172388"/>
  </node>
  <node id="-417" visible="true" lat="44.105748973496" lon="-73.116128784029">
    <!-- multiple: "1467 East Street, New Haven, VT" Multiple exact matches in OSM. -->
    <tag k="addr:city" v="New Haven"/>
    <tag k="addr:housenumber" v="1467"/>
    <tag k="addr:street" v="East Street"/>
    <tag k="addr:state" v="VT"/>
    <tag k="ref:vcgi:esiteid" v="172493"/>
  </node>
  <node id="-617" visible="true" lat="44.074437076807" lon="-73.173681344554">
    <!-- multiple: "1908 Ethan Allen Highway, New Haven, VT" Multiple exact matches in OSM. -->
    <tag k="addr:city" v="New Haven"/>
    <tag k="addr:housenumber" v="1908"/>
    <tag k="addr:street" v="Ethan Allen Highway"/>
    <tag k="addr:state" v="VT"/>
    <tag k="ref:vcgi:esiteid" v="172695"/>
  </node>
</osm>
