<?xml version="1.0" encoding="UTF-8"?>
<osm version="0.6" generator="JOSM" upload="false">
  <node id="-403" visible="true" lat="42.983841666793" lon="-72.656088755428">
    <!-- multiple: "555 Vermont Route 30, Newfane, VT" Multiple exact matches in OSM. -->
    <tag k="addr:city" v="Newfane"/>
    <tag k="addr:housenumber" v="555"/>
    <tag k="addr:street" v="Vermont Route 30"/>
    <tag k="addr:state" v="VT"/>
    <tag k="ref:vcgi:esiteid" v="175096"/>
  </node>
  <node id="-1430" visible="true" lat="42.9837779825" lon="-72.640254166859">
    <!-- multiple: "18 Kenolie Campground, Newfane, VT" Multiple exact matches in OSM. -->
    <tag k="addr:city" v="Newfane"/>
    <tag k="addr:housenumber" v="18"/>
    <tag k="addr:street" v="Kenolie Campground"/>
    <tag k="addr:state" v="VT"/>
    <tag k="ref:vcgi:esiteid" v="757904"/>
  </node>
  <node id="-1432" visible="true" lat="42.98388549037" lon="-72.639985154613">
    <!-- multiple: "20 Kenolie Campground, Newfane, VT" Multiple exact matches in OSM. -->
    <tag k="addr:city" v="Newfane"/>
    <tag k="addr:housenumber" v="20"/>
    <tag k="addr:street" v="Kenolie Campground"/>
    <tag k="addr:state" v="VT"/>
    <tag k="ref:vcgi:esiteid" v="757906"/>
  </node>
  <node id="-1434" visible="true" lat="42.983973328595" lon="-72.640218926445">
    <!-- multiple: "16 Kenolie Campground, Newfane, VT" Multiple exact matches in OSM. -->
    <tag k="addr:city" v="Newfane"/>
    <tag k="addr:housenumber" v="16"/>
    <tag k="addr:street" v="Kenolie Campground"/>
    <tag k="addr:state" v="VT"/>
    <tag k="ref:vcgi:esiteid" v="757908"/>
  </node>
  <node id="-1443" visible="true" lat="42.985019769693" lon="-72.639517329719">
    <!-- multiple: "1 Kenolie Campground, Newfane, VT" Multiple exact matches in OSM. -->
    <tag k="addr:city" v="Newfane"/>
    <tag k="addr:housenumber" v="1"/>
    <tag k="addr:street" v="Kenolie Campground"/>
    <tag k="addr:state" v="VT"/>
    <tag k="ref:vcgi:esiteid" v="757917"/>
  </node>
  <node id="-1444" visible="true" lat="42.985148383033" lon="-72.639517620568">
    <!-- multiple: "2 Kenolie Campground, Newfane, VT" Multiple exact matches in OSM. -->
    <tag k="addr:city" v="Newfane"/>
    <tag k="addr:housenumber" v="2"/>
    <tag k="addr:street" v="Kenolie Campground"/>
    <tag k="addr:state" v="VT"/>
    <tag k="ref:vcgi:esiteid" v="757918"/>
  </node>
  <node id="-1445" visible="true" lat="42.985274650977" lon="-72.639488709545">
    <!-- multiple: "3 Kenolie Campground, Newfane, VT" Multiple exact matches in OSM. -->
    <tag k="addr:city" v="Newfane"/>
    <tag k="addr:housenumber" v="3"/>
    <tag k="addr:street" v="Kenolie Campground"/>
    <tag k="addr:state" v="VT"/>
    <tag k="ref:vcgi:esiteid" v="757919"/>
  </node>
  <node id="-1446" visible="true" lat="42.985415172803" lon="-72.639489027262">
    <!-- multiple: "4 Kenolie Campground, Newfane, VT" Multiple exact matches in OSM. -->
    <tag k="addr:city" v="Newfane"/>
    <tag k="addr:housenumber" v="4"/>
    <tag k="addr:street" v="Kenolie Campground"/>
    <tag k="addr:state" v="VT"/>
    <tag k="ref:vcgi:esiteid" v="757920"/>
  </node>
  <node id="-1448" visible="true" lat="42.985632380956" lon="-72.639103463471">
    <!-- multiple: "6 Kenolie Campground, Newfane, VT" Multiple exact matches in OSM. -->
    <tag k="addr:city" v="Newfane"/>
    <tag k="addr:housenumber" v="6"/>
    <tag k="addr:street" v="Kenolie Campground"/>
    <tag k="addr:state" v="VT"/>
    <tag k="ref:vcgi:esiteid" v="757922"/>
  </node>
  <node id="-1449" visible="true" lat="42.98527739619" lon="-72.639190254014">
    <!-- multiple: "7 Kenolie Campground, Newfane, VT" Multiple exact matches in OSM. -->
    <tag k="addr:city" v="Newfane"/>
    <tag k="addr:housenumber" v="7"/>
    <tag k="addr:street" v="Kenolie Campground"/>
    <tag k="addr:state" v="VT"/>
    <tag k="ref:vcgi:esiteid" v="757923"/>
  </node>
  <node id="-1463" visible="true" lat="42.984999760018" lon="-72.638342911268">
    <!-- multiple: "1 Kenolie Campground, Newfane, VT" Multiple exact matches in OSM. -->
    <tag k="addr:city" v="Newfane"/>
    <tag k="addr:housenumber" v="1"/>
    <tag k="addr:street" v="Kenolie Campground"/>
    <tag k="addr:state" v="VT"/>
    <tag k="ref:vcgi:esiteid" v="757937"/>
  </node>
  <node id="-1464" visible="true" lat="42.984942389686" lon="-72.638514721684">
    <!-- multiple: "2 Kenolie Campground, Newfane, VT" Multiple exact matches in OSM. -->
    <tag k="addr:city" v="Newfane"/>
    <tag k="addr:housenumber" v="2"/>
    <tag k="addr:street" v="Kenolie Campground"/>
    <tag k="addr:state" v="VT"/>
    <tag k="ref:vcgi:esiteid" v="757938"/>
  </node>
  <node id="-1465" visible="true" lat="42.984887374359" lon="-72.638709244829">
    <!-- multiple: "3 Kenolie Campground, Newfane, VT" Multiple exact matches in OSM. -->
    <tag k="addr:city" v="Newfane"/>
    <tag k="addr:housenumber" v="3"/>
    <tag k="addr:street" v="Kenolie Campground"/>
    <tag k="addr:state" v="VT"/>
    <tag k="ref:vcgi:esiteid" v="757939"/>
  </node>
  <node id="-1466" visible="true" lat="42.984849058506" lon="-72.638881097484">
    <!-- multiple: "4 Kenolie Campground, Newfane, VT" Multiple exact matches in OSM. -->
    <tag k="addr:city" v="Newfane"/>
    <tag k="addr:housenumber" v="4"/>
    <tag k="addr:street" v="Kenolie Campground"/>
    <tag k="addr:state" v="VT"/>
    <tag k="ref:vcgi:esiteid" v="757940"/>
  </node>
  <node id="-1467" visible="true" lat="42.984813233691" lon="-72.638962119723">
    <!-- multiple: "6 Kenolie Campground, Newfane, VT" Multiple exact matches in OSM. -->
    <tag k="addr:city" v="Newfane"/>
    <tag k="addr:housenumber" v="6"/>
    <tag k="addr:street" v="Kenolie Campground"/>
    <tag k="addr:state" v="VT"/>
    <tag k="ref:vcgi:esiteid" v="757941"/>
  </node>
  <node id="-1468" visible="true" lat="42.984760631031" lon="-72.63913069426">
    <!-- multiple: "7 Kenolie Campground, Newfane, VT" Multiple exact matches in OSM. -->
    <tag k="addr:city" v="Newfane"/>
    <tag k="addr:housenumber" v="7"/>
    <tag k="addr:street" v="Kenolie Campground"/>
    <tag k="addr:state" v="VT"/>
    <tag k="ref:vcgi:esiteid" v="757942"/>
  </node>
</osm>
