<?xml version="1.0" encoding="UTF-8"?>
<osm version="0.6" generator="JOSM" upload="false">
  <node id="-100" visible="true" lat="44.986907142808" lon="-71.811657365722">
    <tag k="addr:city" v="Norton"/>
    <tag k="addr:housenumber" v="1749"/>
    <tag k="addr:street" v="Vermont Route 114 South"/>
    <tag k="addr:state" v="VT"/>
    <tag k="ref:vcgi:esiteid" v="1040"/>
  </node>
  <node id="-101" visible="true" lat="44.995594467477" lon="-71.714376553427">
    <tag k="addr:city" v="Norton"/>
    <tag k="addr:housenumber" v="4199"/>
    <tag k="addr:street" v="Vermont Route 114 East"/>
    <tag k="addr:state" v="VT"/>
    <tag k="ref:vcgi:esiteid" v="1085"/>
  </node>
  <node id="-102" visible="true" lat="45.010613974829" lon="-71.791433558956">
    <tag k="addr:city" v="Norton"/>
    <tag k="addr:housenumber" v="113"/>
    <tag k="addr:street" v="Marsh Road"/>
    <tag k="addr:state" v="VT"/>
    <tag k="ref:vcgi:esiteid" v="181896"/>
  </node>
  <node id="-103" visible="true" lat="45.010550247798" lon="-71.793312407146">
    <tag k="addr:city" v="Norton"/>
    <tag k="addr:housenumber" v="150"/>
    <tag k="addr:street" v="Vermont Route 147 North"/>
    <tag k="addr:state" v="VT"/>
    <tag k="ref:vcgi:esiteid" v="181897"/>
  </node>
  <node id="-104" visible="true" lat="45.010489833808" lon="-71.791667327227">
    <tag k="addr:city" v="Norton"/>
    <tag k="addr:housenumber" v="108"/>
    <tag k="addr:street" v="Marsh Road"/>
    <tag k="addr:state" v="VT"/>
    <tag k="ref:vcgi:esiteid" v="181898"/>
  </node>
  <node id="-105" visible="true" lat="45.010388908114" lon="-71.798994291581">
    <tag k="addr:city" v="Norton"/>
    <tag k="addr:housenumber" v="337"/>
    <tag k="addr:street" v="Nelson Road"/>
    <tag k="addr:state" v="VT"/>
    <tag k="ref:vcgi:esiteid" v="181900"/>
  </node>
  <node id="-106" visible="true" lat="45.010389760378" lon="-71.794214949256">
    <tag k="addr:city" v="Norton"/>
    <tag k="addr:housenumber" v="115"/>
    <tag k="addr:street" v="Vermont Route 147 North"/>
    <tag k="addr:state" v="VT"/>
    <tag k="ref:vcgi:esiteid" v="181901"/>
  </node>
  <node id="-107" visible="true" lat="45.01014882513" lon="-71.793435152748">
    <tag k="addr:city" v="Norton"/>
    <tag k="addr:housenumber" v="12"/>
    <tag k="addr:street" v="Marsh Road"/>
    <tag k="addr:state" v="VT"/>
    <tag k="ref:vcgi:esiteid" v="181902"/>
  </node>
  <node id="-108" visible="true" lat="45.010381220622" lon="-71.798003264922">
    <tag k="addr:city" v="Norton"/>
    <tag k="addr:housenumber" v="326"/>
    <tag k="addr:street" v="Nelson Road"/>
    <tag k="addr:state" v="VT"/>
    <tag k="ref:vcgi:esiteid" v="181904"/>
  </node>
  <node id="-109" visible="true" lat="45.010068417335" lon="-71.794724008172">
    <tag k="addr:city" v="Norton"/>
    <tag k="addr:housenumber" v="25"/>
    <tag k="addr:street" v="Nelson Road"/>
    <tag k="addr:state" v="VT"/>
    <tag k="ref:vcgi:esiteid" v="181905"/>
  </node>
  <node id="-110" visible="true" lat="45.00996094211" lon="-71.790943196373">
    <tag k="addr:city" v="Norton"/>
    <tag k="addr:housenumber" v="114"/>
    <tag k="addr:street" v="Marsh Road"/>
    <tag k="addr:state" v="VT"/>
    <tag k="ref:vcgi:esiteid" v="181906"/>
  </node>
  <node id="-111" visible="true" lat="45.010119495231" lon="-71.79588201945">
    <tag k="addr:city" v="Norton"/>
    <tag k="addr:housenumber" v="99"/>
    <tag k="addr:street" v="Nelson Road"/>
    <tag k="addr:state" v="VT"/>
    <tag k="ref:vcgi:esiteid" v="181907"/>
  </node>
  <node id="-112" visible="true" lat="45.01023243654" lon="-71.798455644557">
    <tag k="addr:city" v="Norton"/>
    <tag k="addr:housenumber" v="320"/>
    <tag k="addr:street" v="Nelson Road"/>
    <tag k="addr:state" v="VT"/>
    <tag k="ref:vcgi:esiteid" v="181908"/>
  </node>
  <node id="-113" visible="true" lat="45.009786444651" lon="-71.795777756493">
    <tag k="addr:city" v="Norton"/>
    <tag k="addr:housenumber" v="123"/>
    <tag k="addr:street" v="Nelson Road"/>
    <tag k="addr:state" v="VT"/>
    <tag k="ref:vcgi:esiteid" v="181909"/>
  </node>
  <node id="-114" visible="true" lat="45.009757508429" lon="-71.794990587254">
    <tag k="addr:city" v="Norton"/>
    <tag k="addr:housenumber" v="51"/>
    <tag k="addr:street" v="Vermont Route 147 North"/>
    <tag k="addr:state" v="VT"/>
    <tag k="ref:vcgi:esiteid" v="181910"/>
  </node>
  <node id="-115" visible="true" lat="45.009565243199" lon="-71.798693053736">
    <tag k="addr:city" v="Norton"/>
    <tag k="addr:housenumber" v="300"/>
    <tag k="addr:street" v="Nelson Road"/>
    <tag k="addr:state" v="VT"/>
    <tag k="ref:vcgi:esiteid" v="181911"/>
  </node>
  <node id="-116" visible="true" lat="45.009556437395" lon="-71.792252721423">
    <tag k="addr:city" v="Norton"/>
    <tag k="addr:housenumber" v="189"/>
    <tag k="addr:street" v="Vermont Route 114 East"/>
    <tag k="addr:state" v="VT"/>
    <tag k="ref:vcgi:esiteid" v="181912"/>
  </node>
  <node id="-117" visible="true" lat="45.009479327133" lon="-71.795323990697">
    <tag k="addr:city" v="Norton"/>
    <tag k="addr:housenumber" v="25"/>
    <tag k="addr:street" v="Vermont Route 147 North"/>
    <tag k="addr:state" v="VT"/>
    <tag k="ref:vcgi:esiteid" v="181913"/>
  </node>
  <node id="-118" visible="true" lat="45.009410365468" lon="-71.799438945796">
    <tag k="addr:city" v="Norton"/>
    <tag k="addr:housenumber" v="116"/>
    <tag k="addr:street" v="Baumann Road"/>
    <tag k="addr:state" v="VT"/>
    <tag k="ref:vcgi:esiteid" v="181914"/>
  </node>
  <node id="-119" visible="true" lat="45.00944782753" lon="-71.79973148405">
    <tag k="addr:city" v="Norton"/>
    <tag k="addr:housenumber" v="118"/>
    <tag k="addr:street" v="Baumann Road"/>
    <tag k="addr:state" v="VT"/>
    <tag k="ref:vcgi:esiteid" v="181915"/>
  </node>
  <node id="-120" visible="true" lat="45.008944509458" lon="-71.795112697349">
    <tag k="addr:city" v="Norton"/>
    <tag k="addr:housenumber" v="12"/>
    <tag k="addr:street" v="Vermont Route 114 East"/>
    <tag k="addr:state" v="VT"/>
    <tag k="ref:vcgi:esiteid" v="181916"/>
  </node>
  <node id="-121" visible="true" lat="45.008992983184" lon="-71.799073267962">
    <tag k="addr:city" v="Norton"/>
    <tag k="addr:housenumber" v="83"/>
    <tag k="addr:street" v="Baumann Road"/>
    <tag k="addr:state" v="VT"/>
    <tag k="ref:vcgi:esiteid" v="181917"/>
  </node>
  <node id="-122" visible="true" lat="45.008973672545" lon="-71.798584989382">
    <tag k="addr:city" v="Norton"/>
    <tag k="addr:housenumber" v="59"/>
    <tag k="addr:street" v="Baumann Road"/>
    <tag k="addr:state" v="VT"/>
    <tag k="ref:vcgi:esiteid" v="181918"/>
  </node>
  <node id="-123" visible="true" lat="45.008600558274" lon="-71.793583124414">
    <tag k="addr:city" v="Norton"/>
    <tag k="addr:housenumber" v="42"/>
    <tag k="addr:street" v="O'Brien Lane"/>
    <tag k="addr:state" v="VT"/>
    <tag k="ref:vcgi:esiteid" v="181919"/>
  </node>
  <node id="-124" visible="true" lat="45.008536188474" lon="-71.785406929119">
    <tag k="addr:city" v="Norton"/>
    <tag k="addr:housenumber" v="513"/>
    <tag k="addr:street" v="Vermont Route 114 East"/>
    <tag k="addr:state" v="VT"/>
    <tag k="ref:vcgi:esiteid" v="181920"/>
  </node>
  <node id="-125" visible="true" lat="45.008254504121" lon="-71.789169256764">
    <tag k="addr:city" v="Norton"/>
    <tag k="addr:housenumber" v="328"/>
    <tag k="addr:street" v="Vermont Route 114 East"/>
    <tag k="addr:state" v="VT"/>
    <tag k="ref:vcgi:esiteid" v="181921"/>
  </node>
  <node id="-126" visible="true" lat="45.008088662443" lon="-71.801575712295">
    <tag k="addr:city" v="Norton"/>
    <tag k="addr:housenumber" v="229"/>
    <tag k="addr:street" v="Baumann Road"/>
    <tag k="addr:state" v="VT"/>
    <tag k="ref:vcgi:esiteid" v="181922"/>
  </node>
  <node id="-127" visible="true" lat="45.007707641413" lon="-71.77433585433">
    <tag k="addr:city" v="Norton"/>
    <tag k="addr:housenumber" v="1043"/>
    <tag k="addr:street" v="Vermont Route 114 East"/>
    <tag k="addr:state" v="VT"/>
    <tag k="ref:vcgi:esiteid" v="181923"/>
  </node>
  <node id="-128" visible="true" lat="45.007649972219" lon="-71.782715841578">
    <tag k="addr:city" v="Norton"/>
    <tag k="addr:housenumber" v="25"/>
    <tag k="addr:street" v="Town Highway 13"/>
    <tag k="addr:state" v="VT"/>
    <tag k="ref:vcgi:esiteid" v="181924"/>
  </node>
  <node id="-129" visible="true" lat="45.007635337267" lon="-71.776761664058">
    <tag k="addr:city" v="Norton"/>
    <tag k="addr:housenumber" v="955"/>
    <tag k="addr:street" v="Vermont Route 114 East"/>
    <tag k="addr:state" v="VT"/>
    <tag k="ref:vcgi:esiteid" v="181925"/>
  </node>
  <node id="-130" visible="true" lat="45.006985450723" lon="-71.797013608253">
    <tag k="addr:city" v="Norton"/>
    <tag k="addr:housenumber" v="159"/>
    <tag k="addr:street" v="Vermont Route 114 South"/>
    <tag k="addr:state" v="VT"/>
    <tag k="ref:vcgi:esiteid" v="181926"/>
  </node>
  <node id="-131" visible="true" lat="45.006690347674" lon="-71.797126921898">
    <tag k="addr:city" v="Norton"/>
    <tag k="addr:housenumber" v="177"/>
    <tag k="addr:street" v="Vermont Route 114 South"/>
    <tag k="addr:state" v="VT"/>
    <tag k="ref:vcgi:esiteid" v="181927"/>
  </node>
  <node id="-132" visible="true" lat="45.005607566363" lon="-71.770688085204">
    <tag k="addr:city" v="Norton"/>
    <tag k="addr:housenumber" v="1282"/>
    <tag k="addr:street" v="Vermont Route 114 East"/>
    <tag k="addr:state" v="VT"/>
    <tag k="ref:vcgi:esiteid" v="181928"/>
  </node>
  <node id="-133" visible="true" lat="45.005783707514" lon="-71.797748088075">
    <tag k="addr:city" v="Norton"/>
    <tag k="addr:housenumber" v="249"/>
    <tag k="addr:street" v="Vermont Route 114 South"/>
    <tag k="addr:state" v="VT"/>
    <tag k="ref:vcgi:esiteid" v="181929"/>
  </node>
  <node id="-134" visible="true" lat="45.005311076901" lon="-71.769136578697">
    <tag k="addr:city" v="Norton"/>
    <tag k="addr:housenumber" v="1340"/>
    <tag k="addr:street" v="Vermont Route 114 East"/>
    <tag k="addr:state" v="VT"/>
    <tag k="ref:vcgi:esiteid" v="181930"/>
  </node>
  <node id="-135" visible="true" lat="45.005256185703" lon="-71.800099726211">
    <tag k="addr:city" v="Norton"/>
    <tag k="addr:housenumber" v="58"/>
    <tag k="addr:street" v="Railroad Avenue"/>
    <tag k="addr:state" v="VT"/>
    <tag k="ref:vcgi:esiteid" v="181931"/>
  </node>
  <node id="-136" visible="true" lat="45.005142534406" lon="-71.804741225637">
    <tag k="addr:city" v="Norton"/>
    <tag k="addr:housenumber" v="462"/>
    <tag k="addr:street" v="Baumann Road"/>
    <tag k="addr:state" v="VT"/>
    <tag k="ref:vcgi:esiteid" v="181932"/>
  </node>
  <node id="-137" visible="true" lat="45.005148956444" lon="-71.800526450502">
    <tag k="addr:city" v="Norton"/>
    <tag k="addr:housenumber" v="56"/>
    <tag k="addr:street" v="Railroad Avenue"/>
    <tag k="addr:state" v="VT"/>
    <tag k="ref:vcgi:esiteid" v="181933"/>
  </node>
  <node id="-138" visible="true" lat="45.004437530416" lon="-71.800052244263">
    <tag k="addr:city" v="Norton"/>
    <tag k="addr:housenumber" v="49"/>
    <tag k="addr:street" v="Railroad Avenue"/>
    <tag k="addr:state" v="VT"/>
    <tag k="ref:vcgi:esiteid" v="181934"/>
  </node>
  <node id="-139" visible="true" lat="45.003934456878" lon="-71.766762774336">
    <tag k="addr:city" v="Norton"/>
    <tag k="addr:housenumber" v="1506"/>
    <tag k="addr:street" v="Vermont Route 114 East"/>
    <tag k="addr:state" v="VT"/>
    <tag k="ref:vcgi:esiteid" v="181935"/>
  </node>
  <node id="-140" visible="true" lat="45.004168311285" lon="-71.79901096441">
    <tag k="addr:city" v="Norton"/>
    <tag k="addr:housenumber" v="383"/>
    <tag k="addr:street" v="Vermont Route 114 South"/>
    <tag k="addr:state" v="VT"/>
    <tag k="ref:vcgi:esiteid" v="181936"/>
  </node>
  <node id="-141" visible="true" lat="45.003926709263" lon="-71.799023541991">
    <tag k="addr:city" v="Norton"/>
    <tag k="addr:housenumber" v="401"/>
    <tag k="addr:street" v="Vermont Route 114 South"/>
    <tag k="addr:state" v="VT"/>
    <tag k="ref:vcgi:esiteid" v="181937"/>
  </node>
  <node id="-142" visible="true" lat="45.003928294958" lon="-71.799445763647">
    <tag k="addr:city" v="Norton"/>
    <tag k="addr:housenumber" v="412"/>
    <tag k="addr:street" v="Vermont Route 114 South"/>
    <tag k="addr:state" v="VT"/>
    <tag k="ref:vcgi:esiteid" v="181938"/>
  </node>
  <node id="-143" visible="true" lat="45.0036081865" lon="-71.799688621552">
    <tag k="addr:city" v="Norton"/>
    <tag k="addr:housenumber" v="422"/>
    <tag k="addr:street" v="Vermont Route 114 South"/>
    <tag k="addr:state" v="VT"/>
    <tag k="ref:vcgi:esiteid" v="181939"/>
  </node>
  <node id="-144" visible="true" lat="45.003527863089" lon="-71.799160443215">
    <tag k="addr:city" v="Norton"/>
    <tag k="addr:housenumber" v="423"/>
    <tag k="addr:street" v="Vermont Route 114 South"/>
    <tag k="addr:state" v="VT"/>
    <tag k="ref:vcgi:esiteid" v="181940"/>
  </node>
  <node id="-145" visible="true" lat="45.002775472903" lon="-71.761568717993">
    <tag k="addr:city" v="Norton"/>
    <tag k="addr:housenumber" v="1760"/>
    <tag k="addr:street" v="Vermont Route 114 East"/>
    <tag k="addr:state" v="VT"/>
    <tag k="ref:vcgi:esiteid" v="181941"/>
  </node>
  <node id="-146" visible="true" lat="45.003199844212" lon="-71.799174757306">
    <tag k="addr:city" v="Norton"/>
    <tag k="addr:housenumber" v="445"/>
    <tag k="addr:street" v="Vermont Route 114 South"/>
    <tag k="addr:state" v="VT"/>
    <tag k="ref:vcgi:esiteid" v="181942"/>
  </node>
  <node id="-147" visible="true" lat="45.00304563166" lon="-71.799767545663">
    <tag k="addr:city" v="Norton"/>
    <tag k="addr:housenumber" v="460"/>
    <tag k="addr:street" v="Vermont Route 114 South"/>
    <tag k="addr:state" v="VT"/>
    <tag k="ref:vcgi:esiteid" v="181943"/>
  </node>
  <node id="-148" visible="true" lat="45.002625930556" lon="-71.799466335881">
    <tag k="addr:city" v="Norton"/>
    <tag k="addr:housenumber" v="489"/>
    <tag k="addr:street" v="Vermont Route 114 South"/>
    <tag k="addr:state" v="VT"/>
    <tag k="ref:vcgi:esiteid" v="181944"/>
  </node>
  <node id="-149" visible="true" lat="45.002353931071" lon="-71.758441938589">
    <tag k="addr:city" v="Norton"/>
    <tag k="addr:housenumber" v="1927"/>
    <tag k="addr:street" v="Vermont Route 114 East"/>
    <tag k="addr:state" v="VT"/>
    <tag k="ref:vcgi:esiteid" v="181945"/>
  </node>
  <node id="-150" visible="true" lat="45.002249605206" lon="-71.758075195218">
    <tag k="addr:city" v="Norton"/>
    <tag k="addr:housenumber" v="1929"/>
    <tag k="addr:street" v="Vermont Route 114 East"/>
    <tag k="addr:state" v="VT"/>
    <tag k="ref:vcgi:esiteid" v="181946"/>
  </node>
  <node id="-151" visible="true" lat="45.001920295622" lon="-71.800202420182">
    <tag k="addr:city" v="Norton"/>
    <tag k="addr:housenumber" v="540"/>
    <tag k="addr:street" v="Vermont Route 114 South"/>
    <tag k="addr:state" v="VT"/>
    <tag k="ref:vcgi:esiteid" v="181947"/>
  </node>
  <node id="-152" visible="true" lat="45.001886155144" lon="-71.799599332027">
    <tag k="addr:city" v="Norton"/>
    <tag k="addr:housenumber" v="535"/>
    <tag k="addr:street" v="Vermont Route 114 South"/>
    <tag k="addr:state" v="VT"/>
    <tag k="ref:vcgi:esiteid" v="181948"/>
  </node>
  <node id="-153" visible="true" lat="45.001583452039" lon="-71.798096079387">
    <tag k="addr:city" v="Norton"/>
    <tag k="addr:housenumber" v="93"/>
    <tag k="addr:street" v="Church Hill Road"/>
    <tag k="addr:state" v="VT"/>
    <tag k="ref:vcgi:esiteid" v="181950"/>
  </node>
  <node id="-154" visible="true" lat="45.001223765182" lon="-71.798458069833">
    <tag k="addr:city" v="Norton"/>
    <tag k="addr:housenumber" v="72"/>
    <tag k="addr:street" v="Church Hill Road"/>
    <tag k="addr:state" v="VT"/>
    <tag k="ref:vcgi:esiteid" v="181951"/>
  </node>
  <node id="-155" visible="true" lat="45.000890090556" lon="-71.759001837278">
    <tag k="addr:city" v="Norton"/>
    <tag k="addr:housenumber" v="87"/>
    <tag k="addr:street" v="Henry Road"/>
    <tag k="addr:state" v="VT"/>
    <tag k="ref:vcgi:esiteid" v="181952"/>
  </node>
  <node id="-156" visible="true" lat="45.001308008674" lon="-71.797438385724">
    <tag k="addr:city" v="Norton"/>
    <tag k="addr:housenumber" v="131"/>
    <tag k="addr:street" v="Church Hill Road"/>
    <tag k="addr:state" v="VT"/>
    <tag k="ref:vcgi:esiteid" v="181953"/>
  </node>
  <node id="-157" visible="true" lat="45.000333383457" lon="-71.754227674182">
    <tag k="addr:city" v="Norton"/>
    <tag k="addr:housenumber" v="2162"/>
    <tag k="addr:street" v="Vermont Route 114 East"/>
    <tag k="addr:state" v="VT"/>
    <tag k="ref:vcgi:esiteid" v="181954"/>
  </node>
  <node id="-158" visible="true" lat="44.999835100685" lon="-71.708090012286">
    <tag k="addr:city" v="Norton"/>
    <tag k="addr:housenumber" v="4615"/>
    <tag k="addr:street" v="Vermont Route 114 East"/>
    <tag k="addr:state" v="VT"/>
    <tag k="ref:vcgi:esiteid" v="181955"/>
  </node>
  <node id="-159" visible="true" lat="44.999771402019" lon="-71.768960174707">
    <tag k="addr:city" v="Norton"/>
    <tag k="addr:housenumber" v="354"/>
    <tag k="addr:street" v="Leos Lane"/>
    <tag k="addr:state" v="VT"/>
    <tag k="ref:vcgi:esiteid" v="181956"/>
  </node>
  <node id="-160" visible="true" lat="44.999562814262" lon="-71.751618420303">
    <tag k="addr:city" v="Norton"/>
    <tag k="addr:housenumber" v="2298"/>
    <tag k="addr:street" v="Vermont Route 114 East"/>
    <tag k="addr:state" v="VT"/>
    <tag k="ref:vcgi:esiteid" v="181957"/>
  </node>
  <node id="-161" visible="true" lat="44.999197722707" lon="-71.750723489019">
    <tag k="addr:city" v="Norton"/>
    <tag k="addr:housenumber" v="2354"/>
    <tag k="addr:street" v="Vermont Route 114 East"/>
    <tag k="addr:state" v="VT"/>
    <tag k="ref:vcgi:esiteid" v="181958"/>
  </node>
  <node id="-162" visible="true" lat="44.998951384126" lon="-71.709761145147">
    <tag k="addr:city" v="Norton"/>
    <tag k="addr:housenumber" v="4531"/>
    <tag k="addr:street" v="Vermont Route 114 East"/>
    <tag k="addr:state" v="VT"/>
    <tag k="ref:vcgi:esiteid" v="181959"/>
  </node>
  <node id="-163" visible="true" lat="44.999364448028" lon="-71.796166469313">
    <tag k="addr:city" v="Norton"/>
    <tag k="addr:housenumber" v="264"/>
    <tag k="addr:street" v="Church Hill Road"/>
    <tag k="addr:state" v="VT"/>
    <tag k="ref:vcgi:esiteid" v="181960"/>
  </node>
  <node id="-164" visible="true" lat="44.998932279321" lon="-71.750027713969">
    <tag k="addr:city" v="Norton"/>
    <tag k="addr:housenumber" v="2408"/>
    <tag k="addr:street" v="Vermont Route 114 East"/>
    <tag k="addr:state" v="VT"/>
    <tag k="ref:vcgi:esiteid" v="181962"/>
  </node>
  <node id="-165" visible="true" lat="44.998658336351" lon="-71.710549139786">
    <tag k="addr:city" v="Norton"/>
    <tag k="addr:housenumber" v="4491"/>
    <tag k="addr:street" v="Vermont Route 114 East"/>
    <tag k="addr:state" v="VT"/>
    <tag k="ref:vcgi:esiteid" v="181963"/>
  </node>
  <node id="-166" visible="true" lat="44.998790478946" lon="-71.748060882637">
    <tag k="addr:city" v="Norton"/>
    <tag k="addr:housenumber" v="2479"/>
    <tag k="addr:street" v="Vermont Route 114 East"/>
    <tag k="addr:state" v="VT"/>
    <tag k="ref:vcgi:esiteid" v="181964"/>
  </node>
  <node id="-167" visible="true" lat="44.998291935828" lon="-71.748663293983">
    <tag k="addr:city" v="Norton"/>
    <tag k="addr:housenumber" v="22"/>
    <tag k="addr:street" v="Gaudette Road"/>
    <tag k="addr:state" v="VT"/>
    <tag k="ref:vcgi:esiteid" v="181965"/>
  </node>
  <node id="-168" visible="true" lat="44.998376378647" lon="-71.747885223754">
    <tag k="addr:city" v="Norton"/>
    <tag k="addr:housenumber" v="2504"/>
    <tag k="addr:street" v="Vermont Route 114 East"/>
    <tag k="addr:state" v="VT"/>
    <tag k="ref:vcgi:esiteid" v="181966"/>
  </node>
  <node id="-169" visible="true" lat="44.998136548331" lon="-71.710207327347">
    <tag k="addr:city" v="Norton"/>
    <tag k="addr:housenumber" v="525"/>
    <tag k="addr:street" v="Lake View Road"/>
    <tag k="addr:state" v="VT"/>
    <tag k="ref:vcgi:esiteid" v="181967"/>
  </node>
  <node id="-170" visible="true" lat="44.998264978274" lon="-71.760272529463">
    <tag k="addr:city" v="Norton"/>
    <tag k="addr:housenumber" v="276"/>
    <tag k="addr:street" v="Henry Road"/>
    <tag k="addr:state" v="VT"/>
    <tag k="ref:vcgi:esiteid" v="181968"/>
  </node>
  <node id="-171" visible="true" lat="44.998169274401" lon="-71.748593006769">
    <tag k="addr:city" v="Norton"/>
    <tag k="addr:housenumber" v="38"/>
    <tag k="addr:street" v="Gaudette Road"/>
    <tag k="addr:state" v="VT"/>
    <tag k="ref:vcgi:esiteid" v="181969"/>
  </node>
  <node id="-172" visible="true" lat="44.997913829887" lon="-71.710385601351">
    <tag k="addr:city" v="Norton"/>
    <tag k="addr:housenumber" v="503"/>
    <tag k="addr:street" v="Lake View Road"/>
    <tag k="addr:state" v="VT"/>
    <tag k="ref:vcgi:esiteid" v="181970"/>
  </node>
  <node id="-173" visible="true" lat="44.996869415424" lon="-71.71167269857">
    <tag k="addr:city" v="Norton"/>
    <tag k="addr:housenumber" v="443"/>
    <tag k="addr:street" v="Lake View Road"/>
    <tag k="addr:state" v="VT"/>
    <tag k="ref:vcgi:esiteid" v="181971"/>
  </node>
  <node id="-174" visible="true" lat="44.996712248667" lon="-71.710912444974">
    <tag k="addr:city" v="Norton"/>
    <tag k="addr:housenumber" v="421"/>
    <tag k="addr:street" v="Lake View Road"/>
    <tag k="addr:state" v="VT"/>
    <tag k="ref:vcgi:esiteid" v="181972"/>
  </node>
  <node id="-175" visible="true" lat="44.997054815341" lon="-71.790404132914">
    <tag k="addr:city" v="Norton"/>
    <tag k="addr:housenumber" v="636"/>
    <tag k="addr:street" v="Church Hill Road"/>
    <tag k="addr:state" v="VT"/>
    <tag k="ref:vcgi:esiteid" v="181973"/>
  </node>
  <node id="-176" visible="true" lat="44.99641444362" lon="-71.711181938609">
    <tag k="addr:city" v="Norton"/>
    <tag k="addr:housenumber" v="403"/>
    <tag k="addr:street" v="Lake View Road"/>
    <tag k="addr:state" v="VT"/>
    <tag k="ref:vcgi:esiteid" v="181974"/>
  </node>
  <node id="-177" visible="true" lat="44.996692924852" lon="-71.74113021327">
    <tag k="addr:city" v="Norton"/>
    <tag k="addr:housenumber" v="2859"/>
    <tag k="addr:street" v="Vermont Route 114 East"/>
    <tag k="addr:state" v="VT"/>
    <tag k="ref:vcgi:esiteid" v="181975"/>
  </node>
  <node id="-178" visible="true" lat="44.996396480173" lon="-71.723090348458">
    <tag k="addr:city" v="Norton"/>
    <tag k="addr:housenumber" v="3763"/>
    <tag k="addr:street" v="Vermont Route 114 East"/>
    <tag k="addr:state" v="VT"/>
    <tag k="ref:vcgi:esiteid" v="181976"/>
  </node>
  <node id="-179" visible="true" lat="44.996352729964" lon="-71.728270045256">
    <tag k="addr:city" v="Norton"/>
    <tag k="addr:housenumber" v="35"/>
    <tag k="addr:street" v="Averill Lake Road"/>
    <tag k="addr:state" v="VT"/>
    <tag k="ref:vcgi:esiteid" v="181977"/>
  </node>
  <node id="-180" visible="true" lat="44.996196839522" lon="-71.711321932498">
    <tag k="addr:city" v="Norton"/>
    <tag k="addr:housenumber" v="375"/>
    <tag k="addr:street" v="Lake View Road"/>
    <tag k="addr:state" v="VT"/>
    <tag k="ref:vcgi:esiteid" v="181978"/>
  </node>
  <node id="-181" visible="true" lat="44.996067666129" lon="-71.727921643273">
    <tag k="addr:city" v="Norton"/>
    <tag k="addr:housenumber" v="61"/>
    <tag k="addr:street" v="Averill Lake Road"/>
    <tag k="addr:state" v="VT"/>
    <tag k="ref:vcgi:esiteid" v="181979"/>
  </node>
  <node id="-182" visible="true" lat="44.995994396025" lon="-71.711487708667">
    <tag k="addr:city" v="Norton"/>
    <tag k="addr:housenumber" v="361"/>
    <tag k="addr:street" v="Lake View Road"/>
    <tag k="addr:state" v="VT"/>
    <tag k="ref:vcgi:esiteid" v="181980"/>
  </node>
  <node id="-183" visible="true" lat="44.995739984108" lon="-71.711757899657">
    <tag k="addr:city" v="Norton"/>
    <tag k="addr:housenumber" v="329"/>
    <tag k="addr:street" v="Lake View Road"/>
    <tag k="addr:state" v="VT"/>
    <tag k="ref:vcgi:esiteid" v="181981"/>
  </node>
  <node id="-184" visible="true" lat="44.995692738011" lon="-71.73395286014">
    <tag k="addr:city" v="Norton"/>
    <tag k="addr:housenumber" v="3212"/>
    <tag k="addr:street" v="Vermont Route 114 East"/>
    <tag k="addr:state" v="VT"/>
    <tag k="ref:vcgi:esiteid" v="181982"/>
  </node>
  <node id="-185" visible="true" lat="44.995629861198" lon="-71.732407597929">
    <tag k="addr:city" v="Norton"/>
    <tag k="addr:housenumber" v="3266"/>
    <tag k="addr:street" v="Vermont Route 114 East"/>
    <tag k="addr:state" v="VT"/>
    <tag k="ref:vcgi:esiteid" v="181983"/>
  </node>
  <node id="-186" visible="true" lat="44.995464437415" lon="-71.711969552455">
    <tag k="addr:city" v="Norton"/>
    <tag k="addr:housenumber" v="315"/>
    <tag k="addr:street" v="Lake View Road"/>
    <tag k="addr:state" v="VT"/>
    <tag k="ref:vcgi:esiteid" v="181984"/>
  </node>
  <node id="-187" visible="true" lat="44.994839586454" lon="-71.717275204722">
    <tag k="addr:city" v="Norton"/>
    <tag k="addr:housenumber" v="32"/>
    <tag k="addr:street" v="Lake View Road"/>
    <tag k="addr:state" v="VT"/>
    <tag k="ref:vcgi:esiteid" v="181985"/>
  </node>
  <node id="-188" visible="true" lat="44.995309283684" lon="-71.712263178927">
    <tag k="addr:city" v="Norton"/>
    <tag k="addr:housenumber" v="297"/>
    <tag k="addr:street" v="Lake View Road"/>
    <tag k="addr:state" v="VT"/>
    <tag k="ref:vcgi:esiteid" v="181986"/>
  </node>
  <node id="-189" visible="true" lat="44.994744452458" lon="-71.712189995545">
    <tag k="addr:city" v="Norton"/>
    <tag k="addr:housenumber" v="280"/>
    <tag k="addr:street" v="Lake View Road"/>
    <tag k="addr:state" v="VT"/>
    <tag k="ref:vcgi:esiteid" v="181987"/>
  </node>
  <node id="-190" visible="true" lat="44.995571829259" lon="-71.712529732374">
    <tag k="addr:city" v="Norton"/>
    <tag k="addr:housenumber" v="263"/>
    <tag k="addr:street" v="Lake View Road"/>
    <tag k="addr:state" v="VT"/>
    <tag k="ref:vcgi:esiteid" v="181988"/>
  </node>
  <node id="-191" visible="true" lat="44.994796253472" lon="-71.71317157702">
    <tag k="addr:city" v="Norton"/>
    <tag k="addr:housenumber" v="235"/>
    <tag k="addr:street" v="Lake View Road"/>
    <tag k="addr:state" v="VT"/>
    <tag k="ref:vcgi:esiteid" v="181989"/>
  </node>
  <node id="-192" visible="true" lat="44.995124677005" lon="-71.803529057828">
    <tag k="addr:city" v="Norton"/>
    <tag k="addr:housenumber" v="1043"/>
    <tag k="addr:street" v="Vermont Route 114 South"/>
    <tag k="addr:state" v="VT"/>
    <tag k="ref:vcgi:esiteid" v="181990"/>
  </node>
  <node id="-193" visible="true" lat="44.994427188073" lon="-71.714409403157">
    <tag k="addr:city" v="Norton"/>
    <tag k="addr:housenumber" v="166"/>
    <tag k="addr:street" v="Lake View Road"/>
    <tag k="addr:state" v="VT"/>
    <tag k="ref:vcgi:esiteid" v="181991"/>
  </node>
  <node id="-194" visible="true" lat="44.994447305384" lon="-71.738854436756">
    <tag k="addr:city" v="Norton"/>
    <tag k="addr:housenumber" v="116"/>
    <tag k="addr:street" v="Brousseau Mountain Road"/>
    <tag k="addr:state" v="VT"/>
    <tag k="ref:vcgi:esiteid" v="181993"/>
  </node>
  <node id="-195" visible="true" lat="44.994615192142" lon="-71.804074207699">
    <tag k="addr:city" v="Norton"/>
    <tag k="addr:housenumber" v="1085"/>
    <tag k="addr:street" v="Vermont Route 114 South"/>
    <tag k="addr:state" v="VT"/>
    <tag k="ref:vcgi:esiteid" v="181994"/>
  </node>
  <node id="-196" visible="true" lat="44.994013862907" lon="-71.804540950394">
    <tag k="addr:city" v="Norton"/>
    <tag k="addr:housenumber" v="1155"/>
    <tag k="addr:street" v="Vermont Route 114 South"/>
    <tag k="addr:state" v="VT"/>
    <tag k="ref:vcgi:esiteid" v="181995"/>
  </node>
  <node id="-197" visible="true" lat="44.993964454654" lon="-71.806239206937">
    <tag k="addr:city" v="Norton"/>
    <tag k="addr:housenumber" v="1194"/>
    <tag k="addr:street" v="Vermont Route 114 South"/>
    <tag k="addr:state" v="VT"/>
    <tag k="ref:vcgi:esiteid" v="181996"/>
  </node>
  <node id="-198" visible="true" lat="44.993081973093" lon="-71.718341471492">
    <tag k="addr:city" v="Norton"/>
    <tag k="addr:housenumber" v="3772"/>
    <tag k="addr:street" v="Vermont Route 114 East"/>
    <tag k="addr:state" v="VT"/>
    <tag k="ref:vcgi:esiteid" v="181997"/>
  </node>
  <node id="-199" visible="true" lat="44.992710318537" lon="-71.718760178053">
    <tag k="addr:city" v="Norton"/>
    <tag k="addr:housenumber" v="3768"/>
    <tag k="addr:street" v="Vermont Route 114 East"/>
    <tag k="addr:state" v="VT"/>
    <tag k="ref:vcgi:esiteid" v="181998"/>
  </node>
  <node id="-200" visible="true" lat="44.99336855719" lon="-71.806936055039">
    <tag k="addr:city" v="Norton"/>
    <tag k="addr:housenumber" v="1196"/>
    <tag k="addr:street" v="Vermont Route 114 South"/>
    <tag k="addr:state" v="VT"/>
    <tag k="ref:vcgi:esiteid" v="181999"/>
  </node>
  <node id="-201" visible="true" lat="44.992280555683" lon="-71.739167244085">
    <tag k="addr:city" v="Norton"/>
    <tag k="addr:housenumber" v="274"/>
    <tag k="addr:street" v="Brousseau Mountain Road"/>
    <tag k="addr:state" v="VT"/>
    <tag k="ref:vcgi:esiteid" v="182000"/>
  </node>
  <node id="-202" visible="true" lat="44.992711826607" lon="-71.803842412572">
    <tag k="addr:city" v="Norton"/>
    <tag k="addr:housenumber" v="1197"/>
    <tag k="addr:street" v="Vermont Route 114 South"/>
    <tag k="addr:state" v="VT"/>
    <tag k="ref:vcgi:esiteid" v="182001"/>
  </node>
  <node id="-203" visible="true" lat="44.992500165443" lon="-71.806274979525">
    <tag k="addr:city" v="Norton"/>
    <tag k="addr:housenumber" v="1267"/>
    <tag k="addr:street" v="Vermont Route 114 South"/>
    <tag k="addr:state" v="VT"/>
    <tag k="ref:vcgi:esiteid" v="182002"/>
  </node>
  <node id="-204" visible="true" lat="44.991923728311" lon="-71.806161953004">
    <tag k="addr:city" v="Norton"/>
    <tag k="addr:housenumber" v="1305"/>
    <tag k="addr:street" v="Vermont Route 114 South"/>
    <tag k="addr:state" v="VT"/>
    <tag k="ref:vcgi:esiteid" v="182003"/>
  </node>
  <node id="-205" visible="true" lat="44.991894630075" lon="-71.720837269132">
    <tag k="addr:city" v="Norton"/>
    <tag k="addr:housenumber" v="1520"/>
    <tag k="addr:street" v="Cattier Drive"/>
    <tag k="addr:state" v="VT"/>
    <tag k="ref:vcgi:esiteid" v="182004"/>
  </node>
  <node id="-206" visible="true" lat="44.991090958444" lon="-71.807663737378">
    <tag k="addr:city" v="Norton"/>
    <tag k="addr:housenumber" v="1401"/>
    <tag k="addr:street" v="Vermont Route 114 South"/>
    <tag k="addr:state" v="VT"/>
    <tag k="ref:vcgi:esiteid" v="182005"/>
  </node>
  <node id="-207" visible="true" lat="44.990266394754" lon="-71.740090400462">
    <tag k="addr:city" v="Norton"/>
    <tag k="addr:housenumber" v="410"/>
    <tag k="addr:street" v="Brousseau Mountain Road"/>
    <tag k="addr:state" v="VT"/>
    <tag k="ref:vcgi:esiteid" v="182006"/>
  </node>
  <node id="-208" visible="true" lat="44.989283868805" lon="-71.809988465165">
    <tag k="addr:city" v="Norton"/>
    <tag k="addr:housenumber" v="1552"/>
    <tag k="addr:street" v="Vermont Route 114 South"/>
    <tag k="addr:state" v="VT"/>
    <tag k="ref:vcgi:esiteid" v="182007"/>
  </node>
  <node id="-209" visible="true" lat="44.988671851436" lon="-71.7386789621">
    <tag k="addr:city" v="Norton"/>
    <tag k="addr:housenumber" v="501"/>
    <tag k="addr:street" v="Brousseau Mountain Road"/>
    <tag k="addr:state" v="VT"/>
    <tag k="ref:vcgi:esiteid" v="182008"/>
  </node>
  <node id="-210" visible="true" lat="44.98752267549" lon="-71.815567226375">
    <tag k="addr:city" v="Norton"/>
    <tag k="addr:housenumber" v="1748"/>
    <tag k="addr:street" v="Vermont Route 114 South"/>
    <tag k="addr:state" v="VT"/>
    <tag k="ref:vcgi:esiteid" v="182009"/>
  </node>
  <node id="-211" visible="true" lat="44.987368436159" lon="-71.810709698588">
    <tag k="addr:city" v="Norton"/>
    <tag k="addr:housenumber" v="1703"/>
    <tag k="addr:street" v="Vermont Route 114 South"/>
    <tag k="addr:state" v="VT"/>
    <tag k="ref:vcgi:esiteid" v="182010"/>
  </node>
  <node id="-212" visible="true" lat="44.987163150805" lon="-71.812018220128">
    <tag k="addr:city" v="Norton"/>
    <tag k="addr:housenumber" v="1740"/>
    <tag k="addr:street" v="Vermont Route 114 South"/>
    <tag k="addr:state" v="VT"/>
    <tag k="ref:vcgi:esiteid" v="182011"/>
  </node>
  <node id="-213" visible="true" lat="44.984730249604" lon="-71.748713899012">
    <tag k="addr:city" v="Norton"/>
    <tag k="addr:housenumber" v="949"/>
    <tag k="addr:street" v="Gaudette Road"/>
    <tag k="addr:state" v="VT"/>
    <tag k="ref:vcgi:esiteid" v="182013"/>
  </node>
  <node id="-214" visible="true" lat="44.984791014686" lon="-71.751535578516">
    <tag k="addr:city" v="Norton"/>
    <tag k="addr:housenumber" v="976"/>
    <tag k="addr:street" v="Gaudette Road"/>
    <tag k="addr:state" v="VT"/>
    <tag k="ref:vcgi:esiteid" v="182014"/>
  </node>
  <node id="-215" visible="true" lat="44.983822225062" lon="-71.749481796828">
    <tag k="addr:city" v="Norton"/>
    <tag k="addr:housenumber" v="989"/>
    <tag k="addr:street" v="Gaudette Road"/>
    <tag k="addr:state" v="VT"/>
    <tag k="ref:vcgi:esiteid" v="182015"/>
  </node>
  <node id="-216" visible="true" lat="44.984132195228" lon="-71.751523683935">
    <tag k="addr:city" v="Norton"/>
    <tag k="addr:housenumber" v="1000"/>
    <tag k="addr:street" v="Gaudette Road"/>
    <tag k="addr:state" v="VT"/>
    <tag k="ref:vcgi:esiteid" v="182016"/>
  </node>
  <node id="-217" visible="true" lat="44.981442998851" lon="-71.740014104384">
    <tag k="addr:city" v="Norton"/>
    <tag k="addr:housenumber" v="1015"/>
    <tag k="addr:street" v="Brousseau Mountain Road"/>
    <tag k="addr:state" v="VT"/>
    <tag k="ref:vcgi:esiteid" v="182017"/>
  </node>
  <node id="-218" visible="true" lat="44.981950212263" lon="-71.816064321222">
    <tag k="addr:city" v="Norton"/>
    <tag k="addr:housenumber" v="2157"/>
    <tag k="addr:street" v="Vermont Route 114 South"/>
    <tag k="addr:state" v="VT"/>
    <tag k="ref:vcgi:esiteid" v="182018"/>
  </node>
  <node id="-219" visible="true" lat="44.981641359354" lon="-71.819161469995">
    <tag k="addr:city" v="Norton"/>
    <tag k="addr:housenumber" v="163"/>
    <tag k="addr:street" v="Gagnon Road"/>
    <tag k="addr:state" v="VT"/>
    <tag k="ref:vcgi:esiteid" v="182019"/>
  </node>
  <node id="-220" visible="true" lat="44.980003077959" lon="-71.815457488978">
    <tag k="addr:city" v="Norton"/>
    <tag k="addr:housenumber" v="2297"/>
    <tag k="addr:street" v="Vermont Route 114 South"/>
    <tag k="addr:state" v="VT"/>
    <tag k="ref:vcgi:esiteid" v="182020"/>
  </node>
  <node id="-221" visible="true" lat="44.978963446265" lon="-71.739365605898">
    <tag k="addr:city" v="Norton"/>
    <tag k="addr:housenumber" v="1165"/>
    <tag k="addr:street" v="Brousseau Mountain Road"/>
    <tag k="addr:state" v="VT"/>
    <tag k="ref:vcgi:esiteid" v="182021"/>
  </node>
  <node id="-222" visible="true" lat="44.979255580644" lon="-71.816960168665">
    <tag k="addr:city" v="Norton"/>
    <tag k="addr:housenumber" v="2335"/>
    <tag k="addr:street" v="Vermont Route 114 South"/>
    <tag k="addr:state" v="VT"/>
    <tag k="ref:vcgi:esiteid" v="182022"/>
  </node>
  <node id="-223" visible="true" lat="44.97763418976" lon="-71.741041933315">
    <tag k="addr:city" v="Norton"/>
    <tag k="addr:housenumber" v="1280"/>
    <tag k="addr:street" v="Brousseau Mountain Road"/>
    <tag k="addr:state" v="VT"/>
    <tag k="ref:vcgi:esiteid" v="182023"/>
  </node>
  <node id="-224" visible="true" lat="44.978189168249" lon="-71.816990970317">
    <tag k="addr:city" v="Norton"/>
    <tag k="addr:housenumber" v="2453"/>
    <tag k="addr:street" v="Vermont Route 114 South"/>
    <tag k="addr:state" v="VT"/>
    <tag k="ref:vcgi:esiteid" v="182024"/>
  </node>
  <node id="-225" visible="true" lat="44.977265904237" lon="-71.739380864983">
    <tag k="addr:city" v="Norton"/>
    <tag k="addr:housenumber" v="1329"/>
    <tag k="addr:street" v="Brousseau Mountain Road"/>
    <tag k="addr:state" v="VT"/>
    <tag k="ref:vcgi:esiteid" v="182025"/>
  </node>
  <node id="-226" visible="true" lat="44.977017949837" lon="-71.740250615876">
    <tag k="addr:city" v="Norton"/>
    <tag k="addr:housenumber" v="1317"/>
    <tag k="addr:street" v="Brousseau Mountain Road"/>
    <tag k="addr:state" v="VT"/>
    <tag k="ref:vcgi:esiteid" v="182026"/>
  </node>
  <node id="-227" visible="true" lat="44.976273852174" lon="-71.816638643546">
    <tag k="addr:city" v="Norton"/>
    <tag k="addr:housenumber" v="2551"/>
    <tag k="addr:street" v="Vermont Route 114 South"/>
    <tag k="addr:state" v="VT"/>
    <tag k="ref:vcgi:esiteid" v="182027"/>
  </node>
  <node id="-228" visible="true" lat="44.973806306494" lon="-71.816338632942">
    <tag k="addr:city" v="Norton"/>
    <tag k="addr:housenumber" v="2729"/>
    <tag k="addr:street" v="Vermont Route 114 South"/>
    <tag k="addr:state" v="VT"/>
    <tag k="ref:vcgi:esiteid" v="182028"/>
  </node>
  <node id="-229" visible="true" lat="44.971250580153" lon="-71.812870586107">
    <tag k="addr:city" v="Norton"/>
    <tag k="addr:housenumber" v="211"/>
    <tag k="addr:street" v="Camp Road"/>
    <tag k="addr:state" v="VT"/>
    <tag k="ref:vcgi:esiteid" v="182029"/>
  </node>
  <node id="-230" visible="true" lat="44.970896287715" lon="-71.813345386526">
    <tag k="addr:city" v="Norton"/>
    <tag k="addr:housenumber" v="190"/>
    <tag k="addr:street" v="Camp Road"/>
    <tag k="addr:state" v="VT"/>
    <tag k="ref:vcgi:esiteid" v="182030"/>
  </node>
  <node id="-231" visible="true" lat="44.968577710503" lon="-71.816373992962">
    <tag k="addr:city" v="Norton"/>
    <tag k="addr:housenumber" v="3105"/>
    <tag k="addr:street" v="Vermont Route 114 South"/>
    <tag k="addr:state" v="VT"/>
    <tag k="ref:vcgi:esiteid" v="182031"/>
  </node>
  <node id="-232" visible="true" lat="44.967541696472" lon="-71.815384328484">
    <tag k="addr:city" v="Norton"/>
    <tag k="addr:housenumber" v="3125"/>
    <tag k="addr:street" v="Vermont Route 114 South"/>
    <tag k="addr:state" v="VT"/>
    <tag k="ref:vcgi:esiteid" v="182032"/>
  </node>
  <node id="-233" visible="true" lat="44.96774856606" lon="-71.816903207178">
    <tag k="addr:city" v="Norton"/>
    <tag k="addr:housenumber" v="3173"/>
    <tag k="addr:street" v="Vermont Route 114 South"/>
    <tag k="addr:state" v="VT"/>
    <tag k="ref:vcgi:esiteid" v="182033"/>
  </node>
  <node id="-234" visible="true" lat="44.967447376596" lon="-71.817196127867">
    <tag k="addr:city" v="Norton"/>
    <tag k="addr:housenumber" v="3189"/>
    <tag k="addr:street" v="Vermont Route 114 South"/>
    <tag k="addr:state" v="VT"/>
    <tag k="ref:vcgi:esiteid" v="182034"/>
  </node>
  <node id="-235" visible="true" lat="44.966833452521" lon="-71.817577551229">
    <tag k="addr:city" v="Norton"/>
    <tag k="addr:housenumber" v="3233"/>
    <tag k="addr:street" v="Vermont Route 114 South"/>
    <tag k="addr:state" v="VT"/>
    <tag k="ref:vcgi:esiteid" v="182035"/>
  </node>
  <node id="-236" visible="true" lat="44.966456179467" lon="-71.81764429231">
    <tag k="addr:city" v="Norton"/>
    <tag k="addr:housenumber" v="3261"/>
    <tag k="addr:street" v="Vermont Route 114 South"/>
    <tag k="addr:state" v="VT"/>
    <tag k="ref:vcgi:esiteid" v="182036"/>
  </node>
  <node id="-237" visible="true" lat="44.96610767331" lon="-71.819230207963">
    <tag k="addr:city" v="Norton"/>
    <tag k="addr:housenumber" v="3308"/>
    <tag k="addr:street" v="Vermont Route 114 South"/>
    <tag k="addr:state" v="VT"/>
    <tag k="ref:vcgi:esiteid" v="182037"/>
  </node>
  <node id="-238" visible="true" lat="44.965696260034" lon="-71.818757150552">
    <tag k="addr:city" v="Norton"/>
    <tag k="addr:housenumber" v="3327"/>
    <tag k="addr:street" v="Vermont Route 114 South"/>
    <tag k="addr:state" v="VT"/>
    <tag k="ref:vcgi:esiteid" v="182038"/>
  </node>
  <node id="-239" visible="true" lat="44.965658111776" lon="-71.819626901602">
    <tag k="addr:city" v="Norton"/>
    <tag k="addr:housenumber" v="3362"/>
    <tag k="addr:street" v="Vermont Route 114 South"/>
    <tag k="addr:state" v="VT"/>
    <tag k="ref:vcgi:esiteid" v="182039"/>
  </node>
  <node id="-240" visible="true" lat="44.96542160027" lon="-71.819428538691">
    <tag k="addr:city" v="Norton"/>
    <tag k="addr:housenumber" v="3363"/>
    <tag k="addr:street" v="Vermont Route 114 South"/>
    <tag k="addr:state" v="VT"/>
    <tag k="ref:vcgi:esiteid" v="182040"/>
  </node>
  <node id="-241" visible="true" lat="44.96533004836" lon="-71.818802928059">
    <tag k="addr:city" v="Norton"/>
    <tag k="addr:housenumber" v="3357"/>
    <tag k="addr:street" v="Vermont Route 114 South"/>
    <tag k="addr:state" v="VT"/>
    <tag k="ref:vcgi:esiteid" v="182041"/>
  </node>
  <node id="-242" visible="true" lat="44.965110422353" lon="-71.819986397056">
    <tag k="addr:city" v="Norton"/>
    <tag k="addr:housenumber" v="3407"/>
    <tag k="addr:street" v="Vermont Route 114 South"/>
    <tag k="addr:state" v="VT"/>
    <tag k="ref:vcgi:esiteid" v="182042"/>
  </node>
  <node id="-243" visible="true" lat="44.964950453028" lon="-71.820387702308">
    <tag k="addr:city" v="Norton"/>
    <tag k="addr:housenumber" v="3419"/>
    <tag k="addr:street" v="Vermont Route 114 South"/>
    <tag k="addr:state" v="VT"/>
    <tag k="ref:vcgi:esiteid" v="182043"/>
  </node>
  <node id="-244" visible="true" lat="44.964723511643" lon="-71.820923899827">
    <tag k="addr:city" v="Norton"/>
    <tag k="addr:housenumber" v="3451"/>
    <tag k="addr:street" v="Vermont Route 114 South"/>
    <tag k="addr:state" v="VT"/>
    <tag k="ref:vcgi:esiteid" v="182044"/>
  </node>
  <node id="-245" visible="true" lat="44.964277191854" lon="-71.821839427566">
    <tag k="addr:city" v="Norton"/>
    <tag k="addr:housenumber" v="3509"/>
    <tag k="addr:street" v="Vermont Route 114 South"/>
    <tag k="addr:state" v="VT"/>
    <tag k="ref:vcgi:esiteid" v="182045"/>
  </node>
  <node id="-246" visible="true" lat="44.96410553068" lon="-71.823495006346">
    <tag k="addr:city" v="Norton"/>
    <tag k="addr:housenumber" v="3581"/>
    <tag k="addr:street" v="Vermont Route 114 South"/>
    <tag k="addr:state" v="VT"/>
    <tag k="ref:vcgi:esiteid" v="182046"/>
  </node>
  <node id="-247" visible="true" lat="44.963834685929" lon="-71.823899364111">
    <tag k="addr:city" v="Norton"/>
    <tag k="addr:housenumber" v="3633"/>
    <tag k="addr:street" v="Vermont Route 114 South"/>
    <tag k="addr:state" v="VT"/>
    <tag k="ref:vcgi:esiteid" v="182047"/>
  </node>
  <node id="-248" visible="true" lat="44.963416125368" lon="-71.823053985861">
    <tag k="addr:city" v="Norton"/>
    <tag k="addr:housenumber" v="3585"/>
    <tag k="addr:street" v="Vermont Route 114 South"/>
    <tag k="addr:state" v="VT"/>
    <tag k="ref:vcgi:esiteid" v="182048"/>
  </node>
  <node id="-249" visible="true" lat="44.963417549224" lon="-71.826666860612">
    <tag k="addr:city" v="Norton"/>
    <tag k="addr:housenumber" v="3728"/>
    <tag k="addr:street" v="Vermont Route 114 South"/>
    <tag k="addr:state" v="VT"/>
    <tag k="ref:vcgi:esiteid" v="182049"/>
  </node>
  <node id="-250" visible="true" lat="44.963031941945" lon="-71.82446669743">
    <tag k="addr:city" v="Norton"/>
    <tag k="addr:housenumber" v="3661"/>
    <tag k="addr:street" v="Vermont Route 114 South"/>
    <tag k="addr:state" v="VT"/>
    <tag k="ref:vcgi:esiteid" v="182050"/>
  </node>
  <node id="-251" visible="true" lat="44.962994405663" lon="-71.825843937942">
    <tag k="addr:city" v="Norton"/>
    <tag k="addr:housenumber" v="3721"/>
    <tag k="addr:street" v="Vermont Route 114 South"/>
    <tag k="addr:state" v="VT"/>
    <tag k="ref:vcgi:esiteid" v="182051"/>
  </node>
  <node id="-252" visible="true" lat="44.960541943047" lon="-71.829941300171">
    <tag k="addr:city" v="Norton"/>
    <tag k="addr:housenumber" v="3977"/>
    <tag k="addr:street" v="Vermont Route 114 South"/>
    <tag k="addr:state" v="VT"/>
    <tag k="ref:vcgi:esiteid" v="182052"/>
  </node>
  <node id="-253" visible="true" lat="44.960148386824" lon="-71.830716055122">
    <tag k="addr:city" v="Norton"/>
    <tag k="addr:housenumber" v="4039"/>
    <tag k="addr:street" v="Vermont Route 114 South"/>
    <tag k="addr:state" v="VT"/>
    <tag k="ref:vcgi:esiteid" v="182053"/>
  </node>
  <node id="-254" visible="true" lat="44.95776264244" lon="-71.835746530211">
    <tag k="addr:city" v="Norton"/>
    <tag k="addr:housenumber" v="4337"/>
    <tag k="addr:street" v="Vermont Route 114 South"/>
    <tag k="addr:state" v="VT"/>
    <tag k="ref:vcgi:esiteid" v="182054"/>
  </node>
  <node id="-255" visible="true" lat="44.957484207809" lon="-71.836278635995">
    <tag k="addr:city" v="Norton"/>
    <tag k="addr:housenumber" v="4371"/>
    <tag k="addr:street" v="Vermont Route 114 South"/>
    <tag k="addr:state" v="VT"/>
    <tag k="ref:vcgi:esiteid" v="182055"/>
  </node>
  <node id="-256" visible="true" lat="44.956891933707" lon="-71.838143091338">
    <tag k="addr:city" v="Norton"/>
    <tag k="addr:housenumber" v="4460"/>
    <tag k="addr:street" v="Vermont Route 114 South"/>
    <tag k="addr:state" v="VT"/>
    <tag k="ref:vcgi:esiteid" v="182056"/>
  </node>
  <node id="-257" visible="true" lat="44.951851895077" lon="-71.844002585104">
    <tag k="addr:city" v="Norton"/>
    <tag k="addr:housenumber" v="32"/>
    <tag k="addr:street" v="Lake Station Road"/>
    <tag k="addr:state" v="VT"/>
    <tag k="ref:vcgi:esiteid" v="182057"/>
  </node>
  <node id="-258" visible="true" lat="44.951162343499" lon="-71.842849336978">
    <tag k="addr:city" v="Norton"/>
    <tag k="addr:housenumber" v="4923"/>
    <tag k="addr:street" v="Vermont Route 114 South"/>
    <tag k="addr:state" v="VT"/>
    <tag k="ref:vcgi:esiteid" v="182058"/>
  </node>
  <node id="-259" visible="true" lat="44.949962703783" lon="-71.844069348312">
    <tag k="addr:city" v="Norton"/>
    <tag k="addr:housenumber" v="5029"/>
    <tag k="addr:street" v="Vermont Route 114 South"/>
    <tag k="addr:state" v="VT"/>
    <tag k="ref:vcgi:esiteid" v="182059"/>
  </node>
  <node id="-260" visible="true" lat="44.948491970443" lon="-71.845154864606">
    <tag k="addr:city" v="Norton"/>
    <tag k="addr:housenumber" v="5145"/>
    <tag k="addr:street" v="Vermont Route 114 South"/>
    <tag k="addr:state" v="VT"/>
    <tag k="ref:vcgi:esiteid" v="182060"/>
  </node>
  <node id="-261" visible="true" lat="44.946466040829" lon="-71.848570404646">
    <tag k="addr:city" v="Norton"/>
    <tag k="addr:housenumber" v="45"/>
    <tag k="addr:street" v="Devost Lane"/>
    <tag k="addr:state" v="VT"/>
    <tag k="ref:vcgi:esiteid" v="182061"/>
  </node>
  <node id="-262" visible="true" lat="44.947834136192" lon="-71.845878388604">
    <tag k="addr:city" v="Norton"/>
    <tag k="addr:housenumber" v="5201"/>
    <tag k="addr:street" v="Vermont Route 114 South"/>
    <tag k="addr:state" v="VT"/>
    <tag k="ref:vcgi:esiteid" v="182062"/>
  </node>
  <node id="-263" visible="true" lat="44.94754741899" lon="-71.846152970545">
    <tag k="addr:city" v="Norton"/>
    <tag k="addr:housenumber" v="5225"/>
    <tag k="addr:street" v="Vermont Route 114 South"/>
    <tag k="addr:state" v="VT"/>
    <tag k="ref:vcgi:esiteid" v="182063"/>
  </node>
  <node id="-264" visible="true" lat="44.947164694401" lon="-71.846589187512">
    <tag k="addr:city" v="Norton"/>
    <tag k="addr:housenumber" v="5261"/>
    <tag k="addr:street" v="Vermont Route 114 South"/>
    <tag k="addr:state" v="VT"/>
    <tag k="ref:vcgi:esiteid" v="182064"/>
  </node>
  <node id="-265" visible="true" lat="45.010542402706" lon="-71.790802847124">
    <tag k="addr:city" v="Norton"/>
    <tag k="addr:housenumber" v="117"/>
    <tag k="addr:street" v="Marsh Road"/>
    <tag k="addr:state" v="VT"/>
    <tag k="ref:vcgi:esiteid" v="182066"/>
  </node>
  <node id="-266" visible="true" lat="45.004232003698" lon="-71.799386075158">
    <tag k="addr:city" v="Norton"/>
    <tag k="addr:housenumber" v="380"/>
    <tag k="addr:street" v="Vermont Route 114 South"/>
    <tag k="addr:state" v="VT"/>
    <tag k="ref:vcgi:esiteid" v="182067"/>
  </node>
  <node id="-267" visible="true" lat="44.994914787695" lon="-71.745832790605">
    <tag k="addr:city" v="Norton"/>
    <tag k="addr:housenumber" v="528"/>
    <tag k="addr:street" v="Klunder Hill Road"/>
    <tag k="addr:state" v="VT"/>
    <tag k="ref:vcgi:esiteid" v="182068"/>
  </node>
  <node id="-268" visible="true" lat="44.947735856362" lon="-71.848507796598">
    <tag k="addr:city" v="Norton"/>
    <tag k="addr:housenumber" v="77"/>
    <tag k="addr:street" v="Devost Lane"/>
    <tag k="addr:state" v="VT"/>
    <tag k="ref:vcgi:esiteid" v="182069"/>
  </node>
  <node id="-269" visible="true" lat="44.947736660193" lon="-71.848855120309">
    <tag k="addr:city" v="Norton"/>
    <tag k="addr:housenumber" v="89"/>
    <tag k="addr:street" v="Devost Lane"/>
    <tag k="addr:state" v="VT"/>
    <tag k="ref:vcgi:esiteid" v="182070"/>
  </node>
  <node id="-270" visible="true" lat="44.947740475956" lon="-71.849236590789">
    <tag k="addr:city" v="Norton"/>
    <tag k="addr:housenumber" v="97"/>
    <tag k="addr:street" v="Devost Lane"/>
    <tag k="addr:state" v="VT"/>
    <tag k="ref:vcgi:esiteid" v="182071"/>
  </node>
  <node id="-271" visible="true" lat="44.947976985355" lon="-71.849076373536">
    <tag k="addr:city" v="Norton"/>
    <tag k="addr:housenumber" v="107"/>
    <tag k="addr:street" v="Devost Lane"/>
    <tag k="addr:state" v="VT"/>
    <tag k="ref:vcgi:esiteid" v="182072"/>
  </node>
  <node id="-272" visible="true" lat="44.94821349732" lon="-71.84929762733">
    <tag k="addr:city" v="Norton"/>
    <tag k="addr:housenumber" v="117"/>
    <tag k="addr:street" v="Devost Lane"/>
    <tag k="addr:state" v="VT"/>
    <tag k="ref:vcgi:esiteid" v="182073"/>
  </node>
  <node id="-273" visible="true" lat="44.948515453037" lon="-71.849334385608">
    <tag k="addr:city" v="Norton"/>
    <tag k="addr:housenumber" v="129"/>
    <tag k="addr:street" v="Devost Lane"/>
    <tag k="addr:state" v="VT"/>
    <tag k="ref:vcgi:esiteid" v="182074"/>
  </node>
  <node id="-274" visible="true" lat="44.948961467561" lon="-71.849586148783">
    <tag k="addr:city" v="Norton"/>
    <tag k="addr:housenumber" v="149"/>
    <tag k="addr:street" v="Devost Lane"/>
    <tag k="addr:state" v="VT"/>
    <tag k="ref:vcgi:esiteid" v="182075"/>
  </node>
  <node id="-275" visible="true" lat="44.948633245445" lon="-71.849627424218">
    <tag k="addr:city" v="Norton"/>
    <tag k="addr:housenumber" v="137"/>
    <tag k="addr:street" v="Devost Lane"/>
    <tag k="addr:state" v="VT"/>
    <tag k="ref:vcgi:esiteid" v="182076"/>
  </node>
  <node id="-276" visible="true" lat="44.949879626563" lon="-71.849204044179">
    <tag k="addr:city" v="Norton"/>
    <tag k="addr:housenumber" v="96"/>
    <tag k="addr:street" v="Biron Lane"/>
    <tag k="addr:state" v="VT"/>
    <tag k="ref:vcgi:esiteid" v="182077"/>
  </node>
  <node id="-277" visible="true" lat="44.949645618831" lon="-71.849452582095">
    <tag k="addr:city" v="Norton"/>
    <tag k="addr:housenumber" v="106"/>
    <tag k="addr:street" v="Biron Lane"/>
    <tag k="addr:state" v="VT"/>
    <tag k="ref:vcgi:esiteid" v="182078"/>
  </node>
  <node id="-278" visible="true" lat="44.952475548758" lon="-71.854861085224">
    <tag k="addr:city" v="Norton"/>
    <tag k="addr:housenumber" v="991"/>
    <tag k="addr:street" v="Lake Station Road"/>
    <tag k="addr:state" v="VT"/>
    <tag k="ref:vcgi:esiteid" v="182079"/>
  </node>
  <node id="-279" visible="true" lat="44.952773607964" lon="-71.854550681069">
    <tag k="addr:city" v="Norton"/>
    <tag k="addr:housenumber" v="967"/>
    <tag k="addr:street" v="Lake Station Road"/>
    <tag k="addr:state" v="VT"/>
    <tag k="ref:vcgi:esiteid" v="182080"/>
  </node>
  <node id="-280" visible="true" lat="44.953020971411" lon="-71.853890790882">
    <tag k="addr:city" v="Norton"/>
    <tag k="addr:housenumber" v="943"/>
    <tag k="addr:street" v="Lake Station Road"/>
    <tag k="addr:state" v="VT"/>
    <tag k="ref:vcgi:esiteid" v="182081"/>
  </node>
  <node id="-281" visible="true" lat="44.953355378976" lon="-71.852895195711">
    <tag k="addr:city" v="Norton"/>
    <tag k="addr:housenumber" v="921"/>
    <tag k="addr:street" v="Lake Station Road"/>
    <tag k="addr:state" v="VT"/>
    <tag k="ref:vcgi:esiteid" v="182082"/>
  </node>
  <node id="-282" visible="true" lat="44.953646874523" lon="-71.851385235403">
    <tag k="addr:city" v="Norton"/>
    <tag k="addr:housenumber" v="905"/>
    <tag k="addr:street" v="Lake Station Road"/>
    <tag k="addr:state" v="VT"/>
    <tag k="ref:vcgi:esiteid" v="182083"/>
  </node>
  <node id="-283" visible="true" lat="45.003095524812" lon="-71.768520950879">
    <tag k="addr:city" v="Norton"/>
    <tag k="addr:housenumber" v="150"/>
    <tag k="addr:street" v="Leos Lane"/>
    <tag k="addr:state" v="VT"/>
    <tag k="ref:vcgi:esiteid" v="182085"/>
  </node>
  <node id="-284" visible="true" lat="44.997973429665" lon="-71.74147902752">
    <tag k="addr:city" v="Norton"/>
    <tag k="addr:housenumber" v="100"/>
    <tag k="addr:street" v="Mountain View Lane"/>
    <tag k="addr:state" v="VT"/>
    <tag k="ref:vcgi:esiteid" v="182086"/>
  </node>
  <node id="-285" visible="true" lat="44.996931314101" lon="-71.728723391246">
    <tag k="addr:city" v="Norton"/>
    <tag k="addr:housenumber" v="3461"/>
    <tag k="addr:street" v="Vermont Route 114 East"/>
    <tag k="addr:state" v="VT"/>
    <tag k="ref:vcgi:esiteid" v="182087"/>
  </node>
  <node id="-286" visible="true" lat="44.990477554736" lon="-71.803143107734">
    <tag k="addr:city" v="Norton"/>
    <tag k="addr:housenumber" v="1311"/>
    <tag k="addr:street" v="Vermont Route 114 South"/>
    <tag k="addr:state" v="VT"/>
    <tag k="ref:vcgi:esiteid" v="182088"/>
  </node>
  <node id="-287" visible="true" lat="44.987195320475" lon="-71.810527351528">
    <tag k="addr:city" v="Norton"/>
    <tag k="addr:housenumber" v="1723"/>
    <tag k="addr:street" v="Vermont Route 114 South"/>
    <tag k="addr:state" v="VT"/>
    <tag k="ref:vcgi:esiteid" v="182089"/>
  </node>
  <node id="-288" visible="true" lat="44.991229229566" lon="-71.749414942901">
    <tag k="addr:city" v="Norton"/>
    <tag k="addr:housenumber" v="513"/>
    <tag k="addr:street" v="Gaudette Road"/>
    <tag k="addr:state" v="VT"/>
    <tag k="ref:vcgi:esiteid" v="182090"/>
  </node>
  <node id="-289" visible="true" lat="44.947732846602" lon="-71.848130328952">
    <tag k="addr:city" v="Norton"/>
    <tag k="addr:housenumber" v="69"/>
    <tag k="addr:street" v="Devost Lane"/>
    <tag k="addr:state" v="VT"/>
    <tag k="ref:vcgi:esiteid" v="182091"/>
  </node>
  <node id="-290" visible="true" lat="44.998555127302" lon="-71.745741254652">
    <tag k="addr:city" v="Norton"/>
    <tag k="addr:housenumber" v="125"/>
    <tag k="addr:street" v="Mountain View Lane"/>
    <tag k="addr:state" v="VT"/>
    <tag k="ref:vcgi:esiteid" v="182092"/>
  </node>
  <node id="-291" visible="true" lat="44.980602997211" lon="-71.814293935888">
    <tag k="addr:city" v="Norton"/>
    <tag k="addr:housenumber" v="2211"/>
    <tag k="addr:street" v="Vermont Route 114 South"/>
    <tag k="addr:state" v="VT"/>
    <tag k="ref:vcgi:esiteid" v="182093"/>
  </node>
  <node id="-292" visible="true" lat="44.968088687072" lon="-71.815466027898">
    <tag k="addr:city" v="Norton"/>
    <tag k="addr:housenumber" v="3121"/>
    <tag k="addr:street" v="Vermont Route 114 South"/>
    <tag k="addr:state" v="VT"/>
    <tag k="ref:vcgi:esiteid" v="182094"/>
  </node>
  <node id="-293" visible="true" lat="44.996343801482" lon="-71.739240647296">
    <tag k="addr:city" v="Norton"/>
    <tag k="addr:housenumber" v="2959"/>
    <tag k="addr:street" v="Vermont Route 114 East"/>
    <tag k="addr:state" v="VT"/>
    <tag k="ref:vcgi:esiteid" v="182095"/>
  </node>
  <node id="-294" visible="true" lat="44.947353711519" lon="-71.849357425068">
    <tag k="addr:city" v="Norton"/>
    <tag k="addr:housenumber" v="93"/>
    <tag k="addr:street" v="Devost Lane"/>
    <tag k="addr:state" v="VT"/>
    <tag k="ref:vcgi:esiteid" v="182096"/>
  </node>
  <node id="-295" visible="true" lat="44.995221193314" lon="-71.749610955887">
    <tag k="addr:city" v="Norton"/>
    <tag k="addr:housenumber" v="234"/>
    <tag k="addr:street" v="Gaudette Road"/>
    <tag k="addr:state" v="VT"/>
    <tag k="ref:vcgi:esiteid" v="182097"/>
  </node>
  <node id="-296" visible="true" lat="44.992741769686" lon="-71.748171880913">
    <tag k="addr:city" v="Norton"/>
    <tag k="addr:housenumber" v="421"/>
    <tag k="addr:street" v="Gaudette Road"/>
    <tag k="addr:state" v="VT"/>
    <tag k="ref:vcgi:esiteid" v="182098"/>
  </node>
  <node id="-297" visible="true" lat="44.986966730374" lon="-71.751053005504">
    <tag k="addr:city" v="Norton"/>
    <tag k="addr:housenumber" v="870"/>
    <tag k="addr:street" v="Gaudette Road"/>
    <tag k="addr:state" v="VT"/>
    <tag k="ref:vcgi:esiteid" v="182099"/>
  </node>
  <node id="-298" visible="true" lat="44.999368119148" lon="-71.744860911899">
    <tag k="addr:city" v="Norton"/>
    <tag k="addr:housenumber" v="150"/>
    <tag k="addr:street" v="Mountain View Lane"/>
    <tag k="addr:state" v="VT"/>
    <tag k="ref:vcgi:esiteid" v="182100"/>
  </node>
  <node id="-299" visible="true" lat="44.987962711715" lon="-71.804268989503">
    <tag k="addr:city" v="Norton"/>
    <tag k="addr:housenumber" v="1551"/>
    <tag k="addr:street" v="Vermont Route 114 South"/>
    <tag k="addr:state" v="VT"/>
    <tag k="ref:vcgi:esiteid" v="182101"/>
  </node>
  <node id="-300" visible="true" lat="45.001735245815" lon="-71.768742002319">
    <tag k="addr:city" v="Norton"/>
    <tag k="addr:housenumber" v="230"/>
    <tag k="addr:street" v="Leos Lane"/>
    <tag k="addr:state" v="VT"/>
    <tag k="ref:vcgi:esiteid" v="182102"/>
  </node>
  <node id="-301" visible="true" lat="45.00263368729" lon="-71.768407141993">
    <tag k="addr:city" v="Norton"/>
    <tag k="addr:housenumber" v="172"/>
    <tag k="addr:street" v="Leos Lane"/>
    <tag k="addr:state" v="VT"/>
    <tag k="ref:vcgi:esiteid" v="182103"/>
  </node>
  <node id="-302" visible="true" lat="44.982486703497" lon="-71.822332793902">
    <tag k="addr:city" v="Norton"/>
    <tag k="addr:housenumber" v="316"/>
    <tag k="addr:street" v="Gagnon Road"/>
    <tag k="addr:state" v="VT"/>
    <tag k="ref:vcgi:esiteid" v="182105"/>
  </node>
  <node id="-303" visible="true" lat="45.006412791901" lon="-71.805150875059">
    <tag k="addr:city" v="Norton"/>
    <tag k="addr:housenumber" v="474"/>
    <tag k="addr:street" v="Baumann Road"/>
    <tag k="addr:state" v="VT"/>
    <tag k="ref:vcgi:esiteid" v="182106"/>
  </node>
  <node id="-304" visible="true" lat="44.99849156809" lon="-71.711575059659">
    <tag k="addr:city" v="Norton"/>
    <tag k="addr:housenumber" v="4469"/>
    <tag k="addr:street" v="Vermont Route 114 East"/>
    <tag k="addr:state" v="VT"/>
    <tag k="ref:vcgi:esiteid" v="182107"/>
  </node>
  <node id="-305" visible="true" lat="44.995889101918" lon="-71.728194902238">
    <tag k="addr:city" v="Norton"/>
    <tag k="addr:housenumber" v="74"/>
    <tag k="addr:street" v="Averill Lake Road"/>
    <tag k="addr:state" v="VT"/>
    <tag k="ref:vcgi:esiteid" v="340855"/>
  </node>
  <node id="-306" visible="true" lat="44.994031786917" lon="-71.749792163342">
    <tag k="addr:city" v="Norton"/>
    <tag k="addr:housenumber" v="330"/>
    <tag k="addr:street" v="Gaudette Road"/>
    <tag k="addr:state" v="VT"/>
    <tag k="ref:vcgi:esiteid" v="342464"/>
  </node>
  <node id="-307" visible="true" lat="44.993329983611" lon="-71.750799693385">
    <tag k="addr:city" v="Norton"/>
    <tag k="addr:housenumber" v="372"/>
    <tag k="addr:street" v="Gaudette Road"/>
    <tag k="addr:state" v="VT"/>
    <tag k="ref:vcgi:esiteid" v="342465"/>
  </node>
  <node id="-308" visible="true" lat="44.991672142781" lon="-71.750656405888">
    <tag k="addr:city" v="Norton"/>
    <tag k="addr:housenumber" v="500"/>
    <tag k="addr:street" v="Gaudette Road"/>
    <tag k="addr:state" v="VT"/>
    <tag k="ref:vcgi:esiteid" v="342466"/>
  </node>
  <node id="-309" visible="true" lat="44.990960154896" lon="-71.75039227692">
    <tag k="addr:city" v="Norton"/>
    <tag k="addr:housenumber" v="538"/>
    <tag k="addr:street" v="Gaudette Road"/>
    <tag k="addr:state" v="VT"/>
    <tag k="ref:vcgi:esiteid" v="342467"/>
  </node>
  <node id="-310" visible="true" lat="44.988474341137" lon="-71.750741210521">
    <tag k="addr:city" v="Norton"/>
    <tag k="addr:housenumber" v="716"/>
    <tag k="addr:street" v="Gaudette Road"/>
    <tag k="addr:state" v="VT"/>
    <tag k="ref:vcgi:esiteid" v="342468"/>
  </node>
  <node id="-311" visible="true" lat="45.007219144708" lon="-71.784430723503">
    <tag k="addr:city" v="Norton"/>
    <tag k="addr:housenumber" v="602"/>
    <tag k="addr:street" v="Vermont Route 114 East"/>
    <tag k="addr:state" v="VT"/>
    <tag k="ref:vcgi:esiteid" v="342524"/>
  </node>
  <node id="-312" visible="true" lat="44.998873902088" lon="-71.746869857645">
    <tag k="addr:city" v="Norton"/>
    <tag k="addr:housenumber" v="2571"/>
    <tag k="addr:street" v="Vermont Route 114 East"/>
    <tag k="addr:state" v="VT"/>
    <tag k="ref:vcgi:esiteid" v="365346"/>
  </node>
  <node id="-313" visible="true" lat="44.989224464135" lon="-71.722174345296">
    <tag k="addr:city" v="Norton"/>
    <tag k="addr:housenumber" v="750"/>
    <tag k="addr:street" v="Cattier Drive"/>
    <tag k="addr:state" v="VT"/>
    <tag k="ref:vcgi:esiteid" v="446021"/>
  </node>
  <node id="-314" visible="true" lat="44.991601437838" lon="-71.806197085007">
    <tag k="addr:city" v="Norton"/>
    <tag k="addr:housenumber" v="1313"/>
    <tag k="addr:street" v="Vermont Route 114 South"/>
    <tag k="addr:state" v="VT"/>
    <tag k="ref:vcgi:esiteid" v="450117"/>
  </node>
  <node id="-315" visible="true" lat="44.974838293256" lon="-71.815439287806">
    <tag k="addr:city" v="Norton"/>
    <tag k="addr:housenumber" v="2677"/>
    <tag k="addr:street" v="Vermont Route 114 South"/>
    <tag k="addr:state" v="VT"/>
    <tag k="ref:vcgi:esiteid" v="450118"/>
  </node>
  <node id="-316" visible="true" lat="44.980946363927" lon="-71.823778005992">
    <tag k="addr:city" v="Norton"/>
    <tag k="addr:housenumber" v="293"/>
    <tag k="addr:street" v="Gagnon Road"/>
    <tag k="addr:state" v="VT"/>
    <tag k="ref:vcgi:esiteid" v="450119"/>
  </node>
  <node id="-317" visible="true" lat="44.977311541522" lon="-71.832681884872">
    <tag k="addr:city" v="Norton"/>
    <tag k="addr:housenumber" v="891"/>
    <tag k="addr:street" v="Gagnon Road"/>
    <tag k="addr:state" v="VT"/>
    <tag k="ref:vcgi:esiteid" v="450120"/>
  </node>
  <node id="-318" visible="true" lat="45.007639199886" lon="-71.777959693127">
    <tag k="addr:city" v="Norton"/>
    <tag k="addr:housenumber" v="889"/>
    <tag k="addr:street" v="Vermont Route 114 East"/>
    <tag k="addr:state" v="VT"/>
    <tag k="ref:vcgi:esiteid" v="450121"/>
  </node>
  <node id="-319" visible="true" lat="44.998917815967" lon="-71.761140894439">
    <tag k="addr:city" v="Norton"/>
    <tag k="addr:housenumber" v="262"/>
    <tag k="addr:street" v="Henry Road"/>
    <tag k="addr:state" v="VT"/>
    <tag k="ref:vcgi:esiteid" v="450954"/>
  </node>
  <node id="-320" visible="true" lat="45.010040075071" lon="-71.795228609192">
    <tag k="addr:city" v="Norton"/>
    <tag k="addr:housenumber" v="30"/>
    <tag k="addr:street" v="Town Highway 11"/>
    <tag k="addr:state" v="VT"/>
    <tag k="ref:vcgi:esiteid" v="450955"/>
  </node>
  <node id="-321" visible="true" lat="45.005127276298" lon="-71.799712597688">
    <tag k="addr:city" v="Norton"/>
    <tag k="addr:housenumber" v="62"/>
    <tag k="addr:street" v="Railroad Avenue"/>
    <tag k="addr:state" v="VT"/>
    <tag k="ref:vcgi:esiteid" v="450956"/>
  </node>
  <node id="-322" visible="true" lat="44.987742566492" lon="-71.75081343702">
    <tag k="addr:city" v="Norton"/>
    <tag k="addr:housenumber" v="770"/>
    <tag k="addr:street" v="Gaudette Road"/>
    <tag k="addr:state" v="VT"/>
    <tag k="ref:vcgi:esiteid" v="451369"/>
  </node>
  <node id="-323" visible="true" lat="44.99375440726" lon="-71.740184714934">
    <tag k="addr:city" v="Norton"/>
    <tag k="addr:housenumber" v="186"/>
    <tag k="addr:street" v="Brousseau Mountain Road"/>
    <tag k="addr:state" v="VT"/>
    <tag k="ref:vcgi:esiteid" v="451370"/>
  </node>
  <node id="-324" visible="true" lat="44.995688776597" lon="-71.740347061892">
    <tag k="addr:city" v="Norton"/>
    <tag k="addr:housenumber" v="2898"/>
    <tag k="addr:street" v="Vermont Route 114 East"/>
    <tag k="addr:state" v="VT"/>
    <tag k="ref:vcgi:esiteid" v="451371"/>
  </node>
  <node id="-326" visible="true" lat="44.990581323106" lon="-71.749518444069">
    <tag k="addr:city" v="Norton"/>
    <tag k="addr:housenumber" v="587"/>
    <tag k="addr:street" v="Gaudette Road"/>
    <tag k="addr:state" v="VT"/>
    <tag k="ref:vcgi:esiteid" v="451373"/>
  </node>
  <node id="-327" visible="true" lat="44.996336372656" lon="-71.735264834256">
    <tag k="addr:city" v="Norton"/>
    <tag k="addr:housenumber" v="3153"/>
    <tag k="addr:street" v="Vermont Route 114 East"/>
    <tag k="addr:state" v="VT"/>
    <tag k="ref:vcgi:esiteid" v="455027"/>
  </node>
  <node id="-329" visible="true" lat="45.006636713299" lon="-71.771854264697">
    <tag k="addr:city" v="Norton"/>
    <tag k="addr:housenumber" v="1157"/>
    <tag k="addr:street" v="Vermont Route 114 East"/>
    <tag k="addr:state" v="VT"/>
    <tag k="ref:vcgi:esiteid" v="620635"/>
  </node>
  <node id="-330" visible="true" lat="45.004065983271" lon="-71.797336585566">
    <tag k="addr:city" v="Norton"/>
    <tag k="addr:housenumber" v="357"/>
    <tag k="addr:street" v="Vermont Route 114 South"/>
    <tag k="addr:state" v="VT"/>
    <tag k="ref:vcgi:esiteid" v="620636"/>
  </node>
  <node id="-331" visible="true" lat="44.992753481172" lon="-71.805408602054">
    <tag k="addr:city" v="Norton"/>
    <tag k="addr:housenumber" v="1235"/>
    <tag k="addr:street" v="Vermont Route 114 South"/>
    <tag k="addr:state" v="VT"/>
    <tag k="ref:vcgi:esiteid" v="620637"/>
  </node>
  <node id="-332" visible="true" lat="45.007689807677" lon="-71.785374183451">
    <tag k="addr:city" v="Norton"/>
    <tag k="addr:housenumber" v="522"/>
    <tag k="addr:street" v="Vermont Route 114 East"/>
    <tag k="addr:state" v="VT"/>
    <tag k="ref:vcgi:esiteid" v="700134"/>
  </node>
  <node id="-333" visible="true" lat="44.97298450254" lon="-71.814781843685">
    <tag k="addr:city" v="Norton"/>
    <tag k="addr:housenumber" v="45"/>
    <tag k="addr:street" v="Camp Road"/>
    <tag k="addr:state" v="VT"/>
    <tag k="ref:vcgi:esiteid" v="752177"/>
  </node>
  <node id="-334" visible="true" lat="44.948138935007" lon="-71.858318940617">
    <tag k="addr:city" v="Norton"/>
    <tag k="addr:housenumber" v="4600"/>
    <tag k="addr:street" v="Hurricane Brook Road"/>
    <tag k="addr:state" v="VT"/>
    <tag k="ref:vcgi:esiteid" v="755098"/>
  </node>
  <node id="-335" visible="true" lat="45.009063489373" lon="-71.791328656263">
    <tag k="addr:city" v="Norton"/>
    <tag k="addr:housenumber" v="219"/>
    <tag k="addr:street" v="Vermont Route 114 East"/>
    <tag k="addr:state" v="VT"/>
    <tag k="ref:vcgi:esiteid" v="757123"/>
  </node>
  <node id="-336" visible="true" lat="45.00026901723" lon="-71.797409202259">
    <tag k="addr:city" v="Norton"/>
    <tag k="addr:housenumber" v="154"/>
    <tag k="addr:street" v="Church Hill Road"/>
    <tag k="addr:state" v="VT"/>
    <tag k="ref:vcgi:esiteid" v="757544"/>
  </node>
  <node id="-339" visible="true" lat="44.953407639006" lon="-71.850151042639">
    <tag k="addr:city" v="Norton"/>
    <tag k="addr:housenumber" v="428"/>
    <tag k="addr:street" v="Lake Station Road"/>
    <tag k="addr:state" v="VT"/>
    <tag k="ref:vcgi:esiteid" v="762470"/>
  </node>
  <node id="-343" visible="true" lat="44.995906965814" lon="-71.770666846219">
    <tag k="addr:city" v="Norton"/>
    <tag k="addr:housenumber" v="656"/>
    <tag k="addr:street" v="Leos Lane"/>
    <tag k="addr:state" v="VT"/>
    <tag k="ref:vcgi:esiteid" v="766254"/>
  </node>
  <node id="-344" visible="true" lat="44.997242177028" lon="-71.751433684834">
    <tag k="addr:city" v="Norton"/>
    <tag k="addr:housenumber" v="114"/>
    <tag k="addr:street" v="Gaudette Road"/>
    <tag k="addr:state" v="VT"/>
    <tag k="ref:vcgi:esiteid" v="768464"/>
  </node>
  <node id="-345" visible="true" lat="44.997374133543" lon="-71.75070442537">
    <tag k="addr:city" v="Norton"/>
    <tag k="addr:housenumber" v="112"/>
    <tag k="addr:street" v="Gaudette Road"/>
    <tag k="addr:state" v="VT"/>
    <tag k="ref:vcgi:esiteid" v="768521"/>
  </node>
  <node id="-348" visible="true" lat="45.000980235616" lon="-71.768884031407">
    <tag k="addr:city" v="Norton"/>
    <tag k="addr:housenumber" v="306"/>
    <tag k="addr:street" v="Leos Lane"/>
    <tag k="addr:state" v="VT"/>
    <tag k="ref:vcgi:esiteid" v="768525"/>
  </node>
  <node id="-349" visible="true" lat="45.007503114553" lon="-71.771407836931">
    <tag k="addr:city" v="Norton"/>
    <tag k="addr:housenumber" v="1151"/>
    <tag k="addr:street" v="Vermont Route 114 East"/>
    <tag k="addr:state" v="VT"/>
    <tag k="ref:vcgi:esiteid" v="768526"/>
  </node>
  <node id="-350" visible="true" lat="45.006599523731" lon="-71.776456908406">
    <tag k="addr:city" v="Norton"/>
    <tag k="addr:housenumber" v="962"/>
    <tag k="addr:street" v="Vermont Route 114 East"/>
    <tag k="addr:state" v="VT"/>
    <tag k="ref:vcgi:esiteid" v="768527"/>
  </node>
  <node id="-351" visible="true" lat="45.006066740285" lon="-71.795815640622">
    <tag k="addr:city" v="Norton"/>
    <tag k="addr:housenumber" v="287"/>
    <tag k="addr:street" v="Vermont Route 114 South"/>
    <tag k="addr:state" v="VT"/>
    <tag k="ref:vcgi:esiteid" v="768528"/>
  </node>
  <node id="-352" visible="true" lat="44.984212795501" lon="-71.821112459025">
    <tag k="addr:city" v="Norton"/>
    <tag k="addr:housenumber" v="304"/>
    <tag k="addr:street" v="Gagnon Road"/>
    <tag k="addr:state" v="VT"/>
    <tag k="ref:vcgi:esiteid" v="768529"/>
  </node>
  <node id="-353" visible="true" lat="44.990333035906" lon="-71.80816320397">
    <tag k="addr:city" v="Norton"/>
    <tag k="addr:housenumber" v="1435"/>
    <tag k="addr:street" v="Vermont Route 114 South"/>
    <tag k="addr:state" v="VT"/>
    <tag k="ref:vcgi:esiteid" v="768530"/>
  </node>
  <node id="-354" visible="true" lat="44.998786056367" lon="-71.736941526188">
    <tag k="addr:city" v="Norton"/>
    <tag k="addr:housenumber" v="3559"/>
    <tag k="addr:street" v="Vermont Route 114 East"/>
    <tag k="addr:state" v="VT"/>
    <tag k="ref:vcgi:esiteid" v="768531"/>
  </node>
  <node id="-355" visible="true" lat="44.998734700353" lon="-71.769493758714">
    <tag k="addr:city" v="Norton"/>
    <tag k="addr:housenumber" v="470"/>
    <tag k="addr:street" v="Leos Lane"/>
    <tag k="addr:state" v="VT"/>
    <tag k="ref:vcgi:esiteid" v="768592"/>
  </node>
  <node id="-356" visible="true" lat="44.998752138642" lon="-71.769986827013">
    <tag k="addr:city" v="Norton"/>
    <tag k="addr:housenumber" v="496"/>
    <tag k="addr:street" v="Leos Lane"/>
    <tag k="addr:state" v="VT"/>
    <tag k="ref:vcgi:esiteid" v="768593"/>
  </node>
  <node id="-358" visible="true" lat="44.997829935993" lon="-71.765197252022">
    <tag k="addr:city" v="Norton"/>
    <tag k="addr:housenumber" v="424"/>
    <tag k="addr:street" v="Stony Acres Lane"/>
    <tag k="addr:state" v="VT"/>
    <tag k="ref:vcgi:esiteid" v="768595"/>
  </node>
  <node id="-360" visible="true" lat="44.953623910518" lon="-71.898604552869">
    <tag k="addr:city" v="Norton"/>
    <tag k="addr:housenumber" v="2457"/>
    <tag k="addr:street" v="Hurricane Brook Road"/>
    <tag k="addr:state" v="VT"/>
    <tag k="ref:vcgi:esiteid" v="800162"/>
  </node>
  <node id="-361" visible="true" lat="44.959986674987" lon="-71.760486325661">
    <tag k="addr:city" v="Norton"/>
    <tag k="addr:housenumber" v="1049"/>
    <tag k="addr:street" v="Gaudette Road"/>
    <tag k="addr:state" v="VT"/>
    <tag k="ref:vcgi:esiteid" v="1050755"/>
  </node>
  <node id="-362" visible="true" lat="44.997371514905" lon="-71.743975794919">
    <tag k="addr:city" v="Norton"/>
    <tag k="addr:housenumber" v="2710"/>
    <tag k="addr:street" v="Vermont Route 114 East"/>
    <tag k="addr:state" v="VT"/>
    <tag k="ref:vcgi:esiteid" v="1050765"/>
  </node>
</osm>
