<?xml version="1.0" encoding="UTF-8"?>
<osm version="0.6" generator="JOSM" upload="false">
  <node id="-903" visible="true" lat="43.724622076334" lon="-72.314881459875">
    <!-- offset: "111 Turnpike Road, Norwich, VT" Significant offset - 116.8m -->
    <tag k="addr:city" v="Norwich"/>
    <tag k="addr:housenumber" v="111"/>
    <tag k="addr:street" v="Turnpike Road"/>
    <tag k="addr:state" v="VT"/>
    <tag k="ref:vcgi:esiteid" v="182933"/>
  </node>
  <node id="-1716" visible="true" lat="43.781463309913" lon="-72.365014730146">
    <!-- offset: "687 Chapel Hill Road, Norwich, VT" Significant offset - 236.2m -->
    <tag k="addr:city" v="Norwich"/>
    <tag k="addr:housenumber" v="687"/>
    <tag k="addr:street" v="Chapel Hill Road"/>
    <tag k="addr:state" v="VT"/>
    <tag k="ref:vcgi:esiteid" v="769833"/>
  </node>
</osm>
