<?xml version="1.0" encoding="UTF-8"?>
<osm version="0.6" generator="JOSM" upload="false">
  <node id="-215" visible="true" lat="44.810071176243" lon="-72.196835339509">
    <!-- multiple: "53 School Street, Orleans, VT" Multiple exact matches in OSM. -->
    <tag k="addr:city" v="Orleans"/>
    <tag k="addr:housenumber" v="53"/>
    <tag k="addr:street" v="School Street"/>
    <tag k="addr:state" v="VT"/>
    <tag k="ref:vcgi:esiteid" v="14369"/>
  </node>
  <node id="-349" visible="true" lat="44.802903675305" lon="-72.197755029483">
    <!-- multiple: "340 Water Street, Orleans, VT" Multiple exact matches in OSM. -->
    <tag k="addr:city" v="Orleans"/>
    <tag k="addr:housenumber" v="340"/>
    <tag k="addr:street" v="Water Street"/>
    <tag k="addr:state" v="VT"/>
    <tag k="ref:vcgi:esiteid" v="14535"/>
  </node>
</osm>
