<?xml version="1.0" encoding="UTF-8"?>
<osm version="0.6" generator="JOSM" upload="false">
  <node id="-101" visible="true" lat="43.754996438884" lon="-73.350911367349">
    <!-- duplicates-in-different-towns: "1018 Turkey Farm Road, Fair Haven, VT"  ignoring town mismatch for duplicate housenumber/street when matching to esiteid 341687: "1018 Turkey Farm Road, Benson, VT" -->
    <tag k="addr:city" v="Fair Haven"/>
    <tag k="addr:housenumber" v="1018"/>
    <tag k="addr:street" v="Turkey Farm Road"/>
    <tag k="addr:state" v="VT"/>
    <tag k="ref:vcgi:esiteid" v="21993"/>
  </node>
  <node id="-721" visible="true" lat="43.843551022325" lon="-73.366710950053">
    <!-- duplicates-in-different-towns: "171 Meadow Lane, Shoreham, VT"  ignoring town mismatch for duplicate housenumber/street when matching to esiteid 341540: "171 Meadow Lane, Orwell, VT" -->
    <tag k="addr:city" v="Shoreham"/>
    <tag k="addr:housenumber" v="171"/>
    <tag k="addr:street" v="Meadow Lane"/>
    <tag k="addr:state" v="VT"/>
    <tag k="ref:vcgi:esiteid" v="184672"/>
  </node>
</osm>
