<?xml version="1.0" encoding="UTF-8"?>
<osm version="0.6" generator="JOSM" upload="false">
  <node id="-257" visible="true" lat="43.818491739676" lon="-73.384639632771">
    <tag k="addr:city" v="Orwell"/>
    <tag k="addr:housenumber" v="497"/>
    <tag k="addr:street" v="Mount Independence Road"/>
    <tag k="addr:state" v="VT"/>
    <tag k="ref:vcgi:esiteid" v="184195"/>
  </node>
  <node id="-258" visible="true" lat="43.818872997184" lon="-73.273476082669">
    <tag k="addr:city" v="Orwell"/>
    <tag k="addr:housenumber" v="10"/>
    <tag k="addr:street" v="Hibbard Hill Road"/>
    <tag k="addr:state" v="VT"/>
    <tag k="ref:vcgi:esiteid" v="184196"/>
  </node>
  <node id="-266" visible="true" lat="43.817129044588" lon="-73.274562833528">
    <tag k="addr:city" v="Orwell"/>
    <tag k="addr:housenumber" v="129"/>
    <tag k="addr:street" v="Daigneault Hill Road"/>
    <tag k="addr:state" v="VT"/>
    <tag k="ref:vcgi:esiteid" v="184204"/>
  </node>
  <node id="-268" visible="true" lat="43.815528276418" lon="-73.275121059664">
    <tag k="addr:city" v="Orwell"/>
    <tag k="addr:housenumber" v="121"/>
    <tag k="addr:street" v="Daigneault Hill Road"/>
    <tag k="addr:state" v="VT"/>
    <tag k="ref:vcgi:esiteid" v="184206"/>
  </node>
  <node id="-275" visible="true" lat="43.813382432379" lon="-73.290154921782">
    <tag k="addr:city" v="Orwell"/>
    <tag k="addr:housenumber" v="191"/>
    <tag k="addr:street" v="North Orwell Road"/>
    <tag k="addr:state" v="VT"/>
    <tag k="ref:vcgi:esiteid" v="184213"/>
  </node>
  <node id="-279" visible="true" lat="43.812740054984" lon="-73.27781130178">
    <tag k="addr:city" v="Orwell"/>
    <tag k="addr:housenumber" v="92"/>
    <tag k="addr:street" v="Daigneault Hill Road"/>
    <tag k="addr:state" v="VT"/>
    <tag k="ref:vcgi:esiteid" v="184218"/>
  </node>
  <node id="-281" visible="true" lat="43.812705638752" lon="-73.283709413428">
    <tag k="addr:city" v="Orwell"/>
    <tag k="addr:housenumber" v="54"/>
    <tag k="addr:street" v="Daigneault Hill Road"/>
    <tag k="addr:state" v="VT"/>
    <tag k="ref:vcgi:esiteid" v="184220"/>
  </node>
  <node id="-288" visible="true" lat="43.811876465683" lon="-73.29403803146">
    <tag k="addr:city" v="Orwell"/>
    <tag k="addr:housenumber" v="176"/>
    <tag k="addr:street" v="North Orwell Road"/>
    <tag k="addr:state" v="VT"/>
    <tag k="ref:vcgi:esiteid" v="184227"/>
  </node>
  <node id="-289" visible="true" lat="43.811694268429" lon="-73.293593113258">
    <tag k="addr:city" v="Orwell"/>
    <tag k="addr:housenumber" v="177"/>
    <tag k="addr:street" v="North Orwell Road"/>
    <tag k="addr:state" v="VT"/>
    <tag k="ref:vcgi:esiteid" v="184228"/>
  </node>
  <node id="-290" visible="true" lat="43.811842944938" lon="-73.293940124926">
    <tag k="addr:city" v="Orwell"/>
    <tag k="addr:housenumber" v="174"/>
    <tag k="addr:street" v="North Orwell Road"/>
    <tag k="addr:state" v="VT"/>
    <tag k="ref:vcgi:esiteid" v="184229"/>
  </node>
  <node id="-292" visible="true" lat="43.811346928183" lon="-73.294237864025">
    <tag k="addr:city" v="Orwell"/>
    <tag k="addr:housenumber" v="168"/>
    <tag k="addr:street" v="North Orwell Road"/>
    <tag k="addr:state" v="VT"/>
    <tag k="ref:vcgi:esiteid" v="184231"/>
  </node>
  <node id="-294" visible="true" lat="43.811084312995" lon="-73.288330559073">
    <tag k="addr:city" v="Orwell"/>
    <tag k="addr:housenumber" v="34"/>
    <tag k="addr:street" v="Daigneault Hill Road"/>
    <tag k="addr:state" v="VT"/>
    <tag k="ref:vcgi:esiteid" v="184233"/>
  </node>
  <node id="-296" visible="true" lat="43.810906263595" lon="-73.29498897235">
    <tag k="addr:city" v="Orwell"/>
    <tag k="addr:housenumber" v="162"/>
    <tag k="addr:street" v="North Orwell Road"/>
    <tag k="addr:state" v="VT"/>
    <tag k="ref:vcgi:esiteid" v="184235"/>
  </node>
  <node id="-298" visible="true" lat="43.810640675798" lon="-73.282904673673">
    <tag k="addr:city" v="Orwell"/>
    <tag k="addr:housenumber" v="64"/>
    <tag k="addr:street" v="Daigneault Hill Road"/>
    <tag k="addr:state" v="VT"/>
    <tag k="ref:vcgi:esiteid" v="184237"/>
  </node>
  <node id="-299" visible="true" lat="43.810224761948" lon="-73.29545792067">
    <tag k="addr:city" v="Orwell"/>
    <tag k="addr:housenumber" v="156"/>
    <tag k="addr:street" v="North Orwell Road"/>
    <tag k="addr:state" v="VT"/>
    <tag k="ref:vcgi:esiteid" v="184238"/>
  </node>
  <node id="-302" visible="true" lat="43.809656788517" lon="-73.286055688241">
    <tag k="addr:city" v="Orwell"/>
    <tag k="addr:housenumber" v="50"/>
    <tag k="addr:street" v="Daigneault Hill Road"/>
    <tag k="addr:state" v="VT"/>
    <tag k="ref:vcgi:esiteid" v="184241"/>
  </node>
  <node id="-305" visible="true" lat="43.808940643667" lon="-73.28670689638">
    <tag k="addr:city" v="Orwell"/>
    <tag k="addr:housenumber" v="47"/>
    <tag k="addr:street" v="Daigneault Hill Road"/>
    <tag k="addr:state" v="VT"/>
    <tag k="ref:vcgi:esiteid" v="184244"/>
  </node>
  <node id="-307" visible="true" lat="43.808730916988" lon="-73.291120396859">
    <tag k="addr:city" v="Orwell"/>
    <tag k="addr:housenumber" v="15"/>
    <tag k="addr:street" v="Daigneault Hill Road"/>
    <tag k="addr:state" v="VT"/>
    <tag k="ref:vcgi:esiteid" v="184246"/>
  </node>
  <node id="-319" visible="true" lat="43.805863592601" lon="-73.29578421966">
    <tag k="addr:city" v="Orwell"/>
    <tag k="addr:housenumber" v="75"/>
    <tag k="addr:street" v="North Orwell Road"/>
    <tag k="addr:state" v="VT"/>
    <tag k="ref:vcgi:esiteid" v="184258"/>
  </node>
  <node id="-323" visible="true" lat="43.80572700569" lon="-73.297035826293">
    <tag k="addr:city" v="Orwell"/>
    <tag k="addr:housenumber" v="52"/>
    <tag k="addr:street" v="North Orwell Road"/>
    <tag k="addr:state" v="VT"/>
    <tag k="ref:vcgi:esiteid" v="184262"/>
  </node>
  <node id="-326" visible="true" lat="43.805207969329" lon="-73.297097762894">
    <tag k="addr:city" v="Orwell"/>
    <tag k="addr:housenumber" v="36"/>
    <tag k="addr:street" v="North Orwell Road"/>
    <tag k="addr:state" v="VT"/>
    <tag k="ref:vcgi:esiteid" v="184265"/>
  </node>
  <node id="-327" visible="true" lat="43.805116192766" lon="-73.296608446365">
    <tag k="addr:city" v="Orwell"/>
    <tag k="addr:housenumber" v="47"/>
    <tag k="addr:street" v="North Orwell Road"/>
    <tag k="addr:state" v="VT"/>
    <tag k="ref:vcgi:esiteid" v="184266"/>
  </node>
  <node id="-328" visible="true" lat="43.804950648636" lon="-73.297442999236">
    <tag k="addr:city" v="Orwell"/>
    <tag k="addr:housenumber" v="28"/>
    <tag k="addr:street" v="North Orwell Road"/>
    <tag k="addr:state" v="VT"/>
    <tag k="ref:vcgi:esiteid" v="184267"/>
  </node>
  <node id="-329" visible="true" lat="43.804784668021" lon="-73.296891339014">
    <tag k="addr:city" v="Orwell"/>
    <tag k="addr:housenumber" v="29"/>
    <tag k="addr:street" v="North Orwell Road"/>
    <tag k="addr:state" v="VT"/>
    <tag k="ref:vcgi:esiteid" v="184268"/>
  </node>
  <node id="-332" visible="true" lat="43.804598119766" lon="-73.297042249751">
    <tag k="addr:city" v="Orwell"/>
    <tag k="addr:housenumber" v="23"/>
    <tag k="addr:street" v="North Orwell Road"/>
    <tag k="addr:state" v="VT"/>
    <tag k="ref:vcgi:esiteid" v="184271"/>
  </node>
  <node id="-333" visible="true" lat="43.804534374663" lon="-73.298452178217">
    <tag k="addr:city" v="Orwell"/>
    <tag k="addr:housenumber" v="498"/>
    <tag k="addr:street" v="Main Street"/>
    <tag k="addr:state" v="VT"/>
    <tag k="ref:vcgi:esiteid" v="184272"/>
  </node>
  <node id="-334" visible="true" lat="43.804517869511" lon="-73.297584467081">
    <tag k="addr:city" v="Orwell"/>
    <tag k="addr:housenumber" v="18"/>
    <tag k="addr:street" v="North Orwell Road"/>
    <tag k="addr:state" v="VT"/>
    <tag k="ref:vcgi:esiteid" v="184273"/>
  </node>
  <node id="-335" visible="true" lat="43.804536368293" lon="-73.299083808064">
    <tag k="addr:city" v="Orwell"/>
    <tag k="addr:housenumber" v="494"/>
    <tag k="addr:street" v="Main Street"/>
    <tag k="addr:state" v="VT"/>
    <tag k="ref:vcgi:esiteid" v="184274"/>
  </node>
  <node id="-336" visible="true" lat="43.80431950837" lon="-73.296988036162">
    <tag k="addr:city" v="Orwell"/>
    <tag k="addr:housenumber" v="13"/>
    <tag k="addr:street" v="North Orwell Road"/>
    <tag k="addr:state" v="VT"/>
    <tag k="ref:vcgi:esiteid" v="184275"/>
  </node>
  <node id="-337" visible="true" lat="43.804297895573" lon="-73.299688431243">
    <tag k="addr:city" v="Orwell"/>
    <tag k="addr:housenumber" v="480"/>
    <tag k="addr:street" v="Main Street"/>
    <tag k="addr:state" v="VT"/>
    <tag k="ref:vcgi:esiteid" v="184276"/>
  </node>
  <node id="-338" visible="true" lat="43.804351333652" lon="-73.297804257254">
    <tag k="addr:city" v="Orwell"/>
    <tag k="addr:housenumber" v="8"/>
    <tag k="addr:street" v="North Orwell Road"/>
    <tag k="addr:state" v="VT"/>
    <tag k="ref:vcgi:esiteid" v="184277"/>
  </node>
  <node id="-339" visible="true" lat="43.80424768359" lon="-73.29424552949">
    <tag k="addr:city" v="Orwell"/>
    <tag k="addr:housenumber" v="576"/>
    <tag k="addr:street" v="Main Street"/>
    <tag k="addr:state" v="VT"/>
    <tag k="ref:vcgi:esiteid" v="184278"/>
  </node>
  <node id="-340" visible="true" lat="43.804205699514" lon="-73.300698443988">
    <tag k="addr:city" v="Orwell"/>
    <tag k="addr:housenumber" v="464"/>
    <tag k="addr:street" v="Main Street"/>
    <tag k="addr:state" v="VT"/>
    <tag k="ref:vcgi:esiteid" v="184279"/>
  </node>
  <node id="-342" visible="true" lat="43.804069380058" lon="-73.298005265379">
    <tag k="addr:city" v="Orwell"/>
    <tag k="addr:housenumber" v="2"/>
    <tag k="addr:street" v="North Orwell Road"/>
    <tag k="addr:state" v="VT"/>
    <tag k="ref:vcgi:esiteid" v="184281"/>
  </node>
  <node id="-343" visible="true" lat="43.804080695025" lon="-73.297410898504">
    <tag k="addr:city" v="Orwell"/>
    <tag k="addr:housenumber" v="7"/>
    <tag k="addr:street" v="North Orwell Road"/>
    <tag k="addr:state" v="VT"/>
    <tag k="ref:vcgi:esiteid" v="184282"/>
  </node>
  <node id="-344" visible="true" lat="43.804139540851" lon="-73.295200051016">
    <tag k="addr:city" v="Orwell"/>
    <tag k="addr:housenumber" v="566"/>
    <tag k="addr:street" v="Main Street"/>
    <tag k="addr:state" v="VT"/>
    <tag k="ref:vcgi:esiteid" v="184283"/>
  </node>
  <node id="-345" visible="true" lat="43.804120587682" lon="-73.295466456579">
    <tag k="addr:city" v="Orwell"/>
    <tag k="addr:housenumber" v="562"/>
    <tag k="addr:street" v="Main Street"/>
    <tag k="addr:state" v="VT"/>
    <tag k="ref:vcgi:esiteid" v="184284"/>
  </node>
  <node id="-346" visible="true" lat="43.804070426213" lon="-73.295972515962">
    <tag k="addr:city" v="Orwell"/>
    <tag k="addr:housenumber" v="560"/>
    <tag k="addr:street" v="Main Street"/>
    <tag k="addr:state" v="VT"/>
    <tag k="ref:vcgi:esiteid" v="184285"/>
  </node>
  <node id="-349" visible="true" lat="43.804072477953" lon="-73.29680860777">
    <tag k="addr:city" v="Orwell"/>
    <tag k="addr:housenumber" v="538"/>
    <tag k="addr:street" v="Main Street"/>
    <tag k="addr:state" v="VT"/>
    <tag k="ref:vcgi:esiteid" v="184288"/>
  </node>
  <node id="-353" visible="true" lat="43.803883510513" lon="-73.294549955185">
    <tag k="addr:city" v="Orwell"/>
    <tag k="addr:housenumber" v="575"/>
    <tag k="addr:street" v="Main Street"/>
    <tag k="addr:state" v="VT"/>
    <tag k="ref:vcgi:esiteid" v="184293"/>
  </node>
  <node id="-354" visible="true" lat="43.803873124621" lon="-73.301514024643">
    <tag k="addr:city" v="Orwell"/>
    <tag k="addr:housenumber" v="436"/>
    <tag k="addr:street" v="Main Street"/>
    <tag k="addr:state" v="VT"/>
    <tag k="ref:vcgi:esiteid" v="184294"/>
  </node>
  <node id="-355" visible="true" lat="43.803625387807" lon="-73.296418275969">
    <tag k="addr:city" v="Orwell"/>
    <tag k="addr:housenumber" v="537"/>
    <tag k="addr:street" v="Main Street"/>
    <tag k="addr:state" v="VT"/>
    <tag k="ref:vcgi:esiteid" v="184295"/>
  </node>
  <node id="-359" visible="true" lat="43.8036678285" lon="-73.302158383134">
    <tag k="addr:city" v="Orwell"/>
    <tag k="addr:housenumber" v="406"/>
    <tag k="addr:street" v="Main Street"/>
    <tag k="addr:state" v="VT"/>
    <tag k="ref:vcgi:esiteid" v="184299"/>
  </node>
  <node id="-361" visible="true" lat="43.803501624203" lon="-73.29785683122">
    <tag k="addr:city" v="Orwell"/>
    <tag k="addr:housenumber" v="505"/>
    <tag k="addr:street" v="Main Street"/>
    <tag k="addr:state" v="VT"/>
    <tag k="ref:vcgi:esiteid" v="184302"/>
  </node>
  <node id="-362" visible="true" lat="43.803674242541" lon="-73.302671992096">
    <tag k="addr:city" v="Orwell"/>
    <tag k="addr:housenumber" v="400"/>
    <tag k="addr:street" v="Main Street"/>
    <tag k="addr:state" v="VT"/>
    <tag k="ref:vcgi:esiteid" v="184303"/>
  </node>
  <node id="-365" visible="true" lat="43.80353551204" lon="-73.296879138599">
    <tag k="addr:city" v="Orwell"/>
    <tag k="addr:housenumber" v="531"/>
    <tag k="addr:street" v="Main Street"/>
    <tag k="addr:state" v="VT"/>
    <tag k="ref:vcgi:esiteid" v="184306"/>
  </node>
  <node id="-366" visible="true" lat="43.803465120708" lon="-73.29871770594">
    <tag k="addr:city" v="Orwell"/>
    <tag k="addr:housenumber" v="491"/>
    <tag k="addr:street" v="Main Street"/>
    <tag k="addr:state" v="VT"/>
    <tag k="ref:vcgi:esiteid" v="184307"/>
  </node>
  <node id="-367" visible="true" lat="43.803396885955" lon="-73.298349453332">
    <tag k="addr:city" v="Orwell"/>
    <tag k="addr:housenumber" v="501"/>
    <tag k="addr:street" v="Main Street"/>
    <tag k="addr:state" v="VT"/>
    <tag k="ref:vcgi:esiteid" v="184308"/>
  </node>
  <node id="-368" visible="true" lat="43.803561382141" lon="-73.298375053434">
    <tag k="addr:city" v="Orwell"/>
    <tag k="addr:housenumber" v="499"/>
    <tag k="addr:street" v="Main Street"/>
    <tag k="addr:state" v="VT"/>
    <tag k="ref:vcgi:esiteid" v="184309"/>
  </node>
  <node id="-372" visible="true" lat="43.803125383682" lon="-73.299777059265">
    <tag k="addr:city" v="Orwell"/>
    <tag k="addr:housenumber" v="467"/>
    <tag k="addr:street" v="Main Street"/>
    <tag k="addr:state" v="VT"/>
    <tag k="ref:vcgi:esiteid" v="184313"/>
  </node>
  <node id="-373" visible="true" lat="43.803394675973" lon="-73.299790320489">
    <tag k="addr:city" v="Orwell"/>
    <tag k="addr:housenumber" v="473"/>
    <tag k="addr:street" v="Main Street"/>
    <tag k="addr:state" v="VT"/>
    <tag k="ref:vcgi:esiteid" v="184314"/>
  </node>
  <node id="-375" visible="true" lat="43.803322235937" lon="-73.300486616465">
    <tag k="addr:city" v="Orwell"/>
    <tag k="addr:housenumber" v="461"/>
    <tag k="addr:street" v="Main Street"/>
    <tag k="addr:state" v="VT"/>
    <tag k="ref:vcgi:esiteid" v="184316"/>
  </node>
  <node id="-378" visible="true" lat="43.803306783906" lon="-73.30114796883">
    <tag k="addr:city" v="Orwell"/>
    <tag k="addr:housenumber" v="441"/>
    <tag k="addr:street" v="Main Street"/>
    <tag k="addr:state" v="VT"/>
    <tag k="ref:vcgi:esiteid" v="184319"/>
  </node>
  <node id="-379" visible="true" lat="43.803278630411" lon="-73.301598610599">
    <tag k="addr:city" v="Orwell"/>
    <tag k="addr:housenumber" v="435"/>
    <tag k="addr:street" v="Main Street"/>
    <tag k="addr:state" v="VT"/>
    <tag k="ref:vcgi:esiteid" v="184320"/>
  </node>
  <node id="-380" visible="true" lat="43.80335027338" lon="-73.295516735687">
    <tag k="addr:city" v="Orwell"/>
    <tag k="addr:housenumber" v="14"/>
    <tag k="addr:street" v="Church Street"/>
    <tag k="addr:state" v="VT"/>
    <tag k="ref:vcgi:esiteid" v="184321"/>
  </node>
  <node id="-382" visible="true" lat="43.803297532171" lon="-73.302864913238">
    <tag k="addr:city" v="Orwell"/>
    <tag k="addr:housenumber" v="399"/>
    <tag k="addr:street" v="Main Street"/>
    <tag k="addr:state" v="VT"/>
    <tag k="ref:vcgi:esiteid" v="184323"/>
  </node>
  <node id="-383" visible="true" lat="43.803219464416" lon="-73.301990568075">
    <tag k="addr:city" v="Orwell"/>
    <tag k="addr:housenumber" v="413"/>
    <tag k="addr:street" v="Main Street"/>
    <tag k="addr:state" v="VT"/>
    <tag k="ref:vcgi:esiteid" v="184324"/>
  </node>
  <node id="-385" visible="true" lat="43.80332912982" lon="-73.294719270952">
    <tag k="addr:city" v="Orwell"/>
    <tag k="addr:housenumber" v="567"/>
    <tag k="addr:street" v="Main Street"/>
    <tag k="addr:state" v="VT"/>
    <tag k="ref:vcgi:esiteid" v="184326"/>
  </node>
  <node id="-386" visible="true" lat="43.803096528315" lon="-73.295528908636">
    <tag k="addr:city" v="Orwell"/>
    <tag k="addr:housenumber" v="20"/>
    <tag k="addr:street" v="Church Street"/>
    <tag k="addr:state" v="VT"/>
    <tag k="ref:vcgi:esiteid" v="184328"/>
  </node>
  <node id="-387" visible="true" lat="43.803000496484" lon="-73.303555439863">
    <tag k="addr:city" v="Orwell"/>
    <tag k="addr:housenumber" v="385"/>
    <tag k="addr:street" v="Main Street"/>
    <tag k="addr:state" v="VT"/>
    <tag k="ref:vcgi:esiteid" v="184329"/>
  </node>
  <node id="-388" visible="true" lat="43.803022867394" lon="-73.296150701363">
    <tag k="addr:city" v="Orwell"/>
    <tag k="addr:housenumber" v="23"/>
    <tag k="addr:street" v="Church Street"/>
    <tag k="addr:state" v="VT"/>
    <tag k="ref:vcgi:esiteid" v="184330"/>
  </node>
  <node id="-392" visible="true" lat="43.802878455173" lon="-73.297455040174">
    <tag k="addr:city" v="Orwell"/>
    <tag k="addr:housenumber" v="45"/>
    <tag k="addr:street" v="Roberts Avenue"/>
    <tag k="addr:state" v="VT"/>
    <tag k="ref:vcgi:esiteid" v="184334"/>
  </node>
  <node id="-394" visible="true" lat="43.802656160652" lon="-73.297880068948">
    <tag k="addr:city" v="Orwell"/>
    <tag k="addr:housenumber" v="46"/>
    <tag k="addr:street" v="Roberts Avenue"/>
    <tag k="addr:state" v="VT"/>
    <tag k="ref:vcgi:esiteid" v="184337"/>
  </node>
  <node id="-395" visible="true" lat="43.802587307654" lon="-73.297425769847">
    <tag k="addr:city" v="Orwell"/>
    <tag k="addr:housenumber" v="37"/>
    <tag k="addr:street" v="Roberts Avenue"/>
    <tag k="addr:state" v="VT"/>
    <tag k="ref:vcgi:esiteid" v="184338"/>
  </node>
  <node id="-396" visible="true" lat="43.802596704069" lon="-73.295577534233">
    <tag k="addr:city" v="Orwell"/>
    <tag k="addr:housenumber" v="34"/>
    <tag k="addr:street" v="Church Street"/>
    <tag k="addr:state" v="VT"/>
    <tag k="ref:vcgi:esiteid" v="184339"/>
  </node>
  <node id="-399" visible="true" lat="43.802162208895" lon="-73.297563958242">
    <tag k="addr:city" v="Orwell"/>
    <tag k="addr:housenumber" v="28"/>
    <tag k="addr:street" v="Roberts Avenue"/>
    <tag k="addr:state" v="VT"/>
    <tag k="ref:vcgi:esiteid" v="184342"/>
  </node>
  <node id="-401" visible="true" lat="43.802076486655" lon="-73.296860846285">
    <tag k="addr:city" v="Orwell"/>
    <tag k="addr:housenumber" v="16"/>
    <tag k="addr:street" v="Roberts Avenue"/>
    <tag k="addr:state" v="VT"/>
    <tag k="ref:vcgi:esiteid" v="184344"/>
  </node>
  <node id="-402" visible="true" lat="43.802226489643" lon="-73.298040734842">
    <tag k="addr:city" v="Orwell"/>
    <tag k="addr:housenumber" v="34"/>
    <tag k="addr:street" v="Roberts Avenue"/>
    <tag k="addr:state" v="VT"/>
    <tag k="ref:vcgi:esiteid" v="184345"/>
  </node>
  <node id="-405" visible="true" lat="43.802121340275" lon="-73.296139267839">
    <tag k="addr:city" v="Orwell"/>
    <tag k="addr:housenumber" v="59"/>
    <tag k="addr:street" v="Church Street"/>
    <tag k="addr:state" v="VT"/>
    <tag k="ref:vcgi:esiteid" v="184348"/>
  </node>
  <node id="-407" visible="true" lat="43.802107809495" lon="-73.295748649493">
    <tag k="addr:city" v="Orwell"/>
    <tag k="addr:housenumber" v="46"/>
    <tag k="addr:street" v="Church Street"/>
    <tag k="addr:state" v="VT"/>
    <tag k="ref:vcgi:esiteid" v="184351"/>
  </node>
  <node id="-409" visible="true" lat="43.801923661266" lon="-73.295749505764">
    <tag k="addr:city" v="Orwell"/>
    <tag k="addr:housenumber" v="48"/>
    <tag k="addr:street" v="Church Street"/>
    <tag k="addr:state" v="VT"/>
    <tag k="ref:vcgi:esiteid" v="184353"/>
  </node>
  <node id="-416" visible="true" lat="43.801771313685" lon="-73.296183134263">
    <tag k="addr:city" v="Orwell"/>
    <tag k="addr:housenumber" v="65"/>
    <tag k="addr:street" v="Church Street"/>
    <tag k="addr:state" v="VT"/>
    <tag k="ref:vcgi:esiteid" v="184360"/>
  </node>
  <node id="-421" visible="true" lat="43.801361669042" lon="-73.296185337639">
    <tag k="addr:city" v="Orwell"/>
    <tag k="addr:housenumber" v="73"/>
    <tag k="addr:street" v="Church Street"/>
    <tag k="addr:state" v="VT"/>
    <tag k="ref:vcgi:esiteid" v="184365"/>
  </node>
  <node id="-422" visible="true" lat="43.801389216207" lon="-73.295776698783">
    <tag k="addr:city" v="Orwell"/>
    <tag k="addr:housenumber" v="66"/>
    <tag k="addr:street" v="Church Street"/>
    <tag k="addr:state" v="VT"/>
    <tag k="ref:vcgi:esiteid" v="184366"/>
  </node>
  <node id="-429" visible="true" lat="43.800945648624" lon="-73.295927276662">
    <tag k="addr:city" v="Orwell"/>
    <tag k="addr:housenumber" v="81"/>
    <tag k="addr:street" v="Church Street"/>
    <tag k="addr:state" v="VT"/>
    <tag k="ref:vcgi:esiteid" v="184373"/>
  </node>
  <node id="-432" visible="true" lat="43.800657462164" lon="-73.295811615058">
    <tag k="addr:city" v="Orwell"/>
    <tag k="addr:housenumber" v="85"/>
    <tag k="addr:street" v="Church Street"/>
    <tag k="addr:state" v="VT"/>
    <tag k="ref:vcgi:esiteid" v="184376"/>
  </node>
  <node id="-435" visible="true" lat="43.800480374876" lon="-73.295382837437">
    <tag k="addr:city" v="Orwell"/>
    <tag k="addr:housenumber" v="86"/>
    <tag k="addr:street" v="Church Street"/>
    <tag k="addr:state" v="VT"/>
    <tag k="ref:vcgi:esiteid" v="184379"/>
  </node>
  <node id="-437" visible="true" lat="43.800353334221" lon="-73.295772557205">
    <tag k="addr:city" v="Orwell"/>
    <tag k="addr:housenumber" v="103"/>
    <tag k="addr:street" v="Church Street"/>
    <tag k="addr:state" v="VT"/>
    <tag k="ref:vcgi:esiteid" v="184382"/>
  </node>
  <node id="-441" visible="true" lat="43.799659464982" lon="-73.29553431661">
    <tag k="addr:city" v="Orwell"/>
    <tag k="addr:housenumber" v="109"/>
    <tag k="addr:street" v="Church Street"/>
    <tag k="addr:state" v="VT"/>
    <tag k="ref:vcgi:esiteid" v="184386"/>
  </node>
  <node id="-447" visible="true" lat="43.798838087714" lon="-73.296067050944">
    <tag k="addr:city" v="Orwell"/>
    <tag k="addr:housenumber" v="155"/>
    <tag k="addr:street" v="Church Street"/>
    <tag k="addr:state" v="VT"/>
    <tag k="ref:vcgi:esiteid" v="184392"/>
  </node>
  <node id="-452" visible="true" lat="43.798351448206" lon="-73.297610380523">
    <tag k="addr:city" v="Orwell"/>
    <tag k="addr:housenumber" v="131"/>
    <tag k="addr:street" v="Church Street"/>
    <tag k="addr:state" v="VT"/>
    <tag k="ref:vcgi:esiteid" v="184397"/>
  </node>
  <node id="-463" visible="true" lat="43.796072196027" lon="-73.243597015829">
    <tag k="addr:city" v="Orwell"/>
    <tag k="addr:housenumber" v="21"/>
    <tag k="addr:street" v="Young Road"/>
    <tag k="addr:state" v="VT"/>
    <tag k="ref:vcgi:esiteid" v="184408"/>
  </node>
  <node id="-495" visible="true" lat="43.79232319384" lon="-73.290402039067">
    <tag k="addr:city" v="Orwell"/>
    <tag k="addr:housenumber" v="18"/>
    <tag k="addr:street" v="Conkey Hill Road"/>
    <tag k="addr:state" v="VT"/>
    <tag k="ref:vcgi:esiteid" v="184441"/>
  </node>
  <node id="-498" visible="true" lat="43.792294238342" lon="-73.28925753885">
    <tag k="addr:city" v="Orwell"/>
    <tag k="addr:housenumber" v="24"/>
    <tag k="addr:street" v="Conkey Hill Road"/>
    <tag k="addr:state" v="VT"/>
    <tag k="ref:vcgi:esiteid" v="184444"/>
  </node>
  <node id="-501" visible="true" lat="43.79205018896" lon="-73.285013902554">
    <tag k="addr:city" v="Orwell"/>
    <tag k="addr:housenumber" v="47"/>
    <tag k="addr:street" v="Conkey Hill Road"/>
    <tag k="addr:state" v="VT"/>
    <tag k="ref:vcgi:esiteid" v="184447"/>
  </node>
  <node id="-505" visible="true" lat="43.791319211646" lon="-73.294159322008">
    <tag k="addr:city" v="Orwell"/>
    <tag k="addr:housenumber" v="57"/>
    <tag k="addr:street" v="Sanford Road"/>
    <tag k="addr:state" v="VT"/>
    <tag k="ref:vcgi:esiteid" v="184451"/>
  </node>
  <node id="-506" visible="true" lat="43.79097273863" lon="-73.294181679449">
    <tag k="addr:city" v="Orwell"/>
    <tag k="addr:housenumber" v="55"/>
    <tag k="addr:street" v="Sanford Road"/>
    <tag k="addr:state" v="VT"/>
    <tag k="ref:vcgi:esiteid" v="184452"/>
  </node>
  <node id="-703" visible="true" lat="43.804075189265" lon="-73.296721286377">
    <tag k="addr:city" v="Orwell"/>
    <tag k="addr:housenumber" v="544"/>
    <tag k="addr:street" v="Main Street"/>
    <tag k="addr:state" v="VT"/>
    <tag k="ref:vcgi:esiteid" v="184653"/>
  </node>
  <node id="-715" visible="true" lat="43.803651810156" lon="-73.296064120683">
    <tag k="addr:city" v="Orwell"/>
    <tag k="addr:housenumber" v="7"/>
    <tag k="addr:street" v="Church Street"/>
    <tag k="addr:state" v="VT"/>
    <tag k="ref:vcgi:esiteid" v="184666"/>
  </node>
  <node id="-716" visible="true" lat="43.80365981341" lon="-73.295426726169">
    <tag k="addr:city" v="Orwell"/>
    <tag k="addr:housenumber" v="8"/>
    <tag k="addr:street" v="Church Street"/>
    <tag k="addr:state" v="VT"/>
    <tag k="ref:vcgi:esiteid" v="184667"/>
  </node>
  <node id="-739" visible="true" lat="43.838228281475" lon="-73.219896226478">
    <tag k="addr:city" v="Orwell"/>
    <tag k="addr:housenumber" v="298"/>
    <tag k="addr:street" v="Old Sawmill Road"/>
    <tag k="addr:state" v="VT"/>
    <tag k="ref:vcgi:esiteid" v="184690"/>
  </node>
  <node id="-741" visible="true" lat="43.803136920874" lon="-73.298364256753">
    <tag k="addr:city" v="Orwell"/>
    <tag k="addr:housenumber" v="56"/>
    <tag k="addr:street" v="Roberts Avenue"/>
    <tag k="addr:state" v="VT"/>
    <tag k="ref:vcgi:esiteid" v="184692"/>
  </node>
  <node id="-742" visible="true" lat="43.802857514103" lon="-73.298427456053">
    <tag k="addr:city" v="Orwell"/>
    <tag k="addr:housenumber" v="60"/>
    <tag k="addr:street" v="Roberts Avenue"/>
    <tag k="addr:state" v="VT"/>
    <tag k="ref:vcgi:esiteid" v="184693"/>
  </node>
  <node id="-743" visible="true" lat="43.802843561795" lon="-73.298080792918">
    <tag k="addr:city" v="Orwell"/>
    <tag k="addr:housenumber" v="54"/>
    <tag k="addr:street" v="Roberts Avenue"/>
    <tag k="addr:state" v="VT"/>
    <tag k="ref:vcgi:esiteid" v="184694"/>
  </node>
  <node id="-744" visible="true" lat="43.80282144571" lon="-73.297885257577">
    <tag k="addr:city" v="Orwell"/>
    <tag k="addr:housenumber" v="50"/>
    <tag k="addr:street" v="Roberts Avenue"/>
    <tag k="addr:state" v="VT"/>
    <tag k="ref:vcgi:esiteid" v="184695"/>
  </node>
  <node id="-761" visible="true" lat="43.806181573678" lon="-73.295686281643">
    <tag k="addr:city" v="Orwell"/>
    <tag k="addr:housenumber" v="77"/>
    <tag k="addr:street" v="North Orwell Road"/>
    <tag k="addr:state" v="VT"/>
    <tag k="ref:vcgi:esiteid" v="184712"/>
  </node>
  <node id="-762" visible="true" lat="43.804304444227" lon="-73.297335779376">
    <tag k="addr:city" v="Orwell"/>
    <tag k="addr:housenumber" v="11"/>
    <tag k="addr:street" v="North Orwell Road"/>
    <tag k="addr:state" v="VT"/>
    <tag k="ref:vcgi:esiteid" v="184713"/>
  </node>
  <node id="-803" visible="true" lat="43.847557322275" lon="-73.240076828968">
    <tag k="addr:city" v="Orwell"/>
    <tag k="addr:housenumber" v="54"/>
    <tag k="addr:street" v="Murray Road"/>
    <tag k="addr:state" v="VT"/>
    <tag k="ref:vcgi:esiteid" v="184754"/>
  </node>
  <node id="-806" visible="true" lat="43.804080694573" lon="-73.296614553163">
    <tag k="addr:city" v="Orwell"/>
    <tag k="addr:housenumber" v="546"/>
    <tag k="addr:street" v="Main Street"/>
    <tag k="addr:state" v="VT"/>
    <tag k="ref:vcgi:esiteid" v="184758"/>
  </node>
  <node id="-818" visible="true" lat="43.81170118574" lon="-73.280322220949">
    <tag k="addr:city" v="Orwell"/>
    <tag k="addr:housenumber" v="66"/>
    <tag k="addr:street" v="Daigneault Hill Road"/>
    <tag k="addr:state" v="VT"/>
    <tag k="ref:vcgi:esiteid" v="184771"/>
  </node>
  <node id="-820" visible="true" lat="43.839227787371" lon="-73.219739790994">
    <tag k="addr:city" v="Orwell"/>
    <tag k="addr:housenumber" v="302"/>
    <tag k="addr:street" v="Old Sawmill Road"/>
    <tag k="addr:state" v="VT"/>
    <tag k="ref:vcgi:esiteid" v="184773"/>
  </node>
  <node id="-835" visible="true" lat="43.811339557259" lon="-73.279222413941">
    <tag k="addr:city" v="Orwell"/>
    <tag k="addr:housenumber" v="81"/>
    <tag k="addr:street" v="Daigneault Hill Road"/>
    <tag k="addr:state" v="VT"/>
    <tag k="ref:vcgi:esiteid" v="309216"/>
  </node>
  <node id="-838" visible="true" lat="43.814428705558" lon="-73.28000115182">
    <tag k="addr:city" v="Orwell"/>
    <tag k="addr:housenumber" v="68"/>
    <tag k="addr:street" v="Daigneault Hill Road"/>
    <tag k="addr:state" v="VT"/>
    <tag k="ref:vcgi:esiteid" v="315213"/>
  </node>
  <node id="-873" visible="true" lat="43.809581175656" lon="-73.290901966167">
    <tag k="addr:city" v="Orwell"/>
    <tag k="addr:housenumber" v="18"/>
    <tag k="addr:street" v="Daigneault Hill Road"/>
    <tag k="addr:state" v="VT"/>
    <tag k="ref:vcgi:esiteid" v="451954"/>
  </node>
  <node id="-916" visible="true" lat="43.804086151075" lon="-73.296536632302">
    <tag k="addr:city" v="Orwell"/>
    <tag k="addr:housenumber" v="548"/>
    <tag k="addr:street" v="Main Street"/>
    <tag k="addr:state" v="VT"/>
    <tag k="ref:vcgi:esiteid" v="763401"/>
  </node>
</osm>
