<?xml version="1.0" encoding="UTF-8"?>
<osm version="0.6" generator="JOSM" upload="false">
  <node id="-388" visible="true" lat="44.32764181" lon="-72.17106232">
    <!-- multiple: "79 Church Street, , VT" Multiple exact matches in OSM. -->
    <tag k="addr:housenumber" v="79"/>
    <tag k="addr:street" v="Church Street"/>
    <tag k="addr:state" v="VT"/>
    <tag k="ref:vcgi:esiteid" v="186242"/>
  </node>
  <node id="-424" visible="true" lat="44.3260184" lon="-72.16651955">
    <!-- multiple: "340 Bayley-Hazen Road, , VT" Multiple exact matches in OSM. -->
    <tag k="addr:housenumber" v="340"/>
    <tag k="addr:street" v="Bayley-Hazen Road"/>
    <tag k="addr:state" v="VT"/>
    <tag k="ref:vcgi:esiteid" v="186278"/>
  </node>
  <node id="-628" visible="true" lat="44.32785119" lon="-72.28336674">
    <!-- multiple: "3889 Vermont Route 232, , VT" Multiple exact matches in OSM. -->
    <tag k="addr:housenumber" v="3889"/>
    <tag k="addr:street" v="Vermont Route 232"/>
    <tag k="addr:state" v="VT"/>
    <tag k="ref:vcgi:esiteid" v="186487"/>
  </node>
  <node id="-695" visible="true" lat="44.39181524" lon="-72.20423109">
    <!-- multiple: "1128 Woodward Road, , VT" Multiple exact matches in OSM. -->
    <tag k="addr:housenumber" v="1128"/>
    <tag k="addr:street" v="Woodward Road"/>
    <tag k="addr:state" v="VT"/>
    <tag k="ref:vcgi:esiteid" v="618052"/>
  </node>
</osm>
