<?xml version="1.0" encoding="UTF-8"?>
<osm version="0.6" generator="JOSM" upload="false">
  <node id="-698" visible="true" lat="44.322336296213" lon="-72.135567875913">
    <!-- duplicates-in-different-towns: "712 Stevenson Road, Peacham, VT"  ignoring town mismatch for duplicate housenumber/street when matching to esiteid 6970: "712 Stevenson Road, , VT" -->
    <tag k="addr:city" v="Peacham"/>
    <tag k="addr:housenumber" v="712"/>
    <tag k="addr:street" v="Stevenson Road"/>
    <tag k="addr:state" v="VT"/>
    <tag k="ref:vcgi:esiteid" v="619796"/>
  </node>
</osm>
