<?xml version="1.0" encoding="UTF-8"?>
<osm version="0.6" generator="JOSM" upload="false">
  <node id="-126" visible="true" lat="44.369725650994" lon="-72.192261834676">
    <tag k="addr:city" v="Peacham"/>
    <tag k="addr:housenumber" v="2494"/>
    <tag k="addr:street" v="Slack Street"/>
    <tag k="addr:state" v="VT"/>
    <tag k="ref:vcgi:esiteid" v="185978"/>
  </node>
  <node id="-128" visible="true" lat="44.367162173148" lon="-72.194909234235">
    <tag k="addr:city" v="Peacham"/>
    <tag k="addr:housenumber" v="2268"/>
    <tag k="addr:street" v="Slack Street"/>
    <tag k="addr:state" v="VT"/>
    <tag k="ref:vcgi:esiteid" v="185980"/>
  </node>
  <node id="-130" visible="true" lat="44.36643542305" lon="-72.181923784296">
    <tag k="addr:city" v="Peacham"/>
    <tag k="addr:housenumber" v="2996"/>
    <tag k="addr:street" v="Slack Street"/>
    <tag k="addr:state" v="VT"/>
    <tag k="ref:vcgi:esiteid" v="185982"/>
  </node>
  <node id="-133" visible="true" lat="44.366247749582" lon="-72.19600395823">
    <tag k="addr:city" v="Peacham"/>
    <tag k="addr:housenumber" v="2128"/>
    <tag k="addr:street" v="Slack Street"/>
    <tag k="addr:state" v="VT"/>
    <tag k="ref:vcgi:esiteid" v="185985"/>
  </node>
  <node id="-136" visible="true" lat="44.365430301326" lon="-72.180329457927">
    <tag k="addr:city" v="Peacham"/>
    <tag k="addr:housenumber" v="3215"/>
    <tag k="addr:street" v="Bayley-Hazen Road"/>
    <tag k="addr:state" v="VT"/>
    <tag k="ref:vcgi:esiteid" v="185988"/>
  </node>
  <node id="-137" visible="true" lat="44.363024600348" lon="-72.179659518501">
    <tag k="addr:city" v="Peacham"/>
    <tag k="addr:housenumber" v="3095"/>
    <tag k="addr:street" v="Bayley-Hazen Road"/>
    <tag k="addr:state" v="VT"/>
    <tag k="ref:vcgi:esiteid" v="185989"/>
  </node>
  <node id="-141" visible="true" lat="44.362824860973" lon="-72.193925043091">
    <tag k="addr:city" v="Peacham"/>
    <tag k="addr:housenumber" v="1860"/>
    <tag k="addr:street" v="Slack Street"/>
    <tag k="addr:state" v="VT"/>
    <tag k="ref:vcgi:esiteid" v="185993"/>
  </node>
  <node id="-166" visible="true" lat="44.357163851674" lon="-72.174073351532">
    <tag k="addr:city" v="Peacham"/>
    <tag k="addr:housenumber" v="464"/>
    <tag k="addr:street" v="Peacham Danville Road"/>
    <tag k="addr:state" v="VT"/>
    <tag k="ref:vcgi:esiteid" v="186018"/>
  </node>
  <node id="-198" visible="true" lat="44.346185147293" lon="-72.254082836053">
    <tag k="addr:city" v="Peacham"/>
    <tag k="addr:housenumber" v="505"/>
    <tag k="addr:street" v="Peacham Pond Road"/>
    <tag k="addr:state" v="VT"/>
    <tag k="ref:vcgi:esiteid" v="186051"/>
  </node>
  <node id="-209" visible="true" lat="44.343900146082" lon="-72.181054247583">
    <tag k="addr:city" v="Peacham"/>
    <tag k="addr:housenumber" v="322"/>
    <tag k="addr:street" v="Slack Street"/>
    <tag k="addr:state" v="VT"/>
    <tag k="ref:vcgi:esiteid" v="186062"/>
  </node>
  <node id="-210" visible="true" lat="44.343667450087" lon="-72.176530016808">
    <tag k="addr:city" v="Peacham"/>
    <tag k="addr:housenumber" v="1721"/>
    <tag k="addr:street" v="Bayley-Hazen Road"/>
    <tag k="addr:state" v="VT"/>
    <tag k="ref:vcgi:esiteid" v="186063"/>
  </node>
  <node id="-215" visible="true" lat="44.34233993325" lon="-72.187066213303">
    <tag k="addr:city" v="Peacham"/>
    <tag k="addr:housenumber" v="756"/>
    <tag k="addr:street" v="Hapenny Road"/>
    <tag k="addr:state" v="VT"/>
    <tag k="ref:vcgi:esiteid" v="186069"/>
  </node>
  <node id="-216" visible="true" lat="44.342294158378" lon="-72.179658069319">
    <tag k="addr:city" v="Peacham"/>
    <tag k="addr:housenumber" v="238"/>
    <tag k="addr:street" v="Slack Street"/>
    <tag k="addr:state" v="VT"/>
    <tag k="ref:vcgi:esiteid" v="186070"/>
  </node>
  <node id="-220" visible="true" lat="44.341908874202" lon="-72.176301133823">
    <tag k="addr:city" v="Peacham"/>
    <tag k="addr:housenumber" v="1599"/>
    <tag k="addr:street" v="Bayley-Hazen Road"/>
    <tag k="addr:state" v="VT"/>
    <tag k="ref:vcgi:esiteid" v="186074"/>
  </node>
  <node id="-222" visible="true" lat="44.341802061606" lon="-72.213303709455">
    <tag k="addr:city" v="Peacham"/>
    <tag k="addr:housenumber" v="116"/>
    <tag k="addr:street" v="Lanesboro Road"/>
    <tag k="addr:state" v="VT"/>
    <tag k="ref:vcgi:esiteid" v="186076"/>
  </node>
  <node id="-223" visible="true" lat="44.341462555674" lon="-72.162217266444">
    <tag k="addr:city" v="Peacham"/>
    <tag k="addr:housenumber" v="1518"/>
    <tag k="addr:street" v="East Peacham Road"/>
    <tag k="addr:state" v="VT"/>
    <tag k="ref:vcgi:esiteid" v="186077"/>
  </node>
  <node id="-226" visible="true" lat="44.341290893105" lon="-72.177811752963">
    <tag k="addr:city" v="Peacham"/>
    <tag k="addr:housenumber" v="123"/>
    <tag k="addr:street" v="Slack Street"/>
    <tag k="addr:state" v="VT"/>
    <tag k="ref:vcgi:esiteid" v="186080"/>
  </node>
  <node id="-227" visible="true" lat="44.341252744427" lon="-72.174264084763">
    <tag k="addr:city" v="Peacham"/>
    <tag k="addr:housenumber" v="1510"/>
    <tag k="addr:street" v="Bayley-Hazen Road"/>
    <tag k="addr:state" v="VT"/>
    <tag k="ref:vcgi:esiteid" v="186081"/>
  </node>
  <node id="-231" visible="true" lat="44.340917052805" lon="-72.168358932008">
    <tag k="addr:city" v="Peacham"/>
    <tag k="addr:housenumber" v="1614"/>
    <tag k="addr:street" v="Bayley-Hazen Road"/>
    <tag k="addr:state" v="VT"/>
    <tag k="ref:vcgi:esiteid" v="186085"/>
  </node>
  <node id="-242" visible="true" lat="44.339662016833" lon="-72.173539292943">
    <tag k="addr:city" v="Peacham"/>
    <tag k="addr:housenumber" v="1384"/>
    <tag k="addr:street" v="Bayley-Hazen Road"/>
    <tag k="addr:state" v="VT"/>
    <tag k="ref:vcgi:esiteid" v="186096"/>
  </node>
  <node id="-244" visible="true" lat="44.339651612695" lon="-72.210268994955">
    <tag k="addr:city" v="Peacham"/>
    <tag k="addr:housenumber" v="2021"/>
    <tag k="addr:street" v="Macks Mountain Road"/>
    <tag k="addr:state" v="VT"/>
    <tag k="ref:vcgi:esiteid" v="186098"/>
  </node>
  <node id="-247" visible="true" lat="44.338978795143" lon="-72.185422776872">
    <tag k="addr:city" v="Peacham"/>
    <tag k="addr:housenumber" v="510"/>
    <tag k="addr:street" v="Hapenny Road"/>
    <tag k="addr:state" v="VT"/>
    <tag k="ref:vcgi:esiteid" v="186101"/>
  </node>
  <node id="-254" visible="true" lat="44.338612973248" lon="-72.208207272066">
    <tag k="addr:city" v="Peacham"/>
    <tag k="addr:housenumber" v="1993"/>
    <tag k="addr:street" v="Macks Mountain Road"/>
    <tag k="addr:state" v="VT"/>
    <tag k="ref:vcgi:esiteid" v="186108"/>
  </node>
  <node id="-261" visible="true" lat="44.337979734599" lon="-72.158570414819">
    <tag k="addr:city" v="Peacham"/>
    <tag k="addr:housenumber" v="1660"/>
    <tag k="addr:street" v="East Peacham Road"/>
    <tag k="addr:state" v="VT"/>
    <tag k="ref:vcgi:esiteid" v="186115"/>
  </node>
  <node id="-262" visible="true" lat="44.337947656244" lon="-72.218439822016">
    <tag k="addr:city" v="Peacham"/>
    <tag k="addr:housenumber" v="483"/>
    <tag k="addr:street" v="Lanesboro Road"/>
    <tag k="addr:state" v="VT"/>
    <tag k="ref:vcgi:esiteid" v="186116"/>
  </node>
  <node id="-263" visible="true" lat="44.337789346255" lon="-72.201343825352">
    <tag k="addr:city" v="Peacham"/>
    <tag k="addr:housenumber" v="1697"/>
    <tag k="addr:street" v="Macks Mountain Road"/>
    <tag k="addr:state" v="VT"/>
    <tag k="ref:vcgi:esiteid" v="186117"/>
  </node>
  <node id="-264" visible="true" lat="44.337365569028" lon="-72.158959514361">
    <tag k="addr:city" v="Peacham"/>
    <tag k="addr:housenumber" v="827"/>
    <tag k="addr:street" v="Old Cemetery Road"/>
    <tag k="addr:state" v="VT"/>
    <tag k="ref:vcgi:esiteid" v="186118"/>
  </node>
  <node id="-265" visible="true" lat="44.337319793094" lon="-72.156991129993">
    <tag k="addr:city" v="Peacham"/>
    <tag k="addr:housenumber" v="1749"/>
    <tag k="addr:street" v="East Peacham Road"/>
    <tag k="addr:state" v="VT"/>
    <tag k="ref:vcgi:esiteid" v="186119"/>
  </node>
  <node id="-266" visible="true" lat="44.337068022762" lon="-72.160058148176">
    <tag k="addr:city" v="Peacham"/>
    <tag k="addr:housenumber" v="771"/>
    <tag k="addr:street" v="Old Cemetery Road"/>
    <tag k="addr:state" v="VT"/>
    <tag k="ref:vcgi:esiteid" v="186120"/>
  </node>
  <node id="-267" visible="true" lat="44.336827695052" lon="-72.173508773463">
    <tag k="addr:city" v="Peacham"/>
    <tag k="addr:housenumber" v="1224"/>
    <tag k="addr:street" v="Bayley-Hazen Road"/>
    <tag k="addr:state" v="VT"/>
    <tag k="ref:vcgi:esiteid" v="186121"/>
  </node>
  <node id="-268" visible="true" lat="44.336823881891" lon="-72.174592149155">
    <tag k="addr:city" v="Peacham"/>
    <tag k="addr:housenumber" v="1239"/>
    <tag k="addr:street" v="Bayley-Hazen Road"/>
    <tag k="addr:state" v="VT"/>
    <tag k="ref:vcgi:esiteid" v="186122"/>
  </node>
  <node id="-271" visible="true" lat="44.336091459563" lon="-72.15760148137">
    <tag k="addr:city" v="Peacham"/>
    <tag k="addr:housenumber" v="139"/>
    <tag k="addr:street" v="Hollow Woods Road"/>
    <tag k="addr:state" v="VT"/>
    <tag k="ref:vcgi:esiteid" v="186125"/>
  </node>
  <node id="-272" visible="true" lat="44.335996092305" lon="-72.162194378512">
    <tag k="addr:city" v="Peacham"/>
    <tag k="addr:housenumber" v="603"/>
    <tag k="addr:street" v="Old Cemetery Road"/>
    <tag k="addr:state" v="VT"/>
    <tag k="ref:vcgi:esiteid" v="186126"/>
  </node>
  <node id="-273" visible="true" lat="44.335984647481" lon="-72.174210679431">
    <tag k="addr:city" v="Peacham"/>
    <tag k="addr:housenumber" v="1177"/>
    <tag k="addr:street" v="Bayley-Hazen Road"/>
    <tag k="addr:state" v="VT"/>
    <tag k="ref:vcgi:esiteid" v="186127"/>
  </node>
  <node id="-275" visible="true" lat="44.335755767596" lon="-72.161454325699">
    <tag k="addr:city" v="Peacham"/>
    <tag k="addr:housenumber" v="660"/>
    <tag k="addr:street" v="Old Cemetery Road"/>
    <tag k="addr:state" v="VT"/>
    <tag k="ref:vcgi:esiteid" v="186129"/>
  </node>
  <node id="-277" visible="true" lat="44.335133970495" lon="-72.157059792488">
    <tag k="addr:city" v="Peacham"/>
    <tag k="addr:housenumber" v="209"/>
    <tag k="addr:street" v="Hollow Woods Road"/>
    <tag k="addr:state" v="VT"/>
    <tag k="ref:vcgi:esiteid" v="186131"/>
  </node>
  <node id="-278" visible="true" lat="44.335160672751" lon="-72.175469528605">
    <tag k="addr:city" v="Peacham"/>
    <tag k="addr:housenumber" v="1107"/>
    <tag k="addr:street" v="Bayley-Hazen Road"/>
    <tag k="addr:state" v="VT"/>
    <tag k="ref:vcgi:esiteid" v="186132"/>
  </node>
  <node id="-281" visible="true" lat="44.334535062351" lon="-72.159249430776">
    <tag k="addr:city" v="Peacham"/>
    <tag k="addr:housenumber" v="164"/>
    <tag k="addr:street" v="Hollow Woods Road"/>
    <tag k="addr:state" v="VT"/>
    <tag k="ref:vcgi:esiteid" v="186135"/>
  </node>
  <node id="-283" visible="true" lat="44.334355771036" lon="-72.173356186154">
    <tag k="addr:city" v="Peacham"/>
    <tag k="addr:housenumber" v="1057"/>
    <tag k="addr:street" v="Bayley-Hazen Road"/>
    <tag k="addr:state" v="VT"/>
    <tag k="ref:vcgi:esiteid" v="186137"/>
  </node>
  <node id="-287" visible="true" lat="44.334210812609" lon="-72.174805771268">
    <tag k="addr:city" v="Peacham"/>
    <tag k="addr:housenumber" v="1045"/>
    <tag k="addr:street" v="Bayley-Hazen Road"/>
    <tag k="addr:state" v="VT"/>
    <tag k="ref:vcgi:esiteid" v="186141"/>
  </node>
  <node id="-288" visible="true" lat="44.333878935168" lon="-72.15673935902">
    <tag k="addr:city" v="Peacham"/>
    <tag k="addr:housenumber" v="293"/>
    <tag k="addr:street" v="Hollow Woods Road"/>
    <tag k="addr:state" v="VT"/>
    <tag k="ref:vcgi:esiteid" v="186142"/>
  </node>
  <node id="-302" visible="true" lat="44.332803190935" lon="-72.157921915722">
    <tag k="addr:city" v="Peacham"/>
    <tag k="addr:housenumber" v="370"/>
    <tag k="addr:street" v="Hollow Woods Road"/>
    <tag k="addr:state" v="VT"/>
    <tag k="ref:vcgi:esiteid" v="186156"/>
  </node>
  <node id="-304" visible="true" lat="44.3328824718" lon="-72.185810306739">
    <tag k="addr:city" v="Peacham"/>
    <tag k="addr:housenumber" v="74"/>
    <tag k="addr:street" v="Hapenny Road"/>
    <tag k="addr:state" v="VT"/>
    <tag k="ref:vcgi:esiteid" v="186158"/>
  </node>
  <node id="-307" visible="true" lat="44.332414091589" lon="-72.164361127256">
    <tag k="addr:city" v="Peacham"/>
    <tag k="addr:housenumber" v="384"/>
    <tag k="addr:street" v="Old Cemetery Road"/>
    <tag k="addr:state" v="VT"/>
    <tag k="ref:vcgi:esiteid" v="186161"/>
  </node>
  <node id="-311" visible="true" lat="44.331921995437" lon="-72.172516953338">
    <tag k="addr:city" v="Peacham"/>
    <tag k="addr:housenumber" v="897"/>
    <tag k="addr:street" v="Bayley-Hazen Road"/>
    <tag k="addr:state" v="VT"/>
    <tag k="ref:vcgi:esiteid" v="186165"/>
  </node>
  <node id="-314" visible="true" lat="44.331567227702" lon="-72.166085370335">
    <tag k="addr:city" v="Peacham"/>
    <tag k="addr:housenumber" v="290"/>
    <tag k="addr:street" v="Old Cemetery Road"/>
    <tag k="addr:state" v="VT"/>
    <tag k="ref:vcgi:esiteid" v="186168"/>
  </node>
  <node id="-320" visible="true" lat="44.330972135596" lon="-72.172188887836">
    <tag k="addr:city" v="Peacham"/>
    <tag k="addr:housenumber" v="819"/>
    <tag k="addr:street" v="Bayley-Hazen Road"/>
    <tag k="addr:state" v="VT"/>
    <tag k="ref:vcgi:esiteid" v="186174"/>
  </node>
  <node id="-337" visible="true" lat="44.329823355517" lon="-72.170933389699">
    <tag k="addr:city" v="Peacham"/>
    <tag k="addr:housenumber" v="720"/>
    <tag k="addr:street" v="Bayley-Hazen Road"/>
    <tag k="addr:state" v="VT"/>
    <tag k="ref:vcgi:esiteid" v="186191"/>
  </node>
  <node id="-338" visible="true" lat="44.329711313877" lon="-72.171269155511">
    <tag k="addr:city" v="Peacham"/>
    <tag k="addr:housenumber" v="719"/>
    <tag k="addr:street" v="Bayley-Hazen Road"/>
    <tag k="addr:state" v="VT"/>
    <tag k="ref:vcgi:esiteid" v="186192"/>
  </node>
  <node id="-342" visible="true" lat="44.329556461398" lon="-72.17079730215">
    <tag k="addr:city" v="Peacham"/>
    <tag k="addr:housenumber" v="700"/>
    <tag k="addr:street" v="Bayley-Hazen Road"/>
    <tag k="addr:state" v="VT"/>
    <tag k="ref:vcgi:esiteid" v="186196"/>
  </node>
  <node id="-347" visible="true" lat="44.329332392505" lon="-72.170659131869">
    <tag k="addr:city" v="Peacham"/>
    <tag k="addr:housenumber" v="680"/>
    <tag k="addr:street" v="Bayley-Hazen Road"/>
    <tag k="addr:state" v="VT"/>
    <tag k="ref:vcgi:esiteid" v="186201"/>
  </node>
  <node id="-349" visible="true" lat="44.329126738142" lon="-72.170010415896">
    <tag k="addr:city" v="Peacham"/>
    <tag k="addr:housenumber" v="33"/>
    <tag k="addr:street" v="Old Cemetery Road"/>
    <tag k="addr:state" v="VT"/>
    <tag k="ref:vcgi:esiteid" v="186203"/>
  </node>
  <node id="-350" visible="true" lat="44.329135734962" lon="-72.171024390962">
    <tag k="addr:city" v="Peacham"/>
    <tag k="addr:housenumber" v="679"/>
    <tag k="addr:street" v="Bayley-Hazen Road"/>
    <tag k="addr:state" v="VT"/>
    <tag k="ref:vcgi:esiteid" v="186204"/>
  </node>
  <node id="-353" visible="true" lat="44.328950344773" lon="-72.169648299309">
    <tag k="addr:city" v="Peacham"/>
    <tag k="addr:housenumber" v="40"/>
    <tag k="addr:street" v="Old Cemetery Road"/>
    <tag k="addr:state" v="VT"/>
    <tag k="ref:vcgi:esiteid" v="186207"/>
  </node>
  <node id="-354" visible="true" lat="44.328983865276" lon="-72.170376422814">
    <tag k="addr:city" v="Peacham"/>
    <tag k="addr:housenumber" v="656"/>
    <tag k="addr:street" v="Bayley-Hazen Road"/>
    <tag k="addr:state" v="VT"/>
    <tag k="ref:vcgi:esiteid" v="186208"/>
  </node>
  <node id="-356" visible="true" lat="44.329062062711" lon="-72.178114478138">
    <tag k="addr:city" v="Peacham"/>
    <tag k="addr:housenumber" v="320"/>
    <tag k="addr:street" v="Macks Mountain Road"/>
    <tag k="addr:state" v="VT"/>
    <tag k="ref:vcgi:esiteid" v="186210"/>
  </node>
  <node id="-357" visible="true" lat="44.328912198446" lon="-72.170930036099">
    <tag k="addr:city" v="Peacham"/>
    <tag k="addr:housenumber" v="665"/>
    <tag k="addr:street" v="Bayley-Hazen Road"/>
    <tag k="addr:state" v="VT"/>
    <tag k="ref:vcgi:esiteid" v="186211"/>
  </node>
  <node id="-359" visible="true" lat="44.328589622053" lon="-72.178644725218">
    <tag k="addr:city" v="Peacham"/>
    <tag k="addr:housenumber" v="355"/>
    <tag k="addr:street" v="Macks Mountain Road"/>
    <tag k="addr:state" v="VT"/>
    <tag k="ref:vcgi:esiteid" v="186213"/>
  </node>
  <node id="-366" visible="true" lat="44.328621358189" lon="-72.170066019399">
    <tag k="addr:city" v="Peacham"/>
    <tag k="addr:housenumber" v="624"/>
    <tag k="addr:street" v="Bayley-Hazen Road"/>
    <tag k="addr:state" v="VT"/>
    <tag k="ref:vcgi:esiteid" v="186220"/>
  </node>
  <node id="-369" visible="true" lat="44.328451984806" lon="-72.169943665784">
    <tag k="addr:city" v="Peacham"/>
    <tag k="addr:housenumber" v="614"/>
    <tag k="addr:street" v="Bayley-Hazen Road"/>
    <tag k="addr:state" v="VT"/>
    <tag k="ref:vcgi:esiteid" v="186223"/>
  </node>
  <node id="-371" visible="true" lat="44.328356403006" lon="-72.169775688111">
    <tag k="addr:city" v="Peacham"/>
    <tag k="addr:housenumber" v="604"/>
    <tag k="addr:street" v="Bayley-Hazen Road"/>
    <tag k="addr:state" v="VT"/>
    <tag k="ref:vcgi:esiteid" v="186225"/>
  </node>
  <node id="-372" visible="true" lat="44.328272512048" lon="-72.171001981603">
    <tag k="addr:city" v="Peacham"/>
    <tag k="addr:housenumber" v="38"/>
    <tag k="addr:street" v="Church Street"/>
    <tag k="addr:state" v="VT"/>
    <tag k="ref:vcgi:esiteid" v="186226"/>
  </node>
  <node id="-376" visible="true" lat="44.32813781402" lon="-72.170426498296">
    <tag k="addr:city" v="Peacham"/>
    <tag k="addr:housenumber" v="613"/>
    <tag k="addr:street" v="Bayley-Hazen Road"/>
    <tag k="addr:state" v="VT"/>
    <tag k="ref:vcgi:esiteid" v="186230"/>
  </node>
  <node id="-378" visible="true" lat="44.328202042271" lon="-72.169675310318">
    <tag k="addr:city" v="Peacham"/>
    <tag k="addr:housenumber" v="588"/>
    <tag k="addr:street" v="Bayley-Hazen Road"/>
    <tag k="addr:state" v="VT"/>
    <tag k="ref:vcgi:esiteid" v="186232"/>
  </node>
  <node id="-382" visible="true" lat="44.327889859199" lon="-72.177651535167">
    <tag k="addr:city" v="Peacham"/>
    <tag k="addr:housenumber" v="275"/>
    <tag k="addr:street" v="Macks Mountain Road"/>
    <tag k="addr:state" v="VT"/>
    <tag k="ref:vcgi:esiteid" v="186236"/>
  </node>
  <node id="-386" visible="true" lat="44.327706754314" lon="-72.171670089007">
    <tag k="addr:city" v="Peacham"/>
    <tag k="addr:housenumber" v="94"/>
    <tag k="addr:street" v="Church Street"/>
    <tag k="addr:state" v="VT"/>
    <tag k="ref:vcgi:esiteid" v="186240"/>
  </node>
  <node id="-388" visible="true" lat="44.327650816249" lon="-72.171063403785">
    <tag k="addr:city" v="Peacham"/>
    <tag k="addr:housenumber" v="79"/>
    <tag k="addr:street" v="Church Street"/>
    <tag k="addr:state" v="VT"/>
    <tag k="ref:vcgi:esiteid" v="186242"/>
  </node>
  <node id="-392" visible="true" lat="44.327588497576" lon="-72.176087509322">
    <tag k="addr:city" v="Peacham"/>
    <tag k="addr:housenumber" v="206"/>
    <tag k="addr:street" v="Macks Mountain Road"/>
    <tag k="addr:state" v="VT"/>
    <tag k="ref:vcgi:esiteid" v="186246"/>
  </node>
  <node id="-393" visible="true" lat="44.32743858544" lon="-72.169801756254">
    <tag k="addr:city" v="Peacham"/>
    <tag k="addr:housenumber" v="555"/>
    <tag k="addr:street" v="Bayley-Hazen Road"/>
    <tag k="addr:state" v="VT"/>
    <tag k="ref:vcgi:esiteid" v="186247"/>
  </node>
  <node id="-395" visible="true" lat="44.327361325012" lon="-72.172132337071">
    <tag k="addr:city" v="Peacham"/>
    <tag k="addr:housenumber" v="132"/>
    <tag k="addr:street" v="Church Street"/>
    <tag k="addr:state" v="VT"/>
    <tag k="ref:vcgi:esiteid" v="186249"/>
  </node>
  <node id="-396" visible="true" lat="44.327154254108" lon="-72.169495268457">
    <tag k="addr:city" v="Peacham"/>
    <tag k="addr:housenumber" v="535"/>
    <tag k="addr:street" v="Bayley-Hazen Road"/>
    <tag k="addr:state" v="VT"/>
    <tag k="ref:vcgi:esiteid" v="186250"/>
  </node>
  <node id="-398" visible="true" lat="44.32719755553" lon="-72.171701816879">
    <tag k="addr:city" v="Peacham"/>
    <tag k="addr:housenumber" v="121"/>
    <tag k="addr:street" v="Church Street"/>
    <tag k="addr:state" v="VT"/>
    <tag k="ref:vcgi:esiteid" v="186252"/>
  </node>
  <node id="-400" visible="true" lat="44.32710979671" lon="-72.172460507799">
    <tag k="addr:city" v="Peacham"/>
    <tag k="addr:housenumber" v="150"/>
    <tag k="addr:street" v="Church Street"/>
    <tag k="addr:state" v="VT"/>
    <tag k="ref:vcgi:esiteid" v="186254"/>
  </node>
  <node id="-402" visible="true" lat="44.326962886394" lon="-72.169366010848">
    <tag k="addr:city" v="Peacham"/>
    <tag k="addr:housenumber" v="511"/>
    <tag k="addr:street" v="Bayley-Hazen Road"/>
    <tag k="addr:state" v="VT"/>
    <tag k="ref:vcgi:esiteid" v="186256"/>
  </node>
  <node id="-403" visible="true" lat="44.326955257346" lon="-72.175477157371">
    <tag k="addr:city" v="Peacham"/>
    <tag k="addr:housenumber" v="154"/>
    <tag k="addr:street" v="Macks Mountain Road"/>
    <tag k="addr:state" v="VT"/>
    <tag k="ref:vcgi:esiteid" v="186257"/>
  </node>
  <node id="-404" visible="true" lat="44.326896136688" lon="-72.170448024257">
    <tag k="addr:city" v="Peacham"/>
    <tag k="addr:housenumber" v="63"/>
    <tag k="addr:street" v="Church Street"/>
    <tag k="addr:state" v="VT"/>
    <tag k="ref:vcgi:esiteid" v="186258"/>
  </node>
  <node id="-406" visible="true" lat="44.326833805927" lon="-72.17216018719">
    <tag k="addr:city" v="Peacham"/>
    <tag k="addr:housenumber" v="153"/>
    <tag k="addr:street" v="Church Street"/>
    <tag k="addr:state" v="VT"/>
    <tag k="ref:vcgi:esiteid" v="186260"/>
  </node>
  <node id="-407" visible="true" lat="44.326759517272" lon="-72.171104319233">
    <tag k="addr:city" v="Peacham"/>
    <tag k="addr:housenumber" v="135"/>
    <tag k="addr:street" v="Church Street"/>
    <tag k="addr:state" v="VT"/>
    <tag k="ref:vcgi:esiteid" v="186261"/>
  </node>
  <node id="-408" visible="true" lat="44.326578170893" lon="-72.175747673383">
    <tag k="addr:city" v="Peacham"/>
    <tag k="addr:housenumber" v="147"/>
    <tag k="addr:street" v="Macks Mountain Road"/>
    <tag k="addr:state" v="VT"/>
    <tag k="ref:vcgi:esiteid" v="186262"/>
  </node>
  <node id="-409" visible="true" lat="44.326554715175" lon="-72.168244489794">
    <tag k="addr:city" v="Peacham"/>
    <tag k="addr:housenumber" v="458"/>
    <tag k="addr:street" v="Bayley-Hazen Road"/>
    <tag k="addr:state" v="VT"/>
    <tag k="ref:vcgi:esiteid" v="186263"/>
  </node>
  <node id="-411" visible="true" lat="44.326550899823" lon="-72.168877730205">
    <tag k="addr:city" v="Peacham"/>
    <tag k="addr:housenumber" v="475"/>
    <tag k="addr:street" v="Bayley-Hazen Road"/>
    <tag k="addr:state" v="VT"/>
    <tag k="ref:vcgi:esiteid" v="186265"/>
  </node>
  <node id="-412" visible="true" lat="44.326547085887" lon="-72.174874435386">
    <tag k="addr:city" v="Peacham"/>
    <tag k="addr:housenumber" v="110"/>
    <tag k="addr:street" v="Macks Mountain Road"/>
    <tag k="addr:state" v="VT"/>
    <tag k="ref:vcgi:esiteid" v="186266"/>
  </node>
  <node id="-415" visible="true" lat="44.326468066331" lon="-72.172659349098">
    <tag k="addr:city" v="Peacham"/>
    <tag k="addr:housenumber" v="185"/>
    <tag k="addr:street" v="Church Street"/>
    <tag k="addr:state" v="VT"/>
    <tag k="ref:vcgi:esiteid" v="186269"/>
  </node>
  <node id="-419" visible="true" lat="44.326180874516" lon="-72.16857255266">
    <tag k="addr:city" v="Peacham"/>
    <tag k="addr:housenumber" v="443"/>
    <tag k="addr:street" v="Bayley-Hazen Road"/>
    <tag k="addr:state" v="VT"/>
    <tag k="ref:vcgi:esiteid" v="186273"/>
  </node>
  <node id="-422" visible="true" lat="44.326072362074" lon="-72.172783586527">
    <tag k="addr:city" v="Peacham"/>
    <tag k="addr:housenumber" v="35"/>
    <tag k="addr:street" v="Academy Hill"/>
    <tag k="addr:state" v="VT"/>
    <tag k="ref:vcgi:esiteid" v="186276"/>
  </node>
  <node id="-425" visible="true" lat="44.325803350943" lon="-72.167663087072">
    <tag k="addr:city" v="Peacham"/>
    <tag k="addr:housenumber" v="398"/>
    <tag k="addr:street" v="Bayley-Hazen Road"/>
    <tag k="addr:state" v="VT"/>
    <tag k="ref:vcgi:esiteid" v="186279"/>
  </node>
  <node id="-428" visible="true" lat="44.32551138724" lon="-72.168271026152">
    <tag k="addr:city" v="Peacham"/>
    <tag k="addr:housenumber" v="791"/>
    <tag k="addr:street" v="South Main Street"/>
    <tag k="addr:state" v="VT"/>
    <tag k="ref:vcgi:esiteid" v="186282"/>
  </node>
  <node id="-429" visible="true" lat="44.325402676285" lon="-72.167695172341">
    <tag k="addr:city" v="Peacham"/>
    <tag k="addr:housenumber" v="780"/>
    <tag k="addr:street" v="South Main Street"/>
    <tag k="addr:state" v="VT"/>
    <tag k="ref:vcgi:esiteid" v="186283"/>
  </node>
  <node id="-430" visible="true" lat="44.325189052712" lon="-72.168107161412">
    <tag k="addr:city" v="Peacham"/>
    <tag k="addr:housenumber" v="769"/>
    <tag k="addr:street" v="South Main Street"/>
    <tag k="addr:state" v="VT"/>
    <tag k="ref:vcgi:esiteid" v="186284"/>
  </node>
  <node id="-431" visible="true" lat="44.324972961906" lon="-72.167466744265">
    <tag k="addr:city" v="Peacham"/>
    <tag k="addr:housenumber" v="752"/>
    <tag k="addr:street" v="South Main Street"/>
    <tag k="addr:state" v="VT"/>
    <tag k="ref:vcgi:esiteid" v="186285"/>
  </node>
  <node id="-432" visible="true" lat="44.324929653493" lon="-72.167992720062">
    <tag k="addr:city" v="Peacham"/>
    <tag k="addr:housenumber" v="749"/>
    <tag k="addr:street" v="South Main Street"/>
    <tag k="addr:state" v="VT"/>
    <tag k="ref:vcgi:esiteid" v="186286"/>
  </node>
  <node id="-433" visible="true" lat="44.324246821602" lon="-72.169251568632">
    <tag k="addr:city" v="Peacham"/>
    <tag k="addr:housenumber" v="775"/>
    <tag k="addr:street" v="South Main Street"/>
    <tag k="addr:state" v="VT"/>
    <tag k="ref:vcgi:esiteid" v="186287"/>
  </node>
  <node id="-435" visible="true" lat="44.322667537162" lon="-72.165887006454">
    <tag k="addr:city" v="Peacham"/>
    <tag k="addr:housenumber" v="148"/>
    <tag k="addr:street" v="Bayley-Hazen Road"/>
    <tag k="addr:state" v="VT"/>
    <tag k="ref:vcgi:esiteid" v="186289"/>
  </node>
  <node id="-438" visible="true" lat="44.321434630883" lon="-72.179097702391">
    <tag k="addr:city" v="Peacham"/>
    <tag k="addr:housenumber" v="637"/>
    <tag k="addr:street" v="Maple Tree Lane"/>
    <tag k="addr:state" v="VT"/>
    <tag k="ref:vcgi:esiteid" v="186292"/>
  </node>
  <node id="-439" visible="true" lat="44.32071059778" lon="-72.176781784816">
    <tag k="addr:city" v="Peacham"/>
    <tag k="addr:housenumber" v="514"/>
    <tag k="addr:street" v="Maple Tree Lane"/>
    <tag k="addr:state" v="VT"/>
    <tag k="ref:vcgi:esiteid" v="186293"/>
  </node>
  <node id="-440" visible="true" lat="44.320340571534" lon="-72.165398724196">
    <tag k="addr:city" v="Peacham"/>
    <tag k="addr:housenumber" v="6"/>
    <tag k="addr:street" v="Bayley-Hazen Road"/>
    <tag k="addr:state" v="VT"/>
    <tag k="ref:vcgi:esiteid" v="186294"/>
  </node>
  <node id="-442" visible="true" lat="44.320115504071" lon="-72.17469132886">
    <tag k="addr:city" v="Peacham"/>
    <tag k="addr:housenumber" v="400"/>
    <tag k="addr:street" v="Maple Tree Lane"/>
    <tag k="addr:state" v="VT"/>
    <tag k="ref:vcgi:esiteid" v="186296"/>
  </node>
  <node id="-443" visible="true" lat="44.320069728615" lon="-72.17672837894">
    <tag k="addr:city" v="Peacham"/>
    <tag k="addr:housenumber" v="22"/>
    <tag k="addr:street" v="County Road"/>
    <tag k="addr:state" v="VT"/>
    <tag k="ref:vcgi:esiteid" v="186297"/>
  </node>
  <node id="-444" visible="true" lat="44.319307813965" lon="-72.16676847628">
    <tag k="addr:city" v="Peacham"/>
    <tag k="addr:housenumber" v="360"/>
    <tag k="addr:street" v="South Main Street"/>
    <tag k="addr:state" v="VT"/>
    <tag k="ref:vcgi:esiteid" v="186298"/>
  </node>
  <node id="-448" visible="true" lat="44.318576987321" lon="-72.167717681045">
    <tag k="addr:city" v="Peacham"/>
    <tag k="addr:housenumber" v="18"/>
    <tag k="addr:street" v="Maple Tree Lane"/>
    <tag k="addr:state" v="VT"/>
    <tag k="ref:vcgi:esiteid" v="186302"/>
  </node>
  <node id="-449" visible="true" lat="44.318281750506" lon="-72.168344479546">
    <tag k="addr:city" v="Peacham"/>
    <tag k="addr:housenumber" v="50"/>
    <tag k="addr:street" v="Maple Tree Lane"/>
    <tag k="addr:state" v="VT"/>
    <tag k="ref:vcgi:esiteid" v="186303"/>
  </node>
  <node id="-450" visible="true" lat="44.318262100805" lon="-72.166976093614">
    <tag k="addr:city" v="Peacham"/>
    <tag k="addr:housenumber" v="282"/>
    <tag k="addr:street" v="South Main Street"/>
    <tag k="addr:state" v="VT"/>
    <tag k="ref:vcgi:esiteid" v="186304"/>
  </node>
  <node id="-452" visible="true" lat="44.317183826281" lon="-72.184816862033">
    <tag k="addr:city" v="Peacham"/>
    <tag k="addr:housenumber" v="2877"/>
    <tag k="addr:street" v="Green Bay Loop"/>
    <tag k="addr:state" v="VT"/>
    <tag k="ref:vcgi:esiteid" v="186306"/>
  </node>
  <node id="-456" visible="true" lat="44.315221177649" lon="-72.166269255994">
    <tag k="addr:city" v="Peacham"/>
    <tag k="addr:housenumber" v="68"/>
    <tag k="addr:street" v="South Main Street"/>
    <tag k="addr:state" v="VT"/>
    <tag k="ref:vcgi:esiteid" v="186310"/>
  </node>
  <node id="-458" visible="true" lat="44.314536148586" lon="-72.164559282848">
    <tag k="addr:city" v="Peacham"/>
    <tag k="addr:housenumber" v="89"/>
    <tag k="addr:street" v="Mill Trace"/>
    <tag k="addr:state" v="VT"/>
    <tag k="ref:vcgi:esiteid" v="186312"/>
  </node>
  <node id="-463" visible="true" lat="44.314294041045" lon="-72.193659052218">
    <tag k="addr:city" v="Peacham"/>
    <tag k="addr:housenumber" v="2395"/>
    <tag k="addr:street" v="Green Bay Loop"/>
    <tag k="addr:state" v="VT"/>
    <tag k="ref:vcgi:esiteid" v="186317"/>
  </node>
  <node id="-472" visible="true" lat="44.313420656629" lon="-72.197790457972">
    <tag k="addr:city" v="Peacham"/>
    <tag k="addr:housenumber" v="2169"/>
    <tag k="addr:street" v="Green Bay Loop"/>
    <tag k="addr:state" v="VT"/>
    <tag k="ref:vcgi:esiteid" v="186326"/>
  </node>
  <node id="-510" visible="true" lat="44.307694847111" lon="-72.182175767154">
    <tag k="addr:city" v="Peacham"/>
    <tag k="addr:housenumber" v="914"/>
    <tag k="addr:street" v="County Road"/>
    <tag k="addr:state" v="VT"/>
    <tag k="ref:vcgi:esiteid" v="186365"/>
  </node>
  <node id="-538" visible="true" lat="44.304276878705" lon="-72.184037338585">
    <tag k="addr:city" v="Peacham"/>
    <tag k="addr:housenumber" v="1194"/>
    <tag k="addr:street" v="County Road"/>
    <tag k="addr:state" v="VT"/>
    <tag k="ref:vcgi:esiteid" v="186393"/>
  </node>
  <node id="-553" visible="true" lat="44.29548345872" lon="-72.185472493867">
    <tag k="addr:city" v="Peacham"/>
    <tag k="addr:housenumber" v="42"/>
    <tag k="addr:street" v="Great Road"/>
    <tag k="addr:state" v="VT"/>
    <tag k="ref:vcgi:esiteid" v="186411"/>
  </node>
  <node id="-556" visible="true" lat="44.291707447206" lon="-72.189911975535">
    <tag k="addr:city" v="Peacham"/>
    <tag k="addr:housenumber" v="2139"/>
    <tag k="addr:street" v="County Road"/>
    <tag k="addr:state" v="VT"/>
    <tag k="ref:vcgi:esiteid" v="186414"/>
  </node>
  <node id="-560" visible="true" lat="44.281190326357" lon="-72.187157762989">
    <tag k="addr:city" v="Peacham"/>
    <tag k="addr:housenumber" v="1104"/>
    <tag k="addr:street" v="Great Road"/>
    <tag k="addr:state" v="VT"/>
    <tag k="ref:vcgi:esiteid" v="186418"/>
  </node>
  <node id="-561" visible="true" lat="44.280953814522" lon="-72.199502127145">
    <tag k="addr:city" v="Peacham"/>
    <tag k="addr:housenumber" v="3038"/>
    <tag k="addr:street" v="County Road"/>
    <tag k="addr:state" v="VT"/>
    <tag k="ref:vcgi:esiteid" v="186419"/>
  </node>
  <node id="-563" visible="true" lat="44.277814317581" lon="-72.189774645028">
    <tag k="addr:city" v="Peacham"/>
    <tag k="addr:housenumber" v="1372"/>
    <tag k="addr:street" v="Great Road"/>
    <tag k="addr:state" v="VT"/>
    <tag k="ref:vcgi:esiteid" v="186421"/>
  </node>
  <node id="-573" visible="true" lat="44.288907460592" lon="-72.183030258684">
    <tag k="addr:city" v="Peacham"/>
    <tag k="addr:housenumber" v="520"/>
    <tag k="addr:street" v="Great Road"/>
    <tag k="addr:state" v="VT"/>
    <tag k="ref:vcgi:esiteid" v="186431"/>
  </node>
  <node id="-576" visible="true" lat="44.284871509656" lon="-72.184617173102">
    <tag k="addr:city" v="Peacham"/>
    <tag k="addr:housenumber" v="820"/>
    <tag k="addr:street" v="Great Road"/>
    <tag k="addr:state" v="VT"/>
    <tag k="ref:vcgi:esiteid" v="186434"/>
  </node>
  <node id="-580" visible="true" lat="44.291039990025" lon="-72.185601007809">
    <tag k="addr:city" v="Peacham"/>
    <tag k="addr:housenumber" v="240"/>
    <tag k="addr:street" v="Great Road"/>
    <tag k="addr:state" v="VT"/>
    <tag k="ref:vcgi:esiteid" v="186438"/>
  </node>
  <node id="-604" visible="true" lat="44.3287038041" lon="-72.170865126134">
    <tag k="addr:city" v="Peacham"/>
    <tag k="addr:housenumber" v="643"/>
    <tag k="addr:street" v="Bayley-Hazen Road"/>
    <tag k="addr:state" v="VT"/>
    <tag k="ref:vcgi:esiteid" v="186463"/>
  </node>
  <node id="-606" visible="true" lat="44.332069835933" lon="-72.189891585535">
    <tag k="addr:city" v="Peacham"/>
    <tag k="addr:housenumber" v="955"/>
    <tag k="addr:street" v="Macks Mountain Road"/>
    <tag k="addr:state" v="VT"/>
    <tag k="ref:vcgi:esiteid" v="186465"/>
  </node>
  <node id="-607" visible="true" lat="44.336201142821" lon="-72.196773455393">
    <tag k="addr:city" v="Peacham"/>
    <tag k="addr:housenumber" v="1521"/>
    <tag k="addr:street" v="Macks Mountain Road"/>
    <tag k="addr:state" v="VT"/>
    <tag k="ref:vcgi:esiteid" v="186466"/>
  </node>
  <node id="-608" visible="true" lat="44.326053605058" lon="-72.167868864644">
    <tag k="addr:city" v="Peacham"/>
    <tag k="addr:housenumber" v="424"/>
    <tag k="addr:street" v="Bayley-Hazen Road"/>
    <tag k="addr:state" v="VT"/>
    <tag k="ref:vcgi:esiteid" v="186467"/>
  </node>
  <node id="-610" visible="true" lat="44.32318739991" lon="-72.179093587419">
    <tag k="addr:city" v="Peacham"/>
    <tag k="addr:housenumber" v="320"/>
    <tag k="addr:street" v="Academy Hill"/>
    <tag k="addr:state" v="VT"/>
    <tag k="ref:vcgi:esiteid" v="186469"/>
  </node>
  <node id="-631" visible="true" lat="44.355279231567" lon="-72.185145437921">
    <tag k="addr:city" v="Peacham"/>
    <tag k="addr:housenumber" v="101"/>
    <tag k="addr:street" v="Gracie Drive"/>
    <tag k="addr:state" v="VT"/>
    <tag k="ref:vcgi:esiteid" v="305493"/>
  </node>
  <node id="-639" visible="true" lat="44.288531926599" lon="-72.20480159833">
    <tag k="addr:city" v="Peacham"/>
    <tag k="addr:housenumber" v="683"/>
    <tag k="addr:street" v="Green Bay Loop"/>
    <tag k="addr:state" v="VT"/>
    <tag k="ref:vcgi:esiteid" v="307027"/>
  </node>
  <node id="-640" visible="true" lat="44.335494233279" lon="-72.216362461336">
    <tag k="addr:city" v="Peacham"/>
    <tag k="addr:housenumber" v="201"/>
    <tag k="addr:street" v="Foster Pond Road"/>
    <tag k="addr:state" v="VT"/>
    <tag k="ref:vcgi:esiteid" v="307671"/>
  </node>
  <node id="-641" visible="true" lat="44.3353573983" lon="-72.217994175055">
    <tag k="addr:city" v="Peacham"/>
    <tag k="addr:housenumber" v="200"/>
    <tag k="addr:street" v="Foster Pond Road"/>
    <tag k="addr:state" v="VT"/>
    <tag k="ref:vcgi:esiteid" v="307672"/>
  </node>
  <node id="-647" visible="true" lat="44.325099973004" lon="-72.165820859614">
    <tag k="addr:city" v="Peacham"/>
    <tag k="addr:housenumber" v="338"/>
    <tag k="addr:street" v="Bayley-Hazen Road"/>
    <tag k="addr:state" v="VT"/>
    <tag k="ref:vcgi:esiteid" v="332012"/>
  </node>
  <node id="-653" visible="true" lat="44.292901354327" lon="-72.191167073683">
    <tag k="addr:city" v="Peacham"/>
    <tag k="addr:housenumber" v="2150"/>
    <tag k="addr:street" v="County Road"/>
    <tag k="addr:state" v="VT"/>
    <tag k="ref:vcgi:esiteid" v="337048"/>
  </node>
  <node id="-655" visible="true" lat="44.333525714704" lon="-72.165335877377">
    <tag k="addr:city" v="Peacham"/>
    <tag k="addr:housenumber" v="403"/>
    <tag k="addr:street" v="Old Cemetery Road"/>
    <tag k="addr:state" v="VT"/>
    <tag k="ref:vcgi:esiteid" v="340845"/>
  </node>
  <node id="-658" visible="true" lat="44.28905398111" lon="-72.207753008471">
    <tag k="addr:city" v="Peacham"/>
    <tag k="addr:housenumber" v="685"/>
    <tag k="addr:street" v="Green Bay Loop"/>
    <tag k="addr:state" v="VT"/>
    <tag k="ref:vcgi:esiteid" v="341301"/>
  </node>
  <node id="-674" visible="true" lat="44.340430862058" lon="-72.176185362261">
    <tag k="addr:city" v="Peacham"/>
    <tag k="addr:housenumber" v="43"/>
    <tag k="addr:street" v="Slack Street"/>
    <tag k="addr:state" v="VT"/>
    <tag k="ref:vcgi:esiteid" v="446340"/>
  </node>
  <node id="-678" visible="true" lat="44.359315985755" lon="-72.189820494976">
    <tag k="addr:city" v="Peacham"/>
    <tag k="addr:housenumber" v="1714"/>
    <tag k="addr:street" v="Slack Street"/>
    <tag k="addr:state" v="VT"/>
    <tag k="ref:vcgi:esiteid" v="446571"/>
  </node>
  <node id="-681" visible="true" lat="44.326609996533" lon="-72.171808514113">
    <tag k="addr:city" v="Peacham"/>
    <tag k="addr:housenumber" v="145"/>
    <tag k="addr:street" v="Church Street"/>
    <tag k="addr:state" v="VT"/>
    <tag k="ref:vcgi:esiteid" v="451313"/>
  </node>
  <node id="-714" visible="true" lat="44.32286173499" lon="-72.151036608348">
    <tag k="addr:city" v="Peacham"/>
    <tag k="addr:housenumber" v="166"/>
    <tag k="addr:street" v="Brick Kiln Road"/>
    <tag k="addr:state" v="VT"/>
    <tag k="ref:vcgi:esiteid" v="758695"/>
  </node>
</osm>
