<?xml version="1.0" encoding="UTF-8"?>
<osm version="0.6" generator="JOSM" upload="false">
  <node id="-701" visible="true" lat="44.238993991053" lon="-72.474262427433">
    <!-- duplicates-in-different-towns: "1102 Clark Road, East Montpelier, VT"  ignoring town mismatch for duplicate housenumber/street when matching to esiteid 656352: "1102 Clark Road, , VT" -->
    <tag k="addr:city" v="East Montpelier"/>
    <tag k="addr:housenumber" v="1102"/>
    <tag k="addr:street" v="Clark Road"/>
    <tag k="addr:state" v="VT"/>
    <tag k="ref:vcgi:esiteid" v="656351"/>
  </node>
  <node id="-706" visible="true" lat="44.277834502409" lon="-72.418057157003">
    <!-- duplicates-in-different-towns: "391 Main Street, Plainfield, VT"  ignoring town mismatch for duplicate housenumber/street when matching to esiteid 153240: "391 Main Street, Marshfield, VT" -->
    <tag k="addr:city" v="Plainfield"/>
    <tag k="addr:housenumber" v="391"/>
    <tag k="addr:street" v="Main Street"/>
    <tag k="addr:state" v="VT"/>
    <tag k="ref:vcgi:esiteid" v="753588"/>
  </node>
  <node id="-707" visible="true" lat="44.277816136308" lon="-72.418033006837">
    <!-- duplicates-in-different-towns: "405 Main Street, Plainfield, VT"  ignoring town mismatch for duplicate housenumber/street when matching to esiteid 153241: "405 Main Street, Marshfield, VT" -->
    <tag k="addr:city" v="Plainfield"/>
    <tag k="addr:housenumber" v="405"/>
    <tag k="addr:street" v="Main Street"/>
    <tag k="addr:state" v="VT"/>
    <tag k="ref:vcgi:esiteid" v="753589"/>
  </node>
  <node id="-713" visible="true" lat="44.284336562531" lon="-72.435429671668">
    <!-- duplicates-in-different-towns: "210 Greatwood Drive, Plainfield, VT"  ignoring town mismatch for duplicate housenumber/street when matching to esiteid 617624: "210 Greatwood Drive, , VT" -->
    <tag k="addr:city" v="Plainfield"/>
    <tag k="addr:housenumber" v="210"/>
    <tag k="addr:street" v="Greatwood Drive"/>
    <tag k="addr:state" v="VT"/>
    <tag k="ref:vcgi:esiteid" v="756867"/>
  </node>
</osm>
