<?xml version="1.0" encoding="UTF-8"?>
<osm version="0.6" generator="JOSM" upload="false">
  <node id="-1523" visible="true" lat="43.472817778143" lon="-73.24302337685">
    <!-- offset: "3100 Vermont Route 31, Poultney, VT" Significant offset - 227.8m -->
    <tag k="addr:city" v="Poultney"/>
    <tag k="addr:housenumber" v="3100"/>
    <tag k="addr:street" v="Vermont Route 31"/>
    <tag k="addr:state" v="VT"/>
    <tag k="ref:vcgi:esiteid" v="192258"/>
  </node>
  <node id="-1694" visible="true" lat="43.47463422" lon="-73.237540908629">
    <!-- offset: "264 Ruby Road, Poultney, VT" Significant offset - 128.4m -->
    <tag k="addr:city" v="Poultney"/>
    <tag k="addr:housenumber" v="264"/>
    <tag k="addr:street" v="Ruby Road"/>
    <tag k="addr:state" v="VT"/>
    <tag k="ref:vcgi:esiteid" v="192433"/>
  </node>
  <node id="-1831" visible="true" lat="43.472604249313" lon="-73.237066548537">
    <!-- offset: "1282 High Road, Poultney, VT" Significant offset - 150.5m -->
    <tag k="addr:city" v="Poultney"/>
    <tag k="addr:housenumber" v="1282"/>
    <tag k="addr:street" v="High Road"/>
    <tag k="addr:state" v="VT"/>
    <tag k="ref:vcgi:esiteid" v="655948"/>
  </node>
</osm>
