<?xml version="1.0" encoding="UTF-8"?>
<osm version="0.6" generator="JOSM" upload="false">
  <node id="-1921" visible="true" lat="42.783553233161" lon="-73.212028655695">
    <!-- duplicates-in-different-towns: "242 Mattison Road, Pownal, VT"  ignoring town mismatch for duplicate housenumber/street when matching to esiteid 761931: "242 Mattison Road, , VT" -->
    <tag k="addr:city" v="Pownal"/>
    <tag k="addr:housenumber" v="242"/>
    <tag k="addr:street" v="Mattison Road"/>
    <tag k="addr:state" v="VT"/>
    <tag k="ref:vcgi:esiteid" v="760433"/>
  </node>
  <node id="-1967" visible="true" lat="42.805607086783" lon="-73.266744675266">
    <!-- duplicates-in-different-towns: "3616 Vermont Route 346, North Pownal, VT"  ignoring town mismatch for duplicate housenumber/street when matching to esiteid 192894: "3616 Vermont Route 346, , VT" -->
    <tag k="addr:city" v="North Pownal"/>
    <tag k="addr:housenumber" v="3616"/>
    <tag k="addr:street" v="Vermont Route 346"/>
    <tag k="addr:state" v="VT"/>
    <tag k="ref:vcgi:esiteid" v="772694"/>
  </node>
  <node id="-1968" visible="true" lat="42.824401166059" lon="-73.164296101856">
    <!-- duplicates-in-different-towns: "256 Harvest Trail, Bennington, VT"  ignoring town mismatch for duplicate housenumber/street when matching to esiteid 772940: "256 Harvest Trail, , VT" -->
    <tag k="addr:city" v="Bennington"/>
    <tag k="addr:housenumber" v="256"/>
    <tag k="addr:street" v="Harvest Trail"/>
    <tag k="addr:state" v="VT"/>
    <tag k="ref:vcgi:esiteid" v="772939"/>
  </node>
</osm>
