<?xml version="1.0" encoding="UTF-8"?>
<osm version="0.6" generator="JOSM" upload="false">
  <node id="-395" visible="true" lat="43.660781352614" lon="-73.035720194079">
    <!-- multiple: "29 Main Street, Proctor, VT" Multiple exact matches in OSM. -->
    <tag k="addr:city" v="Proctor"/>
    <tag k="addr:housenumber" v="29"/>
    <tag k="addr:street" v="Main Street"/>
    <tag k="addr:state" v="VT"/>
    <tag k="ref:vcgi:esiteid" v="194481"/>
  </node>
  <node id="-890" visible="true" lat="43.66327146806" lon="-73.035006359376">
    <!-- multiple: "52 Main Street, Proctor, VT" Multiple exact matches in OSM. -->
    <tag k="addr:city" v="Proctor"/>
    <tag k="addr:housenumber" v="52"/>
    <tag k="addr:street" v="Main Street"/>
    <tag k="addr:state" v="VT"/>
    <tag k="ref:vcgi:esiteid" v="752160"/>
  </node>
</osm>
