<?xml version="1.0" encoding="UTF-8"?>
<osm version="0.6" generator="JOSM" upload="false">
  <node id="-545" visible="true" lat="42.987332284158" lon="-72.554019762874">
    <!-- multiple: "418 Houghton Brook Road, Putney, VT" Multiple exact matches in OSM. -->
    <tag k="addr:city" v="Putney"/>
    <tag k="addr:housenumber" v="418"/>
    <tag k="addr:street" v="Houghton Brook Road"/>
    <tag k="addr:state" v="VT"/>
    <tag k="ref:vcgi:esiteid" v="195363"/>
  </node>
  <node id="-589" visible="true" lat="42.984534810261" lon="-72.528095398421">
    <!-- multiple: "162 Westminster Road, Putney, VT" Multiple exact matches in OSM. -->
    <tag k="addr:city" v="Putney"/>
    <tag k="addr:housenumber" v="162"/>
    <tag k="addr:street" v="Westminster Road"/>
    <tag k="addr:state" v="VT"/>
    <tag k="ref:vcgi:esiteid" v="195407"/>
  </node>
  <node id="-869" visible="true" lat="42.968300850903" lon="-72.5218995313">
    <!-- multiple: "40 Main Street, Putney, VT" Multiple exact matches in OSM. -->
    <tag k="addr:city" v="Putney"/>
    <tag k="addr:housenumber" v="40"/>
    <tag k="addr:street" v="Main Street"/>
    <tag k="addr:state" v="VT"/>
    <tag k="ref:vcgi:esiteid" v="195696"/>
  </node>
</osm>
