<?xml version="1.0" encoding="UTF-8"?>
<osm version="0.6" generator="JOSM" upload="false">
  <node id="-569" visible="true" lat="43.541610986907" lon="-72.567533513884">
    <!-- duplicates-in-different-towns: "649 Noah Wood Road, South Woodstock, VT"  ignoring town mismatch for duplicate housenumber/street when matching to esiteid 341544: "649 Noah Wood Road, , VT" -->
    <tag k="addr:city" v="South Woodstock"/>
    <tag k="addr:housenumber" v="649"/>
    <tag k="addr:street" v="Noah Wood Road"/>
    <tag k="addr:state" v="VT"/>
    <tag k="ref:vcgi:esiteid" v="304206"/>
  </node>
</osm>
