<?xml version="1.0" encoding="UTF-8"?>
<osm version="0.6" generator="JOSM" upload="false">
  <node id="-361" visible="true" lat="42.771904371175" lon="-72.94047643608">
    <!-- multiple: "301 Phelps Lane, Readsboro, VT" Multiple exact matches in OSM. -->
    <tag k="addr:city" v="Readsboro"/>
    <tag k="addr:housenumber" v="301"/>
    <tag k="addr:street" v="Phelps Lane"/>
    <tag k="addr:state" v="VT"/>
    <tag k="ref:vcgi:esiteid" v="198853"/>
  </node>
  <node id="-614" visible="true" lat="42.773526114778" lon="-72.951345337081">
    <!-- multiple: "6828 Main Street, Readsboro, VT" Multiple exact matches in OSM. -->
    <tag k="addr:city" v="Readsboro"/>
    <tag k="addr:housenumber" v="6828"/>
    <tag k="addr:street" v="Main Street"/>
    <tag k="addr:state" v="VT"/>
    <tag k="ref:vcgi:esiteid" v="449776"/>
  </node>
</osm>
