<?xml version="1.0" encoding="UTF-8"?>
<osm version="0.6" generator="JOSM" upload="false">
  <node id="-106" visible="true" lat="43.53757216754" lon="-72.557534421629">
    <tag k="addr:city" v="Reading"/>
    <tag k="addr:housenumber" v="198"/>
    <tag k="addr:street" v="Hodgekinson Road"/>
    <tag k="addr:state" v="VT"/>
    <tag k="ref:vcgi:esiteid" v="198093"/>
  </node>
  <node id="-110" visible="true" lat="43.530881186586" lon="-72.557648862199">
    <tag k="addr:city" v="Reading"/>
    <tag k="addr:housenumber" v="6867"/>
    <tag k="addr:street" v="Vermont Route 106"/>
    <tag k="addr:state" v="VT"/>
    <tag k="ref:vcgi:esiteid" v="198098"/>
  </node>
  <node id="-111" visible="true" lat="43.530606529117" lon="-72.545708856486">
    <tag k="addr:city" v="Reading"/>
    <tag k="addr:housenumber" v="594"/>
    <tag k="addr:street" v="Adventure Quest Drive"/>
    <tag k="addr:state" v="VT"/>
    <tag k="ref:vcgi:esiteid" v="198099"/>
  </node>
  <node id="-112" visible="true" lat="43.530434867455" lon="-72.545312127141">
    <tag k="addr:city" v="Reading"/>
    <tag k="addr:housenumber" v="596"/>
    <tag k="addr:street" v="Adventure Quest Drive"/>
    <tag k="addr:state" v="VT"/>
    <tag k="ref:vcgi:esiteid" v="198100"/>
  </node>
  <node id="-114" visible="true" lat="43.528092642203" lon="-72.55526085995">
    <tag k="addr:city" v="Reading"/>
    <tag k="addr:housenumber" v="1642"/>
    <tag k="addr:street" v="Jenne Road"/>
    <tag k="addr:state" v="VT"/>
    <tag k="ref:vcgi:esiteid" v="198102"/>
  </node>
  <node id="-115" visible="true" lat="43.527192374041" lon="-72.555115901925">
    <tag k="addr:city" v="Reading"/>
    <tag k="addr:housenumber" v="1630"/>
    <tag k="addr:street" v="Jenne Road"/>
    <tag k="addr:state" v="VT"/>
    <tag k="ref:vcgi:esiteid" v="198103"/>
  </node>
  <node id="-116" visible="true" lat="43.526860495379" lon="-72.552415094695">
    <tag k="addr:city" v="Reading"/>
    <tag k="addr:housenumber" v="145"/>
    <tag k="addr:street" v="Adventure Quest Drive"/>
    <tag k="addr:state" v="VT"/>
    <tag k="ref:vcgi:esiteid" v="198104"/>
  </node>
  <node id="-118" visible="true" lat="43.524709004326" lon="-72.559914792614">
    <tag k="addr:city" v="Reading"/>
    <tag k="addr:housenumber" v="1264"/>
    <tag k="addr:street" v="Jenne Road"/>
    <tag k="addr:state" v="VT"/>
    <tag k="ref:vcgi:esiteid" v="198106"/>
  </node>
  <node id="-121" visible="true" lat="43.524033804773" lon="-72.554482660784">
    <tag k="addr:city" v="Reading"/>
    <tag k="addr:housenumber" v="6293"/>
    <tag k="addr:street" v="Vermont Route 106"/>
    <tag k="addr:state" v="VT"/>
    <tag k="ref:vcgi:esiteid" v="198109"/>
  </node>
  <node id="-128" visible="true" lat="43.521500844067" lon="-72.558579647787">
    <tag k="addr:city" v="Reading"/>
    <tag k="addr:housenumber" v="1028"/>
    <tag k="addr:street" v="Jenne Road"/>
    <tag k="addr:state" v="VT"/>
    <tag k="ref:vcgi:esiteid" v="198116"/>
  </node>
  <node id="-131" visible="true" lat="43.521157522845" lon="-72.549462518595">
    <tag k="addr:city" v="Reading"/>
    <tag k="addr:housenumber" v="162"/>
    <tag k="addr:street" v="Caper Hill Road"/>
    <tag k="addr:state" v="VT"/>
    <tag k="ref:vcgi:esiteid" v="198119"/>
  </node>
  <node id="-133" visible="true" lat="43.520467410997" lon="-72.558287035837">
    <tag k="addr:city" v="Reading"/>
    <tag k="addr:housenumber" v="988"/>
    <tag k="addr:street" v="Jenne Road"/>
    <tag k="addr:state" v="VT"/>
    <tag k="ref:vcgi:esiteid" v="198121"/>
  </node>
  <node id="-138" visible="true" lat="43.51820112957" lon="-72.560418332372">
    <tag k="addr:city" v="Reading"/>
    <tag k="addr:housenumber" v="778"/>
    <tag k="addr:street" v="Jenne Road"/>
    <tag k="addr:state" v="VT"/>
    <tag k="ref:vcgi:esiteid" v="198126"/>
  </node>
  <node id="-142" visible="true" lat="43.517075794958" lon="-72.548386771774">
    <tag k="addr:city" v="Reading"/>
    <tag k="addr:housenumber" v="5708"/>
    <tag k="addr:street" v="Vermont Route 106"/>
    <tag k="addr:state" v="VT"/>
    <tag k="ref:vcgi:esiteid" v="198130"/>
  </node>
  <node id="-147" visible="true" lat="43.516240375682" lon="-72.556847774666">
    <tag k="addr:city" v="Reading"/>
    <tag k="addr:housenumber" v="720"/>
    <tag k="addr:street" v="Jenne Road"/>
    <tag k="addr:state" v="VT"/>
    <tag k="ref:vcgi:esiteid" v="198136"/>
  </node>
  <node id="-151" visible="true" lat="43.51434065529" lon="-72.558427059621">
    <tag k="addr:city" v="Reading"/>
    <tag k="addr:housenumber" v="470"/>
    <tag k="addr:street" v="Jenne Road"/>
    <tag k="addr:state" v="VT"/>
    <tag k="ref:vcgi:esiteid" v="198140"/>
  </node>
  <node id="-152" visible="true" lat="43.514205415036" lon="-72.558936118362">
    <tag k="addr:city" v="Reading"/>
    <tag k="addr:housenumber" v="475"/>
    <tag k="addr:street" v="Jenne Road"/>
    <tag k="addr:state" v="VT"/>
    <tag k="ref:vcgi:esiteid" v="198141"/>
  </node>
  <node id="-164" visible="true" lat="43.510941759818" lon="-72.578469484203">
    <tag k="addr:city" v="Reading"/>
    <tag k="addr:housenumber" v="209"/>
    <tag k="addr:street" v="Stone Chimney Road"/>
    <tag k="addr:state" v="VT"/>
    <tag k="ref:vcgi:esiteid" v="198155"/>
  </node>
  <node id="-168" visible="true" lat="43.509991900127" lon="-72.579987735772">
    <tag k="addr:city" v="Reading"/>
    <tag k="addr:housenumber" v="124"/>
    <tag k="addr:street" v="Kittridge Pasture Road"/>
    <tag k="addr:state" v="VT"/>
    <tag k="ref:vcgi:esiteid" v="198159"/>
  </node>
  <node id="-171" visible="true" lat="43.509175555712" lon="-72.553872310126">
    <tag k="addr:city" v="Reading"/>
    <tag k="addr:housenumber" v="14"/>
    <tag k="addr:street" v="Jenne Road"/>
    <tag k="addr:state" v="VT"/>
    <tag k="ref:vcgi:esiteid" v="198162"/>
  </node>
  <node id="-174" visible="true" lat="43.507020251187" lon="-72.572549073467">
    <tag k="addr:city" v="Reading"/>
    <tag k="addr:housenumber" v="1570"/>
    <tag k="addr:street" v="Baileys Mills Road"/>
    <tag k="addr:state" v="VT"/>
    <tag k="ref:vcgi:esiteid" v="198165"/>
  </node>
  <node id="-176" visible="true" lat="43.505635514656" lon="-72.558129511146">
    <tag k="addr:city" v="Reading"/>
    <tag k="addr:housenumber" v="398"/>
    <tag k="addr:street" v="Whitmore Road"/>
    <tag k="addr:state" v="VT"/>
    <tag k="ref:vcgi:esiteid" v="198167"/>
  </node>
  <node id="-177" visible="true" lat="43.505395188692" lon="-72.568986144285">
    <tag k="addr:city" v="Reading"/>
    <tag k="addr:housenumber" v="1388"/>
    <tag k="addr:street" v="Baileys Mills Road"/>
    <tag k="addr:state" v="VT"/>
    <tag k="ref:vcgi:esiteid" v="198168"/>
  </node>
  <node id="-179" visible="true" lat="43.505009904632" lon="-72.586938116903">
    <tag k="addr:city" v="Reading"/>
    <tag k="addr:housenumber" v="1559"/>
    <tag k="addr:street" v="Town Hill Road"/>
    <tag k="addr:state" v="VT"/>
    <tag k="ref:vcgi:esiteid" v="198170"/>
  </node>
  <node id="-180" visible="true" lat="43.504945055193" lon="-72.586320135338">
    <tag k="addr:city" v="Reading"/>
    <tag k="addr:housenumber" v="1565"/>
    <tag k="addr:street" v="Town Hill Road"/>
    <tag k="addr:state" v="VT"/>
    <tag k="ref:vcgi:esiteid" v="198171"/>
  </node>
  <node id="-181" visible="true" lat="43.504449144816" lon="-72.569474425882">
    <tag k="addr:city" v="Reading"/>
    <tag k="addr:housenumber" v="1347"/>
    <tag k="addr:street" v="Baileys Mills Road"/>
    <tag k="addr:state" v="VT"/>
    <tag k="ref:vcgi:esiteid" v="198172"/>
  </node>
  <node id="-183" visible="true" lat="43.504018083328" lon="-72.562928401953">
    <tag k="addr:city" v="Reading"/>
    <tag k="addr:housenumber" v="756"/>
    <tag k="addr:street" v="Whitmore Road"/>
    <tag k="addr:state" v="VT"/>
    <tag k="ref:vcgi:esiteid" v="198174"/>
  </node>
  <node id="-184" visible="true" lat="43.503861680442" lon="-72.566880431166">
    <tag k="addr:city" v="Reading"/>
    <tag k="addr:housenumber" v="1212"/>
    <tag k="addr:street" v="Baileys Mills Road"/>
    <tag k="addr:state" v="VT"/>
    <tag k="ref:vcgi:esiteid" v="198175"/>
  </node>
  <node id="-185" visible="true" lat="43.503247513916" lon="-72.56564446703">
    <tag k="addr:city" v="Reading"/>
    <tag k="addr:housenumber" v="843"/>
    <tag k="addr:street" v="Whitmore Road"/>
    <tag k="addr:state" v="VT"/>
    <tag k="ref:vcgi:esiteid" v="198176"/>
  </node>
  <node id="-186" visible="true" lat="43.502633347739" lon="-72.577798097293">
    <tag k="addr:city" v="Reading"/>
    <tag k="addr:housenumber" v="688"/>
    <tag k="addr:street" v="Town Hill Road"/>
    <tag k="addr:state" v="VT"/>
    <tag k="ref:vcgi:esiteid" v="198177"/>
  </node>
  <node id="-187" visible="true" lat="43.502480760122" lon="-72.588494513068">
    <tag k="addr:city" v="Reading"/>
    <tag k="addr:housenumber" v="1371"/>
    <tag k="addr:street" v="Town Hill Road"/>
    <tag k="addr:state" v="VT"/>
    <tag k="ref:vcgi:esiteid" v="198178"/>
  </node>
  <node id="-188" visible="true" lat="43.502244249148" lon="-72.575631348064">
    <tag k="addr:city" v="Reading"/>
    <tag k="addr:housenumber" v="633"/>
    <tag k="addr:street" v="Town Hill Road"/>
    <tag k="addr:state" v="VT"/>
    <tag k="ref:vcgi:esiteid" v="198179"/>
  </node>
  <node id="-191" visible="true" lat="43.501918210146" lon="-72.581553640216">
    <tag k="addr:city" v="Reading"/>
    <tag k="addr:housenumber" v="886"/>
    <tag k="addr:street" v="Town Hill Road"/>
    <tag k="addr:state" v="VT"/>
    <tag k="ref:vcgi:esiteid" v="198182"/>
  </node>
  <node id="-195" visible="true" lat="43.50111891305" lon="-72.586846563269">
    <tag k="addr:city" v="Reading"/>
    <tag k="addr:housenumber" v="1258"/>
    <tag k="addr:street" v="Town Hill Road"/>
    <tag k="addr:state" v="VT"/>
    <tag k="ref:vcgi:esiteid" v="198186"/>
  </node>
  <node id="-196" visible="true" lat="43.50108839414" lon="-72.583237857445">
    <tag k="addr:city" v="Reading"/>
    <tag k="addr:housenumber" v="982"/>
    <tag k="addr:street" v="Town Hill Road"/>
    <tag k="addr:state" v="VT"/>
    <tag k="ref:vcgi:esiteid" v="198187"/>
  </node>
  <node id="-197" visible="true" lat="43.501054063067" lon="-72.58085748689">
    <tag k="addr:city" v="Reading"/>
    <tag k="addr:housenumber" v="887"/>
    <tag k="addr:street" v="Town Hill Road"/>
    <tag k="addr:state" v="VT"/>
    <tag k="ref:vcgi:esiteid" v="198188"/>
  </node>
  <node id="-199" visible="true" lat="43.500539078248" lon="-72.575501647946">
    <tag k="addr:city" v="Reading"/>
    <tag k="addr:housenumber" v="166"/>
    <tag k="addr:street" v="Reading Center Road"/>
    <tag k="addr:state" v="VT"/>
    <tag k="ref:vcgi:esiteid" v="198190"/>
  </node>
  <node id="-202" visible="true" lat="43.499821915403" lon="-72.586968632738">
    <tag k="addr:city" v="Reading"/>
    <tag k="addr:housenumber" v="1197"/>
    <tag k="addr:street" v="Town Hill Road"/>
    <tag k="addr:state" v="VT"/>
    <tag k="ref:vcgi:esiteid" v="198193"/>
  </node>
  <node id="-208" visible="true" lat="43.497994506443" lon="-72.586009052745">
    <tag k="addr:city" v="Reading"/>
    <tag k="addr:housenumber" v="1849"/>
    <tag k="addr:street" v="North Puckerbrush Road"/>
    <tag k="addr:state" v="VT"/>
    <tag k="ref:vcgi:esiteid" v="198199"/>
  </node>
  <node id="-211" visible="true" lat="43.497651351502" lon="-72.583703251456">
    <tag k="addr:city" v="Reading"/>
    <tag k="addr:housenumber" v="1814"/>
    <tag k="addr:street" v="North Puckerbrush Road"/>
    <tag k="addr:state" v="VT"/>
    <tag k="ref:vcgi:esiteid" v="198202"/>
  </node>
  <node id="-212" visible="true" lat="43.497510208637" lon="-72.583451480956">
    <tag k="addr:city" v="Reading"/>
    <tag k="addr:housenumber" v="1812"/>
    <tag k="addr:street" v="North Puckerbrush Road"/>
    <tag k="addr:state" v="VT"/>
    <tag k="ref:vcgi:esiteid" v="198203"/>
  </node>
  <node id="-220" visible="true" lat="43.493413222135" lon="-72.583451480639">
    <tag k="addr:city" v="Reading"/>
    <tag k="addr:housenumber" v="1702"/>
    <tag k="addr:street" v="North Puckerbrush Road"/>
    <tag k="addr:state" v="VT"/>
    <tag k="ref:vcgi:esiteid" v="198211"/>
  </node>
  <node id="-228" visible="true" lat="43.490269912247" lon="-72.555390557442">
    <tag k="addr:city" v="Reading"/>
    <tag k="addr:housenumber" v="51"/>
    <tag k="addr:street" v="Baileys Mills Road"/>
    <tag k="addr:state" v="VT"/>
    <tag k="ref:vcgi:esiteid" v="198219"/>
  </node>
  <node id="-230" visible="true" lat="43.490205062613" lon="-72.554719170262">
    <tag k="addr:city" v="Reading"/>
    <tag k="addr:housenumber" v="3685"/>
    <tag k="addr:street" v="Vermont Route 106"/>
    <tag k="addr:state" v="VT"/>
    <tag k="ref:vcgi:esiteid" v="198221"/>
  </node>
  <node id="-232" visible="true" lat="43.48958415825" lon="-72.554017254426">
    <tag k="addr:city" v="Reading"/>
    <tag k="addr:housenumber" v="3642"/>
    <tag k="addr:street" v="Vermont Route 106"/>
    <tag k="addr:state" v="VT"/>
    <tag k="ref:vcgi:esiteid" v="198224"/>
  </node>
  <node id="-233" visible="true" lat="43.489518417205" lon="-72.554887017115">
    <tag k="addr:city" v="Reading"/>
    <tag k="addr:housenumber" v="3637"/>
    <tag k="addr:street" v="Vermont Route 106"/>
    <tag k="addr:state" v="VT"/>
    <tag k="ref:vcgi:esiteid" v="198225"/>
  </node>
  <node id="-234" visible="true" lat="43.489297164289" lon="-72.55490990669">
    <tag k="addr:city" v="Reading"/>
    <tag k="addr:housenumber" v="3623"/>
    <tag k="addr:street" v="Vermont Route 106"/>
    <tag k="addr:state" v="VT"/>
    <tag k="ref:vcgi:esiteid" v="198226"/>
  </node>
  <node id="-236" visible="true" lat="43.489079726824" lon="-72.554703911222">
    <tag k="addr:city" v="Reading"/>
    <tag k="addr:housenumber" v="3607"/>
    <tag k="addr:street" v="Vermont Route 106"/>
    <tag k="addr:state" v="VT"/>
    <tag k="ref:vcgi:esiteid" v="198228"/>
  </node>
  <node id="-237" visible="true" lat="43.488591444847" lon="-72.554528436854">
    <tag k="addr:city" v="Reading"/>
    <tag k="addr:housenumber" v="3575"/>
    <tag k="addr:street" v="Vermont Route 106"/>
    <tag k="addr:state" v="VT"/>
    <tag k="ref:vcgi:esiteid" v="198229"/>
  </node>
  <node id="-240" visible="true" lat="43.487576735471" lon="-72.554101188899">
    <tag k="addr:city" v="Reading"/>
    <tag k="addr:housenumber" v="3503"/>
    <tag k="addr:street" v="Vermont Route 106"/>
    <tag k="addr:state" v="VT"/>
    <tag k="ref:vcgi:esiteid" v="198232"/>
  </node>
  <node id="-242" visible="true" lat="43.487393630308" lon="-72.552216728683">
    <tag k="addr:city" v="Reading"/>
    <tag k="addr:housenumber" v="3488"/>
    <tag k="addr:street" v="Vermont Route 106"/>
    <tag k="addr:state" v="VT"/>
    <tag k="ref:vcgi:esiteid" v="198234"/>
  </node>
  <node id="-246" visible="true" lat="43.486897719277" lon="-72.554162224866">
    <tag k="addr:city" v="Reading"/>
    <tag k="addr:housenumber" v="3457"/>
    <tag k="addr:street" v="Vermont Route 106"/>
    <tag k="addr:state" v="VT"/>
    <tag k="ref:vcgi:esiteid" v="198238"/>
  </node>
  <node id="-251" visible="true" lat="43.486192000343" lon="-72.556809624477">
    <tag k="addr:city" v="Reading"/>
    <tag k="addr:housenumber" v="187"/>
    <tag k="addr:street" v="Agony Hill Road"/>
    <tag k="addr:state" v="VT"/>
    <tag k="ref:vcgi:esiteid" v="198243"/>
  </node>
  <node id="-252" visible="true" lat="43.486172926018" lon="-72.556214533381">
    <tag k="addr:city" v="Reading"/>
    <tag k="addr:housenumber" v="174"/>
    <tag k="addr:street" v="Agony Hill Road"/>
    <tag k="addr:state" v="VT"/>
    <tag k="ref:vcgi:esiteid" v="198244"/>
  </node>
  <node id="-253" visible="true" lat="43.486161483132" lon="-72.552483757254">
    <tag k="addr:city" v="Reading"/>
    <tag k="addr:housenumber" v="3402"/>
    <tag k="addr:street" v="Vermont Route 106"/>
    <tag k="addr:state" v="VT"/>
    <tag k="ref:vcgi:esiteid" v="198245"/>
  </node>
  <node id="-254" visible="true" lat="43.485928785123" lon="-72.555314263714">
    <tag k="addr:city" v="Reading"/>
    <tag k="addr:housenumber" v="92"/>
    <tag k="addr:street" v="Agony Hill Road"/>
    <tag k="addr:state" v="VT"/>
    <tag k="ref:vcgi:esiteid" v="198246"/>
  </node>
  <node id="-255" visible="true" lat="43.485871564728" lon="-72.555871209074">
    <tag k="addr:city" v="Reading"/>
    <tag k="addr:housenumber" v="150"/>
    <tag k="addr:street" v="Agony Hill Road"/>
    <tag k="addr:state" v="VT"/>
    <tag k="ref:vcgi:esiteid" v="198247"/>
  </node>
  <node id="-256" visible="true" lat="43.48543668918" lon="-72.554948052226">
    <tag k="addr:city" v="Reading"/>
    <tag k="addr:housenumber" v="87"/>
    <tag k="addr:street" v="Agony Hill Road"/>
    <tag k="addr:state" v="VT"/>
    <tag k="ref:vcgi:esiteid" v="198248"/>
  </node>
  <node id="-258" visible="true" lat="43.484902631749" lon="-72.557069024094">
    <tag k="addr:city" v="Reading"/>
    <tag k="addr:housenumber" v="76"/>
    <tag k="addr:street" v="Keyes Mountain Road"/>
    <tag k="addr:state" v="VT"/>
    <tag k="ref:vcgi:esiteid" v="198250"/>
  </node>
  <node id="-259" visible="true" lat="43.484769117154" lon="-72.551301201127">
    <tag k="addr:city" v="Reading"/>
    <tag k="addr:housenumber" v="3246"/>
    <tag k="addr:street" v="Vermont Route 106"/>
    <tag k="addr:state" v="VT"/>
    <tag k="ref:vcgi:esiteid" v="198251"/>
  </node>
  <node id="-262" visible="true" lat="43.483720076096" lon="-72.551354605641">
    <tag k="addr:city" v="Reading"/>
    <tag k="addr:housenumber" v="3202"/>
    <tag k="addr:street" v="Vermont Route 106"/>
    <tag k="addr:state" v="VT"/>
    <tag k="ref:vcgi:esiteid" v="198254"/>
  </node>
  <node id="-263" visible="true" lat="43.483422529754" lon="-72.551293571765">
    <tag k="addr:city" v="Reading"/>
    <tag k="addr:housenumber" v="3182"/>
    <tag k="addr:street" v="Vermont Route 106"/>
    <tag k="addr:state" v="VT"/>
    <tag k="ref:vcgi:esiteid" v="198255"/>
  </node>
  <node id="-267" visible="true" lat="43.481976758741" lon="-72.550149162111">
    <tag k="addr:city" v="Reading"/>
    <tag k="addr:housenumber" v="3066"/>
    <tag k="addr:street" v="Vermont Route 106"/>
    <tag k="addr:state" v="VT"/>
    <tag k="ref:vcgi:esiteid" v="198259"/>
  </node>
  <node id="-269" visible="true" lat="43.481564771771" lon="-72.549279409588">
    <tag k="addr:city" v="Reading"/>
    <tag k="addr:housenumber" v="3042"/>
    <tag k="addr:street" v="Vermont Route 106"/>
    <tag k="addr:state" v="VT"/>
    <tag k="ref:vcgi:esiteid" v="198261"/>
  </node>
  <node id="-280" visible="true" lat="43.479455243471" lon="-72.545212941597">
    <tag k="addr:city" v="Reading"/>
    <tag k="addr:housenumber" v="2740"/>
    <tag k="addr:street" v="Vermont Route 106"/>
    <tag k="addr:state" v="VT"/>
    <tag k="ref:vcgi:esiteid" v="198273"/>
  </node>
  <node id="-290" visible="true" lat="43.478715191498" lon="-72.542641834803">
    <tag k="addr:city" v="Reading"/>
    <tag k="addr:housenumber" v="2504"/>
    <tag k="addr:street" v="Vermont Route 106"/>
    <tag k="addr:state" v="VT"/>
    <tag k="ref:vcgi:esiteid" v="198284"/>
  </node>
  <node id="-298" visible="true" lat="43.477761517471" lon="-72.545426565628">
    <tag k="addr:city" v="Reading"/>
    <tag k="addr:housenumber" v="2621"/>
    <tag k="addr:street" v="Vermont Route 106"/>
    <tag k="addr:state" v="VT"/>
    <tag k="ref:vcgi:esiteid" v="198293"/>
  </node>
  <node id="-305" visible="true" lat="43.477036724886" lon="-72.541238025234">
    <tag k="addr:city" v="Reading"/>
    <tag k="addr:housenumber" v="2476"/>
    <tag k="addr:street" v="Vermont Route 106"/>
    <tag k="addr:state" v="VT"/>
    <tag k="ref:vcgi:esiteid" v="198301"/>
  </node>
  <node id="-309" visible="true" lat="43.476899395318" lon="-72.544327931549">
    <tag k="addr:city" v="Reading"/>
    <tag k="addr:housenumber" v="320"/>
    <tag k="addr:street" v="Hagen Hill Road"/>
    <tag k="addr:state" v="VT"/>
    <tag k="ref:vcgi:esiteid" v="198305"/>
  </node>
  <node id="-326" visible="true" lat="43.475831280504" lon="-72.541367724769">
    <tag k="addr:city" v="Reading"/>
    <tag k="addr:housenumber" v="206"/>
    <tag k="addr:street" v="Hagen Hill Road"/>
    <tag k="addr:state" v="VT"/>
    <tag k="ref:vcgi:esiteid" v="198324"/>
  </node>
  <node id="-331" visible="true" lat="43.475476514402" lon="-72.538651658968">
    <tag k="addr:city" v="Reading"/>
    <tag k="addr:housenumber" v="2334"/>
    <tag k="addr:street" v="Vermont Route 106"/>
    <tag k="addr:state" v="VT"/>
    <tag k="ref:vcgi:esiteid" v="198329"/>
  </node>
  <node id="-332" visible="true" lat="43.475400219472" lon="-72.531495284644">
    <tag k="addr:city" v="Reading"/>
    <tag k="addr:housenumber" v="194"/>
    <tag k="addr:street" v="Hurricane Hill"/>
    <tag k="addr:state" v="VT"/>
    <tag k="ref:vcgi:esiteid" v="198330"/>
  </node>
  <node id="-334" visible="true" lat="43.475276421708" lon="-72.539465895931">
    <tag k="addr:city" v="Reading"/>
    <tag k="addr:housenumber" v="2327"/>
    <tag k="addr:street" v="Vermont Route 106"/>
    <tag k="addr:state" v="VT"/>
    <tag k="ref:vcgi:esiteid" v="198333"/>
  </node>
  <node id="-344" visible="true" lat="43.474629650778" lon="-72.533578110669">
    <tag k="addr:city" v="Reading"/>
    <tag k="addr:housenumber" v="121"/>
    <tag k="addr:street" v="Hurricane Hill"/>
    <tag k="addr:state" v="VT"/>
    <tag k="ref:vcgi:esiteid" v="198345"/>
  </node>
  <node id="-345" visible="true" lat="43.474618207247" lon="-72.536355211454">
    <tag k="addr:city" v="Reading"/>
    <tag k="addr:housenumber" v="436"/>
    <tag k="addr:street" v="Flat Iron Road"/>
    <tag k="addr:state" v="VT"/>
    <tag k="ref:vcgi:esiteid" v="198346"/>
  </node>
  <node id="-352" visible="true" lat="43.473328839694" lon="-72.535805893827">
    <tag k="addr:city" v="Reading"/>
    <tag k="addr:housenumber" v="2112"/>
    <tag k="addr:street" v="Vermont Route 106"/>
    <tag k="addr:state" v="VT"/>
    <tag k="ref:vcgi:esiteid" v="198355"/>
  </node>
  <node id="-354" visible="true" lat="43.473077069762" lon="-72.533196640275">
    <tag k="addr:city" v="Reading"/>
    <tag k="addr:housenumber" v="14"/>
    <tag k="addr:street" v="Hurricane Hill"/>
    <tag k="addr:state" v="VT"/>
    <tag k="ref:vcgi:esiteid" v="198357"/>
  </node>
  <node id="-356" visible="true" lat="43.472855816799" lon="-72.532296370815">
    <tag k="addr:city" v="Reading"/>
    <tag k="addr:housenumber" v="192"/>
    <tag k="addr:street" v="Flat Iron Road"/>
    <tag k="addr:state" v="VT"/>
    <tag k="ref:vcgi:esiteid" v="198359"/>
  </node>
  <node id="-358" visible="true" lat="43.472501050251" lon="-72.531533431403">
    <tag k="addr:city" v="Reading"/>
    <tag k="addr:housenumber" v="154"/>
    <tag k="addr:street" v="Flat Iron Road"/>
    <tag k="addr:state" v="VT"/>
    <tag k="ref:vcgi:esiteid" v="198361"/>
  </node>
  <node id="-367" visible="true" lat="43.47144437808" lon="-72.534623336675">
    <tag k="addr:city" v="Reading"/>
    <tag k="addr:housenumber" v="1961"/>
    <tag k="addr:street" v="Vermont Route 106"/>
    <tag k="addr:state" v="VT"/>
    <tag k="ref:vcgi:esiteid" v="198371"/>
  </node>
  <node id="-373" visible="true" lat="43.470116863505" lon="-72.533150864243">
    <tag k="addr:city" v="Reading"/>
    <tag k="addr:housenumber" v="1846"/>
    <tag k="addr:street" v="Vermont Route 106"/>
    <tag k="addr:state" v="VT"/>
    <tag k="ref:vcgi:esiteid" v="198379"/>
  </node>
  <node id="-375" visible="true" lat="43.469914684393" lon="-72.532891464604">
    <tag k="addr:city" v="Reading"/>
    <tag k="addr:housenumber" v="37"/>
    <tag k="addr:street" v="Vermont Route 44"/>
    <tag k="addr:state" v="VT"/>
    <tag k="ref:vcgi:esiteid" v="198381"/>
  </node>
  <node id="-385" visible="true" lat="43.468442212117" lon="-72.532395553169">
    <tag k="addr:city" v="Reading"/>
    <tag k="addr:housenumber" v="1724"/>
    <tag k="addr:street" v="Vermont Route 106"/>
    <tag k="addr:state" v="VT"/>
    <tag k="ref:vcgi:esiteid" v="198391"/>
  </node>
  <node id="-418" visible="true" lat="43.463460215087" lon="-72.533967208136">
    <tag k="addr:city" v="Reading"/>
    <tag k="addr:housenumber" v="1390"/>
    <tag k="addr:street" v="Vermont Route 106"/>
    <tag k="addr:state" v="VT"/>
    <tag k="ref:vcgi:esiteid" v="198426"/>
  </node>
  <node id="-427" visible="true" lat="43.462743053166" lon="-72.535790634319">
    <tag k="addr:city" v="Reading"/>
    <tag k="addr:housenumber" v="67"/>
    <tag k="addr:street" v="Benjamin Drive"/>
    <tag k="addr:state" v="VT"/>
    <tag k="ref:vcgi:esiteid" v="198435"/>
  </node>
  <node id="-428" visible="true" lat="43.462743053067" lon="-72.534867477116">
    <tag k="addr:city" v="Reading"/>
    <tag k="addr:housenumber" v="1324"/>
    <tag k="addr:street" v="Vermont Route 106"/>
    <tag k="addr:state" v="VT"/>
    <tag k="ref:vcgi:esiteid" v="198436"/>
  </node>
  <node id="-430" visible="true" lat="43.46171308417" lon="-72.536492540098">
    <tag k="addr:city" v="Reading"/>
    <tag k="addr:housenumber" v="1275"/>
    <tag k="addr:street" v="Vermont Route 106"/>
    <tag k="addr:state" v="VT"/>
    <tag k="ref:vcgi:esiteid" v="198438"/>
  </node>
  <node id="-435" visible="true" lat="43.460458048847" lon="-72.536935044018">
    <tag k="addr:city" v="Reading"/>
    <tag k="addr:housenumber" v="1135"/>
    <tag k="addr:street" v="Vermont Route 106"/>
    <tag k="addr:state" v="VT"/>
    <tag k="ref:vcgi:esiteid" v="198443"/>
  </node>
  <node id="-437" visible="true" lat="43.460294016116" lon="-72.536454391088">
    <tag k="addr:city" v="Reading"/>
    <tag k="addr:housenumber" v="1134"/>
    <tag k="addr:street" v="Vermont Route 106"/>
    <tag k="addr:state" v="VT"/>
    <tag k="ref:vcgi:esiteid" v="198446"/>
  </node>
  <node id="-440" visible="true" lat="43.459927805097" lon="-72.537514879382">
    <tag k="addr:city" v="Reading"/>
    <tag k="addr:housenumber" v="1103"/>
    <tag k="addr:street" v="Vermont Route 106"/>
    <tag k="addr:state" v="VT"/>
    <tag k="ref:vcgi:esiteid" v="198450"/>
  </node>
  <node id="-443" visible="true" lat="43.459215471772" lon="-72.537490176688">
    <tag k="addr:city" v="Reading"/>
    <tag k="addr:housenumber" v="981"/>
    <tag k="addr:street" v="Vermont Route 106"/>
    <tag k="addr:state" v="VT"/>
    <tag k="ref:vcgi:esiteid" v="198453"/>
  </node>
  <node id="-445" visible="true" lat="43.458409554356" lon="-72.53749198938">
    <tag k="addr:city" v="Reading"/>
    <tag k="addr:housenumber" v="975"/>
    <tag k="addr:street" v="Vermont Route 106"/>
    <tag k="addr:state" v="VT"/>
    <tag k="ref:vcgi:esiteid" v="198455"/>
  </node>
  <node id="-447" visible="true" lat="43.458096750285" lon="-72.537224960753">
    <tag k="addr:city" v="Reading"/>
    <tag k="addr:housenumber" v="973"/>
    <tag k="addr:street" v="Vermont Route 106"/>
    <tag k="addr:state" v="VT"/>
    <tag k="ref:vcgi:esiteid" v="198457"/>
  </node>
  <node id="-448" visible="true" lat="43.457947976915" lon="-72.534989548062">
    <tag k="addr:city" v="Reading"/>
    <tag k="addr:housenumber" v="970"/>
    <tag k="addr:street" v="Vermont Route 106"/>
    <tag k="addr:state" v="VT"/>
    <tag k="ref:vcgi:esiteid" v="198458"/>
  </node>
  <node id="-450" visible="true" lat="43.457696205944" lon="-72.536767197411">
    <tag k="addr:city" v="Reading"/>
    <tag k="addr:housenumber" v="946"/>
    <tag k="addr:street" v="Vermont Route 106"/>
    <tag k="addr:state" v="VT"/>
    <tag k="ref:vcgi:esiteid" v="198460"/>
  </node>
  <node id="-453" visible="true" lat="43.457272776215" lon="-72.536835861457">
    <tag k="addr:city" v="Reading"/>
    <tag k="addr:housenumber" v="916"/>
    <tag k="addr:street" v="Vermont Route 106"/>
    <tag k="addr:state" v="VT"/>
    <tag k="ref:vcgi:esiteid" v="198463"/>
  </node>
  <node id="-454" visible="true" lat="43.457055336953" lon="-72.540620042298">
    <tag k="addr:city" v="Reading"/>
    <tag k="addr:housenumber" v="138"/>
    <tag k="addr:street" v="Tyson Road"/>
    <tag k="addr:state" v="VT"/>
    <tag k="ref:vcgi:esiteid" v="198464"/>
  </node>
  <node id="-455" visible="true" lat="43.457345384943" lon="-72.537319960495">
    <tag k="addr:city" v="Reading"/>
    <tag k="addr:housenumber" v="899"/>
    <tag k="addr:street" v="Vermont Route 106"/>
    <tag k="addr:state" v="VT"/>
    <tag k="ref:vcgi:esiteid" v="198465"/>
  </node>
  <node id="-456" visible="true" lat="43.457067144861" lon="-72.537223938644">
    <tag k="addr:city" v="Reading"/>
    <tag k="addr:housenumber" v="893"/>
    <tag k="addr:street" v="Vermont Route 106"/>
    <tag k="addr:state" v="VT"/>
    <tag k="ref:vcgi:esiteid" v="198466"/>
  </node>
  <node id="-457" visible="true" lat="43.456788307983" lon="-72.536896897048">
    <tag k="addr:city" v="Reading"/>
    <tag k="addr:housenumber" v="882"/>
    <tag k="addr:street" v="Vermont Route 106"/>
    <tag k="addr:state" v="VT"/>
    <tag k="ref:vcgi:esiteid" v="198467"/>
  </node>
  <node id="-459" visible="true" lat="43.456662424317" lon="-72.536874009881">
    <tag k="addr:city" v="Reading"/>
    <tag k="addr:housenumber" v="874"/>
    <tag k="addr:street" v="Vermont Route 106"/>
    <tag k="addr:state" v="VT"/>
    <tag k="ref:vcgi:esiteid" v="198469"/>
  </node>
  <node id="-460" visible="true" lat="43.456572958837" lon="-72.536849011028">
    <tag k="addr:city" v="Reading"/>
    <tag k="addr:housenumber" v="868"/>
    <tag k="addr:street" v="Vermont Route 106"/>
    <tag k="addr:state" v="VT"/>
    <tag k="ref:vcgi:esiteid" v="198470"/>
  </node>
  <node id="-461" visible="true" lat="43.456364878259" lon="-72.536912156306">
    <tag k="addr:city" v="Reading"/>
    <tag k="addr:housenumber" v="852"/>
    <tag k="addr:street" v="Vermont Route 106"/>
    <tag k="addr:state" v="VT"/>
    <tag k="ref:vcgi:esiteid" v="198471"/>
  </node>
  <node id="-463" visible="true" lat="43.456300028531" lon="-72.540391161234">
    <tag k="addr:city" v="Reading"/>
    <tag k="addr:housenumber" v="136"/>
    <tag k="addr:street" v="Tyson Road"/>
    <tag k="addr:state" v="VT"/>
    <tag k="ref:vcgi:esiteid" v="198473"/>
  </node>
  <node id="-465" visible="true" lat="43.456113108027" lon="-72.536889268108">
    <tag k="addr:city" v="Reading"/>
    <tag k="addr:housenumber" v="836"/>
    <tag k="addr:street" v="Vermont Route 106"/>
    <tag k="addr:state" v="VT"/>
    <tag k="ref:vcgi:esiteid" v="198475"/>
  </node>
  <node id="-466" visible="true" lat="43.456090218493" lon="-72.539033127165">
    <tag k="addr:city" v="Reading"/>
    <tag k="addr:housenumber" v="98"/>
    <tag k="addr:street" v="Tyson Road"/>
    <tag k="addr:state" v="VT"/>
    <tag k="ref:vcgi:esiteid" v="198476"/>
  </node>
  <node id="-467" visible="true" lat="43.456086404099" lon="-72.537270738315">
    <tag k="addr:city" v="Reading"/>
    <tag k="addr:housenumber" v="833"/>
    <tag k="addr:street" v="Vermont Route 106"/>
    <tag k="addr:state" v="VT"/>
    <tag k="ref:vcgi:esiteid" v="198477"/>
  </node>
  <node id="-468" visible="true" lat="43.4560597013" lon="-72.538445665431">
    <tag k="addr:city" v="Reading"/>
    <tag k="addr:housenumber" v="66"/>
    <tag k="addr:street" v="Tyson Road"/>
    <tag k="addr:state" v="VT"/>
    <tag k="ref:vcgi:esiteid" v="198478"/>
  </node>
  <node id="-469" visible="true" lat="43.456052071683" lon="-72.538819505877">
    <tag k="addr:city" v="Reading"/>
    <tag k="addr:housenumber" v="88"/>
    <tag k="addr:street" v="Tyson Road"/>
    <tag k="addr:state" v="VT"/>
    <tag k="ref:vcgi:esiteid" v="198479"/>
  </node>
  <node id="-470" visible="true" lat="43.456036812785" lon="-72.538178636834">
    <tag k="addr:city" v="Reading"/>
    <tag k="addr:housenumber" v="54"/>
    <tag k="addr:street" v="Tyson Road"/>
    <tag k="addr:state" v="VT"/>
    <tag k="ref:vcgi:esiteid" v="198480"/>
  </node>
  <node id="-471" visible="true" lat="43.456002480291" lon="-72.540620041791">
    <tag k="addr:city" v="Reading"/>
    <tag k="addr:housenumber" v="140"/>
    <tag k="addr:street" v="Tyson Road"/>
    <tag k="addr:state" v="VT"/>
    <tag k="ref:vcgi:esiteid" v="198481"/>
  </node>
  <node id="-472" visible="true" lat="43.455979593002" lon="-72.537850571951">
    <tag k="addr:city" v="Reading"/>
    <tag k="addr:housenumber" v="36"/>
    <tag k="addr:street" v="Tyson Road"/>
    <tag k="addr:state" v="VT"/>
    <tag k="ref:vcgi:esiteid" v="198482"/>
  </node>
  <node id="-473" visible="true" lat="43.455971963019" lon="-72.53678245635">
    <tag k="addr:city" v="Reading"/>
    <tag k="addr:housenumber" v="826"/>
    <tag k="addr:street" v="Vermont Route 106"/>
    <tag k="addr:state" v="VT"/>
    <tag k="ref:vcgi:esiteid" v="198483"/>
  </node>
  <node id="-474" visible="true" lat="43.455907113727" lon="-72.537423325613">
    <tag k="addr:city" v="Reading"/>
    <tag k="addr:housenumber" v="821"/>
    <tag k="addr:street" v="Vermont Route 106"/>
    <tag k="addr:state" v="VT"/>
    <tag k="ref:vcgi:esiteid" v="198484"/>
  </node>
  <node id="-475" visible="true" lat="43.455811746824" lon="-72.539918138717">
    <tag k="addr:city" v="Reading"/>
    <tag k="addr:housenumber" v="141"/>
    <tag k="addr:street" v="Tyson Road"/>
    <tag k="addr:state" v="VT"/>
    <tag k="ref:vcgi:esiteid" v="198486"/>
  </node>
  <node id="-476" visible="true" lat="43.455807930393" lon="-72.539513780674">
    <tag k="addr:city" v="Reading"/>
    <tag k="addr:housenumber" v="119"/>
    <tag k="addr:street" v="Tyson Road"/>
    <tag k="addr:state" v="VT"/>
    <tag k="ref:vcgi:esiteid" v="198487"/>
  </node>
  <node id="-478" visible="true" lat="43.455758339847" lon="-72.536858749518">
    <tag k="addr:city" v="Reading"/>
    <tag k="addr:housenumber" v="812"/>
    <tag k="addr:street" v="Vermont Route 106"/>
    <tag k="addr:state" v="VT"/>
    <tag k="ref:vcgi:esiteid" v="198489"/>
  </node>
  <node id="-479" visible="true" lat="43.455695578095" lon="-72.538771618575">
    <tag k="addr:city" v="Reading"/>
    <tag k="addr:housenumber" v="81"/>
    <tag k="addr:street" v="Tyson Road"/>
    <tag k="addr:state" v="VT"/>
    <tag k="ref:vcgi:esiteid" v="198490"/>
  </node>
  <node id="-480" visible="true" lat="43.455674417133" lon="-72.538270187306">
    <tag k="addr:city" v="Reading"/>
    <tag k="addr:housenumber" v="57"/>
    <tag k="addr:street" v="Tyson Road"/>
    <tag k="addr:state" v="VT"/>
    <tag k="ref:vcgi:esiteid" v="198491"/>
  </node>
  <node id="-481" visible="true" lat="43.455631445149" lon="-72.537352490953">
    <tag k="addr:city" v="Reading"/>
    <tag k="addr:housenumber" v="799"/>
    <tag k="addr:street" v="Vermont Route 106"/>
    <tag k="addr:state" v="VT"/>
    <tag k="ref:vcgi:esiteid" v="198493"/>
  </node>
  <node id="-482" visible="true" lat="43.455324535777" lon="-72.536287589324">
    <tag k="addr:city" v="Reading"/>
    <tag k="addr:housenumber" v="782"/>
    <tag k="addr:street" v="Vermont Route 106"/>
    <tag k="addr:state" v="VT"/>
    <tag k="ref:vcgi:esiteid" v="198495"/>
  </node>
  <node id="-483" visible="true" lat="43.45549671924" lon="-72.536915381919">
    <tag k="addr:city" v="Reading"/>
    <tag k="addr:housenumber" v="786"/>
    <tag k="addr:street" v="Vermont Route 106"/>
    <tag k="addr:state" v="VT"/>
    <tag k="ref:vcgi:esiteid" v="198496"/>
  </node>
  <node id="-484" visible="true" lat="43.455380685568" lon="-72.542412950285">
    <tag k="addr:city" v="Reading"/>
    <tag k="addr:housenumber" v="253"/>
    <tag k="addr:street" v="Tyson Road"/>
    <tag k="addr:state" v="VT"/>
    <tag k="ref:vcgi:esiteid" v="198497"/>
  </node>
  <node id="-485" visible="true" lat="43.455353981814" lon="-72.537408067271">
    <tag k="addr:city" v="Reading"/>
    <tag k="addr:housenumber" v="781"/>
    <tag k="addr:street" v="Vermont Route 106"/>
    <tag k="addr:state" v="VT"/>
    <tag k="ref:vcgi:esiteid" v="198498"/>
  </node>
  <node id="-486" visible="true" lat="43.455231911159" lon="-72.53698081912">
    <tag k="addr:city" v="Reading"/>
    <tag k="addr:housenumber" v="776"/>
    <tag k="addr:street" v="Vermont Route 106"/>
    <tag k="addr:state" v="VT"/>
    <tag k="ref:vcgi:esiteid" v="198499"/>
  </node>
  <node id="-487" visible="true" lat="43.455209023227" lon="-72.537423326306">
    <tag k="addr:city" v="Reading"/>
    <tag k="addr:housenumber" v="771"/>
    <tag k="addr:street" v="Vermont Route 106"/>
    <tag k="addr:state" v="VT"/>
    <tag k="ref:vcgi:esiteid" v="198500"/>
  </node>
  <node id="-488" visible="true" lat="43.455098398061" lon="-72.539033127978">
    <tag k="addr:city" v="Reading"/>
    <tag k="addr:housenumber" v="189"/>
    <tag k="addr:street" v="Niagara Street"/>
    <tag k="addr:state" v="VT"/>
    <tag k="ref:vcgi:esiteid" v="198501"/>
  </node>
  <node id="-489" visible="true" lat="43.4550983982" lon="-72.537430954507">
    <tag k="addr:city" v="Reading"/>
    <tag k="addr:housenumber" v="763"/>
    <tag k="addr:street" v="Vermont Route 106"/>
    <tag k="addr:state" v="VT"/>
    <tag k="ref:vcgi:esiteid" v="198502"/>
  </node>
  <node id="-490" visible="true" lat="43.454980141346" lon="-72.537446213838">
    <tag k="addr:city" v="Reading"/>
    <tag k="addr:housenumber" v="10"/>
    <tag k="addr:street" v="Mill Street"/>
    <tag k="addr:state" v="VT"/>
    <tag k="ref:vcgi:esiteid" v="198504"/>
  </node>
  <node id="-491" visible="true" lat="43.454930550119" lon="-72.536866380509">
    <tag k="addr:city" v="Reading"/>
    <tag k="addr:housenumber" v="756"/>
    <tag k="addr:street" v="Vermont Route 106"/>
    <tag k="addr:state" v="VT"/>
    <tag k="ref:vcgi:esiteid" v="198505"/>
  </node>
  <node id="-492" visible="true" lat="43.454892403824" lon="-72.538560106208">
    <tag k="addr:city" v="Reading"/>
    <tag k="addr:housenumber" v="170"/>
    <tag k="addr:street" v="Niagara Street"/>
    <tag k="addr:state" v="VT"/>
    <tag k="ref:vcgi:esiteid" v="198506"/>
  </node>
  <node id="-493" visible="true" lat="43.454785591338" lon="-72.537049484693">
    <tag k="addr:city" v="Reading"/>
    <tag k="addr:housenumber" v="742"/>
    <tag k="addr:street" v="Vermont Route 106"/>
    <tag k="addr:state" v="VT"/>
    <tag k="ref:vcgi:esiteid" v="198507"/>
  </node>
  <node id="-494" visible="true" lat="43.454777962064" lon="-72.537644578934">
    <tag k="addr:city" v="Reading"/>
    <tag k="addr:housenumber" v="19"/>
    <tag k="addr:street" v="Mill Street"/>
    <tag k="addr:state" v="VT"/>
    <tag k="ref:vcgi:esiteid" v="198508"/>
  </node>
  <node id="-495" visible="true" lat="43.454762703946" lon="-72.538148117225">
    <tag k="addr:city" v="Reading"/>
    <tag k="addr:housenumber" v="43"/>
    <tag k="addr:street" v="Mill Street"/>
    <tag k="addr:state" v="VT"/>
    <tag k="ref:vcgi:esiteid" v="198509"/>
  </node>
  <node id="-496" visible="true" lat="43.454755074597" lon="-72.536233140599">
    <tag k="addr:city" v="Reading"/>
    <tag k="addr:housenumber" v="752"/>
    <tag k="addr:street" v="Vermont Route 106"/>
    <tag k="addr:state" v="VT"/>
    <tag k="ref:vcgi:esiteid" v="198510"/>
  </node>
  <node id="-497" visible="true" lat="43.454617745178" lon="-72.537713242705">
    <tag k="addr:city" v="Reading"/>
    <tag k="addr:housenumber" v="729"/>
    <tag k="addr:street" v="Vermont Route 106"/>
    <tag k="addr:state" v="VT"/>
    <tag k="ref:vcgi:esiteid" v="198511"/>
  </node>
  <node id="-498" visible="true" lat="43.454545266642" lon="-72.537049484998">
    <tag k="addr:city" v="Reading"/>
    <tag k="addr:housenumber" v="726"/>
    <tag k="addr:street" v="Vermont Route 106"/>
    <tag k="addr:state" v="VT"/>
    <tag k="ref:vcgi:esiteid" v="198512"/>
  </node>
  <node id="-499" visible="true" lat="43.454457528209" lon="-72.538537216538">
    <tag k="addr:city" v="Reading"/>
    <tag k="addr:housenumber" v="140"/>
    <tag k="addr:street" v="Niagara Street"/>
    <tag k="addr:state" v="VT"/>
    <tag k="ref:vcgi:esiteid" v="198513"/>
  </node>
  <node id="-500" visible="true" lat="43.45445371282" lon="-72.537675096439">
    <tag k="addr:city" v="Reading"/>
    <tag k="addr:housenumber" v="717"/>
    <tag k="addr:street" v="Vermont Route 106"/>
    <tag k="addr:state" v="VT"/>
    <tag k="ref:vcgi:esiteid" v="198514"/>
  </node>
  <node id="-501" visible="true" lat="43.454316383681" lon="-72.537064744086">
    <tag k="addr:city" v="Reading"/>
    <tag k="addr:housenumber" v="712"/>
    <tag k="addr:street" v="Vermont Route 106"/>
    <tag k="addr:state" v="VT"/>
    <tag k="ref:vcgi:esiteid" v="198515"/>
  </node>
  <node id="-502" visible="true" lat="43.454159982817" lon="-72.537675095707">
    <tag k="addr:city" v="Reading"/>
    <tag k="addr:housenumber" v="697"/>
    <tag k="addr:street" v="Vermont Route 106"/>
    <tag k="addr:state" v="VT"/>
    <tag k="ref:vcgi:esiteid" v="198516"/>
  </node>
  <node id="-503" visible="true" lat="43.454022651877" lon="-72.537697983169">
    <tag k="addr:city" v="Reading"/>
    <tag k="addr:housenumber" v="687"/>
    <tag k="addr:street" v="Vermont Route 106"/>
    <tag k="addr:state" v="VT"/>
    <tag k="ref:vcgi:esiteid" v="198517"/>
  </node>
  <node id="-504" visible="true" lat="43.454018837885" lon="-72.53711814848">
    <tag k="addr:city" v="Reading"/>
    <tag k="addr:housenumber" v="690"/>
    <tag k="addr:street" v="Vermont Route 106"/>
    <tag k="addr:state" v="VT"/>
    <tag k="ref:vcgi:esiteid" v="198518"/>
  </node>
  <node id="-506" visible="true" lat="43.453873879747" lon="-72.537148666973">
    <tag k="addr:city" v="Reading"/>
    <tag k="addr:housenumber" v="680"/>
    <tag k="addr:street" v="Vermont Route 106"/>
    <tag k="addr:state" v="VT"/>
    <tag k="ref:vcgi:esiteid" v="198520"/>
  </node>
  <node id="-507" visible="true" lat="43.45387388014" lon="-72.537667466455">
    <tag k="addr:city" v="Reading"/>
    <tag k="addr:housenumber" v="677"/>
    <tag k="addr:street" v="Vermont Route 106"/>
    <tag k="addr:state" v="VT"/>
    <tag k="ref:vcgi:esiteid" v="198521"/>
  </node>
  <node id="-509" visible="true" lat="43.453725105592" lon="-72.537163926393">
    <tag k="addr:city" v="Reading"/>
    <tag k="addr:housenumber" v="670"/>
    <tag k="addr:street" v="Vermont Route 106"/>
    <tag k="addr:state" v="VT"/>
    <tag k="ref:vcgi:esiteid" v="198523"/>
  </node>
  <node id="-511" visible="true" lat="43.453683143711" lon="-72.537682724492">
    <tag k="addr:city" v="Reading"/>
    <tag k="addr:housenumber" v="665"/>
    <tag k="addr:street" v="Vermont Route 106"/>
    <tag k="addr:state" v="VT"/>
    <tag k="ref:vcgi:esiteid" v="198525"/>
  </node>
  <node id="-512" visible="true" lat="43.453503852786" lon="-72.537209701354">
    <tag k="addr:city" v="Reading"/>
    <tag k="addr:housenumber" v="656"/>
    <tag k="addr:street" v="Vermont Route 106"/>
    <tag k="addr:state" v="VT"/>
    <tag k="ref:vcgi:esiteid" v="198526"/>
  </node>
  <node id="-513" visible="true" lat="43.453408485745" lon="-72.537705612921">
    <tag k="addr:city" v="Reading"/>
    <tag k="addr:housenumber" v="645"/>
    <tag k="addr:street" v="Vermont Route 106"/>
    <tag k="addr:state" v="VT"/>
    <tag k="ref:vcgi:esiteid" v="198527"/>
  </node>
  <node id="-514" visible="true" lat="43.45320249299" lon="-72.537781908081">
    <tag k="addr:city" v="Reading"/>
    <tag k="addr:housenumber" v="631"/>
    <tag k="addr:street" v="Vermont Route 106"/>
    <tag k="addr:state" v="VT"/>
    <tag k="ref:vcgi:esiteid" v="198528"/>
  </node>
  <node id="-515" visible="true" lat="43.453133875877" lon="-72.53651000964">
    <tag k="addr:city" v="Reading"/>
    <tag k="addr:housenumber" v="632"/>
    <tag k="addr:street" v="Vermont Route 106"/>
    <tag k="addr:state" v="VT"/>
    <tag k="ref:vcgi:esiteid" v="198529"/>
  </node>
  <node id="-516" visible="true" lat="43.453004128502" lon="-72.537285996999">
    <tag k="addr:city" v="Reading"/>
    <tag k="addr:housenumber" v="620"/>
    <tag k="addr:street" v="Vermont Route 106"/>
    <tag k="addr:state" v="VT"/>
    <tag k="ref:vcgi:esiteid" v="198530"/>
  </node>
  <node id="-517" visible="true" lat="43.452836282094" lon="-72.53730888468">
    <tag k="addr:city" v="Reading"/>
    <tag k="addr:housenumber" v="608"/>
    <tag k="addr:street" v="Vermont Route 106"/>
    <tag k="addr:state" v="VT"/>
    <tag k="ref:vcgi:esiteid" v="198531"/>
  </node>
  <node id="-518" visible="true" lat="43.452362385919" lon="-72.538073868138">
    <tag k="addr:city" v="Reading"/>
    <tag k="addr:housenumber" v="583"/>
    <tag k="addr:street" v="Vermont Route 106"/>
    <tag k="addr:state" v="VT"/>
    <tag k="ref:vcgi:esiteid" v="198532"/>
  </node>
  <node id="-519" visible="true" lat="43.452035195421" lon="-72.537888717074">
    <tag k="addr:city" v="Reading"/>
    <tag k="addr:housenumber" v="551"/>
    <tag k="addr:street" v="Vermont Route 106"/>
    <tag k="addr:state" v="VT"/>
    <tag k="ref:vcgi:esiteid" v="198533"/>
  </node>
  <node id="-520" visible="true" lat="43.452019870613" lon="-72.537337309936">
    <tag k="addr:city" v="Reading"/>
    <tag k="addr:housenumber" v="544"/>
    <tag k="addr:street" v="Vermont Route 106"/>
    <tag k="addr:state" v="VT"/>
    <tag k="ref:vcgi:esiteid" v="198534"/>
  </node>
  <node id="-537" visible="true" lat="43.472287092711" lon="-72.530821932655">
    <tag k="addr:city" v="Reading"/>
    <tag k="addr:housenumber" v="21"/>
    <tag k="addr:street" v="Gibson Drive"/>
    <tag k="addr:state" v="VT"/>
    <tag k="ref:vcgi:esiteid" v="198551"/>
  </node>
  <node id="-539" visible="true" lat="43.520032872696" lon="-72.562265547658">
    <tag k="addr:city" v="Reading"/>
    <tag k="addr:housenumber" v="773"/>
    <tag k="addr:street" v="Jenne Road"/>
    <tag k="addr:state" v="VT"/>
    <tag k="ref:vcgi:esiteid" v="198553"/>
  </node>
  <node id="-551" visible="true" lat="43.481185412221" lon="-72.544293437945">
    <tag k="addr:city" v="Reading"/>
    <tag k="addr:housenumber" v="2714"/>
    <tag k="addr:street" v="Vermont Route 106"/>
    <tag k="addr:state" v="VT"/>
    <tag k="ref:vcgi:esiteid" v="198565"/>
  </node>
  <node id="-552" visible="true" lat="43.480118877951" lon="-72.546670589159">
    <tag k="addr:city" v="Reading"/>
    <tag k="addr:housenumber" v="2830"/>
    <tag k="addr:street" v="Vermont Route 106"/>
    <tag k="addr:state" v="VT"/>
    <tag k="ref:vcgi:esiteid" v="198566"/>
  </node>
  <node id="-553" visible="true" lat="43.457511809421" lon="-72.541454586263">
    <tag k="addr:city" v="Reading"/>
    <tag k="addr:housenumber" v="410"/>
    <tag k="addr:street" v="Tyson Road"/>
    <tag k="addr:state" v="VT"/>
    <tag k="ref:vcgi:esiteid" v="198567"/>
  </node>
  <node id="-564" visible="true" lat="43.475677768863" lon="-72.544938950578">
    <tag k="addr:city" v="Reading"/>
    <tag k="addr:housenumber" v="411"/>
    <tag k="addr:street" v="Hagen Hill Road"/>
    <tag k="addr:state" v="VT"/>
    <tag k="ref:vcgi:esiteid" v="198579"/>
  </node>
  <node id="-565" visible="true" lat="43.46794016393" lon="-72.532216745537">
    <tag k="addr:city" v="Reading"/>
    <tag k="addr:housenumber" v="1688"/>
    <tag k="addr:street" v="Vermont Route 106"/>
    <tag k="addr:state" v="VT"/>
    <tag k="ref:vcgi:esiteid" v="198580"/>
  </node>
  <node id="-567" visible="true" lat="43.485790260596" lon="-72.553687020976">
    <tag k="addr:city" v="Reading"/>
    <tag k="addr:housenumber" v="3399"/>
    <tag k="addr:street" v="Vermont Route 106"/>
    <tag k="addr:state" v="VT"/>
    <tag k="ref:vcgi:esiteid" v="198582"/>
  </node>
  <node id="-574" visible="true" lat="43.475965718301" lon="-72.531410167978">
    <tag k="addr:city" v="Reading"/>
    <tag k="addr:housenumber" v="214"/>
    <tag k="addr:street" v="Hurricane Hill"/>
    <tag k="addr:state" v="VT"/>
    <tag k="ref:vcgi:esiteid" v="313344"/>
  </node>
  <node id="-583" visible="true" lat="43.481585268288" lon="-72.551346959108">
    <tag k="addr:city" v="Reading"/>
    <tag k="addr:housenumber" v="3111"/>
    <tag k="addr:street" v="Vermont Route 106"/>
    <tag k="addr:state" v="VT"/>
    <tag k="ref:vcgi:esiteid" v="328216"/>
  </node>
  <node id="-590" visible="true" lat="43.490620742713" lon="-72.554697402122">
    <tag k="addr:city" v="Reading"/>
    <tag k="addr:housenumber" v="22"/>
    <tag k="addr:street" v="Baileys Mills Road"/>
    <tag k="addr:state" v="VT"/>
    <tag k="ref:vcgi:esiteid" v="335523"/>
  </node>
  <node id="-599" visible="true" lat="43.472992014405" lon="-72.54338782197">
    <tag k="addr:city" v="Reading"/>
    <tag k="addr:housenumber" v="279"/>
    <tag k="addr:street" v="Hagen Hill Road"/>
    <tag k="addr:state" v="VT"/>
    <tag k="ref:vcgi:esiteid" v="341072"/>
  </node>
  <node id="-615" visible="true" lat="43.482855169347" lon="-72.55836634566">
    <tag k="addr:city" v="Reading"/>
    <tag k="addr:housenumber" v="135"/>
    <tag k="addr:street" v="Keyes Mountain Road"/>
    <tag k="addr:state" v="VT"/>
    <tag k="ref:vcgi:esiteid" v="455430"/>
  </node>
  <node id="-616" visible="true" lat="43.501050324822" lon="-72.587495331738">
    <tag k="addr:city" v="Reading"/>
    <tag k="addr:housenumber" v="1289"/>
    <tag k="addr:street" v="Town Hill Road"/>
    <tag k="addr:state" v="VT"/>
    <tag k="ref:vcgi:esiteid" v="455431"/>
  </node>
  <node id="-617" visible="true" lat="43.456191590065" lon="-72.541535822187">
    <tag k="addr:city" v="Reading"/>
    <tag k="addr:housenumber" v="194"/>
    <tag k="addr:street" v="Tyson Road"/>
    <tag k="addr:state" v="VT"/>
    <tag k="ref:vcgi:esiteid" v="618192"/>
  </node>
  <node id="-621" visible="true" lat="43.504029100552" lon="-72.532151825214">
    <tag k="addr:city" v="Reading"/>
    <tag k="addr:housenumber" v="1090"/>
    <tag k="addr:street" v="Spear Cemetery Road"/>
    <tag k="addr:state" v="VT"/>
    <tag k="ref:vcgi:esiteid" v="618196"/>
  </node>
  <node id="-628" visible="true" lat="43.502210294412" lon="-72.579635173384">
    <tag k="addr:city" v="Reading"/>
    <tag k="addr:housenumber" v="772"/>
    <tag k="addr:street" v="Town Hill Road"/>
    <tag k="addr:state" v="VT"/>
    <tag k="ref:vcgi:esiteid" v="750531"/>
  </node>
</osm>
