<?xml version="1.0" encoding="UTF-8"?>
<osm version="0.6" generator="JOSM" upload="false">
  <node id="-237" visible="true" lat="45.001489350801" lon="-72.658425487825">
    <!-- multiple: "40 Golf Course Road, Richford, VT" Multiple exact matches in OSM. -->
    <tag k="addr:city" v="Richford"/>
    <tag k="addr:housenumber" v="40"/>
    <tag k="addr:street" v="Golf Course Road"/>
    <tag k="addr:state" v="VT"/>
    <tag k="ref:vcgi:esiteid" v="199207"/>
  </node>
  <node id="-486" visible="true" lat="44.995163329475" lon="-72.672513046796">
    <!-- multiple: "75 Main Street, Richford, VT" Multiple exact matches in OSM. -->
    <tag k="addr:city" v="Richford"/>
    <tag k="addr:housenumber" v="75"/>
    <tag k="addr:street" v="Main Street"/>
    <tag k="addr:state" v="VT"/>
    <tag k="ref:vcgi:esiteid" v="199491"/>
  </node>
  <node id="-1006" visible="true" lat="44.970788771836" lon="-72.689610080502">
    <!-- multiple: "1581 Saint Albans Road, Richford, VT" Multiple exact matches in OSM. -->
    <tag k="addr:city" v="Richford"/>
    <tag k="addr:housenumber" v="1581"/>
    <tag k="addr:street" v="Saint Albans Road"/>
    <tag k="addr:state" v="VT"/>
    <tag k="ref:vcgi:esiteid" v="200064"/>
  </node>
  <node id="-1249" visible="true" lat="44.962784896528" lon="-72.576657251142">
    <!-- multiple: "298 Stevens Mills Slide Road, Richford, VT" Multiple exact matches in OSM. -->
    <tag k="addr:city" v="Richford"/>
    <tag k="addr:housenumber" v="298"/>
    <tag k="addr:street" v="Stevens Mills Slide Road"/>
    <tag k="addr:state" v="VT"/>
    <tag k="ref:vcgi:esiteid" v="750584"/>
  </node>
</osm>
