<?xml version="1.0" encoding="UTF-8"?>
<osm version="0.6" generator="JOSM" upload="false">
  <node id="-354" visible="true" lat="43.875912875137" lon="-72.807192524432">
    <!-- multiple: "67 School Street, Rochester, VT" Multiple exact matches in OSM. -->
    <tag k="addr:city" v="Rochester"/>
    <tag k="addr:housenumber" v="67"/>
    <tag k="addr:street" v="School Street"/>
    <tag k="addr:state" v="VT"/>
    <tag k="ref:vcgi:esiteid" v="202435"/>
  </node>
  <node id="-387" visible="true" lat="43.874760261682" lon="-72.808034913727">
    <!-- multiple: "12 North Main Street, Rochester, VT" Multiple exact matches in OSM. -->
    <tag k="addr:city" v="Rochester"/>
    <tag k="addr:housenumber" v="12"/>
    <tag k="addr:street" v="North Main Street"/>
    <tag k="addr:state" v="VT"/>
    <tag k="ref:vcgi:esiteid" v="202472"/>
  </node>
</osm>
