<?xml version="1.0" encoding="UTF-8"?>
<osm version="0.6" generator="JOSM" upload="false">
  <node id="-875" visible="true" lat="43.879004687187" lon="-72.81277762921">
    <!-- offset: "210 Beans Bridge Road, Rochester, VT" Significant offset - 251.7m -->
    <tag k="addr:city" v="Rochester"/>
    <tag k="addr:housenumber" v="210"/>
    <tag k="addr:street" v="Beans Bridge Road"/>
    <tag k="addr:state" v="VT"/>
    <tag k="ref:vcgi:esiteid" v="202989"/>
  </node>
  <node id="-962" visible="true" lat="43.832514034317" lon="-72.960311742679">
    <!-- offset: "3357 Gap Road, Rochester, VT" Significant offset - 172.3m -->
    <tag k="addr:city" v="Rochester"/>
    <tag k="addr:housenumber" v="3357"/>
    <tag k="addr:street" v="Gap Road"/>
    <tag k="addr:state" v="VT"/>
    <tag k="ref:vcgi:esiteid" v="450369"/>
  </node>
  <node id="-990" visible="true" lat="43.903607070218" lon="-72.79525522991">
    <!-- offset: "106 North View Drive, Rochester, VT" Significant offset - 358.9m -->
    <tag k="addr:city" v="Rochester"/>
    <tag k="addr:housenumber" v="106"/>
    <tag k="addr:street" v="North View Drive"/>
    <tag k="addr:state" v="VT"/>
    <tag k="ref:vcgi:esiteid" v="655771"/>
  </node>
  <node id="-1016" visible="true" lat="43.900662449335" lon="-72.820446326183">
    <!-- offset: "67 Quarry Hill Road, Rochester, VT" Significant offset - 249.7m -->
    <tag k="addr:city" v="Rochester"/>
    <tag k="addr:housenumber" v="67"/>
    <tag k="addr:street" v="Quarry Hill Road"/>
    <tag k="addr:state" v="VT"/>
    <tag k="ref:vcgi:esiteid" v="772137"/>
  </node>
</osm>
