<?xml version="1.0" encoding="UTF-8"?>
<osm version="0.6" generator="JOSM" upload="false">
  <node id="-176" visible="true" lat="43.847139266107" lon="-72.540940585256">
    <tag k="addr:city" v="South Royalton"/>
    <tag k="addr:housenumber" v="1613"/>
    <tag k="addr:street" v="Happy Hollow Road"/>
    <tag k="addr:state" v="VT"/>
    <tag k="ref:vcgi:esiteid" v="205834"/>
  </node>
  <node id="-405" visible="true" lat="43.825478914353" lon="-72.521126414027">
    <tag k="addr:city" v="South Royalton"/>
    <tag k="addr:housenumber" v="85"/>
    <tag k="addr:street" v="Goodrich Meadows"/>
    <tag k="addr:state" v="VT"/>
    <tag k="ref:vcgi:esiteid" v="206083"/>
  </node>
  <node id="-487" visible="true" lat="43.823435762746" lon="-72.564594539265">
    <tag k="addr:city" v="South Royalton"/>
    <tag k="addr:housenumber" v="5615"/>
    <tag k="addr:street" v="Vermont Route 14"/>
    <tag k="addr:state" v="VT"/>
    <tag k="ref:vcgi:esiteid" v="206169"/>
  </node>
  <node id="-490" visible="true" lat="43.823401239388" lon="-72.606100575466">
    <tag k="addr:city" v="Bethel"/>
    <tag k="addr:housenumber" v="2069"/>
    <tag k="addr:street" v="Vermont Route 107"/>
    <tag k="addr:state" v="VT"/>
    <tag k="ref:vcgi:esiteid" v="206172"/>
  </node>
  <node id="-492" visible="true" lat="43.82326132202" lon="-72.59360501819">
    <tag k="addr:city" v="Bethel"/>
    <tag k="addr:housenumber" v="1453"/>
    <tag k="addr:street" v="Vermont Route 107"/>
    <tag k="addr:state" v="VT"/>
    <tag k="ref:vcgi:esiteid" v="206174"/>
  </node>
  <node id="-495" visible="true" lat="43.823022277628" lon="-72.604613398693">
    <tag k="addr:city" v="Bethel"/>
    <tag k="addr:housenumber" v="2011"/>
    <tag k="addr:street" v="Vermont Route 107"/>
    <tag k="addr:state" v="VT"/>
    <tag k="ref:vcgi:esiteid" v="206177"/>
  </node>
  <node id="-496" visible="true" lat="43.823181738204" lon="-72.600937965215">
    <tag k="addr:city" v="Bethel"/>
    <tag k="addr:housenumber" v="1823"/>
    <tag k="addr:street" v="Vermont Route 107"/>
    <tag k="addr:state" v="VT"/>
    <tag k="ref:vcgi:esiteid" v="206178"/>
  </node>
  <node id="-497" visible="true" lat="43.823297088041" lon="-72.598818269639">
    <tag k="addr:city" v="Bethel"/>
    <tag k="addr:housenumber" v="1709"/>
    <tag k="addr:street" v="Vermont Route 107"/>
    <tag k="addr:state" v="VT"/>
    <tag k="ref:vcgi:esiteid" v="206179"/>
  </node>
  <node id="-498" visible="true" lat="43.823226608323" lon="-72.602040815892">
    <tag k="addr:city" v="Bethel"/>
    <tag k="addr:housenumber" v="1875"/>
    <tag k="addr:street" v="Vermont Route 107"/>
    <tag k="addr:state" v="VT"/>
    <tag k="ref:vcgi:esiteid" v="206180"/>
  </node>
  <node id="-588" visible="true" lat="43.820326150131" lon="-72.564108998411">
    <tag k="addr:city" v="South Royalton"/>
    <tag k="addr:housenumber" v="5319"/>
    <tag k="addr:street" v="Vermont Route 14"/>
    <tag k="addr:state" v="VT"/>
    <tag k="ref:vcgi:esiteid" v="206282"/>
  </node>
  <node id="-608" visible="true" lat="43.819514894567" lon="-72.522377445084">
    <tag k="addr:city" v="South Royalton"/>
    <tag k="addr:housenumber" v="108"/>
    <tag k="addr:street" v="Rainbow Street"/>
    <tag k="addr:state" v="VT"/>
    <tag k="ref:vcgi:esiteid" v="206304"/>
  </node>
  <node id="-785" visible="true" lat="43.814287295623" lon="-72.577586127309">
    <tag k="addr:city" v="South Royalton"/>
    <tag k="addr:housenumber" v="3004"/>
    <tag k="addr:street" v="Back River Road"/>
    <tag k="addr:state" v="VT"/>
    <tag k="ref:vcgi:esiteid" v="206496"/>
  </node>
  <node id="-902" visible="true" lat="43.804763153226" lon="-72.503732209963">
    <tag k="addr:city" v="South Royalton"/>
    <tag k="addr:housenumber" v="1427"/>
    <tag k="addr:street" v="South Windsor Street"/>
    <tag k="addr:state" v="VT"/>
    <tag k="ref:vcgi:esiteid" v="206618"/>
  </node>
  <node id="-1093" visible="true" lat="43.823320425017" lon="-72.59660921652">
    <tag k="addr:city" v="Bethel"/>
    <tag k="addr:housenumber" v="1583"/>
    <tag k="addr:street" v="Vermont Route 107"/>
    <tag k="addr:state" v="VT"/>
    <tag k="ref:vcgi:esiteid" v="206820"/>
  </node>
  <node id="-1140" visible="true" lat="43.81971690172" lon="-72.521929393813">
    <tag k="addr:city" v="South Royalton"/>
    <tag k="addr:housenumber" v="239"/>
    <tag k="addr:street" v="Chelsea Street"/>
    <tag k="addr:state" v="VT"/>
    <tag k="ref:vcgi:esiteid" v="206876"/>
  </node>
  <node id="-1234" visible="true" lat="43.823112806923" lon="-72.596024715993">
    <tag k="addr:city" v="Bethel"/>
    <tag k="addr:housenumber" v="1533"/>
    <tag k="addr:street" v="Vermont Route 107"/>
    <tag k="addr:state" v="VT"/>
    <tag k="ref:vcgi:esiteid" v="206977"/>
  </node>
  <node id="-1282" visible="true" lat="43.819154946725" lon="-72.521658383376">
    <tag k="addr:city" v="South Royalton"/>
    <tag k="addr:housenumber" v="56"/>
    <tag k="addr:street" v="Rainbow Street"/>
    <tag k="addr:state" v="VT"/>
    <tag k="ref:vcgi:esiteid" v="312148"/>
  </node>
</osm>
