<?xml version="1.0" encoding="UTF-8"?>
<osm version="0.6" generator="JOSM" upload="false">
  <node id="-227" visible="true" lat="43.277229532994" lon="-73.195534308864">
    <tag k="addr:city" v="Rupert"/>
    <tag k="addr:housenumber" v="595"/>
    <tag k="addr:street" v="Antone Mountain View Road"/>
    <tag k="addr:state" v="VT"/>
    <tag k="ref:vcgi:esiteid" v="207140"/>
  </node>
  <node id="-236" visible="true" lat="43.276545979199" lon="-73.193181610798">
    <tag k="addr:city" v="Rupert"/>
    <tag k="addr:housenumber" v="592"/>
    <tag k="addr:street" v="Antone Mountain View Road"/>
    <tag k="addr:state" v="VT"/>
    <tag k="ref:vcgi:esiteid" v="207150"/>
  </node>
  <node id="-238" visible="true" lat="43.276412532754" lon="-73.198035188948">
    <tag k="addr:city" v="Rupert"/>
    <tag k="addr:housenumber" v="529"/>
    <tag k="addr:street" v="Antone Mountain View Road"/>
    <tag k="addr:state" v="VT"/>
    <tag k="ref:vcgi:esiteid" v="207152"/>
  </node>
  <node id="-242" visible="true" lat="43.275918644059" lon="-73.195696890927">
    <tag k="addr:city" v="Rupert"/>
    <tag k="addr:housenumber" v="554"/>
    <tag k="addr:street" v="Antone Mountain View Road"/>
    <tag k="addr:state" v="VT"/>
    <tag k="ref:vcgi:esiteid" v="207156"/>
  </node>
  <node id="-247" visible="true" lat="43.275391768489" lon="-73.190919316606">
    <tag k="addr:city" v="Rupert"/>
    <tag k="addr:housenumber" v="146"/>
    <tag k="addr:street" v="Antone Mountain View Road"/>
    <tag k="addr:state" v="VT"/>
    <tag k="ref:vcgi:esiteid" v="207161"/>
  </node>
  <node id="-250" visible="true" lat="43.275231551374" lon="-73.186845220251">
    <tag k="addr:city" v="Rupert"/>
    <tag k="addr:housenumber" v="31"/>
    <tag k="addr:street" v="Watrous Road"/>
    <tag k="addr:state" v="VT"/>
    <tag k="ref:vcgi:esiteid" v="207164"/>
  </node>
  <node id="-254" visible="true" lat="43.274865460385" lon="-73.196767340232">
    <tag k="addr:city" v="Rupert"/>
    <tag k="addr:housenumber" v="461"/>
    <tag k="addr:street" v="Antone Mountain View Road"/>
    <tag k="addr:state" v="VT"/>
    <tag k="ref:vcgi:esiteid" v="207168"/>
  </node>
  <node id="-258" visible="true" lat="43.274644087268" lon="-73.187005436719">
    <tag k="addr:city" v="Rupert"/>
    <tag k="addr:housenumber" v="48"/>
    <tag k="addr:street" v="Watrous Road"/>
    <tag k="addr:state" v="VT"/>
    <tag k="ref:vcgi:esiteid" v="207173"/>
  </node>
  <node id="-262" visible="true" lat="43.274154202204" lon="-73.193303032504">
    <tag k="addr:city" v="Rupert"/>
    <tag k="addr:housenumber" v="318"/>
    <tag k="addr:street" v="Antone Mountain View Road"/>
    <tag k="addr:state" v="VT"/>
    <tag k="ref:vcgi:esiteid" v="207177"/>
  </node>
  <node id="-266" visible="true" lat="43.273611354314" lon="-73.190417973023">
    <tag k="addr:city" v="Rupert"/>
    <tag k="addr:housenumber" v="2013"/>
    <tag k="addr:street" v="Route 315"/>
    <tag k="addr:state" v="VT"/>
    <tag k="ref:vcgi:esiteid" v="207181"/>
  </node>
  <node id="-273" visible="true" lat="43.272995794892" lon="-73.193304041229">
    <tag k="addr:city" v="Rupert"/>
    <tag k="addr:housenumber" v="229"/>
    <tag k="addr:street" v="Antone Mountain View Road"/>
    <tag k="addr:state" v="VT"/>
    <tag k="ref:vcgi:esiteid" v="207188"/>
  </node>
  <node id="-305" visible="true" lat="43.269059368924" lon="-73.207681101183">
    <tag k="addr:city" v="Rupert"/>
    <tag k="addr:housenumber" v="455"/>
    <tag k="addr:street" v="Pawlet Mountain Road"/>
    <tag k="addr:state" v="VT"/>
    <tag k="ref:vcgi:esiteid" v="207221"/>
  </node>
  <node id="-308" visible="true" lat="43.268399425613" lon="-73.194558538965">
    <tag k="addr:city" v="Rupert"/>
    <tag k="addr:housenumber" v="1584"/>
    <tag k="addr:street" v="Route 315"/>
    <tag k="addr:state" v="VT"/>
    <tag k="ref:vcgi:esiteid" v="207224"/>
  </node>
  <node id="-309" visible="true" lat="43.268365094963" lon="-73.195023932826">
    <tag k="addr:city" v="Rupert"/>
    <tag k="addr:housenumber" v="1566"/>
    <tag k="addr:street" v="Route 315"/>
    <tag k="addr:state" v="VT"/>
    <tag k="ref:vcgi:esiteid" v="207225"/>
  </node>
  <node id="-312" visible="true" lat="43.267972179865" lon="-73.206170479725">
    <tag k="addr:city" v="Rupert"/>
    <tag k="addr:housenumber" v="290"/>
    <tag k="addr:street" v="Pawlet Mountain Road"/>
    <tag k="addr:state" v="VT"/>
    <tag k="ref:vcgi:esiteid" v="207228"/>
  </node>
  <node id="-314" visible="true" lat="43.267111971609" lon="-73.196670350001">
    <tag k="addr:city" v="Rupert"/>
    <tag k="addr:housenumber" v="16"/>
    <tag k="addr:street" v="Clark Road"/>
    <tag k="addr:state" v="VT"/>
    <tag k="ref:vcgi:esiteid" v="207230"/>
  </node>
  <node id="-317" visible="true" lat="43.266488262338" lon="-73.199990670302">
    <tag k="addr:city" v="Rupert"/>
    <tag k="addr:housenumber" v="1286"/>
    <tag k="addr:street" v="Route 315"/>
    <tag k="addr:state" v="VT"/>
    <tag k="ref:vcgi:esiteid" v="207233"/>
  </node>
  <node id="-321" visible="true" lat="43.265652843193" lon="-73.204163950157">
    <tag k="addr:city" v="Rupert"/>
    <tag k="addr:housenumber" v="1073"/>
    <tag k="addr:street" v="Route 315"/>
    <tag k="addr:state" v="VT"/>
    <tag k="ref:vcgi:esiteid" v="207238"/>
  </node>
  <node id="-324" visible="true" lat="43.265149302676" lon="-73.208291453518">
    <tag k="addr:city" v="Rupert"/>
    <tag k="addr:housenumber" v="48"/>
    <tag k="addr:street" v="Pawlet Mountain Road"/>
    <tag k="addr:state" v="VT"/>
    <tag k="ref:vcgi:esiteid" v="207241"/>
  </node>
  <node id="-325" visible="true" lat="43.264840311818" lon="-73.211900158855">
    <tag k="addr:city" v="Rupert"/>
    <tag k="addr:housenumber" v="661"/>
    <tag k="addr:street" v="Route 315"/>
    <tag k="addr:state" v="VT"/>
    <tag k="ref:vcgi:esiteid" v="207242"/>
  </node>
  <node id="-327" visible="true" lat="43.264081187034" lon="-73.213067456549">
    <tag k="addr:city" v="Rupert"/>
    <tag k="addr:housenumber" v="584"/>
    <tag k="addr:street" v="Route 315"/>
    <tag k="addr:state" v="VT"/>
    <tag k="ref:vcgi:esiteid" v="207244"/>
  </node>
  <node id="-328" visible="true" lat="43.263924784659" lon="-73.205796641207">
    <tag k="addr:city" v="Rupert"/>
    <tag k="addr:housenumber" v="942"/>
    <tag k="addr:street" v="Route 315"/>
    <tag k="addr:state" v="VT"/>
    <tag k="ref:vcgi:esiteid" v="207245"/>
  </node>
  <node id="-330" visible="true" lat="43.263869101573" lon="-73.217651023448">
    <tag k="addr:city" v="Rupert"/>
    <tag k="addr:housenumber" v="341"/>
    <tag k="addr:street" v="Route 315"/>
    <tag k="addr:state" v="VT"/>
    <tag k="ref:vcgi:esiteid" v="207247"/>
  </node>
  <node id="-332" visible="true" lat="43.263596822704" lon="-73.215607010734">
    <tag k="addr:city" v="Rupert"/>
    <tag k="addr:housenumber" v="451"/>
    <tag k="addr:street" v="Route 315"/>
    <tag k="addr:state" v="VT"/>
    <tag k="ref:vcgi:esiteid" v="207249"/>
  </node>
  <node id="-333" visible="true" lat="43.263572222009" lon="-73.216058230519">
    <tag k="addr:city" v="Rupert"/>
    <tag k="addr:housenumber" v="439"/>
    <tag k="addr:street" v="Route 315"/>
    <tag k="addr:state" v="VT"/>
    <tag k="ref:vcgi:esiteid" v="207250"/>
  </node>
  <node id="-335" visible="true" lat="43.263688601379" lon="-73.208509008438">
    <tag k="addr:city" v="Rupert"/>
    <tag k="addr:housenumber" v="848"/>
    <tag k="addr:street" v="Route 315"/>
    <tag k="addr:state" v="VT"/>
    <tag k="ref:vcgi:esiteid" v="207252"/>
  </node>
  <node id="-338" visible="true" lat="43.262875393198" lon="-73.218356940379">
    <tag k="addr:city" v="Rupert"/>
    <tag k="addr:housenumber" v="309"/>
    <tag k="addr:street" v="Route 315"/>
    <tag k="addr:state" v="VT"/>
    <tag k="ref:vcgi:esiteid" v="207255"/>
  </node>
  <node id="-339" visible="true" lat="43.262586587821" lon="-73.218288515906">
    <tag k="addr:city" v="Rupert"/>
    <tag k="addr:housenumber" v="304"/>
    <tag k="addr:street" v="Route 315"/>
    <tag k="addr:state" v="VT"/>
    <tag k="ref:vcgi:esiteid" v="207256"/>
  </node>
  <node id="-340" visible="true" lat="43.262576125523" lon="-73.219139063937">
    <tag k="addr:city" v="Rupert"/>
    <tag k="addr:housenumber" v="265"/>
    <tag k="addr:street" v="Route 315"/>
    <tag k="addr:state" v="VT"/>
    <tag k="ref:vcgi:esiteid" v="207257"/>
  </node>
  <node id="-341" visible="true" lat="43.26251670692" lon="-73.220040190985">
    <tag k="addr:city" v="Rupert"/>
    <tag k="addr:housenumber" v="195"/>
    <tag k="addr:street" v="Route 315"/>
    <tag k="addr:state" v="VT"/>
    <tag k="ref:vcgi:esiteid" v="207258"/>
  </node>
  <node id="-342" visible="true" lat="43.262027623673" lon="-73.219533247609">
    <tag k="addr:city" v="Rupert"/>
    <tag k="addr:housenumber" v="224"/>
    <tag k="addr:street" v="Route 315"/>
    <tag k="addr:state" v="VT"/>
    <tag k="ref:vcgi:esiteid" v="207259"/>
  </node>
  <node id="-343" visible="true" lat="43.261628320442" lon="-73.219411105567">
    <tag k="addr:city" v="Rupert"/>
    <tag k="addr:housenumber" v="30"/>
    <tag k="addr:street" v="Youlin Road"/>
    <tag k="addr:state" v="VT"/>
    <tag k="ref:vcgi:esiteid" v="207260"/>
  </node>
  <node id="-344" visible="true" lat="43.261647409298" lon="-73.220879958678">
    <tag k="addr:city" v="Rupert"/>
    <tag k="addr:housenumber" v="157"/>
    <tag k="addr:street" v="Route 315"/>
    <tag k="addr:state" v="VT"/>
    <tag k="ref:vcgi:esiteid" v="207261"/>
  </node>
  <node id="-345" visible="true" lat="43.261555267405" lon="-73.220231280936">
    <tag k="addr:city" v="Rupert"/>
    <tag k="addr:housenumber" v="184"/>
    <tag k="addr:street" v="Route 315"/>
    <tag k="addr:state" v="VT"/>
    <tag k="ref:vcgi:esiteid" v="207262"/>
  </node>
  <node id="-346" visible="true" lat="43.261704939403" lon="-73.218589630128">
    <tag k="addr:city" v="Rupert"/>
    <tag k="addr:housenumber" v="83"/>
    <tag k="addr:street" v="Youlin Road"/>
    <tag k="addr:state" v="VT"/>
    <tag k="ref:vcgi:esiteid" v="207263"/>
  </node>
  <node id="-348" visible="true" lat="43.261265938982" lon="-73.221574232462">
    <tag k="addr:city" v="Rupert"/>
    <tag k="addr:housenumber" v="115"/>
    <tag k="addr:street" v="Route 315"/>
    <tag k="addr:state" v="VT"/>
    <tag k="ref:vcgi:esiteid" v="207265"/>
  </node>
  <node id="-353" visible="true" lat="43.260663217968" lon="-73.222215101825">
    <tag k="addr:city" v="Rupert"/>
    <tag k="addr:housenumber" v="63"/>
    <tag k="addr:street" v="Route 315"/>
    <tag k="addr:state" v="VT"/>
    <tag k="ref:vcgi:esiteid" v="207270"/>
  </node>
  <node id="-355" visible="true" lat="43.2604076322" lon="-73.222497390093">
    <tag k="addr:city" v="Rupert"/>
    <tag k="addr:housenumber" v="39"/>
    <tag k="addr:street" v="Route 315"/>
    <tag k="addr:state" v="VT"/>
    <tag k="ref:vcgi:esiteid" v="207272"/>
  </node>
  <node id="-356" visible="true" lat="43.260354227556" lon="-73.221848891338">
    <tag k="addr:city" v="Rupert"/>
    <tag k="addr:housenumber" v="60"/>
    <tag k="addr:street" v="Route 315"/>
    <tag k="addr:state" v="VT"/>
    <tag k="ref:vcgi:esiteid" v="207273"/>
  </node>
  <node id="-358" visible="true" lat="43.260216898173" lon="-73.222855971377">
    <tag k="addr:city" v="Rupert"/>
    <tag k="addr:housenumber" v="17"/>
    <tag k="addr:street" v="Route 315"/>
    <tag k="addr:state" v="VT"/>
    <tag k="ref:vcgi:esiteid" v="207275"/>
  </node>
  <node id="-360" visible="true" lat="43.25974387555" lon="-73.222642347897">
    <tag k="addr:city" v="Rupert"/>
    <tag k="addr:housenumber" v="2"/>
    <tag k="addr:street" v="Route 315"/>
    <tag k="addr:state" v="VT"/>
    <tag k="ref:vcgi:esiteid" v="207277"/>
  </node>
  <node id="-362" visible="true" lat="43.259545511767" lon="-73.223771499726">
    <tag k="addr:city" v="Rupert"/>
    <tag k="addr:housenumber" v="2891"/>
    <tag k="addr:street" v="Vermont Route 153"/>
    <tag k="addr:state" v="VT"/>
    <tag k="ref:vcgi:esiteid" v="207279"/>
  </node>
  <node id="-363" visible="true" lat="43.259434884515" lon="-73.223084853927">
    <tag k="addr:city" v="Rupert"/>
    <tag k="addr:housenumber" v="2910"/>
    <tag k="addr:street" v="Vermont Route 153"/>
    <tag k="addr:state" v="VT"/>
    <tag k="ref:vcgi:esiteid" v="207280"/>
  </node>
  <node id="-364" visible="true" lat="43.259209817281" lon="-73.223382400365">
    <tag k="addr:city" v="Rupert"/>
    <tag k="addr:housenumber" v="2890"/>
    <tag k="addr:street" v="Vermont Route 153"/>
    <tag k="addr:state" v="VT"/>
    <tag k="ref:vcgi:esiteid" v="207281"/>
  </node>
  <node id="-365" visible="true" lat="43.258946604308" lon="-73.223641799719">
    <tag k="addr:city" v="Rupert"/>
    <tag k="addr:housenumber" v="2868"/>
    <tag k="addr:street" v="Vermont Route 153"/>
    <tag k="addr:state" v="VT"/>
    <tag k="ref:vcgi:esiteid" v="207282"/>
  </node>
  <node id="-366" visible="true" lat="43.258874123031" lon="-73.22470228476">
    <tag k="addr:city" v="Rupert"/>
    <tag k="addr:housenumber" v="2827"/>
    <tag k="addr:street" v="Vermont Route 153"/>
    <tag k="addr:state" v="VT"/>
    <tag k="ref:vcgi:esiteid" v="207283"/>
  </node>
  <node id="-367" visible="true" lat="43.258725351462" lon="-73.224008011436">
    <tag k="addr:city" v="Rupert"/>
    <tag k="addr:housenumber" v="2844"/>
    <tag k="addr:street" v="Vermont Route 153"/>
    <tag k="addr:state" v="VT"/>
    <tag k="ref:vcgi:esiteid" v="207284"/>
  </node>
  <node id="-368" visible="true" lat="43.258572763793" lon="-73.224961685043">
    <tag k="addr:city" v="Rupert"/>
    <tag k="addr:housenumber" v="2803"/>
    <tag k="addr:street" v="Vermont Route 153"/>
    <tag k="addr:state" v="VT"/>
    <tag k="ref:vcgi:esiteid" v="207285"/>
  </node>
  <node id="-369" visible="true" lat="43.258568948673" lon="-73.22430555706">
    <tag k="addr:city" v="Rupert"/>
    <tag k="addr:housenumber" v="2824"/>
    <tag k="addr:street" v="Vermont Route 153"/>
    <tag k="addr:state" v="VT"/>
    <tag k="ref:vcgi:esiteid" v="207286"/>
  </node>
  <node id="-370" visible="true" lat="43.257237041798" lon="-73.226882406588">
    <tag k="addr:city" v="Rupert"/>
    <tag k="addr:housenumber" v="2673"/>
    <tag k="addr:street" v="Vermont Route 153"/>
    <tag k="addr:state" v="VT"/>
    <tag k="ref:vcgi:esiteid" v="207287"/>
  </node>
  <node id="-371" visible="true" lat="43.257260508235" lon="-73.227128433603">
    <tag k="addr:city" v="Rupert"/>
    <tag k="addr:housenumber" v="2659"/>
    <tag k="addr:street" v="Vermont Route 153"/>
    <tag k="addr:state" v="VT"/>
    <tag k="ref:vcgi:esiteid" v="207288"/>
  </node>
  <node id="-372" visible="true" lat="43.256791298064" lon="-73.227662491202">
    <tag k="addr:city" v="Rupert"/>
    <tag k="addr:housenumber" v="2613"/>
    <tag k="addr:street" v="Vermont Route 153"/>
    <tag k="addr:state" v="VT"/>
    <tag k="ref:vcgi:esiteid" v="207289"/>
  </node>
  <node id="-373" visible="true" lat="43.25661200953" lon="-73.226884293293">
    <tag k="addr:city" v="Rupert"/>
    <tag k="addr:housenumber" v="2640"/>
    <tag k="addr:street" v="Vermont Route 153"/>
    <tag k="addr:state" v="VT"/>
    <tag k="ref:vcgi:esiteid" v="207290"/>
  </node>
  <node id="-374" visible="true" lat="43.256520455886" lon="-73.228265214915">
    <tag k="addr:city" v="Rupert"/>
    <tag k="addr:housenumber" v="2577"/>
    <tag k="addr:street" v="Vermont Route 153"/>
    <tag k="addr:state" v="VT"/>
    <tag k="ref:vcgi:esiteid" v="207291"/>
  </node>
  <node id="-375" visible="true" lat="43.256402143125" lon="-73.227546450073">
    <tag k="addr:city" v="Rupert"/>
    <tag k="addr:housenumber" v="2604"/>
    <tag k="addr:street" v="Vermont Route 153"/>
    <tag k="addr:state" v="VT"/>
    <tag k="ref:vcgi:esiteid" v="207292"/>
  </node>
  <node id="-376" visible="true" lat="43.255806437071" lon="-73.22860293602">
    <tag k="addr:city" v="Rupert"/>
    <tag k="addr:housenumber" v="2554"/>
    <tag k="addr:street" v="Vermont Route 153"/>
    <tag k="addr:state" v="VT"/>
    <tag k="ref:vcgi:esiteid" v="207293"/>
  </node>
  <node id="-377" visible="true" lat="43.254357971121" lon="-73.230537835877">
    <tag k="addr:city" v="Rupert"/>
    <tag k="addr:housenumber" v="2389"/>
    <tag k="addr:street" v="Vermont Route 153"/>
    <tag k="addr:state" v="VT"/>
    <tag k="ref:vcgi:esiteid" v="207294"/>
  </node>
  <node id="-423" visible="true" lat="43.238087835077" lon="-73.239396504169">
    <tag k="addr:city" v="West Rupert"/>
    <tag k="addr:housenumber" v="187"/>
    <tag k="addr:street" v="East Street"/>
    <tag k="addr:state" v="VT"/>
    <tag k="ref:vcgi:esiteid" v="207340"/>
  </node>
  <node id="-561" visible="true" lat="43.309730223572" lon="-73.132774986151">
    <tag k="addr:city" v="Pawlet"/>
    <tag k="addr:housenumber" v="331"/>
    <tag k="addr:street" v="Neilson Road"/>
    <tag k="addr:state" v="VT"/>
    <tag k="ref:vcgi:esiteid" v="207485"/>
  </node>
  <node id="-577" visible="true" lat="43.273618349187" lon="-73.195055858049">
    <tag k="addr:city" v="Rupert"/>
    <tag k="addr:housenumber" v="315"/>
    <tag k="addr:street" v="Antone Mountain View Road"/>
    <tag k="addr:state" v="VT"/>
    <tag k="ref:vcgi:esiteid" v="311940"/>
  </node>
  <node id="-590" visible="true" lat="43.256718516038" lon="-73.22857667962">
    <tag k="addr:city" v="Rupert"/>
    <tag k="addr:housenumber" v="2545"/>
    <tag k="addr:street" v="Vermont Route 153"/>
    <tag k="addr:state" v="VT"/>
    <tag k="ref:vcgi:esiteid" v="311954"/>
  </node>
  <node id="-591" visible="true" lat="43.263298114122" lon="-73.214167531463">
    <tag k="addr:city" v="Rupert"/>
    <tag k="addr:housenumber" v="500"/>
    <tag k="addr:street" v="Route 315"/>
    <tag k="addr:state" v="VT"/>
    <tag k="ref:vcgi:esiteid" v="311955"/>
  </node>
  <node id="-594" visible="true" lat="43.2777853361" lon="-73.193488079322">
    <tag k="addr:city" v="Rupert"/>
    <tag k="addr:housenumber" v="597"/>
    <tag k="addr:street" v="Antone Mountain View Road"/>
    <tag k="addr:state" v="VT"/>
    <tag k="ref:vcgi:esiteid" v="332203"/>
  </node>
  <node id="-599" visible="true" lat="43.309876498301" lon="-73.132277535329">
    <tag k="addr:city" v="Pawlet"/>
    <tag k="addr:housenumber" v="331"/>
    <tag k="addr:street" v="Neilson Road"/>
    <tag k="addr:state" v="VT"/>
    <tag k="ref:vcgi:esiteid" v="340408"/>
  </node>
</osm>
