<?xml version="1.0" encoding="UTF-8"?>
<osm version="0.6" generator="JOSM" upload="false">
  <node id="-102" visible="true" lat="43.258009494685" lon="-73.123723590966">
    <!-- duplicates-in-different-towns: "793 Nims Road, Dorset, VT"  ignoring town mismatch for duplicate housenumber/street when matching to esiteid 454566: "793 Nims Road, , VT" -->
    <tag k="addr:city" v="Dorset"/>
    <tag k="addr:housenumber" v="793"/>
    <tag k="addr:street" v="Nims Road"/>
    <tag k="addr:state" v="VT"/>
    <tag k="ref:vcgi:esiteid" v="84540"/>
  </node>
  <node id="-598" visible="true" lat="43.26535314898" lon="-73.123481972947">
    <!-- duplicates-in-different-towns: "62 Foote Road, Dorset, VT"  ignoring town mismatch for duplicate housenumber/street when matching to esiteid 311943: "62 Foote Road, , VT" -->
    <tag k="addr:city" v="Dorset"/>
    <tag k="addr:housenumber" v="62"/>
    <tag k="addr:street" v="Foote Road"/>
    <tag k="addr:state" v="VT"/>
    <tag k="ref:vcgi:esiteid" v="336507"/>
  </node>
</osm>
