<?xml version="1.0" encoding="UTF-8"?>
<osm version="0.6" generator="JOSM" upload="false">
  <node id="-1302" visible="true" lat="43.603365999873" lon="-73.005317891554">
    <!-- offset: "46 Ripley Road, Rutland, VT" Significant offset - 102.5m -->
    <tag k="addr:city" v="Rutland"/>
    <tag k="addr:housenumber" v="46"/>
    <tag k="addr:street" v="Ripley Road"/>
    <tag k="addr:state" v="VT"/>
    <tag k="ref:vcgi:esiteid" v="214952"/>
  </node>
  <node id="-1952" visible="true" lat="43.590232066719" lon="-72.940482290069">
    <!-- offset: "240 Stratton Road, Rutland, VT" Significant offset - 1647.6m -->
    <tag k="addr:city" v="Rutland"/>
    <tag k="addr:housenumber" v="240"/>
    <tag k="addr:street" v="Stratton Road"/>
    <tag k="addr:state" v="VT"/>
    <tag k="ref:vcgi:esiteid" v="758851"/>
  </node>
</osm>
