<?xml version="1.0" encoding="UTF-8"?>
<osm version="0.6" generator="JOSM" upload="false">
  <node id="-445" visible="true" lat="44.457943873292" lon="-72.014950461473">
    <!-- multiple: "1786 Memorial Drive, Saint Johnsbury, VT" Multiple exact matches in OSM. -->
    <tag k="addr:city" v="Saint Johnsbury"/>
    <tag k="addr:housenumber" v="1786"/>
    <tag k="addr:street" v="Memorial Drive"/>
    <tag k="addr:state" v="VT"/>
    <tag k="ref:vcgi:esiteid" v="244600"/>
  </node>
  <node id="-714" visible="true" lat="44.444638179449" lon="-72.016884935571">
    <!-- multiple: "857 Memorial Drive, Saint Johnsbury, VT" Multiple exact matches in OSM. -->
    <tag k="addr:city" v="Saint Johnsbury"/>
    <tag k="addr:housenumber" v="857"/>
    <tag k="addr:street" v="Memorial Drive"/>
    <tag k="addr:state" v="VT"/>
    <tag k="ref:vcgi:esiteid" v="244892"/>
  </node>
  <node id="-853" visible="true" lat="44.437614591622" lon="-72.015693459527">
    <!-- multiple: "220 Memorial Drive, Saint Johnsbury, VT" Multiple exact matches in OSM. -->
    <tag k="addr:city" v="Saint Johnsbury"/>
    <tag k="addr:housenumber" v="220"/>
    <tag k="addr:street" v="Memorial Drive"/>
    <tag k="addr:state" v="VT"/>
    <tag k="ref:vcgi:esiteid" v="245040"/>
  </node>
  <node id="-872" visible="true" lat="44.435108347457" lon="-71.981397648322">
    <!-- multiple: "143 Parks Road, Saint Johnsbury, VT" Multiple exact matches in OSM. -->
    <tag k="addr:city" v="Saint Johnsbury"/>
    <tag k="addr:housenumber" v="143"/>
    <tag k="addr:street" v="Parks Road"/>
    <tag k="addr:state" v="VT"/>
    <tag k="ref:vcgi:esiteid" v="245061"/>
  </node>
  <node id="-1662" visible="true" lat="44.421714521869" lon="-72.020713098752">
    <!-- multiple: "69 Winter Street, Saint Johnsbury, VT" Multiple exact matches in OSM. -->
    <tag k="addr:city" v="Saint Johnsbury"/>
    <tag k="addr:housenumber" v="69"/>
    <tag k="addr:street" v="Winter Street"/>
    <tag k="addr:state" v="VT"/>
    <tag k="ref:vcgi:esiteid" v="245944"/>
  </node>
  <node id="-1749" visible="true" lat="44.421009189771" lon="-72.002613596474">
    <!-- multiple: "642 Portland Street, Saint Johnsbury, VT" Multiple exact matches in OSM. -->
    <tag k="addr:city" v="Saint Johnsbury"/>
    <tag k="addr:housenumber" v="642"/>
    <tag k="addr:street" v="Portland Street"/>
    <tag k="addr:state" v="VT"/>
    <tag k="ref:vcgi:esiteid" v="246041"/>
  </node>
  <node id="-1836" visible="true" lat="44.420668663466" lon="-72.020709897034">
    <!-- multiple: "1325 Main Street, Saint Johnsbury, VT" Multiple exact matches in OSM. -->
    <tag k="addr:city" v="Saint Johnsbury"/>
    <tag k="addr:housenumber" v="1325"/>
    <tag k="addr:street" v="Main Street"/>
    <tag k="addr:state" v="VT"/>
    <tag k="ref:vcgi:esiteid" v="246137"/>
  </node>
  <node id="-2185" visible="true" lat="44.417624495491" lon="-72.016362426537">
    <!-- multiple: "17 Eastern Avenue, Saint Johnsbury, VT" Multiple exact matches in OSM. -->
    <tag k="addr:city" v="Saint Johnsbury"/>
    <tag k="addr:housenumber" v="17"/>
    <tag k="addr:street" v="Eastern Avenue"/>
    <tag k="addr:state" v="VT"/>
    <tag k="ref:vcgi:esiteid" v="246540"/>
  </node>
  <node id="-2197" visible="true" lat="44.417541817679" lon="-72.014426916784">
    <!-- multiple: "249 Bay Street, Saint Johnsbury, VT" Multiple exact matches in OSM. -->
    <tag k="addr:city" v="Saint Johnsbury"/>
    <tag k="addr:housenumber" v="249"/>
    <tag k="addr:street" v="Bay Street"/>
    <tag k="addr:state" v="VT"/>
    <tag k="ref:vcgi:esiteid" v="246554"/>
  </node>
  <node id="-2298" visible="true" lat="44.416309212147" lon="-72.022705570538">
    <!-- multiple: "161 Western Avenue, Saint Johnsbury, VT" Multiple exact matches in OSM. -->
    <tag k="addr:city" v="Saint Johnsbury"/>
    <tag k="addr:housenumber" v="161"/>
    <tag k="addr:street" v="Western Avenue"/>
    <tag k="addr:state" v="VT"/>
    <tag k="ref:vcgi:esiteid" v="246674"/>
  </node>
  <node id="-2307" visible="true" lat="44.416180989636" lon="-72.015830950191">
    <!-- multiple: "250 Railroad Street, Saint Johnsbury, VT" Multiple exact matches in OSM. -->
    <tag k="addr:city" v="Saint Johnsbury"/>
    <tag k="addr:housenumber" v="250"/>
    <tag k="addr:street" v="Railroad Street"/>
    <tag k="addr:state" v="VT"/>
    <tag k="ref:vcgi:esiteid" v="246686"/>
  </node>
  <node id="-2376" visible="true" lat="44.41502858421" lon="-72.016979400756">
    <!-- multiple: "169 Railroad Street, Saint Johnsbury, VT" Multiple exact matches in OSM. -->
    <tag k="addr:city" v="Saint Johnsbury"/>
    <tag k="addr:housenumber" v="169"/>
    <tag k="addr:street" v="Railroad Street"/>
    <tag k="addr:state" v="VT"/>
    <tag k="ref:vcgi:esiteid" v="246766"/>
  </node>
</osm>
