<?xml version="1.0" encoding="UTF-8"?>
<osm version="0.6" generator="JOSM" upload="false">
  <node id="-2375" visible="true" lat="44.802046245185" lon="-73.102343350644">
    <!-- multiple: "650 Industrial Park Road, Saint Albans, VT" Multiple exact matches in OSM. -->
    <tag k="addr:city" v="Saint Albans"/>
    <tag k="addr:housenumber" v="650"/>
    <tag k="addr:street" v="Industrial Park Road"/>
    <tag k="addr:state" v="VT"/>
    <tag k="ref:vcgi:esiteid" v="243521"/>
  </node>
  <node id="-2382" visible="true" lat="44.798070420523" lon="-73.092774860163">
    <!-- multiple: "248 South Main Street, Saint Albans, VT" Multiple exact matches in OSM. -->
    <tag k="addr:city" v="Saint Albans"/>
    <tag k="addr:housenumber" v="248"/>
    <tag k="addr:street" v="South Main Street"/>
    <tag k="addr:state" v="VT"/>
    <tag k="ref:vcgi:esiteid" v="243537"/>
  </node>
  <node id="-2383" visible="true" lat="44.798121832367" lon="-73.092842325036">
    <!-- multiple: "248 South Main Street, Saint Albans, VT" Multiple exact matches in OSM. -->
    <tag k="addr:city" v="Saint Albans"/>
    <tag k="addr:housenumber" v="248"/>
    <tag k="addr:street" v="South Main Street"/>
    <tag k="addr:state" v="VT"/>
    <tag k="ref:vcgi:esiteid" v="243538"/>
  </node>
  <node id="-2384" visible="true" lat="44.798141116148" lon="-73.092927453833">
    <!-- multiple: "248 South Main Street, Saint Albans, VT" Multiple exact matches in OSM. -->
    <tag k="addr:city" v="Saint Albans"/>
    <tag k="addr:housenumber" v="248"/>
    <tag k="addr:street" v="South Main Street"/>
    <tag k="addr:state" v="VT"/>
    <tag k="ref:vcgi:esiteid" v="243539"/>
  </node>
  <node id="-2385" visible="true" lat="44.797990312057" lon="-73.093064778395">
    <!-- multiple: "248 South Main Street, Saint Albans, VT" Multiple exact matches in OSM. -->
    <tag k="addr:city" v="Saint Albans"/>
    <tag k="addr:housenumber" v="248"/>
    <tag k="addr:street" v="South Main Street"/>
    <tag k="addr:state" v="VT"/>
    <tag k="ref:vcgi:esiteid" v="243540"/>
  </node>
  <node id="-2386" visible="true" lat="44.797921648544" lon="-73.092919818189">
    <!-- multiple: "248 South Main Street, Saint Albans, VT" Multiple exact matches in OSM. -->
    <tag k="addr:city" v="Saint Albans"/>
    <tag k="addr:housenumber" v="248"/>
    <tag k="addr:street" v="South Main Street"/>
    <tag k="addr:state" v="VT"/>
    <tag k="ref:vcgi:esiteid" v="243541"/>
  </node>
</osm>
