<?xml version="1.0" encoding="UTF-8"?>
<osm version="0.6" generator="JOSM" upload="false">
  <node id="-126" visible="true" lat="43.140828321358" lon="-72.501748245031">
    <!-- offset: "6 Oak Street, Bellows Falls, VT" Significant offset - 4306.9m -->
    <tag k="addr:city" v="Bellows Falls"/>
    <tag k="addr:housenumber" v="6"/>
    <tag k="addr:street" v="Oak Street"/>
    <tag k="addr:state" v="VT"/>
    <tag k="ref:vcgi:esiteid" v="203685"/>
  </node>
  <node id="-129" visible="true" lat="43.140660475638" lon="-72.502183119382">
    <!-- offset: "3 Oak Street, Bellows Falls, VT" Significant offset - 4342.2m -->
    <tag k="addr:city" v="Bellows Falls"/>
    <tag k="addr:housenumber" v="3"/>
    <tag k="addr:street" v="Oak Street"/>
    <tag k="addr:state" v="VT"/>
    <tag k="ref:vcgi:esiteid" v="203691"/>
  </node>
  <node id="-142" visible="true" lat="43.140111157619" lon="-72.502633255472">
    <!-- offset: "1 Oak Street, Bellows Falls, VT" Significant offset - 4385.3m -->
    <tag k="addr:city" v="Bellows Falls"/>
    <tag k="addr:housenumber" v="1"/>
    <tag k="addr:street" v="Oak Street"/>
    <tag k="addr:state" v="VT"/>
    <tag k="ref:vcgi:esiteid" v="203718"/>
  </node>
</osm>
