<?xml version="1.0" encoding="UTF-8"?>
<osm version="0.6" generator="JOSM" upload="false">
  <node id="-123" visible="true" lat="43.141215467316" lon="-72.501903881583">
    <!-- duplicates-in-different-towns: "4 Acorn Street, Bellows Falls, VT"  ignoring town mismatch for duplicate housenumber/street when matching to esiteid 342346: "4 Acorn Street, , VT" -->
    <tag k="addr:city" v="Bellows Falls"/>
    <tag k="addr:housenumber" v="4"/>
    <tag k="addr:street" v="Acorn Street"/>
    <tag k="addr:state" v="VT"/>
    <tag k="ref:vcgi:esiteid" v="203678"/>
  </node>
</osm>
