<?xml version="1.0" encoding="UTF-8"?>
<osm version="0.6" generator="JOSM" upload="false">
  <node id="-741" visible="true" lat="44.87757649919" lon="-72.83243574711">
    <!-- duplicates-in-different-towns: "2384 Duffy Hill Road, Enosburg Falls, VT"  ignoring town mismatch for duplicate housenumber/street when matching to esiteid 752213: "2384 Duffy Hill Road, , VT" -->
    <tag k="addr:city" v="Enosburg Falls"/>
    <tag k="addr:housenumber" v="2384"/>
    <tag k="addr:street" v="Duffy Hill Road"/>
    <tag k="addr:state" v="VT"/>
    <tag k="ref:vcgi:esiteid" v="223978"/>
  </node>
  <node id="-742" visible="true" lat="44.877242643052" lon="-72.833511982497">
    <!-- duplicates-in-different-towns: "2430 Duffy Hill Road, Enosburg Falls, VT"  ignoring town mismatch for duplicate housenumber/street when matching to esiteid 752214: "2430 Duffy Hill Road, , VT" -->
    <tag k="addr:city" v="Enosburg Falls"/>
    <tag k="addr:housenumber" v="2430"/>
    <tag k="addr:street" v="Duffy Hill Road"/>
    <tag k="addr:state" v="VT"/>
    <tag k="ref:vcgi:esiteid" v="223979"/>
  </node>
  <node id="-745" visible="true" lat="44.876146438404" lon="-72.83461599597">
    <!-- duplicates-in-different-towns: "2516 Duffy Hill Road, Enosburg Falls, VT"  ignoring town mismatch for duplicate housenumber/street when matching to esiteid 752215: "2516 Duffy Hill Road, , VT" -->
    <tag k="addr:city" v="Enosburg Falls"/>
    <tag k="addr:housenumber" v="2516"/>
    <tag k="addr:street" v="Duffy Hill Road"/>
    <tag k="addr:state" v="VT"/>
    <tag k="ref:vcgi:esiteid" v="223982"/>
  </node>
  <node id="-747" visible="true" lat="44.875093682915" lon="-72.834549781134">
    <!-- duplicates-in-different-towns: "2586 Duffy Hill Road, Enosburg Falls, VT"  ignoring town mismatch for duplicate housenumber/street when matching to esiteid 752216: "2586 Duffy Hill Road, , VT" -->
    <tag k="addr:city" v="Enosburg Falls"/>
    <tag k="addr:housenumber" v="2586"/>
    <tag k="addr:street" v="Duffy Hill Road"/>
    <tag k="addr:state" v="VT"/>
    <tag k="ref:vcgi:esiteid" v="223984"/>
  </node>
  <node id="-749" visible="true" lat="44.874245990649" lon="-72.833702401572">
    <!-- duplicates-in-different-towns: "2624 Duffy Hill Road, Enosburg Falls, VT"  ignoring town mismatch for duplicate housenumber/street when matching to esiteid 752217: "2624 Duffy Hill Road, , VT" -->
    <tag k="addr:city" v="Enosburg Falls"/>
    <tag k="addr:housenumber" v="2624"/>
    <tag k="addr:street" v="Duffy Hill Road"/>
    <tag k="addr:state" v="VT"/>
    <tag k="ref:vcgi:esiteid" v="223986"/>
  </node>
  <node id="-752" visible="true" lat="44.873118876876" lon="-72.834381376203">
    <!-- duplicates-in-different-towns: "2688 Duffy Hill Road, Enosburg Falls, VT"  ignoring town mismatch for duplicate housenumber/street when matching to esiteid 752218: "2688 Duffy Hill Road, , VT" -->
    <tag k="addr:city" v="Enosburg Falls"/>
    <tag k="addr:housenumber" v="2688"/>
    <tag k="addr:street" v="Duffy Hill Road"/>
    <tag k="addr:state" v="VT"/>
    <tag k="ref:vcgi:esiteid" v="223989"/>
  </node>
  <node id="-753" visible="true" lat="44.872718106169" lon="-72.834859176658">
    <!-- duplicates-in-different-towns: "2760 Duffy Hill Road, Enosburg Falls, VT"  ignoring town mismatch for duplicate housenumber/street when matching to esiteid 752219: "2760 Duffy Hill Road, , VT" -->
    <tag k="addr:city" v="Enosburg Falls"/>
    <tag k="addr:housenumber" v="2760"/>
    <tag k="addr:street" v="Duffy Hill Road"/>
    <tag k="addr:state" v="VT"/>
    <tag k="ref:vcgi:esiteid" v="223990"/>
  </node>
  <node id="-754" visible="true" lat="44.871805886619" lon="-72.834571405135">
    <!-- duplicates-in-different-towns: "2804 Duffy Hill Road, Enosburg Falls, VT"  ignoring town mismatch for duplicate housenumber/street when matching to esiteid 752220: "2804 Duffy Hill Road, , VT" -->
    <tag k="addr:city" v="Enosburg Falls"/>
    <tag k="addr:housenumber" v="2804"/>
    <tag k="addr:street" v="Duffy Hill Road"/>
    <tag k="addr:state" v="VT"/>
    <tag k="ref:vcgi:esiteid" v="223991"/>
  </node>
  <node id="-815" visible="true" lat="44.883537155024" lon="-72.831639818979">
    <!-- duplicates-in-different-towns: "2062 Duffy Hill Road, Enosburg Falls, VT"  ignoring town mismatch for duplicate housenumber/street when matching to esiteid 452869: "2062 Duffy Hill Road, , VT" -->
    <tag k="addr:city" v="Enosburg Falls"/>
    <tag k="addr:housenumber" v="2062"/>
    <tag k="addr:street" v="Duffy Hill Road"/>
    <tag k="addr:state" v="VT"/>
    <tag k="ref:vcgi:esiteid" v="224061"/>
  </node>
  <node id="-816" visible="true" lat="44.882061616269" lon="-72.831344353208">
    <!-- duplicates-in-different-towns: "2066 Duffy Hill Road, Enosburg Falls, VT"  ignoring town mismatch for duplicate housenumber/street when matching to esiteid 752210: "2066 Duffy Hill Road, , VT" -->
    <tag k="addr:city" v="Enosburg Falls"/>
    <tag k="addr:housenumber" v="2066"/>
    <tag k="addr:street" v="Duffy Hill Road"/>
    <tag k="addr:state" v="VT"/>
    <tag k="ref:vcgi:esiteid" v="224062"/>
  </node>
  <node id="-981" visible="true" lat="44.870807034588" lon="-72.837095172448">
    <!-- duplicates-in-different-towns: "2852 Duffy Hill Road, Enosburg Falls, VT"  ignoring town mismatch for duplicate housenumber/street when matching to esiteid 752221: "2852 Duffy Hill Road, , VT" -->
    <tag k="addr:city" v="Enosburg Falls"/>
    <tag k="addr:housenumber" v="2852"/>
    <tag k="addr:street" v="Duffy Hill Road"/>
    <tag k="addr:state" v="VT"/>
    <tag k="ref:vcgi:esiteid" v="335707"/>
  </node>
  <node id="-1141" visible="true" lat="44.880658097177" lon="-72.830963673277">
    <!-- duplicates-in-different-towns: "2181 Duffy Hill Road, Enosburg Falls, VT"  ignoring town mismatch for duplicate housenumber/street when matching to esiteid 94219: "2181 Duffy Hill Road, , VT" -->
    <tag k="addr:city" v="Enosburg Falls"/>
    <tag k="addr:housenumber" v="2181"/>
    <tag k="addr:street" v="Duffy Hill Road"/>
    <tag k="addr:state" v="VT"/>
    <tag k="ref:vcgi:esiteid" v="752211"/>
  </node>
  <node id="-1185" visible="true" lat="44.894751495453" lon="-72.82575504134">
    <!-- duplicates-in-different-towns: "1050 Duffy Hill Road, Enosburg Falls, VT"  ignoring town mismatch for duplicate housenumber/street when matching to esiteid 761199: "1050 Duffy Hill Road, , VT" -->
    <tag k="addr:city" v="Enosburg Falls"/>
    <tag k="addr:housenumber" v="1050"/>
    <tag k="addr:street" v="Duffy Hill Road"/>
    <tag k="addr:state" v="VT"/>
    <tag k="ref:vcgi:esiteid" v="761200"/>
  </node>
</osm>
