<?xml version="1.0" encoding="UTF-8"?>
<osm version="0.6" generator="JOSM" upload="false">
  <node id="-104" visible="true" lat="44.434421389095" lon="-73.248462501701">
    <!-- multiple: "4584 Harbor Road, Shelburne, VT" Multiple exact matches in OSM. -->
    <tag k="addr:city" v="Shelburne"/>
    <tag k="addr:housenumber" v="4584"/>
    <tag k="addr:street" v="Harbor Road"/>
    <tag k="addr:state" v="VT"/>
    <tag k="ref:vcgi:esiteid" v="220258"/>
  </node>
  <node id="-172" visible="true" lat="44.420054094265" lon="-73.213041532945">
    <!-- multiple: "2438 Shelburne Road, Shelburne, VT" Multiple exact matches in OSM. -->
    <tag k="addr:city" v="Shelburne"/>
    <tag k="addr:housenumber" v="2438"/>
    <tag k="addr:street" v="Shelburne Road"/>
    <tag k="addr:state" v="VT"/>
    <tag k="ref:vcgi:esiteid" v="220339"/>
  </node>
  <node id="-188" visible="true" lat="44.418969549325" lon="-73.215096954944">
    <!-- multiple: "145 Pine Haven Shores Road, Shelburne, VT" Multiple exact matches in OSM. -->
    <tag k="addr:city" v="Shelburne"/>
    <tag k="addr:housenumber" v="145"/>
    <tag k="addr:street" v="Pine Haven Shores Road"/>
    <tag k="addr:state" v="VT"/>
    <tag k="ref:vcgi:esiteid" v="220360"/>
  </node>
  <node id="-477" visible="true" lat="44.413287728021" lon="-73.214713353183">
    <!-- multiple: "2916 Shelburne Road, Shelburne, VT" Multiple exact matches in OSM. -->
    <tag k="addr:city" v="Shelburne"/>
    <tag k="addr:housenumber" v="2916"/>
    <tag k="addr:street" v="Shelburne Road"/>
    <tag k="addr:state" v="VT"/>
    <tag k="ref:vcgi:esiteid" v="220686"/>
  </node>
  <node id="-808" visible="true" lat="44.404923831492" lon="-73.21760702716">
    <!-- multiple: "3530 Shelburne Road, Shelburne, VT" Multiple exact matches in OSM. -->
    <tag k="addr:city" v="Shelburne"/>
    <tag k="addr:housenumber" v="3530"/>
    <tag k="addr:street" v="Shelburne Road"/>
    <tag k="addr:state" v="VT"/>
    <tag k="ref:vcgi:esiteid" v="221067"/>
  </node>
  <node id="-812" visible="true" lat="44.404736200493" lon="-73.217730450964">
    <!-- multiple: "3530 Shelburne Road, Shelburne, VT" Multiple exact matches in OSM. -->
    <tag k="addr:city" v="Shelburne"/>
    <tag k="addr:housenumber" v="3530"/>
    <tag k="addr:street" v="Shelburne Road"/>
    <tag k="addr:state" v="VT"/>
    <tag k="ref:vcgi:esiteid" v="221072"/>
  </node>
  <node id="-1052" visible="true" lat="44.397626732238" lon="-73.220809457821">
    <!-- multiple: "4066 Shelburne Road, Shelburne, VT" Multiple exact matches in OSM. -->
    <tag k="addr:city" v="Shelburne"/>
    <tag k="addr:housenumber" v="4066"/>
    <tag k="addr:street" v="Shelburne Road"/>
    <tag k="addr:state" v="VT"/>
    <tag k="ref:vcgi:esiteid" v="221340"/>
  </node>
  <node id="-1138" visible="true" lat="44.395696583567" lon="-73.247385893273">
    <!-- multiple: "26 North Gate Road, Shelburne, VT" Multiple exact matches in OSM. -->
    <tag k="addr:city" v="Shelburne"/>
    <tag k="addr:housenumber" v="26"/>
    <tag k="addr:street" v="North Gate Road"/>
    <tag k="addr:state" v="VT"/>
    <tag k="ref:vcgi:esiteid" v="221443"/>
  </node>
  <node id="-1209" visible="true" lat="44.392106444704" lon="-73.257119672593">
    <!-- multiple: "352 Farm Barn Lane, Shelburne, VT" Multiple exact matches in OSM. -->
    <tag k="addr:city" v="Shelburne"/>
    <tag k="addr:housenumber" v="352"/>
    <tag k="addr:street" v="Farm Barn Lane"/>
    <tag k="addr:state" v="VT"/>
    <tag k="ref:vcgi:esiteid" v="221538"/>
  </node>
  <node id="-1335" visible="true" lat="44.387345702351" lon="-73.236100683561">
    <!-- multiple: "359 Turtle Lane, Shelburne, VT" Multiple exact matches in OSM. -->
    <tag k="addr:city" v="Shelburne"/>
    <tag k="addr:housenumber" v="359"/>
    <tag k="addr:street" v="Turtle Lane"/>
    <tag k="addr:state" v="VT"/>
    <tag k="ref:vcgi:esiteid" v="221683"/>
  </node>
  <node id="-1404" visible="true" lat="44.38363781756" lon="-73.227159029566">
    <!-- multiple: "5070 Shelburne Road, Shelburne, VT" Multiple exact matches in OSM. -->
    <tag k="addr:city" v="Shelburne"/>
    <tag k="addr:housenumber" v="5070"/>
    <tag k="addr:street" v="Shelburne Road"/>
    <tag k="addr:state" v="VT"/>
    <tag k="ref:vcgi:esiteid" v="221767"/>
  </node>
  <node id="-1414" visible="true" lat="44.383046539136" lon="-73.228600985762">
    <!-- multiple: "166 Athletic Drive, Shelburne, VT" Multiple exact matches in OSM. -->
    <tag k="addr:city" v="Shelburne"/>
    <tag k="addr:housenumber" v="166"/>
    <tag k="addr:street" v="Athletic Drive"/>
    <tag k="addr:state" v="VT"/>
    <tag k="ref:vcgi:esiteid" v="221783"/>
  </node>
  <node id="-1515" visible="true" lat="44.381017435527" lon="-73.227092986237">
    <!-- multiple: "5247 Shelburne Road, Shelburne, VT" Multiple exact matches in OSM. -->
    <tag k="addr:city" v="Shelburne"/>
    <tag k="addr:housenumber" v="5247"/>
    <tag k="addr:street" v="Shelburne Road"/>
    <tag k="addr:state" v="VT"/>
    <tag k="ref:vcgi:esiteid" v="221902"/>
  </node>
  <node id="-1532" visible="true" lat="44.380521207893" lon="-73.227830415517">
    <!-- multiple: "5288 Shelburne Road, Shelburne, VT" Multiple exact matches in OSM. -->
    <tag k="addr:city" v="Shelburne"/>
    <tag k="addr:housenumber" v="5288"/>
    <tag k="addr:street" v="Shelburne Road"/>
    <tag k="addr:state" v="VT"/>
    <tag k="ref:vcgi:esiteid" v="221922"/>
  </node>
  <node id="-1536" visible="true" lat="44.380368620059" lon="-73.22696066577">
    <!-- multiple: "29 Falls Road, Shelburne, VT" Multiple exact matches in OSM. -->
    <tag k="addr:city" v="Shelburne"/>
    <tag k="addr:housenumber" v="29"/>
    <tag k="addr:street" v="Falls Road"/>
    <tag k="addr:state" v="VT"/>
    <tag k="ref:vcgi:esiteid" v="221928"/>
  </node>
  <node id="-1566" visible="true" lat="44.379558705196" lon="-73.229228163977">
    <!-- multiple: "5380 Shelburne Road, Shelburne, VT" Multiple exact matches in OSM. -->
    <tag k="addr:city" v="Shelburne"/>
    <tag k="addr:housenumber" v="5380"/>
    <tag k="addr:street" v="Shelburne Road"/>
    <tag k="addr:state" v="VT"/>
    <tag k="ref:vcgi:esiteid" v="221961"/>
  </node>
  <node id="-1596" visible="true" lat="44.378600177473" lon="-73.229049177421">
    <!-- multiple: "5420 Shelburne Road, Shelburne, VT" Multiple exact matches in OSM. -->
    <tag k="addr:city" v="Shelburne"/>
    <tag k="addr:housenumber" v="5420"/>
    <tag k="addr:street" v="Shelburne Road"/>
    <tag k="addr:state" v="VT"/>
    <tag k="ref:vcgi:esiteid" v="221992"/>
  </node>
  <node id="-2186" visible="true" lat="44.366142178541" lon="-73.232614507709">
    <!-- multiple: "6305 Shelburne Road, Shelburne, VT" Multiple exact matches in OSM. -->
    <tag k="addr:city" v="Shelburne"/>
    <tag k="addr:housenumber" v="6305"/>
    <tag k="addr:street" v="Shelburne Road"/>
    <tag k="addr:state" v="VT"/>
    <tag k="ref:vcgi:esiteid" v="222652"/>
  </node>
  <node id="-2389" visible="true" lat="44.41262638465" lon="-73.21368123052">
    <!-- multiple: "2989 Shelburne Road, Shelburne, VT" Multiple exact matches in OSM. -->
    <tag k="addr:city" v="Shelburne"/>
    <tag k="addr:housenumber" v="2989"/>
    <tag k="addr:street" v="Shelburne Road"/>
    <tag k="addr:state" v="VT"/>
    <tag k="ref:vcgi:esiteid" v="222903"/>
  </node>
  <node id="-2395" visible="true" lat="44.405200359375" lon="-73.21811252831">
    <!-- multiple: "3530 Shelburne Road, Shelburne, VT" Multiple exact matches in OSM. -->
    <tag k="addr:city" v="Shelburne"/>
    <tag k="addr:housenumber" v="3530"/>
    <tag k="addr:street" v="Shelburne Road"/>
    <tag k="addr:state" v="VT"/>
    <tag k="ref:vcgi:esiteid" v="222910"/>
  </node>
  <node id="-2396" visible="true" lat="44.405182719819" lon="-73.218010238102">
    <!-- multiple: "3530 Shelburne Road, Shelburne, VT" Multiple exact matches in OSM. -->
    <tag k="addr:city" v="Shelburne"/>
    <tag k="addr:housenumber" v="3530"/>
    <tag k="addr:street" v="Shelburne Road"/>
    <tag k="addr:state" v="VT"/>
    <tag k="ref:vcgi:esiteid" v="222911"/>
  </node>
  <node id="-2397" visible="true" lat="44.405176844554" lon="-73.217894610061">
    <!-- multiple: "3530 Shelburne Road, Shelburne, VT" Multiple exact matches in OSM. -->
    <tag k="addr:city" v="Shelburne"/>
    <tag k="addr:housenumber" v="3530"/>
    <tag k="addr:street" v="Shelburne Road"/>
    <tag k="addr:state" v="VT"/>
    <tag k="ref:vcgi:esiteid" v="222912"/>
  </node>
  <node id="-2398" visible="true" lat="44.40516759992" lon="-73.217797711638">
    <!-- multiple: "3530 Shelburne Road, Shelburne, VT" Multiple exact matches in OSM. -->
    <tag k="addr:city" v="Shelburne"/>
    <tag k="addr:housenumber" v="3530"/>
    <tag k="addr:street" v="Shelburne Road"/>
    <tag k="addr:state" v="VT"/>
    <tag k="ref:vcgi:esiteid" v="222913"/>
  </node>
  <node id="-2399" visible="true" lat="44.405163045686" lon="-73.217700112332">
    <!-- multiple: "3530 Shelburne Road, Shelburne, VT" Multiple exact matches in OSM. -->
    <tag k="addr:city" v="Shelburne"/>
    <tag k="addr:housenumber" v="3530"/>
    <tag k="addr:street" v="Shelburne Road"/>
    <tag k="addr:state" v="VT"/>
    <tag k="ref:vcgi:esiteid" v="222914"/>
  </node>
  <node id="-2400" visible="true" lat="44.405041970205" lon="-73.218113570832">
    <!-- multiple: "3530 Shelburne Road, Shelburne, VT" Multiple exact matches in OSM. -->
    <tag k="addr:city" v="Shelburne"/>
    <tag k="addr:housenumber" v="3530"/>
    <tag k="addr:street" v="Shelburne Road"/>
    <tag k="addr:state" v="VT"/>
    <tag k="ref:vcgi:esiteid" v="222915"/>
  </node>
  <node id="-2401" visible="true" lat="44.404881599446" lon="-73.218163259622">
    <!-- multiple: "3530 Shelburne Road, Shelburne, VT" Multiple exact matches in OSM. -->
    <tag k="addr:city" v="Shelburne"/>
    <tag k="addr:housenumber" v="3530"/>
    <tag k="addr:street" v="Shelburne Road"/>
    <tag k="addr:state" v="VT"/>
    <tag k="ref:vcgi:esiteid" v="222917"/>
  </node>
  <node id="-2445" visible="true" lat="44.369019894021" lon="-73.231416232859">
    <!-- multiple: "10 Marsett Road, Shelburne, VT" Multiple exact matches in OSM. -->
    <tag k="addr:city" v="Shelburne"/>
    <tag k="addr:housenumber" v="10"/>
    <tag k="addr:street" v="Marsett Road"/>
    <tag k="addr:state" v="VT"/>
    <tag k="ref:vcgi:esiteid" v="222966"/>
  </node>
  <node id="-2461" visible="true" lat="44.392869616077" lon="-73.218869472019">
    <!-- multiple: "4385 Shelburne Road, Shelburne, VT" Multiple exact matches in OSM. -->
    <tag k="addr:city" v="Shelburne"/>
    <tag k="addr:housenumber" v="4385"/>
    <tag k="addr:street" v="Shelburne Road"/>
    <tag k="addr:state" v="VT"/>
    <tag k="ref:vcgi:esiteid" v="222992"/>
  </node>
  <node id="-2462" visible="true" lat="44.392883619716" lon="-73.21851172114">
    <!-- multiple: "4385 Shelburne Road, Shelburne, VT" Multiple exact matches in OSM. -->
    <tag k="addr:city" v="Shelburne"/>
    <tag k="addr:housenumber" v="4385"/>
    <tag k="addr:street" v="Shelburne Road"/>
    <tag k="addr:state" v="VT"/>
    <tag k="ref:vcgi:esiteid" v="222993"/>
  </node>
  <node id="-2463" visible="true" lat="44.392873891159" lon="-73.218694100843">
    <!-- multiple: "4385 Shelburne Road, Shelburne, VT" Multiple exact matches in OSM. -->
    <tag k="addr:city" v="Shelburne"/>
    <tag k="addr:housenumber" v="4385"/>
    <tag k="addr:street" v="Shelburne Road"/>
    <tag k="addr:state" v="VT"/>
    <tag k="ref:vcgi:esiteid" v="222994"/>
  </node>
  <node id="-2464" visible="true" lat="44.392850312012" lon="-73.219056611841">
    <!-- multiple: "4385 Shelburne Road, Shelburne, VT" Multiple exact matches in OSM. -->
    <tag k="addr:city" v="Shelburne"/>
    <tag k="addr:housenumber" v="4385"/>
    <tag k="addr:street" v="Shelburne Road"/>
    <tag k="addr:state" v="VT"/>
    <tag k="ref:vcgi:esiteid" v="222995"/>
  </node>
  <node id="-2465" visible="true" lat="44.392846498551" lon="-73.219186311508">
    <!-- multiple: "4385 Shelburne Road, Shelburne, VT" Multiple exact matches in OSM. -->
    <tag k="addr:city" v="Shelburne"/>
    <tag k="addr:housenumber" v="4385"/>
    <tag k="addr:street" v="Shelburne Road"/>
    <tag k="addr:state" v="VT"/>
    <tag k="ref:vcgi:esiteid" v="222996"/>
  </node>
  <node id="-2466" visible="true" lat="44.392842865899" lon="-73.219291421411">
    <!-- multiple: "4385 Shelburne Road, Shelburne, VT" Multiple exact matches in OSM. -->
    <tag k="addr:city" v="Shelburne"/>
    <tag k="addr:housenumber" v="4385"/>
    <tag k="addr:street" v="Shelburne Road"/>
    <tag k="addr:state" v="VT"/>
    <tag k="ref:vcgi:esiteid" v="222997"/>
  </node>
  <node id="-2467" visible="true" lat="44.392757148088" lon="-73.218053974758">
    <!-- multiple: "4385 Shelburne Road, Shelburne, VT" Multiple exact matches in OSM. -->
    <tag k="addr:city" v="Shelburne"/>
    <tag k="addr:housenumber" v="4385"/>
    <tag k="addr:street" v="Shelburne Road"/>
    <tag k="addr:state" v="VT"/>
    <tag k="ref:vcgi:esiteid" v="222998"/>
  </node>
  <node id="-2468" visible="true" lat="44.392694543877" lon="-73.218813910147">
    <!-- multiple: "4385 Shelburne Road, Shelburne, VT" Multiple exact matches in OSM. -->
    <tag k="addr:city" v="Shelburne"/>
    <tag k="addr:housenumber" v="4385"/>
    <tag k="addr:street" v="Shelburne Road"/>
    <tag k="addr:state" v="VT"/>
    <tag k="ref:vcgi:esiteid" v="222999"/>
  </node>
  <node id="-2483" visible="true" lat="44.360761505151" lon="-73.235253751722">
    <!-- multiple: "6701 Shelburne Road, Shelburne, VT" Multiple exact matches in OSM. -->
    <tag k="addr:city" v="Shelburne"/>
    <tag k="addr:housenumber" v="6701"/>
    <tag k="addr:street" v="Shelburne Road"/>
    <tag k="addr:state" v="VT"/>
    <tag k="ref:vcgi:esiteid" v="223017"/>
  </node>
  <node id="-2559" visible="true" lat="44.37639614829" lon="-73.227970677043">
    <!-- multiple: "5565 Shelburne Road, Shelburne, VT" Multiple exact matches in OSM. -->
    <tag k="addr:city" v="Shelburne"/>
    <tag k="addr:housenumber" v="5565"/>
    <tag k="addr:street" v="Shelburne Road"/>
    <tag k="addr:state" v="VT"/>
    <tag k="ref:vcgi:esiteid" v="223101"/>
  </node>
  <node id="-2572" visible="true" lat="44.376986169373" lon="-73.227777516652">
    <!-- multiple: "5565 Shelburne Road, Shelburne, VT" Multiple exact matches in OSM. -->
    <tag k="addr:city" v="Shelburne"/>
    <tag k="addr:housenumber" v="5565"/>
    <tag k="addr:street" v="Shelburne Road"/>
    <tag k="addr:state" v="VT"/>
    <tag k="ref:vcgi:esiteid" v="223114"/>
  </node>
  <node id="-2629" visible="true" lat="44.378277621885" lon="-73.227526728877">
    <!-- multiple: "37 Church Street, Shelburne, VT" Multiple exact matches in OSM. -->
    <tag k="addr:city" v="Shelburne"/>
    <tag k="addr:housenumber" v="37"/>
    <tag k="addr:street" v="Church Street"/>
    <tag k="addr:state" v="VT"/>
    <tag k="ref:vcgi:esiteid" v="223171"/>
  </node>
  <node id="-3112" visible="true" lat="44.402690136956" lon="-73.218746966677">
    <!-- multiple: "3708 Shelburne Road, Shelburne, VT" Multiple exact matches in OSM. -->
    <tag k="addr:city" v="Shelburne"/>
    <tag k="addr:housenumber" v="3708"/>
    <tag k="addr:street" v="Shelburne Road"/>
    <tag k="addr:state" v="VT"/>
    <tag k="ref:vcgi:esiteid" v="340023"/>
  </node>
  <node id="-3306" visible="true" lat="44.39294131945" lon="-73.222945292382">
    <!-- multiple: "79 Shagbark Lane, Shelburne, VT" Multiple exact matches in OSM. -->
    <tag k="addr:city" v="Shelburne"/>
    <tag k="addr:housenumber" v="79"/>
    <tag k="addr:street" v="Shagbark Lane"/>
    <tag k="addr:state" v="VT"/>
    <tag k="ref:vcgi:esiteid" v="617941"/>
  </node>
  <node id="-3680" visible="true" lat="44.392913406478" lon="-73.217985362867">
    <!-- multiple: "4385 Shelburne Road, Shelburne, VT" Multiple exact matches in OSM. -->
    <tag k="addr:city" v="Shelburne"/>
    <tag k="addr:housenumber" v="4385"/>
    <tag k="addr:street" v="Shelburne Road"/>
    <tag k="addr:state" v="VT"/>
    <tag k="ref:vcgi:esiteid" v="772410"/>
  </node>
  <node id="-3681" visible="true" lat="44.393066121517" lon="-73.219078459474">
    <!-- multiple: "4385 Shelburne Road, Shelburne, VT" Multiple exact matches in OSM. -->
    <tag k="addr:city" v="Shelburne"/>
    <tag k="addr:housenumber" v="4385"/>
    <tag k="addr:street" v="Shelburne Road"/>
    <tag k="addr:state" v="VT"/>
    <tag k="ref:vcgi:esiteid" v="772411"/>
  </node>
  <node id="-3688" visible="true" lat="44.393044778037" lon="-73.218542781056">
    <!-- multiple: "4385 Shelburne Road, Shelburne, VT" Multiple exact matches in OSM. -->
    <tag k="addr:city" v="Shelburne"/>
    <tag k="addr:housenumber" v="4385"/>
    <tag k="addr:street" v="Shelburne Road"/>
    <tag k="addr:state" v="VT"/>
    <tag k="ref:vcgi:esiteid" v="772418"/>
  </node>
  <node id="-3689" visible="true" lat="44.39306675162" lon="-73.218941480663">
    <!-- multiple: "4385 Shelburne Road, Shelburne, VT" Multiple exact matches in OSM. -->
    <tag k="addr:city" v="Shelburne"/>
    <tag k="addr:housenumber" v="4385"/>
    <tag k="addr:street" v="Shelburne Road"/>
    <tag k="addr:state" v="VT"/>
    <tag k="ref:vcgi:esiteid" v="772419"/>
  </node>
  <node id="-3690" visible="true" lat="44.393077337523" lon="-73.219227998016">
    <!-- multiple: "4385 Shelburne Road, Shelburne, VT" Multiple exact matches in OSM. -->
    <tag k="addr:city" v="Shelburne"/>
    <tag k="addr:housenumber" v="4385"/>
    <tag k="addr:street" v="Shelburne Road"/>
    <tag k="addr:state" v="VT"/>
    <tag k="ref:vcgi:esiteid" v="772420"/>
  </node>
  <node id="-3693" visible="true" lat="44.392687213025" lon="-73.219343357649">
    <!-- multiple: "4385 Shelburne Road, Shelburne, VT" Multiple exact matches in OSM. -->
    <tag k="addr:city" v="Shelburne"/>
    <tag k="addr:housenumber" v="4385"/>
    <tag k="addr:street" v="Shelburne Road"/>
    <tag k="addr:state" v="VT"/>
    <tag k="ref:vcgi:esiteid" v="772423"/>
  </node>
  <node id="-3695" visible="true" lat="44.393432303885" lon="-73.218429509866">
    <!-- multiple: "4385 Shelburne Road, Shelburne, VT" Multiple exact matches in OSM. -->
    <tag k="addr:city" v="Shelburne"/>
    <tag k="addr:housenumber" v="4385"/>
    <tag k="addr:street" v="Shelburne Road"/>
    <tag k="addr:state" v="VT"/>
    <tag k="ref:vcgi:esiteid" v="772425"/>
  </node>
  <node id="-3696" visible="true" lat="44.393487872102" lon="-73.218646918435">
    <!-- multiple: "4385 Shelburne Road, Shelburne, VT" Multiple exact matches in OSM. -->
    <tag k="addr:city" v="Shelburne"/>
    <tag k="addr:housenumber" v="4385"/>
    <tag k="addr:street" v="Shelburne Road"/>
    <tag k="addr:state" v="VT"/>
    <tag k="ref:vcgi:esiteid" v="772426"/>
  </node>
  <node id="-3697" visible="true" lat="44.393121710826" lon="-73.218049537506">
    <!-- multiple: "4385 Shelburne Road, Shelburne, VT" Multiple exact matches in OSM. -->
    <tag k="addr:city" v="Shelburne"/>
    <tag k="addr:housenumber" v="4385"/>
    <tag k="addr:street" v="Shelburne Road"/>
    <tag k="addr:state" v="VT"/>
    <tag k="ref:vcgi:esiteid" v="772427"/>
  </node>
  <node id="-3700" visible="true" lat="44.39306206205" lon="-73.218667467786">
    <!-- multiple: "4385 Shelburne Road, Shelburne, VT" Multiple exact matches in OSM. -->
    <tag k="addr:city" v="Shelburne"/>
    <tag k="addr:housenumber" v="4385"/>
    <tag k="addr:street" v="Shelburne Road"/>
    <tag k="addr:state" v="VT"/>
    <tag k="ref:vcgi:esiteid" v="772430"/>
  </node>
  <node id="-3701" visible="true" lat="44.393067364446" lon="-73.218808651147">
    <!-- multiple: "4385 Shelburne Road, Shelburne, VT" Multiple exact matches in OSM. -->
    <tag k="addr:city" v="Shelburne"/>
    <tag k="addr:housenumber" v="4385"/>
    <tag k="addr:street" v="Shelburne Road"/>
    <tag k="addr:state" v="VT"/>
    <tag k="ref:vcgi:esiteid" v="772431"/>
  </node>
  <node id="-3702" visible="true" lat="44.393515428731" lon="-73.218459824706">
    <!-- multiple: "4385 Shelburne Road, Shelburne, VT" Multiple exact matches in OSM. -->
    <tag k="addr:city" v="Shelburne"/>
    <tag k="addr:housenumber" v="4385"/>
    <tag k="addr:street" v="Shelburne Road"/>
    <tag k="addr:state" v="VT"/>
    <tag k="ref:vcgi:esiteid" v="772432"/>
  </node>
  <node id="-3703" visible="true" lat="44.393630279346" lon="-73.21872652246">
    <!-- multiple: "4385 Shelburne Road, Shelburne, VT" Multiple exact matches in OSM. -->
    <tag k="addr:city" v="Shelburne"/>
    <tag k="addr:housenumber" v="4385"/>
    <tag k="addr:street" v="Shelburne Road"/>
    <tag k="addr:state" v="VT"/>
    <tag k="ref:vcgi:esiteid" v="772433"/>
  </node>
  <node id="-3704" visible="true" lat="44.393282023553" lon="-73.218084136766">
    <!-- multiple: "4385 Shelburne Road, Shelburne, VT" Multiple exact matches in OSM. -->
    <tag k="addr:city" v="Shelburne"/>
    <tag k="addr:housenumber" v="4385"/>
    <tag k="addr:street" v="Shelburne Road"/>
    <tag k="addr:state" v="VT"/>
    <tag k="ref:vcgi:esiteid" v="772434"/>
  </node>
  <node id="-3707" visible="true" lat="44.393048518561" lon="-73.218376771192">
    <!-- multiple: "4385 Shelburne Road, Shelburne, VT" Multiple exact matches in OSM. -->
    <tag k="addr:city" v="Shelburne"/>
    <tag k="addr:housenumber" v="4385"/>
    <tag k="addr:street" v="Shelburne Road"/>
    <tag k="addr:state" v="VT"/>
    <tag k="ref:vcgi:esiteid" v="772437"/>
  </node>
  <node id="-3709" visible="true" lat="44.393565126321" lon="-73.218655371004">
    <!-- multiple: "4385 Shelburne Road, Shelburne, VT" Multiple exact matches in OSM. -->
    <tag k="addr:city" v="Shelburne"/>
    <tag k="addr:housenumber" v="4385"/>
    <tag k="addr:street" v="Shelburne Road"/>
    <tag k="addr:state" v="VT"/>
    <tag k="ref:vcgi:esiteid" v="772439"/>
  </node>
  <node id="-3710" visible="true" lat="44.393410475357" lon="-73.218629078117">
    <!-- multiple: "4385 Shelburne Road, Shelburne, VT" Multiple exact matches in OSM. -->
    <tag k="addr:city" v="Shelburne"/>
    <tag k="addr:housenumber" v="4385"/>
    <tag k="addr:street" v="Shelburne Road"/>
    <tag k="addr:state" v="VT"/>
    <tag k="ref:vcgi:esiteid" v="772440"/>
  </node>
  <node id="-3711" visible="true" lat="44.393023261094" lon="-73.218044460269">
    <!-- multiple: "4385 Shelburne Road, Shelburne, VT" Multiple exact matches in OSM. -->
    <tag k="addr:city" v="Shelburne"/>
    <tag k="addr:housenumber" v="4385"/>
    <tag k="addr:street" v="Shelburne Road"/>
    <tag k="addr:state" v="VT"/>
    <tag k="ref:vcgi:esiteid" v="772441"/>
  </node>
</osm>
