<?xml version="1.0" encoding="UTF-8"?>
<osm version="0.6" generator="JOSM" upload="false">
  <node id="-106" visible="true" lat="43.941804433072" lon="-73.258915278706">
    <!-- offset: "4547 Vermont Route 74 East, Shoreham, VT" Significant offset - 388.3m -->
    <tag k="addr:city" v="Shoreham"/>
    <tag k="addr:housenumber" v="4547"/>
    <tag k="addr:street" v="Vermont Route 74 East"/>
    <tag k="addr:state" v="VT"/>
    <tag k="ref:vcgi:esiteid" v="225516"/>
  </node>
  <node id="-477" visible="true" lat="43.883278878768" lon="-73.290017952722">
    <!-- offset: "200 Burgess Road, Shoreham, VT" Significant offset - 322.4m -->
    <tag k="addr:city" v="Shoreham"/>
    <tag k="addr:housenumber" v="200"/>
    <tag k="addr:street" v="Burgess Road"/>
    <tag k="addr:state" v="VT"/>
    <tag k="ref:vcgi:esiteid" v="225904"/>
  </node>
  <node id="-665" visible="true" lat="43.852997783456" lon="-73.281411135751">
    <!-- offset: "7 North Orwell Road, Orwell, VT" Significant offset - 5588.7m -->
    <tag k="addr:city" v="Orwell"/>
    <tag k="addr:housenumber" v="7"/>
    <tag k="addr:street" v="North Orwell Road"/>
    <tag k="addr:state" v="VT"/>
    <tag k="ref:vcgi:esiteid" v="226094"/>
  </node>
  <node id="-784" visible="true" lat="43.86019897758" lon="-73.324425880343">
    <!-- offset: "748 Barnum Hill Road, Shoreham, VT" Significant offset - 215.8m -->
    <tag k="addr:city" v="Shoreham"/>
    <tag k="addr:housenumber" v="748"/>
    <tag k="addr:street" v="Barnum Hill Road"/>
    <tag k="addr:state" v="VT"/>
    <tag k="ref:vcgi:esiteid" v="226215"/>
  </node>
</osm>
