<?xml version="1.0" encoding="UTF-8"?>
<osm version="0.6" generator="JOSM" upload="false">
  <node id="-134" visible="true" lat="44.482062005981" lon="-73.163128614206">
    <!-- offset: "141 Shamrock Road, South Burlington, VT" Significant offset - 188.9m -->
    <tag k="addr:city" v="South Burlington"/>
    <tag k="addr:housenumber" v="141"/>
    <tag k="addr:street" v="Shamrock Road"/>
    <tag k="addr:state" v="VT"/>
    <tag k="ref:vcgi:esiteid" v="226880"/>
  </node>
  <node id="-1760" visible="true" lat="44.457964490238" lon="-73.147365143474">
    <!-- offset: "2041 Williston Road, South Burlington, VT" Significant offset - 128.6m -->
    <tag k="addr:city" v="South Burlington"/>
    <tag k="addr:housenumber" v="2041"/>
    <tag k="addr:street" v="Williston Road"/>
    <tag k="addr:state" v="VT"/>
    <tag k="ref:vcgi:esiteid" v="228886"/>
  </node>
  <node id="-1778" visible="true" lat="44.457053663745" lon="-73.138259341854">
    <!-- offset: "3 Gregory Drive, South Burlington, VT" Significant offset - 116.6m -->
    <tag k="addr:city" v="South Burlington"/>
    <tag k="addr:housenumber" v="3"/>
    <tag k="addr:street" v="Gregory Drive"/>
    <tag k="addr:state" v="VT"/>
    <tag k="ref:vcgi:esiteid" v="228905"/>
  </node>
  <node id="-1789" visible="true" lat="44.457486673068" lon="-73.14504500592">
    <!-- offset: "3017 Williston Road, South Burlington, VT" Significant offset - 154m -->
    <tag k="addr:city" v="South Burlington"/>
    <tag k="addr:housenumber" v="3017"/>
    <tag k="addr:street" v="Williston Road"/>
    <tag k="addr:state" v="VT"/>
    <tag k="ref:vcgi:esiteid" v="228919"/>
  </node>
  <node id="-1824" visible="true" lat="44.456228719919" lon="-73.181565990339">
    <!-- offset: "425 Dorset Street, South Burlington, VT" Significant offset - 129.5m -->
    <tag k="addr:city" v="South Burlington"/>
    <tag k="addr:housenumber" v="425"/>
    <tag k="addr:street" v="Dorset Street"/>
    <tag k="addr:state" v="VT"/>
    <tag k="ref:vcgi:esiteid" v="228966"/>
  </node>
  <node id="-1840" visible="true" lat="44.456553277552" lon="-73.181601312866">
    <!-- offset: "425 Dorset Street, South Burlington, VT" Significant offset - 121.7m -->
    <tag k="addr:city" v="South Burlington"/>
    <tag k="addr:housenumber" v="425"/>
    <tag k="addr:street" v="Dorset Street"/>
    <tag k="addr:state" v="VT"/>
    <tag k="ref:vcgi:esiteid" v="228983"/>
  </node>
  <node id="-1853" visible="true" lat="44.455822071718" lon="-73.181655051907">
    <!-- offset: "435 Dorset Street, South Burlington, VT" Significant offset - 120m -->
    <tag k="addr:city" v="South Burlington"/>
    <tag k="addr:housenumber" v="435"/>
    <tag k="addr:street" v="Dorset Street"/>
    <tag k="addr:state" v="VT"/>
    <tag k="ref:vcgi:esiteid" v="229005"/>
  </node>
  <node id="-1858" visible="true" lat="44.455610181108" lon="-73.182327119146">
    <!-- offset: "435 Dorset Street, South Burlington, VT" Significant offset - 176.9m -->
    <tag k="addr:city" v="South Burlington"/>
    <tag k="addr:housenumber" v="435"/>
    <tag k="addr:street" v="Dorset Street"/>
    <tag k="addr:state" v="VT"/>
    <tag k="ref:vcgi:esiteid" v="229012"/>
  </node>
  <node id="-1866" visible="true" lat="44.455556190319" lon="-73.161684688855">
    <!-- offset: "125 Kennedy Drive, South Burlington, VT" Significant offset - 175.9m -->
    <tag k="addr:city" v="South Burlington"/>
    <tag k="addr:housenumber" v="125"/>
    <tag k="addr:street" v="Kennedy Drive"/>
    <tag k="addr:state" v="VT"/>
    <tag k="ref:vcgi:esiteid" v="229024"/>
  </node>
  <node id="-1870" visible="true" lat="44.455671603902" lon="-73.168025268435">
    <!-- offset: "100 Kennedy Drive, South Burlington, VT" Significant offset - 112.8m -->
    <tag k="addr:city" v="South Burlington"/>
    <tag k="addr:housenumber" v="100"/>
    <tag k="addr:street" v="Kennedy Drive"/>
    <tag k="addr:state" v="VT"/>
    <tag k="ref:vcgi:esiteid" v="229028"/>
  </node>
  <node id="-1876" visible="true" lat="44.455385358244" lon="-73.18114764708">
    <!-- offset: "435 Dorset Street, South Burlington, VT" Significant offset - 102.7m -->
    <tag k="addr:city" v="South Burlington"/>
    <tag k="addr:housenumber" v="435"/>
    <tag k="addr:street" v="Dorset Street"/>
    <tag k="addr:state" v="VT"/>
    <tag k="ref:vcgi:esiteid" v="229036"/>
  </node>
  <node id="-1878" visible="true" lat="44.455251466221" lon="-73.162262804176">
    <!-- offset: "125 Kennedy Drive, South Burlington, VT" Significant offset - 118.9m -->
    <tag k="addr:city" v="South Burlington"/>
    <tag k="addr:housenumber" v="125"/>
    <tag k="addr:street" v="Kennedy Drive"/>
    <tag k="addr:state" v="VT"/>
    <tag k="ref:vcgi:esiteid" v="229039"/>
  </node>
  <node id="-1880" visible="true" lat="44.455245825365" lon="-73.181946537548">
    <!-- offset: "435 Dorset Street, South Burlington, VT" Significant offset - 163.7m -->
    <tag k="addr:city" v="South Burlington"/>
    <tag k="addr:housenumber" v="435"/>
    <tag k="addr:street" v="Dorset Street"/>
    <tag k="addr:state" v="VT"/>
    <tag k="ref:vcgi:esiteid" v="229042"/>
  </node>
  <node id="-1885" visible="true" lat="44.454960247795" lon="-73.181351075746">
    <!-- offset: "435 Dorset Street, South Burlington, VT" Significant offset - 147.8m -->
    <tag k="addr:city" v="South Burlington"/>
    <tag k="addr:housenumber" v="435"/>
    <tag k="addr:street" v="Dorset Street"/>
    <tag k="addr:state" v="VT"/>
    <tag k="ref:vcgi:esiteid" v="229050"/>
  </node>
  <node id="-1899" visible="true" lat="44.454743406382" lon="-73.180656523034">
    <!-- offset: "435 Dorset Street, South Burlington, VT" Significant offset - 143.2m -->
    <tag k="addr:city" v="South Burlington"/>
    <tag k="addr:housenumber" v="435"/>
    <tag k="addr:street" v="Dorset Street"/>
    <tag k="addr:state" v="VT"/>
    <tag k="ref:vcgi:esiteid" v="229068"/>
  </node>
  <node id="-1938" visible="true" lat="44.454697927652" lon="-73.166886103386">
    <!-- offset: "100 Kennedy Drive, South Burlington, VT" Significant offset - 142.7m -->
    <tag k="addr:city" v="South Burlington"/>
    <tag k="addr:housenumber" v="100"/>
    <tag k="addr:street" v="Kennedy Drive"/>
    <tag k="addr:state" v="VT"/>
    <tag k="ref:vcgi:esiteid" v="229114"/>
  </node>
  <node id="-1945" visible="true" lat="44.454654826064" lon="-73.161605550276">
    <!-- offset: "125 Kennedy Drive, South Burlington, VT" Significant offset - 145m -->
    <tag k="addr:city" v="South Burlington"/>
    <tag k="addr:housenumber" v="125"/>
    <tag k="addr:street" v="Kennedy Drive"/>
    <tag k="addr:state" v="VT"/>
    <tag k="ref:vcgi:esiteid" v="229122"/>
  </node>
  <node id="-1966" visible="true" lat="44.454155934417" lon="-73.163023689941">
    <!-- offset: "630 Hinesburg Road, South Burlington, VT" Significant offset - 115.3m -->
    <tag k="addr:city" v="South Burlington"/>
    <tag k="addr:housenumber" v="630"/>
    <tag k="addr:street" v="Hinesburg Road"/>
    <tag k="addr:state" v="VT"/>
    <tag k="ref:vcgi:esiteid" v="229147"/>
  </node>
  <node id="-1994" visible="true" lat="44.453783932389" lon="-73.163081747609">
    <!-- offset: "630 Hinesburg Road, South Burlington, VT" Significant offset - 109.5m -->
    <tag k="addr:city" v="South Burlington"/>
    <tag k="addr:housenumber" v="630"/>
    <tag k="addr:street" v="Hinesburg Road"/>
    <tag k="addr:state" v="VT"/>
    <tag k="ref:vcgi:esiteid" v="229186"/>
  </node>
  <node id="-2050" visible="true" lat="44.45265946586" lon="-73.167773474032">
    <!-- offset: "8 Timber Lane, South Burlington, VT" Significant offset - 104.6m -->
    <tag k="addr:city" v="South Burlington"/>
    <tag k="addr:housenumber" v="8"/>
    <tag k="addr:street" v="Timber Lane"/>
    <tag k="addr:state" v="VT"/>
    <tag k="ref:vcgi:esiteid" v="229256"/>
  </node>
  <node id="-2228" visible="true" lat="44.449673938282" lon="-73.207109088228">
    <!-- offset: "570 Shelburne Road, South Burlington, VT" Significant offset - 137.3m -->
    <tag k="addr:city" v="South Burlington"/>
    <tag k="addr:housenumber" v="570"/>
    <tag k="addr:street" v="Shelburne Road"/>
    <tag k="addr:state" v="VT"/>
    <tag k="ref:vcgi:esiteid" v="229485"/>
  </node>
  <node id="-2317" visible="true" lat="44.447433829139" lon="-73.181288902655">
    <!-- offset: "911 Dorset Street, South Burlington, VT" Significant offset - 283.1m -->
    <tag k="addr:city" v="South Burlington"/>
    <tag k="addr:housenumber" v="911"/>
    <tag k="addr:street" v="Dorset Street"/>
    <tag k="addr:state" v="VT"/>
    <tag k="ref:vcgi:esiteid" v="229604"/>
  </node>
  <node id="-2329" visible="true" lat="44.447236229765" lon="-73.180978608771">
    <!-- offset: "911 Dorset Street, South Burlington, VT" Significant offset - 283.8m -->
    <tag k="addr:city" v="South Burlington"/>
    <tag k="addr:housenumber" v="911"/>
    <tag k="addr:street" v="Dorset Street"/>
    <tag k="addr:state" v="VT"/>
    <tag k="ref:vcgi:esiteid" v="229617"/>
  </node>
  <node id="-2331" visible="true" lat="44.447314472025" lon="-73.181828846398">
    <!-- offset: "911 Dorset Street, South Burlington, VT" Significant offset - 246.9m -->
    <tag k="addr:city" v="South Burlington"/>
    <tag k="addr:housenumber" v="911"/>
    <tag k="addr:street" v="Dorset Street"/>
    <tag k="addr:state" v="VT"/>
    <tag k="ref:vcgi:esiteid" v="229619"/>
  </node>
  <node id="-2342" visible="true" lat="44.446998318683" lon="-73.184170477838">
    <!-- offset: "911 Dorset Street, South Burlington, VT" Significant offset - 177m -->
    <tag k="addr:city" v="South Burlington"/>
    <tag k="addr:housenumber" v="911"/>
    <tag k="addr:street" v="Dorset Street"/>
    <tag k="addr:state" v="VT"/>
    <tag k="ref:vcgi:esiteid" v="229632"/>
  </node>
  <node id="-2348" visible="true" lat="44.446962366984" lon="-73.181978541351">
    <!-- offset: "911 Dorset Street, South Burlington, VT" Significant offset - 208.1m -->
    <tag k="addr:city" v="South Burlington"/>
    <tag k="addr:housenumber" v="911"/>
    <tag k="addr:street" v="Dorset Street"/>
    <tag k="addr:state" v="VT"/>
    <tag k="ref:vcgi:esiteid" v="229638"/>
  </node>
  <node id="-2352" visible="true" lat="44.446534807215" lon="-73.182430431264">
    <!-- offset: "911 Dorset Street, South Burlington, VT" Significant offset - 148.5m -->
    <tag k="addr:city" v="South Burlington"/>
    <tag k="addr:housenumber" v="911"/>
    <tag k="addr:street" v="Dorset Street"/>
    <tag k="addr:state" v="VT"/>
    <tag k="ref:vcgi:esiteid" v="229642"/>
  </node>
  <node id="-2354" visible="true" lat="44.446810439316" lon="-73.184630077633">
    <!-- offset: "911 Dorset Street, South Burlington, VT" Significant offset - 171.8m -->
    <tag k="addr:city" v="South Burlington"/>
    <tag k="addr:housenumber" v="911"/>
    <tag k="addr:street" v="Dorset Street"/>
    <tag k="addr:state" v="VT"/>
    <tag k="ref:vcgi:esiteid" v="229644"/>
  </node>
  <node id="-2356" visible="true" lat="44.446727536684" lon="-73.183617116751">
    <!-- offset: "911 Dorset Street, South Burlington, VT" Significant offset - 140.1m -->
    <tag k="addr:city" v="South Burlington"/>
    <tag k="addr:housenumber" v="911"/>
    <tag k="addr:street" v="Dorset Street"/>
    <tag k="addr:state" v="VT"/>
    <tag k="ref:vcgi:esiteid" v="229646"/>
  </node>
  <node id="-2370" visible="true" lat="44.446490007333" lon="-73.179510038063">
    <!-- offset: "911 Dorset Street, South Burlington, VT" Significant offset - 340.7m -->
    <tag k="addr:city" v="South Burlington"/>
    <tag k="addr:housenumber" v="911"/>
    <tag k="addr:street" v="Dorset Street"/>
    <tag k="addr:state" v="VT"/>
    <tag k="ref:vcgi:esiteid" v="229666"/>
  </node>
  <node id="-2374" visible="true" lat="44.446383892177" lon="-73.18014251395">
    <!-- offset: "911 Dorset Street, South Burlington, VT" Significant offset - 289.5m -->
    <tag k="addr:city" v="South Burlington"/>
    <tag k="addr:housenumber" v="911"/>
    <tag k="addr:street" v="Dorset Street"/>
    <tag k="addr:state" v="VT"/>
    <tag k="ref:vcgi:esiteid" v="229671"/>
  </node>
  <node id="-2380" visible="true" lat="44.44640804171" lon="-73.183405782573">
    <!-- offset: "911 Dorset Street, South Burlington, VT" Significant offset - 105.2m -->
    <tag k="addr:city" v="South Burlington"/>
    <tag k="addr:housenumber" v="911"/>
    <tag k="addr:street" v="Dorset Street"/>
    <tag k="addr:state" v="VT"/>
    <tag k="ref:vcgi:esiteid" v="229678"/>
  </node>
  <node id="-2384" visible="true" lat="44.446055921108" lon="-73.182237086928">
    <!-- offset: "911 Dorset Street, South Burlington, VT" Significant offset - 123.5m -->
    <tag k="addr:city" v="South Burlington"/>
    <tag k="addr:housenumber" v="911"/>
    <tag k="addr:street" v="Dorset Street"/>
    <tag k="addr:state" v="VT"/>
    <tag k="ref:vcgi:esiteid" v="229685"/>
  </node>
  <node id="-2577" visible="true" lat="44.443563804824" lon="-73.220661274898">
    <!-- offset: "6 Lyons Avenue, South Burlington, VT" Significant offset - 151.1m -->
    <tag k="addr:city" v="South Burlington"/>
    <tag k="addr:housenumber" v="6"/>
    <tag k="addr:street" v="Lyons Avenue"/>
    <tag k="addr:state" v="VT"/>
    <tag k="ref:vcgi:esiteid" v="229923"/>
  </node>
  <node id="-2938" visible="true" lat="44.437902378961" lon="-73.219236746341">
    <!-- offset: "1195 Shelburne Road, South Burlington, VT" Significant offset - 486.7m -->
    <tag k="addr:city" v="South Burlington"/>
    <tag k="addr:housenumber" v="1195"/>
    <tag k="addr:street" v="Shelburne Road"/>
    <tag k="addr:state" v="VT"/>
    <tag k="ref:vcgi:esiteid" v="230356"/>
  </node>
  <node id="-3053" visible="true" lat="44.437115241883" lon="-73.219250178344">
    <!-- offset: "1195 Shelburne Road, South Burlington, VT" Significant offset - 399.7m -->
    <tag k="addr:city" v="South Burlington"/>
    <tag k="addr:housenumber" v="1195"/>
    <tag k="addr:street" v="Shelburne Road"/>
    <tag k="addr:state" v="VT"/>
    <tag k="ref:vcgi:esiteid" v="230480"/>
  </node>
  <node id="-3333" visible="true" lat="44.434492327887" lon="-73.217441247931">
    <!-- offset: "1195 Shelburne Road, South Burlington, VT" Significant offset - 145.2m -->
    <tag k="addr:city" v="South Burlington"/>
    <tag k="addr:housenumber" v="1195"/>
    <tag k="addr:street" v="Shelburne Road"/>
    <tag k="addr:state" v="VT"/>
    <tag k="ref:vcgi:esiteid" v="230802"/>
  </node>
  <node id="-3840" visible="true" lat="44.424582951587" lon="-73.204857507065">
    <!-- offset: "33 Harbor View Road, South Burlington, VT" Significant offset - 157m -->
    <tag k="addr:city" v="South Burlington"/>
    <tag k="addr:housenumber" v="33"/>
    <tag k="addr:street" v="Harbor View Road"/>
    <tag k="addr:state" v="VT"/>
    <tag k="ref:vcgi:esiteid" v="231410"/>
  </node>
  <node id="-3849" visible="true" lat="44.424253951415" lon="-73.204796871229">
    <!-- offset: "33 Harbor View Road, South Burlington, VT" Significant offset - 144.7m -->
    <tag k="addr:city" v="South Burlington"/>
    <tag k="addr:housenumber" v="33"/>
    <tag k="addr:street" v="Harbor View Road"/>
    <tag k="addr:state" v="VT"/>
    <tag k="ref:vcgi:esiteid" v="231422"/>
  </node>
  <node id="-3850" visible="true" lat="44.4241387404" lon="-73.204322389417">
    <!-- offset: "33 Harbor View Road, South Burlington, VT" Significant offset - 106.4m -->
    <tag k="addr:city" v="South Burlington"/>
    <tag k="addr:housenumber" v="33"/>
    <tag k="addr:street" v="Harbor View Road"/>
    <tag k="addr:state" v="VT"/>
    <tag k="ref:vcgi:esiteid" v="231423"/>
  </node>
  <node id="-5750" visible="true" lat="44.462661585847" lon="-73.167191781228">
    <!-- offset: "200 Hinesburg Road, South Burlington, VT" Significant offset - 165.1m -->
    <tag k="addr:city" v="South Burlington"/>
    <tag k="addr:housenumber" v="200"/>
    <tag k="addr:street" v="Hinesburg Road"/>
    <tag k="addr:state" v="VT"/>
    <tag k="ref:vcgi:esiteid" v="309601"/>
  </node>
  <node id="-7384" visible="true" lat="44.455070094647" lon="-73.18033476465">
    <!-- offset: "435 Dorset Street, South Burlington, VT" Significant offset - 102.3m -->
    <tag k="addr:city" v="South Burlington"/>
    <tag k="addr:housenumber" v="435"/>
    <tag k="addr:street" v="Dorset Street"/>
    <tag k="addr:state" v="VT"/>
    <tag k="ref:vcgi:esiteid" v="754756"/>
  </node>
  <node id="-7387" visible="true" lat="44.455124888338" lon="-73.181129107949">
    <!-- offset: "435 Dorset Street, South Burlington, VT" Significant offset - 122.5m -->
    <tag k="addr:city" v="South Burlington"/>
    <tag k="addr:housenumber" v="435"/>
    <tag k="addr:street" v="Dorset Street"/>
    <tag k="addr:state" v="VT"/>
    <tag k="ref:vcgi:esiteid" v="754759"/>
  </node>
  <node id="-7388" visible="true" lat="44.454961420019" lon="-73.181089808852">
    <!-- offset: "435 Dorset Street, South Burlington, VT" Significant offset - 135.4m -->
    <tag k="addr:city" v="South Burlington"/>
    <tag k="addr:housenumber" v="435"/>
    <tag k="addr:street" v="Dorset Street"/>
    <tag k="addr:state" v="VT"/>
    <tag k="ref:vcgi:esiteid" v="754760"/>
  </node>
  <node id="-7389" visible="true" lat="44.455130568608" lon="-73.181673548929">
    <!-- offset: "435 Dorset Street, South Burlington, VT" Significant offset - 153m -->
    <tag k="addr:city" v="South Burlington"/>
    <tag k="addr:housenumber" v="435"/>
    <tag k="addr:street" v="Dorset Street"/>
    <tag k="addr:state" v="VT"/>
    <tag k="ref:vcgi:esiteid" v="754761"/>
  </node>
  <node id="-7390" visible="true" lat="44.455300385203" lon="-73.182145101723">
    <!-- offset: "435 Dorset Street, South Burlington, VT" Significant offset - 174.8m -->
    <tag k="addr:city" v="South Burlington"/>
    <tag k="addr:housenumber" v="435"/>
    <tag k="addr:street" v="Dorset Street"/>
    <tag k="addr:state" v="VT"/>
    <tag k="ref:vcgi:esiteid" v="754762"/>
  </node>
  <node id="-7391" visible="true" lat="44.455408866122" lon="-73.182420631652">
    <!-- offset: "435 Dorset Street, South Burlington, VT" Significant offset - 190.4m -->
    <tag k="addr:city" v="South Burlington"/>
    <tag k="addr:housenumber" v="435"/>
    <tag k="addr:street" v="Dorset Street"/>
    <tag k="addr:state" v="VT"/>
    <tag k="ref:vcgi:esiteid" v="754763"/>
  </node>
  <node id="-7392" visible="true" lat="44.455755345416" lon="-73.182216888008">
    <!-- offset: "435 Dorset Street, South Burlington, VT" Significant offset - 165.2m -->
    <tag k="addr:city" v="South Burlington"/>
    <tag k="addr:housenumber" v="435"/>
    <tag k="addr:street" v="Dorset Street"/>
    <tag k="addr:state" v="VT"/>
    <tag k="ref:vcgi:esiteid" v="754764"/>
  </node>
  <node id="-7393" visible="true" lat="44.455793293339" lon="-73.181843327309">
    <!-- offset: "435 Dorset Street, South Burlington, VT" Significant offset - 135.3m -->
    <tag k="addr:city" v="South Burlington"/>
    <tag k="addr:housenumber" v="435"/>
    <tag k="addr:street" v="Dorset Street"/>
    <tag k="addr:state" v="VT"/>
    <tag k="ref:vcgi:esiteid" v="754765"/>
  </node>
</osm>
