<?xml version="1.0" encoding="UTF-8"?>
<osm version="0.6" generator="JOSM" upload="false">
  <node id="-533" visible="true" lat="43.330989309249" lon="-72.525572346631">
    <!-- multiple: "11 Church Street, North Springfield, VT" Multiple exact matches in OSM. -->
    <tag k="addr:city" v="North Springfield"/>
    <tag k="addr:housenumber" v="11"/>
    <tag k="addr:street" v="Church Street"/>
    <tag k="addr:state" v="VT"/>
    <tag k="ref:vcgi:esiteid" v="234823"/>
  </node>
  <node id="-1170" visible="true" lat="43.305774016253" lon="-72.498592338264">
    <!-- multiple: "33 Fairground Road, Springfield, VT" Multiple exact matches in OSM. -->
    <tag k="addr:city" v="Springfield"/>
    <tag k="addr:housenumber" v="33"/>
    <tag k="addr:street" v="Fairground Road"/>
    <tag k="addr:state" v="VT"/>
    <tag k="ref:vcgi:esiteid" v="235518"/>
  </node>
  <node id="-1172" visible="true" lat="43.305783491319" lon="-72.499482323782">
    <!-- multiple: "33 Fairground Road, Springfield, VT" Multiple exact matches in OSM. -->
    <tag k="addr:city" v="Springfield"/>
    <tag k="addr:housenumber" v="33"/>
    <tag k="addr:street" v="Fairground Road"/>
    <tag k="addr:state" v="VT"/>
    <tag k="ref:vcgi:esiteid" v="235520"/>
  </node>
  <node id="-1674" visible="true" lat="43.299523702892" lon="-72.481308268214">
    <!-- multiple: "6 Main Street, Springfield, VT" Multiple exact matches in OSM. -->
    <tag k="addr:city" v="Springfield"/>
    <tag k="addr:housenumber" v="6"/>
    <tag k="addr:street" v="Main Street"/>
    <tag k="addr:state" v="VT"/>
    <tag k="ref:vcgi:esiteid" v="236079"/>
  </node>
  <node id="-1725" visible="true" lat="43.298589177442" lon="-72.480732619157">
    <!-- multiple: "30 Pleasant Street, Springfield, VT" Multiple exact matches in OSM. -->
    <tag k="addr:city" v="Springfield"/>
    <tag k="addr:housenumber" v="30"/>
    <tag k="addr:street" v="Pleasant Street"/>
    <tag k="addr:state" v="VT"/>
    <tag k="ref:vcgi:esiteid" v="236144"/>
  </node>
  <node id="-1852" visible="true" lat="43.298059145135" lon="-72.481713915948">
    <!-- multiple: "56 Main Street, Springfield, VT" Multiple exact matches in OSM. -->
    <tag k="addr:city" v="Springfield"/>
    <tag k="addr:housenumber" v="56"/>
    <tag k="addr:street" v="Main Street"/>
    <tag k="addr:state" v="VT"/>
    <tag k="ref:vcgi:esiteid" v="236286"/>
  </node>
  <node id="-2261" visible="true" lat="43.293933134313" lon="-72.477416353148">
    <!-- multiple: "50 Clinton Street, Springfield, VT" Multiple exact matches in OSM. -->
    <tag k="addr:city" v="Springfield"/>
    <tag k="addr:housenumber" v="50"/>
    <tag k="addr:street" v="Clinton Street"/>
    <tag k="addr:state" v="VT"/>
    <tag k="ref:vcgi:esiteid" v="236736"/>
  </node>
</osm>
