<?xml version="1.0" encoding="UTF-8"?>
<osm version="0.6" generator="JOSM" upload="false">
  <node id="-102" visible="true" lat="44.561952034721" lon="-72.214960217856">
    <!-- duplicates-in-different-towns: "77 Flagg Pond Road, Greensboro Bend, VT"  ignoring town mismatch for duplicate housenumber/street when matching to esiteid 286039: "77 Flagg Pond Road, Wheelock, VT" -->
    <tag k="addr:city" v="Greensboro Bend"/>
    <tag k="addr:housenumber" v="77"/>
    <tag k="addr:street" v="Flagg Pond Road"/>
    <tag k="addr:state" v="VT"/>
    <tag k="ref:vcgi:esiteid" v="315"/>
  </node>
  <node id="-333" visible="true" lat="44.528554587091" lon="-72.206657866472">
    <!-- duplicates-in-different-towns: "154 Silver Road, East Hardwick, VT"  ignoring town mismatch for duplicate housenumber/street when matching to esiteid 755858: "154 Silver Road, , VT" -->
    <tag k="addr:city" v="East Hardwick"/>
    <tag k="addr:housenumber" v="154"/>
    <tag k="addr:street" v="Silver Road"/>
    <tag k="addr:state" v="VT"/>
    <tag k="ref:vcgi:esiteid" v="773257"/>
  </node>
</osm>
