<?xml version="1.0" encoding="UTF-8"?>
<osm version="0.6" generator="JOSM" upload="false">
  <node id="-1020" visible="true" lat="44.16114285392" lon="-72.98481546908">
    <!-- duplicates-in-different-towns: "635 Russell Young Road, Bristol, VT"  ignoring town mismatch for duplicate housenumber/street when matching to esiteid 248767: "635 Russell Young Road, Lincoln, VT" -->
    <tag k="addr:city" v="Bristol"/>
    <tag k="addr:housenumber" v="635"/>
    <tag k="addr:street" v="Russell Young Road"/>
    <tag k="addr:state" v="VT"/>
    <tag k="ref:vcgi:esiteid" v="451823"/>
  </node>
  <node id="-1073" visible="true" lat="44.170732307849" lon="-73.0164722147">
    <!-- duplicates-in-different-towns: "687 Dan Sargent Road, Starksboro, VT"  ignoring town mismatch for duplicate housenumber/street when matching to esiteid 764382: "687 Dan Sargent Road, Bristol, VT" -->
    <tag k="addr:city" v="Starksboro"/>
    <tag k="addr:housenumber" v="687"/>
    <tag k="addr:street" v="Dan Sargent Road"/>
    <tag k="addr:state" v="VT"/>
    <tag k="ref:vcgi:esiteid" v="764381"/>
  </node>
  <node id="-1087" visible="true" lat="44.217945487337" lon="-73.026184212651">
    <!-- duplicates-in-different-towns: "1229 Carp Cole Road, Starksboro, VT"  ignoring town mismatch for duplicate housenumber/street when matching to esiteid 446446: "1229 Carp Cole Road, , VT" -->
    <tag k="addr:city" v="Starksboro"/>
    <tag k="addr:housenumber" v="1229"/>
    <tag k="addr:street" v="Carp Cole Road"/>
    <tag k="addr:state" v="VT"/>
    <tag k="ref:vcgi:esiteid" v="772744"/>
  </node>
</osm>
