<?xml version="1.0" encoding="UTF-8"?>
<osm version="0.6" generator="JOSM" upload="false">
  <node id="-100" visible="true" lat="44.217526861523" lon="-72.963409671004">
    <tag k="addr:city" v="Starksboro"/>
    <tag k="addr:housenumber" v="5409"/>
    <tag k="addr:street" v="Vermont Route 17"/>
    <tag k="addr:state" v="VT"/>
    <tag k="ref:vcgi:esiteid" v="247931"/>
  </node>
  <node id="-227" visible="true" lat="44.279969870064" lon="-73.067955846128">
    <tag k="addr:city" v="Starksboro"/>
    <tag k="addr:housenumber" v="6686"/>
    <tag k="addr:street" v="Vermont Route 116"/>
    <tag k="addr:state" v="VT"/>
    <tag k="ref:vcgi:esiteid" v="248059"/>
  </node>
  <node id="-231" visible="true" lat="44.27962221673" lon="-73.068910042194">
    <tag k="addr:city" v="Starksboro"/>
    <tag k="addr:housenumber" v="6657"/>
    <tag k="addr:street" v="Vermont Route 116"/>
    <tag k="addr:state" v="VT"/>
    <tag k="ref:vcgi:esiteid" v="248063"/>
  </node>
  <node id="-239" visible="true" lat="44.2781171109" lon="-73.067735886788">
    <tag k="addr:city" v="Starksboro"/>
    <tag k="addr:housenumber" v="6558"/>
    <tag k="addr:street" v="Vermont Route 116"/>
    <tag k="addr:state" v="VT"/>
    <tag k="ref:vcgi:esiteid" v="248071"/>
  </node>
  <node id="-246" visible="true" lat="44.27668372828" lon="-73.06738614738">
    <tag k="addr:city" v="Starksboro"/>
    <tag k="addr:housenumber" v="6456"/>
    <tag k="addr:street" v="Vermont Route 116"/>
    <tag k="addr:state" v="VT"/>
    <tag k="ref:vcgi:esiteid" v="248078"/>
  </node>
  <node id="-249" visible="true" lat="44.275503598529" lon="-73.067058449559">
    <tag k="addr:city" v="Starksboro"/>
    <tag k="addr:housenumber" v="6376"/>
    <tag k="addr:street" v="Vermont Route 116"/>
    <tag k="addr:state" v="VT"/>
    <tag k="ref:vcgi:esiteid" v="248081"/>
  </node>
  <node id="-254" visible="true" lat="44.274097547428" lon="-73.067715863922">
    <tag k="addr:city" v="Starksboro"/>
    <tag k="addr:housenumber" v="6279"/>
    <tag k="addr:street" v="Vermont Route 116"/>
    <tag k="addr:state" v="VT"/>
    <tag k="ref:vcgi:esiteid" v="248086"/>
  </node>
  <node id="-255" visible="true" lat="44.273856801711" lon="-73.066310835825">
    <tag k="addr:city" v="Starksboro"/>
    <tag k="addr:housenumber" v="6248"/>
    <tag k="addr:street" v="Vermont Route 116"/>
    <tag k="addr:state" v="VT"/>
    <tag k="ref:vcgi:esiteid" v="248087"/>
  </node>
  <node id="-257" visible="true" lat="44.27427530806" lon="-73.065910394665">
    <tag k="addr:city" v="Starksboro"/>
    <tag k="addr:housenumber" v="6274"/>
    <tag k="addr:street" v="Vermont Route 116"/>
    <tag k="addr:state" v="VT"/>
    <tag k="ref:vcgi:esiteid" v="248089"/>
  </node>
  <node id="-267" visible="true" lat="44.271691367113" lon="-73.06682254634">
    <tag k="addr:city" v="Starksboro"/>
    <tag k="addr:housenumber" v="17"/>
    <tag k="addr:street" v="Mountain View Drive"/>
    <tag k="addr:state" v="VT"/>
    <tag k="ref:vcgi:esiteid" v="248099"/>
  </node>
  <node id="-269" visible="true" lat="44.271401403395" lon="-73.066875218622">
    <tag k="addr:city" v="Starksboro"/>
    <tag k="addr:housenumber" v="15"/>
    <tag k="addr:street" v="Mountain View Drive"/>
    <tag k="addr:state" v="VT"/>
    <tag k="ref:vcgi:esiteid" v="248101"/>
  </node>
  <node id="-272" visible="true" lat="44.268929360158" lon="-73.066733409415">
    <tag k="addr:city" v="Starksboro"/>
    <tag k="addr:housenumber" v="5902"/>
    <tag k="addr:street" v="Vermont Route 116"/>
    <tag k="addr:state" v="VT"/>
    <tag k="ref:vcgi:esiteid" v="248104"/>
  </node>
  <node id="-273" visible="true" lat="44.268593890233" lon="-73.067902201855">
    <tag k="addr:city" v="Starksboro"/>
    <tag k="addr:housenumber" v="5899"/>
    <tag k="addr:street" v="Vermont Route 116"/>
    <tag k="addr:state" v="VT"/>
    <tag k="ref:vcgi:esiteid" v="248105"/>
  </node>
  <node id="-279" visible="true" lat="44.262777872163" lon="-73.065898427876">
    <tag k="addr:city" v="Starksboro"/>
    <tag k="addr:housenumber" v="5459"/>
    <tag k="addr:street" v="Vermont Route 116"/>
    <tag k="addr:state" v="VT"/>
    <tag k="ref:vcgi:esiteid" v="248111"/>
  </node>
  <node id="-280" visible="true" lat="44.262516171408" lon="-73.065937112672">
    <tag k="addr:city" v="Starksboro"/>
    <tag k="addr:housenumber" v="5461"/>
    <tag k="addr:street" v="Vermont Route 116"/>
    <tag k="addr:state" v="VT"/>
    <tag k="ref:vcgi:esiteid" v="248112"/>
  </node>
  <node id="-281" visible="true" lat="44.262696651516" lon="-73.066675090315">
    <tag k="addr:city" v="Starksboro"/>
    <tag k="addr:housenumber" v="5463"/>
    <tag k="addr:street" v="Vermont Route 116"/>
    <tag k="addr:state" v="VT"/>
    <tag k="ref:vcgi:esiteid" v="248113"/>
  </node>
  <node id="-286" visible="true" lat="44.258839242156" lon="-73.063303073188">
    <tag k="addr:city" v="Starksboro"/>
    <tag k="addr:housenumber" v="5192"/>
    <tag k="addr:street" v="Vermont Route 116"/>
    <tag k="addr:state" v="VT"/>
    <tag k="ref:vcgi:esiteid" v="248118"/>
  </node>
  <node id="-288" visible="true" lat="44.258632710775" lon="-73.064712829173">
    <tag k="addr:city" v="Starksboro"/>
    <tag k="addr:housenumber" v="5215"/>
    <tag k="addr:street" v="Vermont Route 116"/>
    <tag k="addr:state" v="VT"/>
    <tag k="ref:vcgi:esiteid" v="248120"/>
  </node>
  <node id="-291" visible="true" lat="44.257788494346" lon="-73.064140896822">
    <tag k="addr:city" v="Starksboro"/>
    <tag k="addr:housenumber" v="5123"/>
    <tag k="addr:street" v="Vermont Route 116"/>
    <tag k="addr:state" v="VT"/>
    <tag k="ref:vcgi:esiteid" v="248124"/>
  </node>
  <node id="-292" visible="true" lat="44.255653236153" lon="-73.056988472829">
    <tag k="addr:city" v="Starksboro"/>
    <tag k="addr:housenumber" v="315"/>
    <tag k="addr:street" v="Varney Hill Road"/>
    <tag k="addr:state" v="VT"/>
    <tag k="ref:vcgi:esiteid" v="248125"/>
  </node>
  <node id="-295" visible="true" lat="44.255357443629" lon="-73.061842873872">
    <tag k="addr:city" v="Starksboro"/>
    <tag k="addr:housenumber" v="75"/>
    <tag k="addr:street" v="Varney Hill Road"/>
    <tag k="addr:state" v="VT"/>
    <tag k="ref:vcgi:esiteid" v="248128"/>
  </node>
  <node id="-296" visible="true" lat="44.255138169413" lon="-73.055812246502">
    <tag k="addr:city" v="Starksboro"/>
    <tag k="addr:housenumber" v="353"/>
    <tag k="addr:street" v="Varney Hill Road"/>
    <tag k="addr:state" v="VT"/>
    <tag k="ref:vcgi:esiteid" v="248129"/>
  </node>
  <node id="-297" visible="true" lat="44.25511820567" lon="-73.053238486024">
    <tag k="addr:city" v="Starksboro"/>
    <tag k="addr:housenumber" v="619"/>
    <tag k="addr:street" v="Varney Hill Road"/>
    <tag k="addr:state" v="VT"/>
    <tag k="ref:vcgi:esiteid" v="248130"/>
  </node>
  <node id="-298" visible="true" lat="44.2549081866" lon="-73.057695825695">
    <tag k="addr:city" v="Starksboro"/>
    <tag k="addr:housenumber" v="274"/>
    <tag k="addr:street" v="Varney Hill Road"/>
    <tag k="addr:state" v="VT"/>
    <tag k="ref:vcgi:esiteid" v="248131"/>
  </node>
  <node id="-299" visible="true" lat="44.255051762476" lon="-73.061953689885">
    <tag k="addr:city" v="Starksboro"/>
    <tag k="addr:housenumber" v="63"/>
    <tag k="addr:street" v="Varney Hill Road"/>
    <tag k="addr:state" v="VT"/>
    <tag k="ref:vcgi:esiteid" v="248132"/>
  </node>
  <node id="-300" visible="true" lat="44.254684180599" lon="-73.059302551977">
    <tag k="addr:city" v="Starksboro"/>
    <tag k="addr:housenumber" v="214"/>
    <tag k="addr:street" v="Varney Hill Road"/>
    <tag k="addr:state" v="VT"/>
    <tag k="ref:vcgi:esiteid" v="248133"/>
  </node>
  <node id="-303" visible="true" lat="44.254266101535" lon="-73.058748958133">
    <tag k="addr:city" v="Starksboro"/>
    <tag k="addr:housenumber" v="220"/>
    <tag k="addr:street" v="Varney Hill Road"/>
    <tag k="addr:state" v="VT"/>
    <tag k="ref:vcgi:esiteid" v="248136"/>
  </node>
  <node id="-304" visible="true" lat="44.254469706831" lon="-73.06275234573">
    <tag k="addr:city" v="Starksboro"/>
    <tag k="addr:housenumber" v="22"/>
    <tag k="addr:street" v="Varney Hill Road"/>
    <tag k="addr:state" v="VT"/>
    <tag k="ref:vcgi:esiteid" v="248137"/>
  </node>
  <node id="-305" visible="true" lat="44.254593674047" lon="-73.055553823354">
    <tag k="addr:city" v="Starksboro"/>
    <tag k="addr:housenumber" v="401"/>
    <tag k="addr:street" v="Varney Hill Road"/>
    <tag k="addr:state" v="VT"/>
    <tag k="ref:vcgi:esiteid" v="248138"/>
  </node>
  <node id="-315" visible="true" lat="44.2525966895" lon="-73.063225367026">
    <tag k="addr:city" v="Starksboro"/>
    <tag k="addr:housenumber" v="4763"/>
    <tag k="addr:street" v="Vermont Route 116"/>
    <tag k="addr:state" v="VT"/>
    <tag k="ref:vcgi:esiteid" v="248148"/>
  </node>
  <node id="-317" visible="true" lat="44.251630451159" lon="-73.062101415625">
    <tag k="addr:city" v="Starksboro"/>
    <tag k="addr:housenumber" v="4696"/>
    <tag k="addr:street" v="Vermont Route 116"/>
    <tag k="addr:state" v="VT"/>
    <tag k="ref:vcgi:esiteid" v="248150"/>
  </node>
  <node id="-319" visible="true" lat="44.250330380359" lon="-73.063812299048">
    <tag k="addr:city" v="Starksboro"/>
    <tag k="addr:housenumber" v="353"/>
    <tag k="addr:street" v="Cemetery Road"/>
    <tag k="addr:state" v="VT"/>
    <tag k="ref:vcgi:esiteid" v="248152"/>
  </node>
  <node id="-322" visible="true" lat="44.249355839305" lon="-73.062413380774">
    <tag k="addr:city" v="Starksboro"/>
    <tag k="addr:housenumber" v="306"/>
    <tag k="addr:street" v="Cemetery Road"/>
    <tag k="addr:state" v="VT"/>
    <tag k="ref:vcgi:esiteid" v="248155"/>
  </node>
  <node id="-323" visible="true" lat="44.248987987218" lon="-73.061188319639">
    <tag k="addr:city" v="Starksboro"/>
    <tag k="addr:housenumber" v="4494"/>
    <tag k="addr:street" v="Vermont Route 116"/>
    <tag k="addr:state" v="VT"/>
    <tag k="ref:vcgi:esiteid" v="248156"/>
  </node>
  <node id="-327" visible="true" lat="44.248541667351" lon="-73.061112024299">
    <tag k="addr:city" v="Starksboro"/>
    <tag k="addr:housenumber" v="4464"/>
    <tag k="addr:street" v="Vermont Route 116"/>
    <tag k="addr:state" v="VT"/>
    <tag k="ref:vcgi:esiteid" v="248160"/>
  </node>
  <node id="-328" visible="true" lat="44.248274639098" lon="-73.06086788265">
    <tag k="addr:city" v="Starksboro"/>
    <tag k="addr:housenumber" v="4442"/>
    <tag k="addr:street" v="Vermont Route 116"/>
    <tag k="addr:state" v="VT"/>
    <tag k="ref:vcgi:esiteid" v="248161"/>
  </node>
  <node id="-331" visible="true" lat="44.247774911038" lon="-73.079681976297">
    <tag k="addr:city" v="Starksboro"/>
    <tag k="addr:housenumber" v="1363"/>
    <tag k="addr:street" v="States Prison Hollow Road"/>
    <tag k="addr:state" v="VT"/>
    <tag k="ref:vcgi:esiteid" v="248164"/>
  </node>
  <node id="-348" visible="true" lat="44.245531869787" lon="-73.064018826161">
    <tag k="addr:city" v="Starksboro"/>
    <tag k="addr:housenumber" v="274"/>
    <tag k="addr:street" v="States Prison Hollow Road"/>
    <tag k="addr:state" v="VT"/>
    <tag k="ref:vcgi:esiteid" v="248181"/>
  </node>
  <node id="-350" visible="true" lat="44.245215250238" lon="-73.065262415996">
    <tag k="addr:city" v="Starksboro"/>
    <tag k="addr:housenumber" v="306"/>
    <tag k="addr:street" v="States Prison Hollow Road"/>
    <tag k="addr:state" v="VT"/>
    <tag k="ref:vcgi:esiteid" v="248183"/>
  </node>
  <node id="-351" visible="true" lat="44.245219065824" lon="-73.063400843447">
    <tag k="addr:city" v="Starksboro"/>
    <tag k="addr:housenumber" v="247"/>
    <tag k="addr:street" v="States Prison Hollow Road"/>
    <tag k="addr:state" v="VT"/>
    <tag k="ref:vcgi:esiteid" v="248184"/>
  </node>
  <node id="-355" visible="true" lat="44.244589639237" lon="-73.066536526374">
    <tag k="addr:city" v="Starksboro"/>
    <tag k="addr:housenumber" v="394"/>
    <tag k="addr:street" v="States Prison Hollow Road"/>
    <tag k="addr:state" v="VT"/>
    <tag k="ref:vcgi:esiteid" v="248188"/>
  </node>
  <node id="-358" visible="true" lat="44.244498087916" lon="-73.066887478518">
    <tag k="addr:city" v="Starksboro"/>
    <tag k="addr:housenumber" v="396"/>
    <tag k="addr:street" v="States Prison Hollow Road"/>
    <tag k="addr:state" v="VT"/>
    <tag k="ref:vcgi:esiteid" v="248191"/>
  </node>
  <node id="-359" visible="true" lat="44.244345498426" lon="-73.07199154505">
    <tag k="addr:city" v="Starksboro"/>
    <tag k="addr:housenumber" v="233"/>
    <tag k="addr:street" v="States Prison Hollow Extension"/>
    <tag k="addr:state" v="VT"/>
    <tag k="ref:vcgi:esiteid" v="248192"/>
  </node>
  <node id="-363" visible="true" lat="44.244007597209" lon="-73.07227739242">
    <tag k="addr:city" v="Starksboro"/>
    <tag k="addr:housenumber" v="216"/>
    <tag k="addr:street" v="States Prison Hollow Extension"/>
    <tag k="addr:state" v="VT"/>
    <tag k="ref:vcgi:esiteid" v="248196"/>
  </node>
  <node id="-364" visible="true" lat="44.244147135328" lon="-73.066361050534">
    <tag k="addr:city" v="Starksboro"/>
    <tag k="addr:housenumber" v="423"/>
    <tag k="addr:street" v="States Prison Hollow Road"/>
    <tag k="addr:state" v="VT"/>
    <tag k="ref:vcgi:esiteid" v="248197"/>
  </node>
  <node id="-366" visible="true" lat="44.243967843915" lon="-73.067169766259">
    <tag k="addr:city" v="Starksboro"/>
    <tag k="addr:housenumber" v="442"/>
    <tag k="addr:street" v="States Prison Hollow Road"/>
    <tag k="addr:state" v="VT"/>
    <tag k="ref:vcgi:esiteid" v="248199"/>
  </node>
  <node id="-368" visible="true" lat="44.243831681479" lon="-73.058639244078">
    <tag k="addr:city" v="Starksboro"/>
    <tag k="addr:housenumber" v="4118"/>
    <tag k="addr:street" v="Vermont Route 116"/>
    <tag k="addr:state" v="VT"/>
    <tag k="ref:vcgi:esiteid" v="248201"/>
  </node>
  <node id="-370" visible="true" lat="44.242745089327" lon="-73.071783051518">
    <tag k="addr:city" v="Starksboro"/>
    <tag k="addr:housenumber" v="719"/>
    <tag k="addr:street" v="States Prison Hollow Road"/>
    <tag k="addr:state" v="VT"/>
    <tag k="ref:vcgi:esiteid" v="248203"/>
  </node>
  <node id="-374" visible="true" lat="44.241226564113" lon="-73.057853919356">
    <tag k="addr:city" v="Starksboro"/>
    <tag k="addr:housenumber" v="3902"/>
    <tag k="addr:street" v="Vermont Route 116"/>
    <tag k="addr:state" v="VT"/>
    <tag k="ref:vcgi:esiteid" v="248207"/>
  </node>
  <node id="-378" visible="true" lat="44.239619144628" lon="-73.057075774277">
    <tag k="addr:city" v="Starksboro"/>
    <tag k="addr:housenumber" v="3822"/>
    <tag k="addr:street" v="Vermont Route 116"/>
    <tag k="addr:state" v="VT"/>
    <tag k="ref:vcgi:esiteid" v="248211"/>
  </node>
  <node id="-389" visible="true" lat="44.236746564605" lon="-73.056513054546">
    <tag k="addr:city" v="Starksboro"/>
    <tag k="addr:housenumber" v="69"/>
    <tag k="addr:street" v="Maple Hill Drive"/>
    <tag k="addr:state" v="VT"/>
    <tag k="ref:vcgi:esiteid" v="248222"/>
  </node>
  <node id="-393" visible="true" lat="44.234881234059" lon="-73.057022668055">
    <tag k="addr:city" v="Starksboro"/>
    <tag k="addr:housenumber" v="3478"/>
    <tag k="addr:street" v="Vermont Route 116"/>
    <tag k="addr:state" v="VT"/>
    <tag k="ref:vcgi:esiteid" v="248226"/>
  </node>
  <node id="-397" visible="true" lat="44.233176063478" lon="-73.057106590005">
    <tag k="addr:city" v="Starksboro"/>
    <tag k="addr:housenumber" v="3377"/>
    <tag k="addr:street" v="Vermont Route 116"/>
    <tag k="addr:state" v="VT"/>
    <tag k="ref:vcgi:esiteid" v="248230"/>
  </node>
  <node id="-398" visible="true" lat="44.233270603141" lon="-73.055815196085">
    <tag k="addr:city" v="Starksboro"/>
    <tag k="addr:housenumber" v="3390"/>
    <tag k="addr:street" v="Vermont Route 116"/>
    <tag k="addr:state" v="VT"/>
    <tag k="ref:vcgi:esiteid" v="248231"/>
  </node>
  <node id="-399" visible="true" lat="44.232477972955" lon="-73.057083701696">
    <tag k="addr:city" v="Starksboro"/>
    <tag k="addr:housenumber" v="3329"/>
    <tag k="addr:street" v="Vermont Route 116"/>
    <tag k="addr:state" v="VT"/>
    <tag k="ref:vcgi:esiteid" v="248232"/>
  </node>
  <node id="-404" visible="true" lat="44.231512854916" lon="-73.057037926139">
    <tag k="addr:city" v="Starksboro"/>
    <tag k="addr:housenumber" v="3263"/>
    <tag k="addr:street" v="Vermont Route 116"/>
    <tag k="addr:state" v="VT"/>
    <tag k="ref:vcgi:esiteid" v="248237"/>
  </node>
  <node id="-405" visible="true" lat="44.231409858464" lon="-73.056694602077">
    <tag k="addr:city" v="Starksboro"/>
    <tag k="addr:housenumber" v="3254"/>
    <tag k="addr:street" v="Vermont Route 116"/>
    <tag k="addr:state" v="VT"/>
    <tag k="ref:vcgi:esiteid" v="248238"/>
  </node>
  <node id="-409" visible="true" lat="44.230463813665" lon="-73.05671748958">
    <tag k="addr:city" v="Starksboro"/>
    <tag k="addr:housenumber" v="3190"/>
    <tag k="addr:street" v="Vermont Route 116"/>
    <tag k="addr:state" v="VT"/>
    <tag k="ref:vcgi:esiteid" v="248242"/>
  </node>
  <node id="-410" visible="true" lat="44.230116676646" lon="-73.056954002353">
    <tag k="addr:city" v="Starksboro"/>
    <tag k="addr:housenumber" v="3165"/>
    <tag k="addr:street" v="Vermont Route 116"/>
    <tag k="addr:state" v="VT"/>
    <tag k="ref:vcgi:esiteid" v="248243"/>
  </node>
  <node id="-412" visible="true" lat="44.229801257373" lon="-73.056506833599">
    <tag k="addr:city" v="Starksboro"/>
    <tag k="addr:housenumber" v="3112"/>
    <tag k="addr:street" v="Vermont Route 116"/>
    <tag k="addr:state" v="VT"/>
    <tag k="ref:vcgi:esiteid" v="248245"/>
  </node>
  <node id="-414" visible="true" lat="44.229590248324" lon="-73.057106588875">
    <tag k="addr:city" v="Starksboro"/>
    <tag k="addr:housenumber" v="3127"/>
    <tag k="addr:street" v="Vermont Route 116"/>
    <tag k="addr:state" v="VT"/>
    <tag k="ref:vcgi:esiteid" v="248247"/>
  </node>
  <node id="-415" visible="true" lat="44.229128669914" lon="-73.057152367449">
    <tag k="addr:city" v="Starksboro"/>
    <tag k="addr:housenumber" v="3095"/>
    <tag k="addr:street" v="Vermont Route 116"/>
    <tag k="addr:state" v="VT"/>
    <tag k="ref:vcgi:esiteid" v="248248"/>
  </node>
  <node id="-417" visible="true" lat="44.228978815325" lon="-73.05657575022">
    <tag k="addr:city" v="Starksboro"/>
    <tag k="addr:housenumber" v="3056"/>
    <tag k="addr:street" v="Vermont Route 116"/>
    <tag k="addr:state" v="VT"/>
    <tag k="ref:vcgi:esiteid" v="248250"/>
  </node>
  <node id="-418" visible="true" lat="44.228871031404" lon="-73.057186237381">
    <tag k="addr:city" v="Starksboro"/>
    <tag k="addr:housenumber" v="3071"/>
    <tag k="addr:street" v="Vermont Route 116"/>
    <tag k="addr:state" v="VT"/>
    <tag k="ref:vcgi:esiteid" v="248251"/>
  </node>
  <node id="-422" visible="true" lat="44.228497167178" lon="-73.056670516675">
    <tag k="addr:city" v="Starksboro"/>
    <tag k="addr:housenumber" v="3054"/>
    <tag k="addr:street" v="Vermont Route 116"/>
    <tag k="addr:state" v="VT"/>
    <tag k="ref:vcgi:esiteid" v="248255"/>
  </node>
  <node id="-423" visible="true" lat="44.228149118143" lon="-73.056745354591">
    <tag k="addr:city" v="Starksboro"/>
    <tag k="addr:housenumber" v="3032"/>
    <tag k="addr:street" v="Vermont Route 116"/>
    <tag k="addr:state" v="VT"/>
    <tag k="ref:vcgi:esiteid" v="248256"/>
  </node>
  <node id="-426" visible="true" lat="44.228151567246" lon="-73.057188682055">
    <tag k="addr:city" v="Starksboro"/>
    <tag k="addr:housenumber" v="3025"/>
    <tag k="addr:street" v="Vermont Route 116"/>
    <tag k="addr:state" v="VT"/>
    <tag k="ref:vcgi:esiteid" v="248259"/>
  </node>
  <node id="-428" visible="true" lat="44.227905838884" lon="-73.056771120407">
    <tag k="addr:city" v="Starksboro"/>
    <tag k="addr:housenumber" v="2998"/>
    <tag k="addr:street" v="Vermont Route 116"/>
    <tag k="addr:state" v="VT"/>
    <tag k="ref:vcgi:esiteid" v="248262"/>
  </node>
  <node id="-429" visible="true" lat="44.227898081012" lon="-73.057189198236">
    <tag k="addr:city" v="Starksboro"/>
    <tag k="addr:housenumber" v="3011"/>
    <tag k="addr:street" v="Vermont Route 116"/>
    <tag k="addr:state" v="VT"/>
    <tag k="ref:vcgi:esiteid" v="248263"/>
  </node>
  <node id="-431" visible="true" lat="44.227856799918" lon="-73.057803952191">
    <tag k="addr:city" v="Starksboro"/>
    <tag k="addr:housenumber" v="3009"/>
    <tag k="addr:street" v="Vermont Route 116"/>
    <tag k="addr:state" v="VT"/>
    <tag k="ref:vcgi:esiteid" v="248265"/>
  </node>
  <node id="-434" visible="true" lat="44.227695593642" lon="-73.05728854832">
    <tag k="addr:city" v="Starksboro"/>
    <tag k="addr:housenumber" v="2993"/>
    <tag k="addr:street" v="Vermont Route 116"/>
    <tag k="addr:state" v="VT"/>
    <tag k="ref:vcgi:esiteid" v="248268"/>
  </node>
  <node id="-435" visible="true" lat="44.227355499295" lon="-73.057201377043">
    <tag k="addr:city" v="Starksboro"/>
    <tag k="addr:housenumber" v="2977"/>
    <tag k="addr:street" v="Vermont Route 116"/>
    <tag k="addr:state" v="VT"/>
    <tag k="ref:vcgi:esiteid" v="248269"/>
  </node>
  <node id="-436" visible="true" lat="44.227448760224" lon="-73.056724240295">
    <tag k="addr:city" v="Starksboro"/>
    <tag k="addr:housenumber" v="15"/>
    <tag k="addr:street" v="Big Hollow Road"/>
    <tag k="addr:state" v="VT"/>
    <tag k="ref:vcgi:esiteid" v="248270"/>
  </node>
  <node id="-439" visible="true" lat="44.227111441132" lon="-73.056699093734">
    <tag k="addr:city" v="Starksboro"/>
    <tag k="addr:housenumber" v="12"/>
    <tag k="addr:street" v="Big Hollow Road"/>
    <tag k="addr:state" v="VT"/>
    <tag k="ref:vcgi:esiteid" v="248273"/>
  </node>
  <node id="-441" visible="true" lat="44.22692678488" lon="-73.057264800676">
    <tag k="addr:city" v="Starksboro"/>
    <tag k="addr:housenumber" v="2949"/>
    <tag k="addr:street" v="Vermont Route 116"/>
    <tag k="addr:state" v="VT"/>
    <tag k="ref:vcgi:esiteid" v="248275"/>
  </node>
  <node id="-443" visible="true" lat="44.226892966281" lon="-73.056747219076">
    <tag k="addr:city" v="Starksboro"/>
    <tag k="addr:housenumber" v="2948"/>
    <tag k="addr:street" v="Vermont Route 116"/>
    <tag k="addr:state" v="VT"/>
    <tag k="ref:vcgi:esiteid" v="248277"/>
  </node>
  <node id="-444" visible="true" lat="44.22669143915" lon="-73.057317434332">
    <tag k="addr:city" v="Starksboro"/>
    <tag k="addr:housenumber" v="2903"/>
    <tag k="addr:street" v="Vermont Route 116"/>
    <tag k="addr:state" v="VT"/>
    <tag k="ref:vcgi:esiteid" v="248278"/>
  </node>
  <node id="-446" visible="true" lat="44.226429267777" lon="-73.05678646402">
    <tag k="addr:city" v="Starksboro"/>
    <tag k="addr:housenumber" v="2912"/>
    <tag k="addr:street" v="Vermont Route 116"/>
    <tag k="addr:state" v="VT"/>
    <tag k="ref:vcgi:esiteid" v="248280"/>
  </node>
  <node id="-447" visible="true" lat="44.226324466099" lon="-73.057372428837">
    <tag k="addr:city" v="Starksboro"/>
    <tag k="addr:housenumber" v="2901"/>
    <tag k="addr:street" v="Vermont Route 116"/>
    <tag k="addr:state" v="VT"/>
    <tag k="ref:vcgi:esiteid" v="248281"/>
  </node>
  <node id="-448" visible="true" lat="44.226262762007" lon="-73.05679352921">
    <tag k="addr:city" v="Starksboro"/>
    <tag k="addr:housenumber" v="2886"/>
    <tag k="addr:street" v="Vermont Route 116"/>
    <tag k="addr:state" v="VT"/>
    <tag k="ref:vcgi:esiteid" v="248282"/>
  </node>
  <node id="-449" visible="true" lat="44.226112811919" lon="-73.057347145706">
    <tag k="addr:city" v="Starksboro"/>
    <tag k="addr:housenumber" v="2887"/>
    <tag k="addr:street" v="Vermont Route 116"/>
    <tag k="addr:state" v="VT"/>
    <tag k="ref:vcgi:esiteid" v="248283"/>
  </node>
  <node id="-450" visible="true" lat="44.225900832679" lon="-73.057327981213">
    <tag k="addr:city" v="Starksboro"/>
    <tag k="addr:housenumber" v="2875"/>
    <tag k="addr:street" v="Vermont Route 116"/>
    <tag k="addr:state" v="VT"/>
    <tag k="ref:vcgi:esiteid" v="248284"/>
  </node>
  <node id="-451" visible="true" lat="44.225874731724" lon="-73.056793785148">
    <tag k="addr:city" v="Starksboro"/>
    <tag k="addr:housenumber" v="2858"/>
    <tag k="addr:street" v="Vermont Route 116"/>
    <tag k="addr:state" v="VT"/>
    <tag k="ref:vcgi:esiteid" v="248285"/>
  </node>
  <node id="-452" visible="true" lat="44.225565740684" lon="-73.056809042922">
    <tag k="addr:city" v="Starksboro"/>
    <tag k="addr:housenumber" v="2856"/>
    <tag k="addr:street" v="Vermont Route 116"/>
    <tag k="addr:state" v="VT"/>
    <tag k="ref:vcgi:esiteid" v="248286"/>
  </node>
  <node id="-453" visible="true" lat="44.225516149934" lon="-73.057297324939">
    <tag k="addr:city" v="Starksboro"/>
    <tag k="addr:housenumber" v="2849"/>
    <tag k="addr:street" v="Vermont Route 116"/>
    <tag k="addr:state" v="VT"/>
    <tag k="ref:vcgi:esiteid" v="248287"/>
  </node>
  <node id="-454" visible="true" lat="44.225313971" lon="-73.056793784621">
    <tag k="addr:city" v="Starksboro"/>
    <tag k="addr:housenumber" v="2832"/>
    <tag k="addr:street" v="Vermont Route 116"/>
    <tag k="addr:state" v="VT"/>
    <tag k="ref:vcgi:esiteid" v="248288"/>
  </node>
  <node id="-455" visible="true" lat="44.22519625708" lon="-73.057264473056">
    <tag k="addr:city" v="Starksboro"/>
    <tag k="addr:housenumber" v="2827"/>
    <tag k="addr:street" v="Vermont Route 116"/>
    <tag k="addr:state" v="VT"/>
    <tag k="ref:vcgi:esiteid" v="248289"/>
  </node>
  <node id="-456" visible="true" lat="44.224921478908" lon="-73.056516370876">
    <tag k="addr:city" v="Starksboro"/>
    <tag k="addr:housenumber" v="2806"/>
    <tag k="addr:street" v="Vermont Route 116"/>
    <tag k="addr:state" v="VT"/>
    <tag k="ref:vcgi:esiteid" v="248290"/>
  </node>
  <node id="-458" visible="true" lat="44.224894354286" lon="-73.057091330418">
    <tag k="addr:city" v="Starksboro"/>
    <tag k="addr:housenumber" v="2805"/>
    <tag k="addr:street" v="Vermont Route 116"/>
    <tag k="addr:state" v="VT"/>
    <tag k="ref:vcgi:esiteid" v="248292"/>
  </node>
  <node id="-459" visible="true" lat="44.224726508628" lon="-73.057091330665">
    <tag k="addr:city" v="Starksboro"/>
    <tag k="addr:housenumber" v="2795"/>
    <tag k="addr:street" v="Vermont Route 116"/>
    <tag k="addr:state" v="VT"/>
    <tag k="ref:vcgi:esiteid" v="248293"/>
  </node>
  <node id="-460" visible="true" lat="44.224210151384" lon="-73.05699294615">
    <tag k="addr:city" v="Starksboro"/>
    <tag k="addr:housenumber" v="11"/>
    <tag k="addr:street" v="Parsonage Road"/>
    <tag k="addr:state" v="VT"/>
    <tag k="ref:vcgi:esiteid" v="248294"/>
  </node>
  <node id="-462" visible="true" lat="44.223632603668" lon="-73.057483951252">
    <tag k="addr:city" v="Starksboro"/>
    <tag k="addr:housenumber" v="41"/>
    <tag k="addr:street" v="Parsonage Road"/>
    <tag k="addr:state" v="VT"/>
    <tag k="ref:vcgi:esiteid" v="248296"/>
  </node>
  <node id="-465" visible="true" lat="44.222791083422" lon="-73.056237637136">
    <tag k="addr:city" v="Starksboro"/>
    <tag k="addr:housenumber" v="2656"/>
    <tag k="addr:street" v="Vermont Route 116"/>
    <tag k="addr:state" v="VT"/>
    <tag k="ref:vcgi:esiteid" v="248299"/>
  </node>
  <node id="-466" visible="true" lat="44.222652119862" lon="-73.057018224092">
    <tag k="addr:city" v="Starksboro"/>
    <tag k="addr:housenumber" v="2647"/>
    <tag k="addr:street" v="Vermont Route 116"/>
    <tag k="addr:state" v="VT"/>
    <tag k="ref:vcgi:esiteid" v="248300"/>
  </node>
  <node id="-468" visible="true" lat="44.222278502209" lon="-73.056006567482">
    <tag k="addr:city" v="Starksboro"/>
    <tag k="addr:housenumber" v="2618"/>
    <tag k="addr:street" v="Vermont Route 116"/>
    <tag k="addr:state" v="VT"/>
    <tag k="ref:vcgi:esiteid" v="248302"/>
  </node>
  <node id="-469" visible="true" lat="44.221712486396" lon="-73.057475500251">
    <tag k="addr:city" v="Starksboro"/>
    <tag k="addr:housenumber" v="2637"/>
    <tag k="addr:street" v="Vermont Route 116"/>
    <tag k="addr:state" v="VT"/>
    <tag k="ref:vcgi:esiteid" v="248303"/>
  </node>
  <node id="-473" visible="true" lat="44.221263929825" lon="-73.055906917584">
    <tag k="addr:city" v="Starksboro"/>
    <tag k="addr:housenumber" v="2550"/>
    <tag k="addr:street" v="Vermont Route 116"/>
    <tag k="addr:state" v="VT"/>
    <tag k="ref:vcgi:esiteid" v="248307"/>
  </node>
  <node id="-474" visible="true" lat="44.220353492106" lon="-73.056924282424">
    <tag k="addr:city" v="Starksboro"/>
    <tag k="addr:housenumber" v="70"/>
    <tag k="addr:street" v="Hidden Acres"/>
    <tag k="addr:state" v="VT"/>
    <tag k="ref:vcgi:esiteid" v="248308"/>
  </node>
  <node id="-477" visible="true" lat="44.219857813051" lon="-73.055540149087">
    <tag k="addr:city" v="Starksboro"/>
    <tag k="addr:housenumber" v="2454"/>
    <tag k="addr:street" v="Vermont Route 116"/>
    <tag k="addr:state" v="VT"/>
    <tag k="ref:vcgi:esiteid" v="248311"/>
  </node>
  <node id="-479" visible="true" lat="44.219500104599" lon="-73.056220669247">
    <tag k="addr:city" v="Starksboro"/>
    <tag k="addr:housenumber" v="8"/>
    <tag k="addr:street" v="Hidden Acres"/>
    <tag k="addr:state" v="VT"/>
    <tag k="ref:vcgi:esiteid" v="248313"/>
  </node>
  <node id="-486" visible="true" lat="44.21891658939" lon="-73.055529585486">
    <tag k="addr:city" v="Starksboro"/>
    <tag k="addr:housenumber" v="2400"/>
    <tag k="addr:street" v="Vermont Route 116"/>
    <tag k="addr:state" v="VT"/>
    <tag k="ref:vcgi:esiteid" v="248320"/>
  </node>
  <node id="-487" visible="true" lat="44.218773438463" lon="-73.056653248913">
    <tag k="addr:city" v="Starksboro"/>
    <tag k="addr:housenumber" v="45"/>
    <tag k="addr:street" v="Hidden Acres"/>
    <tag k="addr:state" v="VT"/>
    <tag k="ref:vcgi:esiteid" v="248321"/>
  </node>
  <node id="-489" visible="true" lat="44.218705123227" lon="-73.056003285347">
    <tag k="addr:city" v="Starksboro"/>
    <tag k="addr:housenumber" v="2365"/>
    <tag k="addr:street" v="Vermont Route 116"/>
    <tag k="addr:state" v="VT"/>
    <tag k="ref:vcgi:esiteid" v="248323"/>
  </node>
  <node id="-552" visible="true" lat="44.215337167681" lon="-72.96406688971">
    <tag k="addr:city" v="Starksboro"/>
    <tag k="addr:housenumber" v="5325"/>
    <tag k="addr:street" v="Vermont Route 17"/>
    <tag k="addr:state" v="VT"/>
    <tag k="ref:vcgi:esiteid" v="248386"/>
  </node>
  <node id="-560" visible="true" lat="44.212850470553" lon="-72.96249777879">
    <tag k="addr:city" v="Starksboro"/>
    <tag k="addr:housenumber" v="101"/>
    <tag k="addr:street" v="Stave Brook Drive"/>
    <tag k="addr:state" v="VT"/>
    <tag k="ref:vcgi:esiteid" v="248394"/>
  </node>
  <node id="-571" visible="true" lat="44.209898003455" lon="-72.967251301455">
    <tag k="addr:city" v="Starksboro"/>
    <tag k="addr:housenumber" v="4839"/>
    <tag k="addr:street" v="Vermont Route 17"/>
    <tag k="addr:state" v="VT"/>
    <tag k="ref:vcgi:esiteid" v="248405"/>
  </node>
  <node id="-572" visible="true" lat="44.209464488991" lon="-72.965478765183">
    <tag k="addr:city" v="Starksboro"/>
    <tag k="addr:housenumber" v="4910"/>
    <tag k="addr:street" v="Vermont Route 17"/>
    <tag k="addr:state" v="VT"/>
    <tag k="ref:vcgi:esiteid" v="248406"/>
  </node>
  <node id="-576" visible="true" lat="44.208903989944" lon="-72.964931828063">
    <tag k="addr:city" v="Starksboro"/>
    <tag k="addr:housenumber" v="4840"/>
    <tag k="addr:street" v="Vermont Route 17"/>
    <tag k="addr:state" v="VT"/>
    <tag k="ref:vcgi:esiteid" v="248410"/>
  </node>
  <node id="-578" visible="true" lat="44.206250557699" lon="-72.965806391555">
    <tag k="addr:city" v="Starksboro"/>
    <tag k="addr:housenumber" v="4667"/>
    <tag k="addr:street" v="Vermont Route 17"/>
    <tag k="addr:state" v="VT"/>
    <tag k="ref:vcgi:esiteid" v="248412"/>
  </node>
  <node id="-780" visible="true" lat="44.167493224853" lon="-73.006486334273">
    <tag k="addr:city" v="Bristol"/>
    <tag k="addr:housenumber" v="656"/>
    <tag k="addr:street" v="Vermont Route 17"/>
    <tag k="addr:state" v="VT"/>
    <tag k="ref:vcgi:esiteid" v="248616"/>
  </node>
  <node id="-807" visible="true" lat="44.254721494123" lon="-73.05711527715">
    <tag k="addr:city" v="Starksboro"/>
    <tag k="addr:housenumber" v="292"/>
    <tag k="addr:street" v="Varney Hill Road"/>
    <tag k="addr:state" v="VT"/>
    <tag k="ref:vcgi:esiteid" v="248645"/>
  </node>
  <node id="-823" visible="true" lat="44.254015757425" lon="-73.06350002705">
    <tag k="addr:city" v="Starksboro"/>
    <tag k="addr:housenumber" v="4857"/>
    <tag k="addr:street" v="Vermont Route 116"/>
    <tag k="addr:state" v="VT"/>
    <tag k="ref:vcgi:esiteid" v="248661"/>
  </node>
  <node id="-824" visible="true" lat="44.253752544489" lon="-73.063347437406">
    <tag k="addr:city" v="Starksboro"/>
    <tag k="addr:housenumber" v="4855"/>
    <tag k="addr:street" v="Vermont Route 116"/>
    <tag k="addr:state" v="VT"/>
    <tag k="ref:vcgi:esiteid" v="248662"/>
  </node>
  <node id="-845" visible="true" lat="44.224452250462" lon="-73.05701398233">
    <tag k="addr:city" v="Starksboro"/>
    <tag k="addr:housenumber" v="12"/>
    <tag k="addr:street" v="Parsonage Road"/>
    <tag k="addr:state" v="VT"/>
    <tag k="ref:vcgi:esiteid" v="248684"/>
  </node>
  <node id="-846" visible="true" lat="44.224414323582" lon="-73.056536403642">
    <tag k="addr:city" v="Starksboro"/>
    <tag k="addr:housenumber" v="2762"/>
    <tag k="addr:street" v="Vermont Route 116"/>
    <tag k="addr:state" v="VT"/>
    <tag k="ref:vcgi:esiteid" v="248685"/>
  </node>
  <node id="-847" visible="true" lat="44.224505217914" lon="-73.056562592816">
    <tag k="addr:city" v="Starksboro"/>
    <tag k="addr:housenumber" v="2764"/>
    <tag k="addr:street" v="Vermont Route 116"/>
    <tag k="addr:state" v="VT"/>
    <tag k="ref:vcgi:esiteid" v="248687"/>
  </node>
  <node id="-919" visible="true" lat="44.254315367201" lon="-73.056760548867">
    <tag k="addr:city" v="Starksboro"/>
    <tag k="addr:housenumber" v="380"/>
    <tag k="addr:street" v="Varney Hill Road"/>
    <tag k="addr:state" v="VT"/>
    <tag k="ref:vcgi:esiteid" v="248761"/>
  </node>
  <node id="-926" visible="true" lat="44.223774928066" lon="-73.054731457846">
    <tag k="addr:city" v="Starksboro"/>
    <tag k="addr:housenumber" v="2734"/>
    <tag k="addr:street" v="Vermont Route 116"/>
    <tag k="addr:state" v="VT"/>
    <tag k="ref:vcgi:esiteid" v="248769"/>
  </node>
  <node id="-929" visible="true" lat="44.202816413047" lon="-72.964033521212">
    <tag k="addr:city" v="Starksboro"/>
    <tag k="addr:housenumber" v="4400"/>
    <tag k="addr:street" v="Vermont Route 17"/>
    <tag k="addr:state" v="VT"/>
    <tag k="ref:vcgi:esiteid" v="248774"/>
  </node>
  <node id="-938" visible="true" lat="44.275718731947" lon="-73.067909729217">
    <tag k="addr:city" v="Starksboro"/>
    <tag k="addr:housenumber" v="6385"/>
    <tag k="addr:street" v="Vermont Route 116"/>
    <tag k="addr:state" v="VT"/>
    <tag k="ref:vcgi:esiteid" v="248785"/>
  </node>
  <node id="-939" visible="true" lat="44.275682493317" lon="-73.068146657328">
    <tag k="addr:city" v="Starksboro"/>
    <tag k="addr:housenumber" v="6375"/>
    <tag k="addr:street" v="Vermont Route 116"/>
    <tag k="addr:state" v="VT"/>
    <tag k="ref:vcgi:esiteid" v="248786"/>
  </node>
  <node id="-940" visible="true" lat="44.271240694114" lon="-73.061710165443">
    <tag k="addr:city" v="Starksboro"/>
    <tag k="addr:housenumber" v="334"/>
    <tag k="addr:street" v="Mountain View Drive"/>
    <tag k="addr:state" v="VT"/>
    <tag k="ref:vcgi:esiteid" v="248787"/>
  </node>
  <node id="-961" visible="true" lat="44.255036749583" lon="-73.061072918027">
    <tag k="addr:city" v="Starksboro"/>
    <tag k="addr:housenumber" v="119"/>
    <tag k="addr:street" v="Varney Hill Road"/>
    <tag k="addr:state" v="VT"/>
    <tag k="ref:vcgi:esiteid" v="317553"/>
  </node>
  <node id="-962" visible="true" lat="44.259243669922" lon="-73.05942046627">
    <tag k="addr:city" v="Starksboro"/>
    <tag k="addr:housenumber" v="200"/>
    <tag k="addr:street" v="Sunny Valley Drive"/>
    <tag k="addr:state" v="VT"/>
    <tag k="ref:vcgi:esiteid" v="325249"/>
  </node>
  <node id="-969" visible="true" lat="44.167586199038" lon="-73.005066778322">
    <tag k="addr:city" v="Bristol"/>
    <tag k="addr:housenumber" v="62"/>
    <tag k="addr:street" v="Black Bear Way"/>
    <tag k="addr:state" v="VT"/>
    <tag k="ref:vcgi:esiteid" v="332164"/>
  </node>
  <node id="-975" visible="true" lat="44.261206490979" lon="-73.060617775811">
    <tag k="addr:city" v="Starksboro"/>
    <tag k="addr:housenumber" v="215"/>
    <tag k="addr:street" v="Sunny Valley Drive"/>
    <tag k="addr:state" v="VT"/>
    <tag k="ref:vcgi:esiteid" v="334691"/>
  </node>
  <node id="-985" visible="true" lat="44.254737608537" lon="-73.058186332977">
    <tag k="addr:city" v="Starksboro"/>
    <tag k="addr:housenumber" v="260"/>
    <tag k="addr:street" v="Varney Hill Road"/>
    <tag k="addr:state" v="VT"/>
    <tag k="ref:vcgi:esiteid" v="338899"/>
  </node>
  <node id="-989" visible="true" lat="44.223754801433" lon="-73.060192288851">
    <tag k="addr:city" v="Starksboro"/>
    <tag k="addr:housenumber" v="101"/>
    <tag k="addr:street" v="Parsonage Road"/>
    <tag k="addr:state" v="VT"/>
    <tag k="ref:vcgi:esiteid" v="339969"/>
  </node>
  <node id="-1008" visible="true" lat="44.254760753844" lon="-73.056816290591">
    <tag k="addr:city" v="Starksboro"/>
    <tag k="addr:housenumber" v="314"/>
    <tag k="addr:street" v="Varney Hill Road"/>
    <tag k="addr:state" v="VT"/>
    <tag k="ref:vcgi:esiteid" v="447792"/>
  </node>
  <node id="-1033" visible="true" lat="44.243160890685" lon="-73.057626490242">
    <tag k="addr:city" v="Starksboro"/>
    <tag k="addr:housenumber" v="3904"/>
    <tag k="addr:street" v="Vermont Route 116"/>
    <tag k="addr:state" v="VT"/>
    <tag k="ref:vcgi:esiteid" v="610915"/>
  </node>
  <node id="-1083" visible="true" lat="44.244264472492" lon="-73.078499477111">
    <tag k="addr:city" v="Starksboro"/>
    <tag k="addr:housenumber" v="1138"/>
    <tag k="addr:street" v="States Prison Hollow Road"/>
    <tag k="addr:state" v="VT"/>
    <tag k="ref:vcgi:esiteid" v="768037"/>
  </node>
  <node id="-1094" visible="true" lat="44.223423221716" lon="-73.056345324316">
    <tag k="addr:city" v="Starksboro"/>
    <tag k="addr:housenumber" v="2698"/>
    <tag k="addr:street" v="Vermont Route 116"/>
    <tag k="addr:state" v="VT"/>
    <tag k="ref:vcgi:esiteid" v="1051209"/>
  </node>
</osm>
