<?xml version="1.0" encoding="UTF-8"?>
<osm version="0.6" generator="JOSM" upload="false">
  <node id="-232" visible="true" lat="44.279509383266" lon="-73.072441682259">
    <!-- offset: "157 Tyler Bridge Road, Hinesburg, VT" Significant offset - 461.9m -->
    <tag k="addr:city" v="Hinesburg"/>
    <tag k="addr:housenumber" v="157"/>
    <tag k="addr:street" v="Tyler Bridge Road"/>
    <tag k="addr:state" v="VT"/>
    <tag k="ref:vcgi:esiteid" v="248064"/>
  </node>
  <node id="-816" visible="true" lat="44.159732888209" lon="-73.010311196779">
    <!-- offset: "3825 Quaker Street, Bristol, VT" Significant offset - 182.7m -->
    <tag k="addr:city" v="Bristol"/>
    <tag k="addr:housenumber" v="3825"/>
    <tag k="addr:street" v="Quaker Street"/>
    <tag k="addr:state" v="VT"/>
    <tag k="ref:vcgi:esiteid" v="248654"/>
  </node>
</osm>
