<?xml version="1.0" encoding="UTF-8"?>
<osm version="0.6" generator="JOSM" upload="false">
  <node id="-602" visible="true" lat="43.775193109126" lon="-72.76552206142">
    <!-- multiple: "1722 Vermont Route 100, Stockbridge, VT" Multiple exact matches in OSM. -->
    <tag k="addr:city" v="Stockbridge"/>
    <tag k="addr:housenumber" v="1722"/>
    <tag k="addr:street" v="Vermont Route 100"/>
    <tag k="addr:state" v="VT"/>
    <tag k="ref:vcgi:esiteid" v="249328"/>
  </node>
  <node id="-755" visible="true" lat="43.785007974775" lon="-72.694711705279">
    <!-- multiple: "634 River Road, Stockbridge, VT" Multiple exact matches in OSM. -->
    <tag k="addr:city" v="Stockbridge"/>
    <tag k="addr:housenumber" v="634"/>
    <tag k="addr:street" v="River Road"/>
    <tag k="addr:state" v="VT"/>
    <tag k="ref:vcgi:esiteid" v="1052532"/>
  </node>
</osm>
