<?xml version="1.0" encoding="UTF-8"?>
<osm version="0.6" generator="JOSM" upload="false">
  <node id="-655" visible="true" lat="44.49088113857" lon="-72.626753393161">
    <!-- offset: "195 Elmore Mountain Road, Stowe, VT" Significant offset - 108.2m -->
    <tag k="addr:city" v="Stowe"/>
    <tag k="addr:housenumber" v="195"/>
    <tag k="addr:street" v="Elmore Mountain Road"/>
    <tag k="addr:state" v="VT"/>
    <tag k="ref:vcgi:esiteid" v="249960"/>
  </node>
  <node id="-1068" visible="true" lat="44.477887116335" lon="-72.722177012721">
    <!-- offset: "55 Mountain Road, Stowe, VT" Significant offset - 2990.8m -->
    <tag k="addr:city" v="Stowe"/>
    <tag k="addr:housenumber" v="55"/>
    <tag k="addr:street" v="Mountain Road"/>
    <tag k="addr:state" v="VT"/>
    <tag k="ref:vcgi:esiteid" v="250397"/>
  </node>
  <node id="-3954" visible="true" lat="44.47820812268" lon="-72.721986521432">
    <!-- offset: "57 Mountain Road, Stowe, VT" Significant offset - 3016.2m -->
    <tag k="addr:city" v="Stowe"/>
    <tag k="addr:housenumber" v="57"/>
    <tag k="addr:street" v="Mountain Road"/>
    <tag k="addr:state" v="VT"/>
    <tag k="ref:vcgi:esiteid" v="773320"/>
  </node>
  <node id="-4016" visible="true" lat="44.466268843566" lon="-72.714044776214">
    <!-- offset: "304 Meadow Lane, Stowe, VT" Significant offset - 116.3m -->
    <tag k="addr:city" v="Stowe"/>
    <tag k="addr:housenumber" v="304"/>
    <tag k="addr:street" v="Meadow Lane"/>
    <tag k="addr:state" v="VT"/>
    <tag k="ref:vcgi:esiteid" v="1050975"/>
  </node>
</osm>
