<?xml version="1.0" encoding="UTF-8"?>
<osm version="0.6" generator="JOSM" upload="false">
  <node id="-261" visible="true" lat="43.112267663675" lon="-72.893845845483">
    <tag k="addr:city" v="Stratton"/>
    <tag k="addr:housenumber" v="43"/>
    <tag k="addr:street" v="High Point Drive"/>
    <tag k="addr:state" v="VT"/>
    <tag k="ref:vcgi:esiteid" v="252950"/>
  </node>
  <node id="-273" visible="true" lat="43.111741234911" lon="-72.893998432028">
    <tag k="addr:city" v="Stratton"/>
    <tag k="addr:housenumber" v="45"/>
    <tag k="addr:street" v="High Point Drive"/>
    <tag k="addr:state" v="VT"/>
    <tag k="ref:vcgi:esiteid" v="252962"/>
  </node>
  <node id="-352" visible="true" lat="43.081401917334" lon="-72.871808797244">
    <tag k="addr:city" v="Stratton"/>
    <tag k="addr:housenumber" v="31"/>
    <tag k="addr:street" v="Pleasant Valley Road"/>
    <tag k="addr:state" v="VT"/>
    <tag k="ref:vcgi:esiteid" v="253041"/>
  </node>
  <node id="-353" visible="true" lat="43.080109759913" lon="-72.871445932398">
    <tag k="addr:city" v="Stratton"/>
    <tag k="addr:housenumber" v="16"/>
    <tag k="addr:street" v="Pleasant Valley Road"/>
    <tag k="addr:state" v="VT"/>
    <tag k="ref:vcgi:esiteid" v="253042"/>
  </node>
  <node id="-354" visible="true" lat="43.076150104223" lon="-72.876801768624">
    <tag k="addr:city" v="Stratton"/>
    <tag k="addr:housenumber" v="507"/>
    <tag k="addr:street" v="Mountain Road"/>
    <tag k="addr:state" v="VT"/>
    <tag k="ref:vcgi:esiteid" v="253044"/>
  </node>
  <node id="-355" visible="true" lat="43.071980821112" lon="-72.872077948526">
    <tag k="addr:city" v="Stratton"/>
    <tag k="addr:housenumber" v="124"/>
    <tag k="addr:street" v="Forrester Road"/>
    <tag k="addr:state" v="VT"/>
    <tag k="ref:vcgi:esiteid" v="253045"/>
  </node>
  <node id="-356" visible="true" lat="43.066219656384" lon="-72.889889042239">
    <tag k="addr:city" v="Stratton"/>
    <tag k="addr:housenumber" v="104"/>
    <tag k="addr:street" v="Bear Creek Road"/>
    <tag k="addr:state" v="VT"/>
    <tag k="ref:vcgi:esiteid" v="253046"/>
  </node>
  <node id="-357" visible="true" lat="43.059598127587" lon="-72.959748572695">
    <tag k="addr:city" v="Stratton"/>
    <tag k="addr:housenumber" v="1280"/>
    <tag k="addr:street" v="Stratton Arlington Road"/>
    <tag k="addr:state" v="VT"/>
    <tag k="ref:vcgi:esiteid" v="253048"/>
  </node>
  <node id="-358" visible="true" lat="43.05972466577" lon="-72.901498510988">
    <tag k="addr:city" v="Stratton"/>
    <tag k="addr:housenumber" v="54"/>
    <tag k="addr:street" v="Shepardson Road"/>
    <tag k="addr:state" v="VT"/>
    <tag k="ref:vcgi:esiteid" v="253049"/>
  </node>
  <node id="-359" visible="true" lat="43.059510166422" lon="-72.902435351283">
    <tag k="addr:city" v="Stratton"/>
    <tag k="addr:housenumber" v="55"/>
    <tag k="addr:street" v="Shepardson Road"/>
    <tag k="addr:state" v="VT"/>
    <tag k="ref:vcgi:esiteid" v="253050"/>
  </node>
  <node id="-360" visible="true" lat="43.059178509028" lon="-72.956513708586">
    <tag k="addr:city" v="Stratton"/>
    <tag k="addr:housenumber" v="1246"/>
    <tag k="addr:street" v="Stratton Arlington Road"/>
    <tag k="addr:state" v="VT"/>
    <tag k="ref:vcgi:esiteid" v="253051"/>
  </node>
  <node id="-361" visible="true" lat="43.05882167266" lon="-72.901485138228">
    <tag k="addr:city" v="Stratton"/>
    <tag k="addr:housenumber" v="43"/>
    <tag k="addr:street" v="Shepardson Road"/>
    <tag k="addr:state" v="VT"/>
    <tag k="ref:vcgi:esiteid" v="253052"/>
  </node>
  <node id="-362" visible="true" lat="43.058355907586" lon="-72.900955650968">
    <tag k="addr:city" v="Stratton"/>
    <tag k="addr:housenumber" v="37"/>
    <tag k="addr:street" v="Shepardson Road"/>
    <tag k="addr:state" v="VT"/>
    <tag k="ref:vcgi:esiteid" v="253053"/>
  </node>
  <node id="-363" visible="true" lat="43.057319385673" lon="-72.936301407346">
    <tag k="addr:city" v="Stratton"/>
    <tag k="addr:housenumber" v="1004"/>
    <tag k="addr:street" v="Stratton Arlington Road"/>
    <tag k="addr:state" v="VT"/>
    <tag k="ref:vcgi:esiteid" v="253054"/>
  </node>
  <node id="-364" visible="true" lat="43.057818034815" lon="-72.902443384839">
    <tag k="addr:city" v="Stratton"/>
    <tag k="addr:housenumber" v="21"/>
    <tag k="addr:street" v="Shepardson Road"/>
    <tag k="addr:state" v="VT"/>
    <tag k="ref:vcgi:esiteid" v="253055"/>
  </node>
  <node id="-365" visible="true" lat="43.057356456766" lon="-72.898903344614">
    <tag k="addr:city" v="Stratton"/>
    <tag k="addr:housenumber" v="14"/>
    <tag k="addr:street" v="Shepardson Road"/>
    <tag k="addr:state" v="VT"/>
    <tag k="ref:vcgi:esiteid" v="253056"/>
  </node>
  <node id="-366" visible="true" lat="43.057245830779" lon="-72.899399253931">
    <tag k="addr:city" v="Stratton"/>
    <tag k="addr:housenumber" v="17"/>
    <tag k="addr:street" v="Shepardson Road"/>
    <tag k="addr:state" v="VT"/>
    <tag k="ref:vcgi:esiteid" v="253057"/>
  </node>
  <node id="-367" visible="true" lat="43.057070355418" lon="-72.900291893728">
    <tag k="addr:city" v="Stratton"/>
    <tag k="addr:housenumber" v="19"/>
    <tag k="addr:street" v="Shepardson Road"/>
    <tag k="addr:state" v="VT"/>
    <tag k="ref:vcgi:esiteid" v="253058"/>
  </node>
  <node id="-368" visible="true" lat="43.05674992039" lon="-72.898506616721">
    <tag k="addr:city" v="Stratton"/>
    <tag k="addr:housenumber" v="247"/>
    <tag k="addr:street" v="West Jamaica Road"/>
    <tag k="addr:state" v="VT"/>
    <tag k="ref:vcgi:esiteid" v="253059"/>
  </node>
  <node id="-369" visible="true" lat="43.056630294314" lon="-72.896523758237">
    <tag k="addr:city" v="Stratton"/>
    <tag k="addr:housenumber" v="270"/>
    <tag k="addr:street" v="West Jamaica Road"/>
    <tag k="addr:state" v="VT"/>
    <tag k="ref:vcgi:esiteid" v="253060"/>
  </node>
  <node id="-370" visible="true" lat="43.056448838186" lon="-72.897984694264">
    <tag k="addr:city" v="Stratton"/>
    <tag k="addr:housenumber" v="258"/>
    <tag k="addr:street" v="West Jamaica Road"/>
    <tag k="addr:state" v="VT"/>
    <tag k="ref:vcgi:esiteid" v="253061"/>
  </node>
  <node id="-371" visible="true" lat="43.056250195646" lon="-72.899574731987">
    <tag k="addr:city" v="Stratton"/>
    <tag k="addr:housenumber" v="227"/>
    <tag k="addr:street" v="West Jamaica Road"/>
    <tag k="addr:state" v="VT"/>
    <tag k="ref:vcgi:esiteid" v="253063"/>
  </node>
  <node id="-372" visible="true" lat="43.055916944323" lon="-72.933900174352">
    <tag k="addr:city" v="Stratton"/>
    <tag k="addr:housenumber" v="996"/>
    <tag k="addr:street" v="Stratton Arlington Road"/>
    <tag k="addr:state" v="VT"/>
    <tag k="ref:vcgi:esiteid" v="253064"/>
  </node>
  <node id="-373" visible="true" lat="43.055928389124" lon="-72.895249648281">
    <tag k="addr:city" v="Stratton"/>
    <tag k="addr:housenumber" v="286"/>
    <tag k="addr:street" v="West Jamaica Road"/>
    <tag k="addr:state" v="VT"/>
    <tag k="ref:vcgi:esiteid" v="253065"/>
  </node>
  <node id="-374" visible="true" lat="43.055891613592" lon="-72.894669028533">
    <tag k="addr:city" v="Stratton"/>
    <tag k="addr:housenumber" v="289"/>
    <tag k="addr:street" v="West Jamaica Road"/>
    <tag k="addr:state" v="VT"/>
    <tag k="ref:vcgi:esiteid" v="253066"/>
  </node>
  <node id="-375" visible="true" lat="43.055601606797" lon="-72.894101055434">
    <tag k="addr:city" v="Stratton"/>
    <tag k="addr:housenumber" v="295"/>
    <tag k="addr:street" v="West Jamaica Road"/>
    <tag k="addr:state" v="VT"/>
    <tag k="ref:vcgi:esiteid" v="253067"/>
  </node>
  <node id="-376" visible="true" lat="43.055504959641" lon="-72.877702035723">
    <tag k="addr:city" v="Stratton"/>
    <tag k="addr:housenumber" v="500"/>
    <tag k="addr:street" v="West Jamaica Road"/>
    <tag k="addr:state" v="VT"/>
    <tag k="ref:vcgi:esiteid" v="253068"/>
  </node>
  <node id="-377" visible="true" lat="43.054673353782" lon="-72.894387528289">
    <tag k="addr:city" v="Stratton"/>
    <tag k="addr:housenumber" v="304"/>
    <tag k="addr:street" v="West Jamaica Road"/>
    <tag k="addr:state" v="VT"/>
    <tag k="ref:vcgi:esiteid" v="253069"/>
  </node>
  <node id="-378" visible="true" lat="43.05441914046" lon="-72.892677757268">
    <tag k="addr:city" v="Stratton"/>
    <tag k="addr:housenumber" v="315"/>
    <tag k="addr:street" v="West Jamaica Road"/>
    <tag k="addr:state" v="VT"/>
    <tag k="ref:vcgi:esiteid" v="253070"/>
  </node>
  <node id="-379" visible="true" lat="43.054276625389" lon="-72.89344148376">
    <tag k="addr:city" v="Stratton"/>
    <tag k="addr:housenumber" v="310"/>
    <tag k="addr:street" v="West Jamaica Road"/>
    <tag k="addr:state" v="VT"/>
    <tag k="ref:vcgi:esiteid" v="253071"/>
  </node>
  <node id="-380" visible="true" lat="43.053780809835" lon="-72.893217396565">
    <tag k="addr:city" v="Stratton"/>
    <tag k="addr:housenumber" v="312"/>
    <tag k="addr:street" v="West Jamaica Road"/>
    <tag k="addr:state" v="VT"/>
    <tag k="ref:vcgi:esiteid" v="253072"/>
  </node>
  <node id="-381" visible="true" lat="43.053360383599" lon="-72.893461072293">
    <tag k="addr:city" v="Stratton"/>
    <tag k="addr:housenumber" v="308"/>
    <tag k="addr:street" v="West Jamaica Road"/>
    <tag k="addr:state" v="VT"/>
    <tag k="ref:vcgi:esiteid" v="253074"/>
  </node>
  <node id="-382" visible="true" lat="43.053053477165" lon="-72.902443385011">
    <tag k="addr:city" v="Stratton"/>
    <tag k="addr:housenumber" v="183"/>
    <tag k="addr:street" v="West Jamaica Road"/>
    <tag k="addr:state" v="VT"/>
    <tag k="ref:vcgi:esiteid" v="253075"/>
  </node>
  <node id="-383" visible="true" lat="43.053048293354" lon="-72.881074229948">
    <tag k="addr:city" v="Stratton"/>
    <tag k="addr:housenumber" v="446"/>
    <tag k="addr:street" v="West Jamaica Road"/>
    <tag k="addr:state" v="VT"/>
    <tag k="ref:vcgi:esiteid" v="253076"/>
  </node>
  <node id="-384" visible="true" lat="43.052781264461" lon="-72.880639354353">
    <tag k="addr:city" v="Stratton"/>
    <tag k="addr:housenumber" v="448"/>
    <tag k="addr:street" v="West Jamaica Road"/>
    <tag k="addr:state" v="VT"/>
    <tag k="ref:vcgi:esiteid" v="253077"/>
  </node>
  <node id="-385" visible="true" lat="43.052126507285" lon="-72.902710413578">
    <tag k="addr:city" v="Stratton"/>
    <tag k="addr:housenumber" v="173"/>
    <tag k="addr:street" v="West Jamaica Road"/>
    <tag k="addr:state" v="VT"/>
    <tag k="ref:vcgi:esiteid" v="253078"/>
  </node>
  <node id="-386" visible="true" lat="43.051849106565" lon="-72.890300452342">
    <tag k="addr:city" v="Stratton"/>
    <tag k="addr:housenumber" v="20"/>
    <tag k="addr:street" v="Canedy Road"/>
    <tag k="addr:state" v="VT"/>
    <tag k="ref:vcgi:esiteid" v="253079"/>
  </node>
  <node id="-387" visible="true" lat="43.052293550399" lon="-72.905799729038">
    <tag k="addr:city" v="Stratton"/>
    <tag k="addr:housenumber" v="40"/>
    <tag k="addr:street" v="Old Town Road"/>
    <tag k="addr:state" v="VT"/>
    <tag k="ref:vcgi:esiteid" v="253080"/>
  </node>
  <node id="-388" visible="true" lat="43.050986314119" lon="-72.889126112336">
    <tag k="addr:city" v="Stratton"/>
    <tag k="addr:housenumber" v="28"/>
    <tag k="addr:street" v="Canedy Road"/>
    <tag k="addr:state" v="VT"/>
    <tag k="ref:vcgi:esiteid" v="253081"/>
  </node>
  <node id="-389" visible="true" lat="43.050190427126" lon="-72.898568543978">
    <tag k="addr:city" v="Stratton"/>
    <tag k="addr:housenumber" v="36"/>
    <tag k="addr:street" v="Ball Farm Road"/>
    <tag k="addr:state" v="VT"/>
    <tag k="ref:vcgi:esiteid" v="253082"/>
  </node>
  <node id="-390" visible="true" lat="43.049859205289" lon="-72.887940687148">
    <tag k="addr:city" v="Stratton"/>
    <tag k="addr:housenumber" v="56"/>
    <tag k="addr:street" v="Canedy Road"/>
    <tag k="addr:state" v="VT"/>
    <tag k="ref:vcgi:esiteid" v="253083"/>
  </node>
  <node id="-391" visible="true" lat="43.049389995985" lon="-72.922982506347">
    <tag k="addr:city" v="Stratton"/>
    <tag k="addr:housenumber" v="848"/>
    <tag k="addr:street" v="Stratton Arlington Road"/>
    <tag k="addr:state" v="VT"/>
    <tag k="ref:vcgi:esiteid" v="253084"/>
  </node>
  <node id="-392" visible="true" lat="43.050810055876" lon="-72.875750468646">
    <tag k="addr:city" v="Stratton"/>
    <tag k="addr:housenumber" v="195"/>
    <tag k="addr:street" v="Canedy Road"/>
    <tag k="addr:state" v="VT"/>
    <tag k="ref:vcgi:esiteid" v="253085"/>
  </node>
  <node id="-393" visible="true" lat="43.048941839754" lon="-72.900880966807">
    <tag k="addr:city" v="Stratton"/>
    <tag k="addr:housenumber" v="130"/>
    <tag k="addr:street" v="West Jamaica Road"/>
    <tag k="addr:state" v="VT"/>
    <tag k="ref:vcgi:esiteid" v="253086"/>
  </node>
  <node id="-394" visible="true" lat="43.048622220986" lon="-72.921059326198">
    <tag k="addr:city" v="Stratton"/>
    <tag k="addr:housenumber" v="824"/>
    <tag k="addr:street" v="Stratton Arlington Road"/>
    <tag k="addr:state" v="VT"/>
    <tag k="ref:vcgi:esiteid" v="253087"/>
  </node>
  <node id="-395" visible="true" lat="43.048431438232" lon="-72.886140511317">
    <tag k="addr:city" v="Stratton"/>
    <tag k="addr:housenumber" v="82"/>
    <tag k="addr:street" v="Canedy Road"/>
    <tag k="addr:state" v="VT"/>
    <tag k="ref:vcgi:esiteid" v="253088"/>
  </node>
  <node id="-396" visible="true" lat="43.048184496843" lon="-72.882262396136">
    <tag k="addr:city" v="Stratton"/>
    <tag k="addr:housenumber" v="107"/>
    <tag k="addr:street" v="Canedy Road"/>
    <tag k="addr:state" v="VT"/>
    <tag k="ref:vcgi:esiteid" v="253089"/>
  </node>
  <node id="-397" visible="true" lat="43.047860302644" lon="-72.919450096332">
    <tag k="addr:city" v="Stratton"/>
    <tag k="addr:housenumber" v="804"/>
    <tag k="addr:street" v="Stratton Arlington Road"/>
    <tag k="addr:state" v="VT"/>
    <tag k="ref:vcgi:esiteid" v="253090"/>
  </node>
  <node id="-398" visible="true" lat="43.047433055202" lon="-72.918832115191">
    <tag k="addr:city" v="Stratton"/>
    <tag k="addr:housenumber" v="800"/>
    <tag k="addr:street" v="Stratton Arlington Road"/>
    <tag k="addr:state" v="VT"/>
    <tag k="ref:vcgi:esiteid" v="253091"/>
  </node>
  <node id="-399" visible="true" lat="43.047178842432" lon="-72.916656951979">
    <tag k="addr:city" v="Stratton"/>
    <tag k="addr:housenumber" v="12"/>
    <tag k="addr:street" v="Plimpton Road"/>
    <tag k="addr:state" v="VT"/>
    <tag k="ref:vcgi:esiteid" v="253092"/>
  </node>
  <node id="-400" visible="true" lat="43.047097363354" lon="-72.917687704407">
    <tag k="addr:city" v="Stratton"/>
    <tag k="addr:housenumber" v="788"/>
    <tag k="addr:street" v="Stratton Arlington Road"/>
    <tag k="addr:state" v="VT"/>
    <tag k="ref:vcgi:esiteid" v="253093"/>
  </node>
  <node id="-401" visible="true" lat="43.046892739788" lon="-72.917213898084">
    <tag k="addr:city" v="Stratton"/>
    <tag k="addr:housenumber" v="5"/>
    <tag k="addr:street" v="Plimpton Road"/>
    <tag k="addr:state" v="VT"/>
    <tag k="ref:vcgi:esiteid" v="253094"/>
  </node>
  <node id="-402" visible="true" lat="43.046237205627" lon="-72.883664914717">
    <tag k="addr:city" v="Stratton"/>
    <tag k="addr:housenumber" v="120"/>
    <tag k="addr:street" v="Canedy Road"/>
    <tag k="addr:state" v="VT"/>
    <tag k="ref:vcgi:esiteid" v="253095"/>
  </node>
  <node id="-403" visible="true" lat="43.046357311103" lon="-72.916276268076">
    <tag k="addr:city" v="Stratton"/>
    <tag k="addr:housenumber" v="774"/>
    <tag k="addr:street" v="Stratton Arlington Road"/>
    <tag k="addr:state" v="VT"/>
    <tag k="ref:vcgi:esiteid" v="253096"/>
  </node>
  <node id="-404" visible="true" lat="43.046307719908" lon="-72.917245200957">
    <tag k="addr:city" v="Stratton"/>
    <tag k="addr:housenumber" v="777"/>
    <tag k="addr:street" v="Stratton Arlington Road"/>
    <tag k="addr:state" v="VT"/>
    <tag k="ref:vcgi:esiteid" v="253097"/>
  </node>
  <node id="-405" visible="true" lat="43.045819438265" lon="-72.916657738255">
    <tag k="addr:city" v="Stratton"/>
    <tag k="addr:housenumber" v="765"/>
    <tag k="addr:street" v="Stratton Arlington Road"/>
    <tag k="addr:state" v="VT"/>
    <tag k="ref:vcgi:esiteid" v="253098"/>
  </node>
  <node id="-406" visible="true" lat="43.045643961336" lon="-72.953492464435">
    <tag k="addr:city" v="Stratton"/>
    <tag k="addr:housenumber" v="207"/>
    <tag k="addr:street" v="Grout Pond Road"/>
    <tag k="addr:state" v="VT"/>
    <tag k="ref:vcgi:esiteid" v="253099"/>
  </node>
  <node id="-407" visible="true" lat="43.04569736779" lon="-72.915192892571">
    <tag k="addr:city" v="Stratton"/>
    <tag k="addr:housenumber" v="758"/>
    <tag k="addr:street" v="Stratton Arlington Road"/>
    <tag k="addr:state" v="VT"/>
    <tag k="ref:vcgi:esiteid" v="253100"/>
  </node>
  <node id="-408" visible="true" lat="43.045594371829" lon="-72.916100790621">
    <tag k="addr:city" v="Stratton"/>
    <tag k="addr:housenumber" v="761"/>
    <tag k="addr:street" v="Stratton Arlington Road"/>
    <tag k="addr:state" v="VT"/>
    <tag k="ref:vcgi:esiteid" v="253101"/>
  </node>
  <node id="-409" visible="true" lat="43.045018352191" lon="-72.915093709324">
    <tag k="addr:city" v="Stratton"/>
    <tag k="addr:housenumber" v="749"/>
    <tag k="addr:street" v="Stratton Arlington Road"/>
    <tag k="addr:state" v="VT"/>
    <tag k="ref:vcgi:esiteid" v="253102"/>
  </node>
  <node id="-410" visible="true" lat="43.044967164494" lon="-72.912734302374">
    <tag k="addr:city" v="Stratton"/>
    <tag k="addr:housenumber" v="730"/>
    <tag k="addr:street" v="Stratton Arlington Road"/>
    <tag k="addr:state" v="VT"/>
    <tag k="ref:vcgi:esiteid" v="253103"/>
  </node>
  <node id="-411" visible="true" lat="43.044809821045" lon="-72.902910480879">
    <tag k="addr:city" v="Stratton"/>
    <tag k="addr:housenumber" v="62"/>
    <tag k="addr:street" v="West Jamaica Road"/>
    <tag k="addr:state" v="VT"/>
    <tag k="ref:vcgi:esiteid" v="253104"/>
  </node>
  <node id="-412" visible="true" lat="43.044764606864" lon="-72.913608711493">
    <tag k="addr:city" v="Stratton"/>
    <tag k="addr:housenumber" v="733"/>
    <tag k="addr:street" v="Stratton Arlington Road"/>
    <tag k="addr:state" v="VT"/>
    <tag k="ref:vcgi:esiteid" v="253105"/>
  </node>
  <node id="-413" visible="true" lat="43.044223342948" lon="-72.878566868866">
    <tag k="addr:city" v="Stratton"/>
    <tag k="addr:housenumber" v="183"/>
    <tag k="addr:street" v="Canedy Road"/>
    <tag k="addr:state" v="VT"/>
    <tag k="ref:vcgi:esiteid" v="253107"/>
  </node>
  <node id="-414" visible="true" lat="43.043879937637" lon="-72.911967135354">
    <tag k="addr:city" v="Stratton"/>
    <tag k="addr:housenumber" v="713"/>
    <tag k="addr:street" v="Stratton Arlington Road"/>
    <tag k="addr:state" v="VT"/>
    <tag k="ref:vcgi:esiteid" v="253108"/>
  </node>
  <node id="-415" visible="true" lat="43.043646460889" lon="-72.910577627887">
    <tag k="addr:city" v="Stratton"/>
    <tag k="addr:housenumber" v="702"/>
    <tag k="addr:street" v="Stratton Arlington Road"/>
    <tag k="addr:state" v="VT"/>
    <tag k="ref:vcgi:esiteid" v="253109"/>
  </node>
  <node id="-417" visible="true" lat="43.042992747399" lon="-72.909470845229">
    <tag k="addr:city" v="Stratton"/>
    <tag k="addr:housenumber" v="688"/>
    <tag k="addr:street" v="Stratton Arlington Road"/>
    <tag k="addr:state" v="VT"/>
    <tag k="ref:vcgi:esiteid" v="253111"/>
  </node>
  <node id="-418" visible="true" lat="43.042727814192" lon="-72.909178822889">
    <tag k="addr:city" v="Stratton"/>
    <tag k="addr:housenumber" v="684"/>
    <tag k="addr:street" v="Stratton Arlington Road"/>
    <tag k="addr:state" v="VT"/>
    <tag k="ref:vcgi:esiteid" v="253112"/>
  </node>
  <node id="-419" visible="true" lat="43.04262272307" lon="-72.909837055647">
    <tag k="addr:city" v="Stratton"/>
    <tag k="addr:housenumber" v="685"/>
    <tag k="addr:street" v="Stratton Arlington Road"/>
    <tag k="addr:state" v="VT"/>
    <tag k="ref:vcgi:esiteid" v="253113"/>
  </node>
  <node id="-420" visible="true" lat="43.04250223541" lon="-72.908914618986">
    <tag k="addr:city" v="Stratton"/>
    <tag k="addr:housenumber" v="680"/>
    <tag k="addr:street" v="Stratton Arlington Road"/>
    <tag k="addr:state" v="VT"/>
    <tag k="ref:vcgi:esiteid" v="253114"/>
  </node>
  <node id="-421" visible="true" lat="43.041695750909" lon="-72.908593463389">
    <tag k="addr:city" v="Stratton"/>
    <tag k="addr:housenumber" v="669"/>
    <tag k="addr:street" v="Stratton Arlington Road"/>
    <tag k="addr:state" v="VT"/>
    <tag k="ref:vcgi:esiteid" v="253115"/>
  </node>
  <node id="-422" visible="true" lat="43.041512645901" lon="-72.908250141278">
    <tag k="addr:city" v="Stratton"/>
    <tag k="addr:housenumber" v="663"/>
    <tag k="addr:street" v="Stratton Arlington Road"/>
    <tag k="addr:state" v="VT"/>
    <tag k="ref:vcgi:esiteid" v="253116"/>
  </node>
  <node id="-423" visible="true" lat="43.041298396229" lon="-72.899351418383">
    <tag k="addr:city" v="Stratton"/>
    <tag k="addr:housenumber" v="596"/>
    <tag k="addr:street" v="Stratton Arlington Road"/>
    <tag k="addr:state" v="VT"/>
    <tag k="ref:vcgi:esiteid" v="253117"/>
  </node>
  <node id="-424" visible="true" lat="43.041185784369" lon="-72.907646754472">
    <tag k="addr:city" v="Stratton"/>
    <tag k="addr:housenumber" v="653"/>
    <tag k="addr:street" v="Stratton Arlington Road"/>
    <tag k="addr:state" v="VT"/>
    <tag k="ref:vcgi:esiteid" v="253118"/>
  </node>
  <node id="-425" visible="true" lat="43.04058627161" lon="-72.906442576767">
    <tag k="addr:city" v="Stratton"/>
    <tag k="addr:housenumber" v="645"/>
    <tag k="addr:street" v="Stratton Arlington Road"/>
    <tag k="addr:state" v="VT"/>
    <tag k="ref:vcgi:esiteid" v="253119"/>
  </node>
  <node id="-426" visible="true" lat="43.040631449677" lon="-72.905122089013">
    <tag k="addr:city" v="Stratton"/>
    <tag k="addr:housenumber" v="632"/>
    <tag k="addr:street" v="Stratton Arlington Road"/>
    <tag k="addr:state" v="VT"/>
    <tag k="ref:vcgi:esiteid" v="253120"/>
  </node>
  <node id="-427" visible="true" lat="43.040391124035" lon="-72.905755327192">
    <tag k="addr:city" v="Stratton"/>
    <tag k="addr:housenumber" v="635"/>
    <tag k="addr:street" v="Stratton Arlington Road"/>
    <tag k="addr:state" v="VT"/>
    <tag k="ref:vcgi:esiteid" v="253121"/>
  </node>
  <node id="-428" visible="true" lat="43.040002025012" lon="-72.904168413021">
    <tag k="addr:city" v="Stratton"/>
    <tag k="addr:housenumber" v="618"/>
    <tag k="addr:street" v="Stratton Arlington Road"/>
    <tag k="addr:state" v="VT"/>
    <tag k="ref:vcgi:esiteid" v="253122"/>
  </node>
  <node id="-429" visible="true" lat="43.039724299818" lon="-72.89981946434">
    <tag k="addr:city" v="Stratton"/>
    <tag k="addr:housenumber" v="582"/>
    <tag k="addr:street" v="Stratton Arlington Road"/>
    <tag k="addr:state" v="VT"/>
    <tag k="ref:vcgi:esiteid" v="253123"/>
  </node>
  <node id="-430" visible="true" lat="43.038492366353" lon="-72.894584701346">
    <tag k="addr:city" v="Stratton"/>
    <tag k="addr:housenumber" v="38"/>
    <tag k="addr:street" v="Manicknung Lane"/>
    <tag k="addr:state" v="VT"/>
    <tag k="ref:vcgi:esiteid" v="253125"/>
  </node>
  <node id="-431" visible="true" lat="43.038311537859" lon="-72.898211722434">
    <tag k="addr:city" v="Stratton"/>
    <tag k="addr:housenumber" v="550"/>
    <tag k="addr:street" v="Stratton Arlington Road"/>
    <tag k="addr:state" v="VT"/>
    <tag k="ref:vcgi:esiteid" v="253126"/>
  </node>
  <node id="-432" visible="true" lat="43.037491258284" lon="-72.893824641186">
    <tag k="addr:city" v="Stratton"/>
    <tag k="addr:housenumber" v="36"/>
    <tag k="addr:street" v="Manicknung Lane"/>
    <tag k="addr:state" v="VT"/>
    <tag k="ref:vcgi:esiteid" v="253127"/>
  </node>
  <node id="-433" visible="true" lat="43.037587438216" lon="-72.897570884915">
    <tag k="addr:city" v="Stratton"/>
    <tag k="addr:housenumber" v="540"/>
    <tag k="addr:street" v="Stratton Arlington Road"/>
    <tag k="addr:state" v="VT"/>
    <tag k="ref:vcgi:esiteid" v="253128"/>
  </node>
  <node id="-434" visible="true" lat="43.037987797708" lon="-72.899266095833">
    <tag k="addr:city" v="Stratton"/>
    <tag k="addr:housenumber" v="556"/>
    <tag k="addr:street" v="Stratton Arlington Road"/>
    <tag k="addr:state" v="VT"/>
    <tag k="ref:vcgi:esiteid" v="253129"/>
  </node>
  <node id="-435" visible="true" lat="43.037406663728" lon="-72.876946753101">
    <tag k="addr:city" v="Stratton"/>
    <tag k="addr:housenumber" v="115"/>
    <tag k="addr:street" v="Leon Stocker Drive"/>
    <tag k="addr:state" v="VT"/>
    <tag k="ref:vcgi:esiteid" v="253131"/>
  </node>
  <node id="-436" visible="true" lat="43.036974274034" lon="-72.89846827323">
    <tag k="addr:city" v="Stratton"/>
    <tag k="addr:housenumber" v="543"/>
    <tag k="addr:street" v="Stratton Arlington Road"/>
    <tag k="addr:state" v="VT"/>
    <tag k="ref:vcgi:esiteid" v="253132"/>
  </node>
  <node id="-437" visible="true" lat="43.036166115453" lon="-72.874774412029">
    <tag k="addr:city" v="Stratton"/>
    <tag k="addr:housenumber" v="127"/>
    <tag k="addr:street" v="Leon Stocker Drive"/>
    <tag k="addr:state" v="VT"/>
    <tag k="ref:vcgi:esiteid" v="253133"/>
  </node>
  <node id="-438" visible="true" lat="43.035212297372" lon="-72.892979699798">
    <tag k="addr:city" v="Stratton"/>
    <tag k="addr:housenumber" v="24"/>
    <tag k="addr:street" v="Tudo Road"/>
    <tag k="addr:state" v="VT"/>
    <tag k="ref:vcgi:esiteid" v="253134"/>
  </node>
  <node id="-439" visible="true" lat="43.035166556493" lon="-72.896448544508">
    <tag k="addr:city" v="Stratton"/>
    <tag k="addr:housenumber" v="517"/>
    <tag k="addr:street" v="Stratton Arlington Road"/>
    <tag k="addr:state" v="VT"/>
    <tag k="ref:vcgi:esiteid" v="253135"/>
  </node>
  <node id="-440" visible="true" lat="43.034973984046" lon="-72.874122106851">
    <tag k="addr:city" v="Stratton"/>
    <tag k="addr:housenumber" v="153"/>
    <tag k="addr:street" v="Leon Stocker Drive"/>
    <tag k="addr:state" v="VT"/>
    <tag k="ref:vcgi:esiteid" v="253136"/>
  </node>
  <node id="-441" visible="true" lat="43.034768259718" lon="-72.899750991783">
    <tag k="addr:city" v="Stratton"/>
    <tag k="addr:housenumber" v="39"/>
    <tag k="addr:street" v="Old Forrester Road"/>
    <tag k="addr:state" v="VT"/>
    <tag k="ref:vcgi:esiteid" v="253137"/>
  </node>
  <node id="-442" visible="true" lat="43.034616978221" lon="-72.894576851911">
    <tag k="addr:city" v="Stratton"/>
    <tag k="addr:housenumber" v="498"/>
    <tag k="addr:street" v="Stratton Arlington Road"/>
    <tag k="addr:state" v="VT"/>
    <tag k="ref:vcgi:esiteid" v="253138"/>
  </node>
  <node id="-443" visible="true" lat="43.034328270707" lon="-72.896052686701">
    <tag k="addr:city" v="Stratton"/>
    <tag k="addr:housenumber" v="505"/>
    <tag k="addr:street" v="Stratton Arlington Road"/>
    <tag k="addr:state" v="VT"/>
    <tag k="ref:vcgi:esiteid" v="253139"/>
  </node>
  <node id="-444" visible="true" lat="43.03404728203" lon="-72.899842545987">
    <tag k="addr:city" v="Stratton"/>
    <tag k="addr:housenumber" v="49"/>
    <tag k="addr:street" v="Old Forrester Road"/>
    <tag k="addr:state" v="VT"/>
    <tag k="ref:vcgi:esiteid" v="253140"/>
  </node>
  <node id="-445" visible="true" lat="43.033949024124" lon="-72.889237220284">
    <tag k="addr:city" v="Stratton"/>
    <tag k="addr:housenumber" v="54"/>
    <tag k="addr:street" v="Knowlton Farm Road"/>
    <tag k="addr:state" v="VT"/>
    <tag k="ref:vcgi:esiteid" v="253141"/>
  </node>
  <node id="-446" visible="true" lat="43.033891284813" lon="-72.874155174896">
    <tag k="addr:city" v="Stratton"/>
    <tag k="addr:housenumber" v="165"/>
    <tag k="addr:street" v="Leon Stocker Drive"/>
    <tag k="addr:state" v="VT"/>
    <tag k="ref:vcgi:esiteid" v="253142"/>
  </node>
  <node id="-447" visible="true" lat="43.03388020016" lon="-72.886441513337">
    <tag k="addr:city" v="Stratton"/>
    <tag k="addr:housenumber" v="46"/>
    <tag k="addr:street" v="Knowlton Farm Road"/>
    <tag k="addr:state" v="VT"/>
    <tag k="ref:vcgi:esiteid" v="253143"/>
  </node>
  <node id="-448" visible="true" lat="43.033646738463" lon="-72.900330827891">
    <tag k="addr:city" v="Stratton"/>
    <tag k="addr:housenumber" v="57"/>
    <tag k="addr:street" v="Old Forrester Road"/>
    <tag k="addr:state" v="VT"/>
    <tag k="ref:vcgi:esiteid" v="253144"/>
  </node>
  <node id="-449" visible="true" lat="43.033993329534" lon="-72.89175918523">
    <tag k="addr:city" v="Stratton"/>
    <tag k="addr:housenumber" v="470"/>
    <tag k="addr:street" v="Stratton Arlington Road"/>
    <tag k="addr:state" v="VT"/>
    <tag k="ref:vcgi:esiteid" v="253145"/>
  </node>
  <node id="-450" visible="true" lat="43.033585401471" lon="-72.878423629931">
    <tag k="addr:city" v="Stratton"/>
    <tag k="addr:housenumber" v="18"/>
    <tag k="addr:street" v="Leon Stocker Drive"/>
    <tag k="addr:state" v="VT"/>
    <tag k="ref:vcgi:esiteid" v="253146"/>
  </node>
  <node id="-451" visible="true" lat="43.033856535636" lon="-72.879671489064">
    <tag k="addr:city" v="Stratton"/>
    <tag k="addr:housenumber" v="35"/>
    <tag k="addr:street" v="Leon Stocker Drive"/>
    <tag k="addr:state" v="VT"/>
    <tag k="ref:vcgi:esiteid" v="253147"/>
  </node>
  <node id="-452" visible="true" lat="43.033288384742" lon="-72.874541038523">
    <tag k="addr:city" v="Stratton"/>
    <tag k="addr:housenumber" v="167"/>
    <tag k="addr:street" v="Leon Stocker Drive"/>
    <tag k="addr:state" v="VT"/>
    <tag k="ref:vcgi:esiteid" v="253148"/>
  </node>
  <node id="-453" visible="true" lat="43.033002055495" lon="-72.887833874216">
    <tag k="addr:city" v="Stratton"/>
    <tag k="addr:housenumber" v="44"/>
    <tag k="addr:street" v="Knowlton Farm Road"/>
    <tag k="addr:state" v="VT"/>
    <tag k="ref:vcgi:esiteid" v="253149"/>
  </node>
  <node id="-454" visible="true" lat="43.032682699895" lon="-72.876916284772">
    <tag k="addr:city" v="Stratton"/>
    <tag k="addr:housenumber" v="11"/>
    <tag k="addr:street" v="Leon Stocker Drive"/>
    <tag k="addr:state" v="VT"/>
    <tag k="ref:vcgi:esiteid" v="253150"/>
  </node>
  <node id="-455" visible="true" lat="43.032422220103" lon="-72.900681777846">
    <tag k="addr:city" v="Stratton"/>
    <tag k="addr:housenumber" v="71"/>
    <tag k="addr:street" v="Old Forrester Road"/>
    <tag k="addr:state" v="VT"/>
    <tag k="ref:vcgi:esiteid" v="253151"/>
  </node>
  <node id="-456" visible="true" lat="43.032183822448" lon="-72.891050811116">
    <tag k="addr:city" v="Stratton"/>
    <tag k="addr:housenumber" v="440"/>
    <tag k="addr:street" v="Stratton Arlington Road"/>
    <tag k="addr:state" v="VT"/>
    <tag k="ref:vcgi:esiteid" v="253152"/>
  </node>
  <node id="-457" visible="true" lat="43.0320270513" lon="-72.892607181689">
    <tag k="addr:city" v="Stratton"/>
    <tag k="addr:housenumber" v="6"/>
    <tag k="addr:street" v="Bills Road"/>
    <tag k="addr:state" v="VT"/>
    <tag k="ref:vcgi:esiteid" v="253153"/>
  </node>
  <node id="-458" visible="true" lat="43.031865747832" lon="-72.874613082291">
    <tag k="addr:city" v="Stratton"/>
    <tag k="addr:housenumber" v="150"/>
    <tag k="addr:street" v="Kerri Ann Lane"/>
    <tag k="addr:state" v="VT"/>
    <tag k="ref:vcgi:esiteid" v="253154"/>
  </node>
  <node id="-459" visible="true" lat="43.031613505071" lon="-72.876031195804">
    <tag k="addr:city" v="Stratton"/>
    <tag k="addr:housenumber" v="4"/>
    <tag k="addr:street" v="Jennifer Drive"/>
    <tag k="addr:state" v="VT"/>
    <tag k="ref:vcgi:esiteid" v="253155"/>
  </node>
  <node id="-460" visible="true" lat="43.03131119737" lon="-72.892303695224">
    <tag k="addr:city" v="Stratton"/>
    <tag k="addr:housenumber" v="15"/>
    <tag k="addr:street" v="Bills Road"/>
    <tag k="addr:state" v="VT"/>
    <tag k="ref:vcgi:esiteid" v="253156"/>
  </node>
  <node id="-461" visible="true" lat="43.031060941043" lon="-72.874545716581">
    <tag k="addr:city" v="Stratton"/>
    <tag k="addr:housenumber" v="143"/>
    <tag k="addr:street" v="Kerri Ann Lane"/>
    <tag k="addr:state" v="VT"/>
    <tag k="ref:vcgi:esiteid" v="253157"/>
  </node>
  <node id="-462" visible="true" lat="43.030945591766" lon="-72.894124765729">
    <tag k="addr:city" v="Stratton"/>
    <tag k="addr:housenumber" v="30"/>
    <tag k="addr:street" v="Bills Road"/>
    <tag k="addr:state" v="VT"/>
    <tag k="ref:vcgi:esiteid" v="253158"/>
  </node>
  <node id="-463" visible="true" lat="43.030768092949" lon="-72.889239448189">
    <tag k="addr:city" v="Stratton"/>
    <tag k="addr:housenumber" v="417"/>
    <tag k="addr:street" v="Stratton Arlington Road"/>
    <tag k="addr:state" v="VT"/>
    <tag k="ref:vcgi:esiteid" v="253159"/>
  </node>
  <node id="-464" visible="true" lat="43.030781290129" lon="-72.876435810264">
    <tag k="addr:city" v="Stratton"/>
    <tag k="addr:housenumber" v="16"/>
    <tag k="addr:street" v="Jennifer Drive"/>
    <tag k="addr:state" v="VT"/>
    <tag k="ref:vcgi:esiteid" v="253160"/>
  </node>
  <node id="-465" visible="true" lat="43.030491341032" lon="-72.875423207737">
    <tag k="addr:city" v="Stratton"/>
    <tag k="addr:housenumber" v="19"/>
    <tag k="addr:street" v="Jennifer Drive"/>
    <tag k="addr:state" v="VT"/>
    <tag k="ref:vcgi:esiteid" v="253161"/>
  </node>
  <node id="-466" visible="true" lat="43.029782449881" lon="-72.888146679625">
    <tag k="addr:city" v="Stratton"/>
    <tag k="addr:housenumber" v="399"/>
    <tag k="addr:street" v="Stratton Arlington Road"/>
    <tag k="addr:state" v="VT"/>
    <tag k="ref:vcgi:esiteid" v="253162"/>
  </node>
  <node id="-467" visible="true" lat="43.029626046624" lon="-72.885850231174">
    <tag k="addr:city" v="Stratton"/>
    <tag k="addr:housenumber" v="378"/>
    <tag k="addr:street" v="Stratton Arlington Road"/>
    <tag k="addr:state" v="VT"/>
    <tag k="ref:vcgi:esiteid" v="253163"/>
  </node>
  <node id="-468" visible="true" lat="43.028958094723" lon="-72.888312010649">
    <tag k="addr:city" v="Stratton"/>
    <tag k="addr:housenumber" v="14"/>
    <tag k="addr:street" v="Willis Cemetery Road"/>
    <tag k="addr:state" v="VT"/>
    <tag k="ref:vcgi:esiteid" v="253164"/>
  </node>
  <node id="-469" visible="true" lat="43.028651873383" lon="-72.887404039198">
    <tag k="addr:city" v="Stratton"/>
    <tag k="addr:housenumber" v="9"/>
    <tag k="addr:street" v="Willis Cemetery Road"/>
    <tag k="addr:state" v="VT"/>
    <tag k="ref:vcgi:esiteid" v="253165"/>
  </node>
  <node id="-470" visible="true" lat="43.028646253614" lon="-72.883812970863">
    <tag k="addr:city" v="Stratton"/>
    <tag k="addr:housenumber" v="356"/>
    <tag k="addr:street" v="Stratton Arlington Road"/>
    <tag k="addr:state" v="VT"/>
    <tag k="ref:vcgi:esiteid" v="253166"/>
  </node>
  <node id="-471" visible="true" lat="43.028644820506" lon="-72.885840651827">
    <tag k="addr:city" v="Stratton"/>
    <tag k="addr:housenumber" v="373"/>
    <tag k="addr:street" v="Stratton Arlington Road"/>
    <tag k="addr:state" v="VT"/>
    <tag k="ref:vcgi:esiteid" v="253167"/>
  </node>
  <node id="-472" visible="true" lat="43.027646218286" lon="-72.881097116086">
    <tag k="addr:city" v="Stratton"/>
    <tag k="addr:housenumber" v="329"/>
    <tag k="addr:street" v="Stratton Arlington Road"/>
    <tag k="addr:state" v="VT"/>
    <tag k="ref:vcgi:esiteid" v="253168"/>
  </node>
  <node id="-473" visible="true" lat="43.027524147853" lon="-72.884599009014">
    <tag k="addr:city" v="Stratton"/>
    <tag k="addr:housenumber" v="40"/>
    <tag k="addr:street" v="Oakmont Lane"/>
    <tag k="addr:state" v="VT"/>
    <tag k="ref:vcgi:esiteid" v="253169"/>
  </node>
  <node id="-474" visible="true" lat="43.027505075614" lon="-72.88009003678">
    <tag k="addr:city" v="Stratton"/>
    <tag k="addr:housenumber" v="307"/>
    <tag k="addr:street" v="Stratton Arlington Road"/>
    <tag k="addr:state" v="VT"/>
    <tag k="ref:vcgi:esiteid" v="253170"/>
  </node>
  <node id="-475" visible="true" lat="43.026930507658" lon="-72.889155526901">
    <tag k="addr:city" v="Stratton"/>
    <tag k="addr:housenumber" v="44"/>
    <tag k="addr:street" v="Willis Cemetery Road"/>
    <tag k="addr:state" v="VT"/>
    <tag k="ref:vcgi:esiteid" v="253171"/>
  </node>
  <node id="-476" visible="true" lat="43.026799356364" lon="-72.879197396885">
    <tag k="addr:city" v="Stratton"/>
    <tag k="addr:housenumber" v="295"/>
    <tag k="addr:street" v="Stratton Arlington Road"/>
    <tag k="addr:state" v="VT"/>
    <tag k="ref:vcgi:esiteid" v="253172"/>
  </node>
  <node id="-477" visible="true" lat="43.026425569808" lon="-72.887834802804">
    <tag k="addr:city" v="Stratton"/>
    <tag k="addr:housenumber" v="53"/>
    <tag k="addr:street" v="Willis Cemetery Road"/>
    <tag k="addr:state" v="VT"/>
    <tag k="ref:vcgi:esiteid" v="253173"/>
  </node>
  <node id="-478" visible="true" lat="43.026345067616" lon="-72.889456183145">
    <tag k="addr:city" v="Stratton"/>
    <tag k="addr:housenumber" v="54"/>
    <tag k="addr:street" v="Willis Cemetery Road"/>
    <tag k="addr:state" v="VT"/>
    <tag k="ref:vcgi:esiteid" v="253174"/>
  </node>
  <node id="-479" visible="true" lat="43.026002084056" lon="-72.876336372683">
    <tag k="addr:city" v="Stratton"/>
    <tag k="addr:housenumber" v="264"/>
    <tag k="addr:street" v="Stratton Arlington Road"/>
    <tag k="addr:state" v="VT"/>
    <tag k="ref:vcgi:esiteid" v="253175"/>
  </node>
  <node id="-480" visible="true" lat="43.02597156709" lon="-72.877877511666">
    <tag k="addr:city" v="Stratton"/>
    <tag k="addr:housenumber" v="277"/>
    <tag k="addr:street" v="Stratton Arlington Road"/>
    <tag k="addr:state" v="VT"/>
    <tag k="ref:vcgi:esiteid" v="253176"/>
  </node>
  <node id="-481" visible="true" lat="43.025212442793" lon="-72.878136911019">
    <tag k="addr:city" v="Stratton"/>
    <tag k="addr:housenumber" v="6"/>
    <tag k="addr:street" v="Pike Hollow Road"/>
    <tag k="addr:state" v="VT"/>
    <tag k="ref:vcgi:esiteid" v="253177"/>
  </node>
  <node id="-482" visible="true" lat="43.024948864553" lon="-72.877589838254">
    <tag k="addr:city" v="Stratton"/>
    <tag k="addr:housenumber" v="15"/>
    <tag k="addr:street" v="Pike Hollow Road"/>
    <tag k="addr:state" v="VT"/>
    <tag k="ref:vcgi:esiteid" v="253178"/>
  </node>
  <node id="-483" visible="true" lat="43.024648381717" lon="-72.891349522371">
    <tag k="addr:city" v="Stratton"/>
    <tag k="addr:housenumber" v="122"/>
    <tag k="addr:street" v="Willis Cemetery Road"/>
    <tag k="addr:state" v="VT"/>
    <tag k="ref:vcgi:esiteid" v="253179"/>
  </node>
  <node id="-484" visible="true" lat="43.02466495939" lon="-72.878370074504">
    <tag k="addr:city" v="Stratton"/>
    <tag k="addr:housenumber" v="20"/>
    <tag k="addr:street" v="Pike Hollow Road"/>
    <tag k="addr:state" v="VT"/>
    <tag k="ref:vcgi:esiteid" v="253180"/>
  </node>
  <node id="-485" visible="true" lat="43.024201165724" lon="-72.889706939417">
    <tag k="addr:city" v="Stratton"/>
    <tag k="addr:housenumber" v="82"/>
    <tag k="addr:street" v="Willis Cemetery Road"/>
    <tag k="addr:state" v="VT"/>
    <tag k="ref:vcgi:esiteid" v="253181"/>
  </node>
  <node id="-486" visible="true" lat="43.024498424763" lon="-72.892710370285">
    <tag k="addr:city" v="Stratton"/>
    <tag k="addr:housenumber" v="134"/>
    <tag k="addr:street" v="Willis Cemetery Road"/>
    <tag k="addr:state" v="VT"/>
    <tag k="ref:vcgi:esiteid" v="253182"/>
  </node>
  <node id="-487" visible="true" lat="43.023439102168" lon="-72.88992518787">
    <tag k="addr:city" v="Stratton"/>
    <tag k="addr:housenumber" v="106"/>
    <tag k="addr:street" v="Willis Cemetery Road"/>
    <tag k="addr:state" v="VT"/>
    <tag k="ref:vcgi:esiteid" v="253183"/>
  </node>
  <node id="-488" visible="true" lat="43.023154817622" lon="-72.89280114909">
    <tag k="addr:city" v="Stratton"/>
    <tag k="addr:housenumber" v="125"/>
    <tag k="addr:street" v="Willis Cemetery Road"/>
    <tag k="addr:state" v="VT"/>
    <tag k="ref:vcgi:esiteid" v="253184"/>
  </node>
  <node id="-489" visible="true" lat="43.022938881723" lon="-72.890847486529">
    <tag k="addr:city" v="Stratton"/>
    <tag k="addr:housenumber" v="111"/>
    <tag k="addr:street" v="Willis Cemetery Road"/>
    <tag k="addr:state" v="VT"/>
    <tag k="ref:vcgi:esiteid" v="253185"/>
  </node>
  <node id="-490" visible="true" lat="43.022922220352" lon="-72.888901800312">
    <tag k="addr:city" v="Stratton"/>
    <tag k="addr:housenumber" v="99"/>
    <tag k="addr:street" v="Willis Cemetery Road"/>
    <tag k="addr:state" v="VT"/>
    <tag k="ref:vcgi:esiteid" v="253186"/>
  </node>
  <node id="-491" visible="true" lat="43.022749935811" lon="-72.890109207686">
    <tag k="addr:city" v="Stratton"/>
    <tag k="addr:housenumber" v="101"/>
    <tag k="addr:street" v="Willis Cemetery Road"/>
    <tag k="addr:state" v="VT"/>
    <tag k="ref:vcgi:esiteid" v="253187"/>
  </node>
  <node id="-492" visible="true" lat="43.02333318818" lon="-72.881175252097">
    <tag k="addr:city" v="Stratton"/>
    <tag k="addr:housenumber" v="68"/>
    <tag k="addr:street" v="Pike Hollow Road"/>
    <tag k="addr:state" v="VT"/>
    <tag k="ref:vcgi:esiteid" v="253188"/>
  </node>
  <node id="-493" visible="true" lat="43.021605266016" lon="-72.885307037887">
    <tag k="addr:city" v="Stratton"/>
    <tag k="addr:housenumber" v="62"/>
    <tag k="addr:street" v="Gagners Way"/>
    <tag k="addr:state" v="VT"/>
    <tag k="ref:vcgi:esiteid" v="253189"/>
  </node>
  <node id="-494" visible="true" lat="43.020699622833" lon="-72.881239480691">
    <tag k="addr:city" v="Stratton"/>
    <tag k="addr:housenumber" v="90"/>
    <tag k="addr:street" v="Pike Hollow Road"/>
    <tag k="addr:state" v="VT"/>
    <tag k="ref:vcgi:esiteid" v="253190"/>
  </node>
  <node id="-495" visible="true" lat="43.019916247876" lon="-72.880028747553">
    <tag k="addr:city" v="Stratton"/>
    <tag k="addr:housenumber" v="218"/>
    <tag k="addr:street" v="Penny Avenue"/>
    <tag k="addr:state" v="VT"/>
    <tag k="ref:vcgi:esiteid" v="253191"/>
  </node>
  <node id="-496" visible="true" lat="43.019178708774" lon="-72.883558103883">
    <tag k="addr:city" v="Stratton"/>
    <tag k="addr:housenumber" v="122"/>
    <tag k="addr:street" v="Pike Hollow Road"/>
    <tag k="addr:state" v="VT"/>
    <tag k="ref:vcgi:esiteid" v="253192"/>
  </node>
  <node id="-497" visible="true" lat="43.018411015035" lon="-72.88510418762">
    <tag k="addr:city" v="Stratton"/>
    <tag k="addr:housenumber" v="146"/>
    <tag k="addr:street" v="Pike Hollow Road"/>
    <tag k="addr:state" v="VT"/>
    <tag k="ref:vcgi:esiteid" v="253193"/>
  </node>
  <node id="-498" visible="true" lat="43.017068580785" lon="-72.888622300205">
    <tag k="addr:city" v="Stratton"/>
    <tag k="addr:housenumber" v="182"/>
    <tag k="addr:street" v="Pike Hollow Road"/>
    <tag k="addr:state" v="VT"/>
    <tag k="ref:vcgi:esiteid" v="253194"/>
  </node>
  <node id="-499" visible="true" lat="43.01682925136" lon="-72.886132993353">
    <tag k="addr:city" v="Stratton"/>
    <tag k="addr:housenumber" v="171"/>
    <tag k="addr:street" v="Pike Hollow Road"/>
    <tag k="addr:state" v="VT"/>
    <tag k="ref:vcgi:esiteid" v="253195"/>
  </node>
  <node id="-500" visible="true" lat="43.016542754134" lon="-72.889635262053">
    <tag k="addr:city" v="Stratton"/>
    <tag k="addr:housenumber" v="192"/>
    <tag k="addr:street" v="Pike Hollow Road"/>
    <tag k="addr:state" v="VT"/>
    <tag k="ref:vcgi:esiteid" v="253196"/>
  </node>
  <node id="-501" visible="true" lat="43.015278967545" lon="-72.892991344992">
    <tag k="addr:city" v="Stratton"/>
    <tag k="addr:housenumber" v="230"/>
    <tag k="addr:street" v="Pike Hollow Road"/>
    <tag k="addr:state" v="VT"/>
    <tag k="ref:vcgi:esiteid" v="253197"/>
  </node>
  <node id="-502" visible="true" lat="43.014565619295" lon="-72.893136303898">
    <tag k="addr:city" v="Stratton"/>
    <tag k="addr:housenumber" v="241"/>
    <tag k="addr:street" v="Pike Hollow Road"/>
    <tag k="addr:state" v="VT"/>
    <tag k="ref:vcgi:esiteid" v="253198"/>
  </node>
  <node id="-503" visible="true" lat="43.012540015715" lon="-72.8812573329">
    <tag k="addr:city" v="Stratton"/>
    <tag k="addr:housenumber" v="111"/>
    <tag k="addr:street" v="Penny Avenue"/>
    <tag k="addr:state" v="VT"/>
    <tag k="ref:vcgi:esiteid" v="253199"/>
  </node>
  <node id="-504" visible="true" lat="43.006573817377" lon="-72.883726752662">
    <tag k="addr:city" v="Stratton"/>
    <tag k="addr:housenumber" v="21"/>
    <tag k="addr:street" v="Penny Avenue"/>
    <tag k="addr:state" v="VT"/>
    <tag k="ref:vcgi:esiteid" v="253200"/>
  </node>
  <node id="-505" visible="true" lat="43.006245762591" lon="-72.883302009407">
    <tag k="addr:city" v="Stratton"/>
    <tag k="addr:housenumber" v="20"/>
    <tag k="addr:street" v="Penny Avenue"/>
    <tag k="addr:state" v="VT"/>
    <tag k="ref:vcgi:esiteid" v="253201"/>
  </node>
  <node id="-506" visible="true" lat="43.005894793401" lon="-72.882409462182">
    <tag k="addr:city" v="Stratton"/>
    <tag k="addr:housenumber" v="8"/>
    <tag k="addr:street" v="Penny Avenue"/>
    <tag k="addr:state" v="VT"/>
    <tag k="ref:vcgi:esiteid" v="253202"/>
  </node>
  <node id="-507" visible="true" lat="43.002482614615" lon="-72.885666811538">
    <tag k="addr:city" v="Stratton"/>
    <tag k="addr:housenumber" v="749"/>
    <tag k="addr:street" v="Vermont Route 100"/>
    <tag k="addr:state" v="VT"/>
    <tag k="ref:vcgi:esiteid" v="253203"/>
  </node>
  <node id="-508" visible="true" lat="43.002251978897" lon="-72.885765070641">
    <tag k="addr:city" v="Stratton"/>
    <tag k="addr:housenumber" v="743"/>
    <tag k="addr:street" v="Vermont Route 100"/>
    <tag k="addr:state" v="VT"/>
    <tag k="ref:vcgi:esiteid" v="253204"/>
  </node>
  <node id="-509" visible="true" lat="43.00141082567" lon="-72.886032167655">
    <tag k="addr:city" v="Stratton"/>
    <tag k="addr:housenumber" v="731"/>
    <tag k="addr:street" v="Vermont Route 100"/>
    <tag k="addr:state" v="VT"/>
    <tag k="ref:vcgi:esiteid" v="253205"/>
  </node>
  <node id="-510" visible="true" lat="42.999192941771" lon="-72.885175431006">
    <tag k="addr:city" v="Stratton"/>
    <tag k="addr:housenumber" v="706"/>
    <tag k="addr:street" v="Vermont Route 100"/>
    <tag k="addr:state" v="VT"/>
    <tag k="ref:vcgi:esiteid" v="253206"/>
  </node>
  <node id="-511" visible="true" lat="42.998093914322" lon="-72.886343277908">
    <tag k="addr:city" v="Stratton"/>
    <tag k="addr:housenumber" v="682"/>
    <tag k="addr:street" v="Vermont Route 100"/>
    <tag k="addr:state" v="VT"/>
    <tag k="ref:vcgi:esiteid" v="253207"/>
  </node>
  <node id="-512" visible="true" lat="42.996815937273" lon="-72.886915795449">
    <tag k="addr:city" v="Stratton"/>
    <tag k="addr:housenumber" v="664"/>
    <tag k="addr:street" v="Vermont Route 100"/>
    <tag k="addr:state" v="VT"/>
    <tag k="ref:vcgi:esiteid" v="253208"/>
  </node>
  <node id="-513" visible="true" lat="42.99467744097" lon="-72.888357445569">
    <tag k="addr:city" v="Stratton"/>
    <tag k="addr:housenumber" v="633"/>
    <tag k="addr:street" v="Vermont Route 100"/>
    <tag k="addr:state" v="VT"/>
    <tag k="ref:vcgi:esiteid" v="253210"/>
  </node>
  <node id="-514" visible="true" lat="42.994896250009" lon="-72.888205821854">
    <tag k="addr:city" v="Stratton"/>
    <tag k="addr:housenumber" v="635"/>
    <tag k="addr:street" v="Vermont Route 100"/>
    <tag k="addr:state" v="VT"/>
    <tag k="ref:vcgi:esiteid" v="253211"/>
  </node>
  <node id="-515" visible="true" lat="42.994458957427" lon="-72.888840210541">
    <tag k="addr:city" v="Stratton"/>
    <tag k="addr:housenumber" v="623"/>
    <tag k="addr:street" v="Vermont Route 100"/>
    <tag k="addr:state" v="VT"/>
    <tag k="ref:vcgi:esiteid" v="253212"/>
  </node>
  <node id="-516" visible="true" lat="42.993963924006" lon="-72.889017380058">
    <tag k="addr:city" v="Stratton"/>
    <tag k="addr:housenumber" v="617"/>
    <tag k="addr:street" v="Vermont Route 100"/>
    <tag k="addr:state" v="VT"/>
    <tag k="ref:vcgi:esiteid" v="253213"/>
  </node>
  <node id="-517" visible="true" lat="42.99365900877" lon="-72.888827621796">
    <tag k="addr:city" v="Stratton"/>
    <tag k="addr:housenumber" v="615"/>
    <tag k="addr:street" v="Vermont Route 100"/>
    <tag k="addr:state" v="VT"/>
    <tag k="ref:vcgi:esiteid" v="253214"/>
  </node>
  <node id="-519" visible="true" lat="42.993295139657" lon="-72.887588664948">
    <tag k="addr:city" v="Stratton"/>
    <tag k="addr:housenumber" v="618"/>
    <tag k="addr:street" v="Vermont Route 100"/>
    <tag k="addr:state" v="VT"/>
    <tag k="ref:vcgi:esiteid" v="253216"/>
  </node>
  <node id="-520" visible="true" lat="42.993074639035" lon="-72.888959916474">
    <tag k="addr:city" v="Stratton"/>
    <tag k="addr:housenumber" v="605"/>
    <tag k="addr:street" v="Vermont Route 100"/>
    <tag k="addr:state" v="VT"/>
    <tag k="ref:vcgi:esiteid" v="253217"/>
  </node>
  <node id="-528" visible="true" lat="43.112488916299" lon="-72.894540119715">
    <tag k="addr:city" v="Stratton"/>
    <tag k="addr:housenumber" v="41"/>
    <tag k="addr:street" v="High Point Drive"/>
    <tag k="addr:state" v="VT"/>
    <tag k="ref:vcgi:esiteid" v="253225"/>
  </node>
  <node id="-529" visible="true" lat="43.111985375835" lon="-72.89537172301">
    <tag k="addr:city" v="Stratton"/>
    <tag k="addr:housenumber" v="49"/>
    <tag k="addr:street" v="High Point Drive"/>
    <tag k="addr:state" v="VT"/>
    <tag k="ref:vcgi:esiteid" v="253226"/>
  </node>
  <node id="-530" visible="true" lat="43.111554315174" lon="-72.894730852946">
    <tag k="addr:city" v="Stratton"/>
    <tag k="addr:housenumber" v="47"/>
    <tag k="addr:street" v="High Point Drive"/>
    <tag k="addr:state" v="VT"/>
    <tag k="ref:vcgi:esiteid" v="253227"/>
  </node>
  <node id="-532" visible="true" lat="43.06117741185" lon="-72.967469521407">
    <tag k="addr:city" v="Stratton"/>
    <tag k="addr:housenumber" v="1376"/>
    <tag k="addr:street" v="Stratton Arlington Road"/>
    <tag k="addr:state" v="VT"/>
    <tag k="ref:vcgi:esiteid" v="253229"/>
  </node>
  <node id="-541" visible="true" lat="43.080193204344" lon="-72.875944675756">
    <tag k="addr:city" v="Stratton"/>
    <tag k="addr:housenumber" v="468"/>
    <tag k="addr:street" v="Mountain Road"/>
    <tag k="addr:state" v="VT"/>
    <tag k="ref:vcgi:esiteid" v="253238"/>
  </node>
  <node id="-547" visible="true" lat="43.086796602084" lon="-72.873020351468">
    <tag k="addr:city" v="Stratton"/>
    <tag k="addr:housenumber" v="354"/>
    <tag k="addr:street" v="Mountain Road"/>
    <tag k="addr:state" v="VT"/>
    <tag k="ref:vcgi:esiteid" v="253245"/>
  </node>
  <node id="-548" visible="true" lat="43.046425737082" lon="-72.951823389568">
    <tag k="addr:city" v="Stratton"/>
    <tag k="addr:housenumber" v="218"/>
    <tag k="addr:street" v="Grout Pond Road"/>
    <tag k="addr:state" v="VT"/>
    <tag k="ref:vcgi:esiteid" v="253246"/>
  </node>
  <node id="-549" visible="true" lat="43.043000884794" lon="-72.878883749542">
    <tag k="addr:city" v="Stratton"/>
    <tag k="addr:housenumber" v="186"/>
    <tag k="addr:street" v="Canedy Road"/>
    <tag k="addr:state" v="VT"/>
    <tag k="ref:vcgi:esiteid" v="253247"/>
  </node>
  <node id="-550" visible="true" lat="43.04688871685" lon="-72.914220119104">
    <tag k="addr:city" v="Stratton"/>
    <tag k="addr:housenumber" v="748"/>
    <tag k="addr:street" v="Stratton Arlington Road"/>
    <tag k="addr:state" v="VT"/>
    <tag k="ref:vcgi:esiteid" v="253248"/>
  </node>
  <node id="-551" visible="true" lat="43.056327198323" lon="-72.882592360764">
    <tag k="addr:city" v="Stratton"/>
    <tag k="addr:housenumber" v="7"/>
    <tag k="addr:street" v="Town Garage Road"/>
    <tag k="addr:state" v="VT"/>
    <tag k="ref:vcgi:esiteid" v="253250"/>
  </node>
  <node id="-552" visible="true" lat="43.056572189756" lon="-72.883010822425">
    <tag k="addr:city" v="Stratton"/>
    <tag k="addr:housenumber" v="8"/>
    <tag k="addr:street" v="Town Garage Road"/>
    <tag k="addr:state" v="VT"/>
    <tag k="ref:vcgi:esiteid" v="253251"/>
  </node>
  <node id="-598" visible="true" lat="43.033873074333" lon="-72.902085253814">
    <tag k="addr:city" v="Stratton"/>
    <tag k="addr:housenumber" v="14"/>
    <tag k="addr:street" v="Augusta Lane"/>
    <tag k="addr:state" v="VT"/>
    <tag k="ref:vcgi:esiteid" v="253302"/>
  </node>
  <node id="-601" visible="true" lat="43.041741992791" lon="-72.877639342881">
    <tag k="addr:city" v="Stratton"/>
    <tag k="addr:housenumber" v="206"/>
    <tag k="addr:street" v="Canedy Road"/>
    <tag k="addr:state" v="VT"/>
    <tag k="ref:vcgi:esiteid" v="253306"/>
  </node>
  <node id="-602" visible="true" lat="43.03912728964" lon="-72.904570697834">
    <tag k="addr:city" v="Stratton"/>
    <tag k="addr:housenumber" v="619"/>
    <tag k="addr:street" v="Stratton Arlington Road"/>
    <tag k="addr:state" v="VT"/>
    <tag k="ref:vcgi:esiteid" v="253307"/>
  </node>
  <node id="-604" visible="true" lat="43.047729434585" lon="-72.888947593777">
    <tag k="addr:city" v="Stratton"/>
    <tag k="addr:housenumber" v="100"/>
    <tag k="addr:street" v="Canedy Road"/>
    <tag k="addr:state" v="VT"/>
    <tag k="ref:vcgi:esiteid" v="253309"/>
  </node>
  <node id="-605" visible="true" lat="43.029340554031" lon="-72.895261184764">
    <tag k="addr:city" v="Stratton"/>
    <tag k="addr:housenumber" v="42"/>
    <tag k="addr:street" v="Bills Road"/>
    <tag k="addr:state" v="VT"/>
    <tag k="ref:vcgi:esiteid" v="253310"/>
  </node>
  <node id="-606" visible="true" lat="43.035652019671" lon="-72.896982144023">
    <tag k="addr:city" v="Stratton"/>
    <tag k="addr:housenumber" v="523"/>
    <tag k="addr:street" v="Stratton Arlington Road"/>
    <tag k="addr:state" v="VT"/>
    <tag k="ref:vcgi:esiteid" v="253311"/>
  </node>
  <node id="-609" visible="true" lat="43.085839085678" lon="-72.88065418206">
    <tag k="addr:city" v="Stratton"/>
    <tag k="addr:housenumber" v="454"/>
    <tag k="addr:street" v="Mountain Road"/>
    <tag k="addr:state" v="VT"/>
    <tag k="ref:vcgi:esiteid" v="253314"/>
  </node>
  <node id="-610" visible="true" lat="43.049677287616" lon="-72.884718143738">
    <tag k="addr:city" v="Stratton"/>
    <tag k="addr:housenumber" v="73"/>
    <tag k="addr:street" v="Canedy Road"/>
    <tag k="addr:state" v="VT"/>
    <tag k="ref:vcgi:esiteid" v="253316"/>
  </node>
  <node id="-611" visible="true" lat="43.029403471419" lon="-72.875030282004">
    <tag k="addr:city" v="Stratton"/>
    <tag k="addr:housenumber" v="34"/>
    <tag k="addr:street" v="Jennifer Drive"/>
    <tag k="addr:state" v="VT"/>
    <tag k="ref:vcgi:esiteid" v="253317"/>
  </node>
  <node id="-612" visible="true" lat="43.036801833932" lon="-72.877601092885">
    <tag k="addr:city" v="Stratton"/>
    <tag k="addr:housenumber" v="114"/>
    <tag k="addr:street" v="Leon Stocker Drive"/>
    <tag k="addr:state" v="VT"/>
    <tag k="ref:vcgi:esiteid" v="253318"/>
  </node>
  <node id="-613" visible="true" lat="43.043217844651" lon="-72.882557267314">
    <tag k="addr:city" v="Stratton"/>
    <tag k="addr:housenumber" v="144"/>
    <tag k="addr:street" v="Canedy Road"/>
    <tag k="addr:state" v="VT"/>
    <tag k="ref:vcgi:esiteid" v="253319"/>
  </node>
  <node id="-614" visible="true" lat="43.078611571354" lon="-72.873374573592">
    <tag k="addr:city" v="Stratton"/>
    <tag k="addr:housenumber" v="25"/>
    <tag k="addr:street" v="Forrester Road"/>
    <tag k="addr:state" v="VT"/>
    <tag k="ref:vcgi:esiteid" v="253320"/>
  </node>
  <node id="-615" visible="true" lat="42.994052667361" lon="-72.888738404465">
    <tag k="addr:city" v="Stratton"/>
    <tag k="addr:housenumber" v="621"/>
    <tag k="addr:street" v="Vermont Route 100"/>
    <tag k="addr:state" v="VT"/>
    <tag k="ref:vcgi:esiteid" v="253321"/>
  </node>
  <node id="-618" visible="true" lat="43.044774937828" lon="-72.923805757895">
    <tag k="addr:city" v="Stratton"/>
    <tag k="addr:housenumber" v="58"/>
    <tag k="addr:street" v="Red Hawk Rise"/>
    <tag k="addr:state" v="VT"/>
    <tag k="ref:vcgi:esiteid" v="253325"/>
  </node>
  <node id="-619" visible="true" lat="43.034890772894" lon="-72.879860590761">
    <tag k="addr:city" v="Stratton"/>
    <tag k="addr:housenumber" v="51"/>
    <tag k="addr:street" v="Leon Stocker Drive"/>
    <tag k="addr:state" v="VT"/>
    <tag k="ref:vcgi:esiteid" v="253326"/>
  </node>
  <node id="-620" visible="true" lat="43.034138398334" lon="-72.87519224596">
    <tag k="addr:city" v="Stratton"/>
    <tag k="addr:housenumber" v="158"/>
    <tag k="addr:street" v="Leon Stocker Drive"/>
    <tag k="addr:state" v="VT"/>
    <tag k="ref:vcgi:esiteid" v="253327"/>
  </node>
  <node id="-621" visible="true" lat="43.033597888662" lon="-72.876596023591">
    <tag k="addr:city" v="Stratton"/>
    <tag k="addr:housenumber" v="189"/>
    <tag k="addr:street" v="Kerri Ann Lane"/>
    <tag k="addr:state" v="VT"/>
    <tag k="ref:vcgi:esiteid" v="253328"/>
  </node>
  <node id="-622" visible="true" lat="43.034991673228" lon="-72.878004833082">
    <tag k="addr:city" v="Stratton"/>
    <tag k="addr:housenumber" v="215"/>
    <tag k="addr:street" v="Kerri Ann Lane"/>
    <tag k="addr:state" v="VT"/>
    <tag k="ref:vcgi:esiteid" v="253329"/>
  </node>
  <node id="-623" visible="true" lat="43.058489914143" lon="-72.888647239037">
    <tag k="addr:city" v="Stratton"/>
    <tag k="addr:housenumber" v="75"/>
    <tag k="addr:street" v="Snowy Pond"/>
    <tag k="addr:state" v="VT"/>
    <tag k="ref:vcgi:esiteid" v="253330"/>
  </node>
  <node id="-624" visible="true" lat="43.047120598869" lon="-72.88001047727">
    <tag k="addr:city" v="Stratton"/>
    <tag k="addr:housenumber" v="127"/>
    <tag k="addr:street" v="Canedy Road"/>
    <tag k="addr:state" v="VT"/>
    <tag k="ref:vcgi:esiteid" v="253331"/>
  </node>
  <node id="-625" visible="true" lat="43.056164320337" lon="-72.901295534985">
    <tag k="addr:city" v="Stratton"/>
    <tag k="addr:housenumber" v="225"/>
    <tag k="addr:street" v="West Jamaica Road"/>
    <tag k="addr:state" v="VT"/>
    <tag k="ref:vcgi:esiteid" v="253332"/>
  </node>
  <node id="-654" visible="true" lat="43.049315640297" lon="-72.928009189891">
    <tag k="addr:city" v="Stratton"/>
    <tag k="addr:housenumber" v="873"/>
    <tag k="addr:street" v="Stratton Arlington Road"/>
    <tag k="addr:state" v="VT"/>
    <tag k="ref:vcgi:esiteid" v="253363"/>
  </node>
  <node id="-655" visible="true" lat="43.048275090473" lon="-72.928847883858">
    <tag k="addr:city" v="Stratton"/>
    <tag k="addr:housenumber" v="871"/>
    <tag k="addr:street" v="Stratton Arlington Road"/>
    <tag k="addr:state" v="VT"/>
    <tag k="ref:vcgi:esiteid" v="253364"/>
  </node>
  <node id="-656" visible="true" lat="43.03403295802" lon="-72.905065286051">
    <tag k="addr:city" v="Stratton"/>
    <tag k="addr:housenumber" v="43"/>
    <tag k="addr:street" v="Augusta Lane"/>
    <tag k="addr:state" v="VT"/>
    <tag k="ref:vcgi:esiteid" v="253365"/>
  </node>
  <node id="-657" visible="true" lat="43.029225045352" lon="-72.894284381416">
    <tag k="addr:city" v="Stratton"/>
    <tag k="addr:housenumber" v="48"/>
    <tag k="addr:street" v="Bills Road"/>
    <tag k="addr:state" v="VT"/>
    <tag k="ref:vcgi:esiteid" v="253366"/>
  </node>
  <node id="-658" visible="true" lat="43.020718274605" lon="-72.889106022836">
    <tag k="addr:city" v="Stratton"/>
    <tag k="addr:housenumber" v="23"/>
    <tag k="addr:street" v="Catey Rose Lane"/>
    <tag k="addr:state" v="VT"/>
    <tag k="ref:vcgi:esiteid" v="253367"/>
  </node>
  <node id="-659" visible="true" lat="43.017936751768" lon="-72.88233672738">
    <tag k="addr:city" v="Stratton"/>
    <tag k="addr:housenumber" v="193"/>
    <tag k="addr:street" v="Penny Avenue"/>
    <tag k="addr:state" v="VT"/>
    <tag k="ref:vcgi:esiteid" v="253368"/>
  </node>
  <node id="-661" visible="true" lat="43.007150873463" lon="-72.881074997898">
    <tag k="addr:city" v="Stratton"/>
    <tag k="addr:housenumber" v="831"/>
    <tag k="addr:street" v="Vermont Route 100"/>
    <tag k="addr:state" v="VT"/>
    <tag k="ref:vcgi:esiteid" v="253370"/>
  </node>
  <node id="-662" visible="true" lat="42.999730971565" lon="-72.887944323635">
    <tag k="addr:city" v="Stratton"/>
    <tag k="addr:housenumber" v="695"/>
    <tag k="addr:street" v="Vermont Route 100"/>
    <tag k="addr:state" v="VT"/>
    <tag k="ref:vcgi:esiteid" v="253371"/>
  </node>
  <node id="-663" visible="true" lat="43.037259662441" lon="-72.875959429112">
    <tag k="addr:city" v="Stratton"/>
    <tag k="addr:housenumber" v="119"/>
    <tag k="addr:street" v="Leon Stocker Drive"/>
    <tag k="addr:state" v="VT"/>
    <tag k="ref:vcgi:esiteid" v="253372"/>
  </node>
  <node id="-665" visible="true" lat="43.037238462116" lon="-72.874790371235">
    <tag k="addr:city" v="Stratton"/>
    <tag k="addr:housenumber" v="121"/>
    <tag k="addr:street" v="Leon Stocker Drive"/>
    <tag k="addr:state" v="VT"/>
    <tag k="ref:vcgi:esiteid" v="253374"/>
  </node>
  <node id="-668" visible="true" lat="43.035045784725" lon="-72.875442634013">
    <tag k="addr:city" v="Stratton"/>
    <tag k="addr:housenumber" v="145"/>
    <tag k="addr:street" v="Leon Stocker Drive"/>
    <tag k="addr:state" v="VT"/>
    <tag k="ref:vcgi:esiteid" v="253377"/>
  </node>
  <node id="-670" visible="true" lat="43.083309291473" lon="-72.876392422369">
    <tag k="addr:city" v="Stratton"/>
    <tag k="addr:housenumber" v="452"/>
    <tag k="addr:street" v="Mountain Road"/>
    <tag k="addr:state" v="VT"/>
    <tag k="ref:vcgi:esiteid" v="253379"/>
  </node>
  <node id="-672" visible="true" lat="43.007465514323" lon="-72.882395175992">
    <tag k="addr:city" v="Stratton"/>
    <tag k="addr:housenumber" v="42"/>
    <tag k="addr:street" v="Penny Avenue"/>
    <tag k="addr:state" v="VT"/>
    <tag k="ref:vcgi:esiteid" v="253381"/>
  </node>
  <node id="-673" visible="true" lat="43.036252842986" lon="-72.894597996834">
    <tag k="addr:city" v="Stratton"/>
    <tag k="addr:housenumber" v="6"/>
    <tag k="addr:street" v="Manicknung Lane"/>
    <tag k="addr:state" v="VT"/>
    <tag k="ref:vcgi:esiteid" v="253382"/>
  </node>
  <node id="-674" visible="true" lat="43.040002616547" lon="-72.89643528622">
    <tag k="addr:city" v="Stratton"/>
    <tag k="addr:housenumber" v="33"/>
    <tag k="addr:street" v="Manicknung Lane"/>
    <tag k="addr:state" v="VT"/>
    <tag k="ref:vcgi:esiteid" v="253383"/>
  </node>
  <node id="-675" visible="true" lat="43.057549647162" lon="-72.888619172553">
    <tag k="addr:city" v="Stratton"/>
    <tag k="addr:housenumber" v="72"/>
    <tag k="addr:street" v="Snowy Pond"/>
    <tag k="addr:state" v="VT"/>
    <tag k="ref:vcgi:esiteid" v="253384"/>
  </node>
  <node id="-677" visible="true" lat="43.024455275231" lon="-72.89463428884">
    <tag k="addr:city" v="Stratton"/>
    <tag k="addr:housenumber" v="152"/>
    <tag k="addr:street" v="Willis Cemetery Road"/>
    <tag k="addr:state" v="VT"/>
    <tag k="ref:vcgi:esiteid" v="253386"/>
  </node>
  <node id="-678" visible="true" lat="43.033003725299" lon="-72.875074812266">
    <tag k="addr:city" v="Stratton"/>
    <tag k="addr:housenumber" v="177"/>
    <tag k="addr:street" v="Leon Stocker Drive"/>
    <tag k="addr:state" v="VT"/>
    <tag k="ref:vcgi:esiteid" v="253387"/>
  </node>
  <node id="-679" visible="true" lat="43.034452570871" lon="-72.877239473392">
    <tag k="addr:city" v="Stratton"/>
    <tag k="addr:housenumber" v="195"/>
    <tag k="addr:street" v="Kerri Ann Lane"/>
    <tag k="addr:state" v="VT"/>
    <tag k="ref:vcgi:esiteid" v="305578"/>
  </node>
  <node id="-680" visible="true" lat="43.04618139248" lon="-72.878256709463">
    <tag k="addr:city" v="Stratton"/>
    <tag k="addr:housenumber" v="161"/>
    <tag k="addr:street" v="Canedy Road"/>
    <tag k="addr:state" v="VT"/>
    <tag k="ref:vcgi:esiteid" v="306539"/>
  </node>
  <node id="-681" visible="true" lat="43.043052729705" lon="-72.923849472857">
    <tag k="addr:city" v="Stratton"/>
    <tag k="addr:housenumber" v="35"/>
    <tag k="addr:street" v="Eagles Crest"/>
    <tag k="addr:state" v="VT"/>
    <tag k="ref:vcgi:esiteid" v="307073"/>
  </node>
  <node id="-682" visible="true" lat="43.034267545922" lon="-72.878771284591">
    <tag k="addr:city" v="Stratton"/>
    <tag k="addr:housenumber" v="46"/>
    <tag k="addr:street" v="Leon Stocker Drive"/>
    <tag k="addr:state" v="VT"/>
    <tag k="ref:vcgi:esiteid" v="316007"/>
  </node>
  <node id="-683" visible="true" lat="43.037159872593" lon="-72.879552027071">
    <tag k="addr:city" v="Stratton"/>
    <tag k="addr:housenumber" v="83"/>
    <tag k="addr:street" v="Leon Stocker Drive"/>
    <tag k="addr:state" v="VT"/>
    <tag k="ref:vcgi:esiteid" v="316008"/>
  </node>
  <node id="-684" visible="true" lat="42.994698200552" lon="-72.888746563083">
    <tag k="addr:city" v="Stratton"/>
    <tag k="addr:housenumber" v="631"/>
    <tag k="addr:street" v="Vermont Route 100"/>
    <tag k="addr:state" v="VT"/>
    <tag k="ref:vcgi:esiteid" v="316009"/>
  </node>
  <node id="-688" visible="true" lat="43.045969098096" lon="-72.923272153361">
    <tag k="addr:city" v="Stratton"/>
    <tag k="addr:housenumber" v="14"/>
    <tag k="addr:street" v="Talon Drive"/>
    <tag k="addr:state" v="VT"/>
    <tag k="ref:vcgi:esiteid" v="317643"/>
  </node>
  <node id="-691" visible="true" lat="43.055810674031" lon="-72.889980325426">
    <tag k="addr:city" v="Stratton"/>
    <tag k="addr:housenumber" v="43"/>
    <tag k="addr:street" v="Snowy Pond"/>
    <tag k="addr:state" v="VT"/>
    <tag k="ref:vcgi:esiteid" v="317646"/>
  </node>
  <node id="-692" visible="true" lat="43.033934306438" lon="-72.894983524367">
    <tag k="addr:city" v="Stratton"/>
    <tag k="addr:housenumber" v="497"/>
    <tag k="addr:street" v="Stratton Arlington Road"/>
    <tag k="addr:state" v="VT"/>
    <tag k="ref:vcgi:esiteid" v="325284"/>
  </node>
  <node id="-694" visible="true" lat="43.006189893282" lon="-72.880386778615">
    <tag k="addr:city" v="Stratton"/>
    <tag k="addr:housenumber" v="830"/>
    <tag k="addr:street" v="Vermont Route 100"/>
    <tag k="addr:state" v="VT"/>
    <tag k="ref:vcgi:esiteid" v="328289"/>
  </node>
  <node id="-710" visible="true" lat="43.03555908288" lon="-72.894524771168">
    <tag k="addr:city" v="Stratton"/>
    <tag k="addr:housenumber" v="9"/>
    <tag k="addr:street" v="Tudo Road"/>
    <tag k="addr:state" v="VT"/>
    <tag k="ref:vcgi:esiteid" v="332371"/>
  </node>
  <node id="-714" visible="true" lat="43.037704301783" lon="-72.899998144647">
    <tag k="addr:city" v="Stratton"/>
    <tag k="addr:housenumber" v="573"/>
    <tag k="addr:street" v="Stratton Arlington Road"/>
    <tag k="addr:state" v="VT"/>
    <tag k="ref:vcgi:esiteid" v="338031"/>
  </node>
  <node id="-715" visible="true" lat="43.040386822336" lon="-72.87695864059">
    <tag k="addr:city" v="Stratton"/>
    <tag k="addr:housenumber" v="216"/>
    <tag k="addr:street" v="Canedy Road"/>
    <tag k="addr:state" v="VT"/>
    <tag k="ref:vcgi:esiteid" v="338109"/>
  </node>
  <node id="-716" visible="true" lat="43.015520439915" lon="-72.892519484258">
    <tag k="addr:city" v="Stratton"/>
    <tag k="addr:housenumber" v="226"/>
    <tag k="addr:street" v="Pike Hollow Road"/>
    <tag k="addr:state" v="VT"/>
    <tag k="ref:vcgi:esiteid" v="338110"/>
  </node>
  <node id="-718" visible="true" lat="43.053292763134" lon="-72.916400638411">
    <tag k="addr:city" v="Stratton"/>
    <tag k="addr:housenumber" v="137"/>
    <tag k="addr:street" v="Old Town Road"/>
    <tag k="addr:state" v="VT"/>
    <tag k="ref:vcgi:esiteid" v="338113"/>
  </node>
  <node id="-719" visible="true" lat="43.051210815936" lon="-72.898435629517">
    <tag k="addr:city" v="Stratton"/>
    <tag k="addr:housenumber" v="35"/>
    <tag k="addr:street" v="Ball Farm Road"/>
    <tag k="addr:state" v="VT"/>
    <tag k="ref:vcgi:esiteid" v="338114"/>
  </node>
  <node id="-720" visible="true" lat="43.023124402646" lon="-72.897755078862">
    <tag k="addr:city" v="Stratton"/>
    <tag k="addr:housenumber" v="190"/>
    <tag k="addr:street" v="Willis Cemetery Road"/>
    <tag k="addr:state" v="VT"/>
    <tag k="ref:vcgi:esiteid" v="338115"/>
  </node>
  <node id="-721" visible="true" lat="43.094636455319" lon="-72.886211314043">
    <tag k="addr:city" v="Stratton"/>
    <tag k="addr:housenumber" v="25"/>
    <tag k="addr:street" v="Stone Chimney Road"/>
    <tag k="addr:state" v="VT"/>
    <tag k="ref:vcgi:esiteid" v="338116"/>
  </node>
  <node id="-723" visible="true" lat="43.033449864903" lon="-72.893496909564">
    <tag k="addr:city" v="Stratton"/>
    <tag k="addr:housenumber" v="477"/>
    <tag k="addr:street" v="Stratton Arlington Road"/>
    <tag k="addr:state" v="VT"/>
    <tag k="ref:vcgi:esiteid" v="340079"/>
  </node>
  <node id="-724" visible="true" lat="43.052903387542" lon="-72.887470686989">
    <tag k="addr:city" v="Stratton"/>
    <tag k="addr:housenumber" v="374"/>
    <tag k="addr:street" v="West Jamaica Road"/>
    <tag k="addr:state" v="VT"/>
    <tag k="ref:vcgi:esiteid" v="341760"/>
  </node>
  <node id="-725" visible="true" lat="43.047807610897" lon="-72.919683405444">
    <tag k="addr:city" v="Stratton"/>
    <tag k="addr:housenumber" v="806"/>
    <tag k="addr:street" v="Stratton Arlington Road"/>
    <tag k="addr:state" v="VT"/>
    <tag k="ref:vcgi:esiteid" v="344186"/>
  </node>
  <node id="-727" visible="true" lat="43.024009320629" lon="-72.878396246833">
    <tag k="addr:city" v="Stratton"/>
    <tag k="addr:housenumber" v="44"/>
    <tag k="addr:street" v="Pike Hollow Road"/>
    <tag k="addr:state" v="VT"/>
    <tag k="ref:vcgi:esiteid" v="447926"/>
  </node>
  <node id="-728" visible="true" lat="43.056715933445" lon="-72.898086350228">
    <tag k="addr:city" v="Stratton"/>
    <tag k="addr:housenumber" v="254"/>
    <tag k="addr:street" v="West Jamaica Road"/>
    <tag k="addr:state" v="VT"/>
    <tag k="ref:vcgi:esiteid" v="449537"/>
  </node>
  <node id="-729" visible="true" lat="43.033572589947" lon="-72.875778889754">
    <tag k="addr:city" v="Stratton"/>
    <tag k="addr:housenumber" v="188"/>
    <tag k="addr:street" v="Kerri Ann Lane"/>
    <tag k="addr:state" v="VT"/>
    <tag k="ref:vcgi:esiteid" v="450432"/>
  </node>
  <node id="-732" visible="true" lat="43.057721727353" lon="-72.887616402285">
    <tag k="addr:city" v="Stratton"/>
    <tag k="addr:housenumber" v="820"/>
    <tag k="addr:street" v="Mountain Road"/>
    <tag k="addr:state" v="VT"/>
    <tag k="ref:vcgi:esiteid" v="454386"/>
  </node>
  <node id="-734" visible="true" lat="43.09328648698" lon="-72.880605920516">
    <tag k="addr:city" v="Stratton"/>
    <tag k="addr:housenumber" v="254"/>
    <tag k="addr:street" v="Mountain Road"/>
    <tag k="addr:state" v="VT"/>
    <tag k="ref:vcgi:esiteid" v="610579"/>
  </node>
  <node id="-736" visible="true" lat="43.052339838556" lon="-72.900407511485">
    <tag k="addr:city" v="Stratton"/>
    <tag k="addr:housenumber" v="17"/>
    <tag k="addr:street" v="Ball Farm Road"/>
    <tag k="addr:state" v="VT"/>
    <tag k="ref:vcgi:esiteid" v="613093"/>
  </node>
  <node id="-737" visible="true" lat="43.050776379232" lon="-72.901458691394">
    <tag k="addr:city" v="Stratton"/>
    <tag k="addr:housenumber" v="3"/>
    <tag k="addr:street" v="Ball Farm Road"/>
    <tag k="addr:state" v="VT"/>
    <tag k="ref:vcgi:esiteid" v="613144"/>
  </node>
  <node id="-740" visible="true" lat="43.036449283704" lon="-72.879607832865">
    <tag k="addr:city" v="Stratton"/>
    <tag k="addr:housenumber" v="71"/>
    <tag k="addr:street" v="Leon Stocker Drive"/>
    <tag k="addr:state" v="VT"/>
    <tag k="ref:vcgi:esiteid" v="617917"/>
  </node>
  <node id="-748" visible="true" lat="43.025322535946" lon="-72.888037713061">
    <tag k="addr:city" v="Stratton"/>
    <tag k="addr:housenumber" v="69"/>
    <tag k="addr:street" v="Willis Cemetery Road"/>
    <tag k="addr:state" v="VT"/>
    <tag k="ref:vcgi:esiteid" v="656119"/>
  </node>
  <node id="-750" visible="true" lat="43.039297369396" lon="-72.877068469484">
    <tag k="addr:city" v="Stratton"/>
    <tag k="addr:housenumber" v="18"/>
    <tag k="addr:street" v="Remy Lane"/>
    <tag k="addr:state" v="VT"/>
    <tag k="ref:vcgi:esiteid" v="656121"/>
  </node>
  <node id="-751" visible="true" lat="43.039327874542" lon="-72.8781967843">
    <tag k="addr:city" v="Stratton"/>
    <tag k="addr:housenumber" v="19"/>
    <tag k="addr:street" v="Remy Lane"/>
    <tag k="addr:state" v="VT"/>
    <tag k="ref:vcgi:esiteid" v="656122"/>
  </node>
  <node id="-753" visible="true" lat="43.048822022307" lon="-72.958002880595">
    <tag k="addr:city" v="Stratton"/>
    <tag k="addr:housenumber" v="68"/>
    <tag k="addr:street" v="Grout Pond Road"/>
    <tag k="addr:state" v="VT"/>
    <tag k="ref:vcgi:esiteid" v="656139"/>
  </node>
  <node id="-754" visible="true" lat="43.047186097221" lon="-72.951617377339">
    <tag k="addr:city" v="Stratton"/>
    <tag k="addr:housenumber" v="220"/>
    <tag k="addr:street" v="Grout Pond Road"/>
    <tag k="addr:state" v="VT"/>
    <tag k="ref:vcgi:esiteid" v="656140"/>
  </node>
  <node id="-755" visible="true" lat="43.047902277589" lon="-72.875246567685">
    <tag k="addr:city" v="Stratton"/>
    <tag k="addr:housenumber" v="193"/>
    <tag k="addr:street" v="Canedy Road"/>
    <tag k="addr:state" v="VT"/>
    <tag k="ref:vcgi:esiteid" v="656268"/>
  </node>
  <node id="-757" visible="true" lat="43.041189955689" lon="-72.905603723113">
    <tag k="addr:city" v="Stratton"/>
    <tag k="addr:housenumber" v="636"/>
    <tag k="addr:street" v="Stratton Arlington Road"/>
    <tag k="addr:state" v="VT"/>
    <tag k="ref:vcgi:esiteid" v="754489"/>
  </node>
  <node id="-758" visible="true" lat="43.050280271667" lon="-72.901220618231">
    <tag k="addr:city" v="Stratton"/>
    <tag k="addr:housenumber" v="4"/>
    <tag k="addr:street" v="Ball Farm Road"/>
    <tag k="addr:state" v="VT"/>
    <tag k="ref:vcgi:esiteid" v="755387"/>
  </node>
  <node id="-759" visible="true" lat="43.035811042233" lon="-72.874715987202">
    <tag k="addr:city" v="Stratton"/>
    <tag k="addr:housenumber" v="131"/>
    <tag k="addr:street" v="Leon Stocker Drive"/>
    <tag k="addr:state" v="VT"/>
    <tag k="ref:vcgi:esiteid" v="755682"/>
  </node>
  <node id="-762" visible="true" lat="43.006880982944" lon="-72.897148224242">
    <tag k="addr:city" v="Stratton"/>
    <tag k="addr:housenumber" v="245"/>
    <tag k="addr:street" v="Pike Hollow Road"/>
    <tag k="addr:state" v="VT"/>
    <tag k="ref:vcgi:esiteid" v="757636"/>
  </node>
  <node id="-763" visible="true" lat="43.022385031685" lon="-72.889194025152">
    <tag k="addr:city" v="Stratton"/>
    <tag k="addr:housenumber" v="5"/>
    <tag k="addr:street" v="Catey Rose Lane"/>
    <tag k="addr:state" v="VT"/>
    <tag k="ref:vcgi:esiteid" v="758092"/>
  </node>
  <node id="-764" visible="true" lat="43.054264727465" lon="-72.900233906176">
    <tag k="addr:city" v="Stratton"/>
    <tag k="addr:housenumber" v="208"/>
    <tag k="addr:street" v="West Jamaica Road"/>
    <tag k="addr:state" v="VT"/>
    <tag k="ref:vcgi:esiteid" v="759259"/>
  </node>
  <node id="-765" visible="true" lat="43.049062037071" lon="-72.918258804741">
    <tag k="addr:city" v="Stratton"/>
    <tag k="addr:housenumber" v="35"/>
    <tag k="addr:street" v="Plimpton Road"/>
    <tag k="addr:state" v="VT"/>
    <tag k="ref:vcgi:esiteid" v="759386"/>
  </node>
  <node id="-767" visible="true" lat="43.03450255195" lon="-72.876112698275">
    <tag k="addr:city" v="Stratton"/>
    <tag k="addr:housenumber" v="198"/>
    <tag k="addr:street" v="Kerri Ann Lane"/>
    <tag k="addr:state" v="VT"/>
    <tag k="ref:vcgi:esiteid" v="760138"/>
  </node>
  <node id="-768" visible="true" lat="43.053354812764" lon="-72.900751988802">
    <tag k="addr:city" v="Stratton"/>
    <tag k="addr:housenumber" v="198"/>
    <tag k="addr:street" v="West Jamaica Road"/>
    <tag k="addr:state" v="VT"/>
    <tag k="ref:vcgi:esiteid" v="760504"/>
  </node>
  <node id="-769" visible="true" lat="43.049677712949" lon="-72.90070238068">
    <tag k="addr:city" v="Stratton"/>
    <tag k="addr:housenumber" v="140"/>
    <tag k="addr:street" v="West Jamaica Road"/>
    <tag k="addr:state" v="VT"/>
    <tag k="ref:vcgi:esiteid" v="760914"/>
  </node>
  <node id="-770" visible="true" lat="43.025690764724" lon="-72.891872193431">
    <tag k="addr:city" v="Stratton"/>
    <tag k="addr:housenumber" v="64"/>
    <tag k="addr:street" v="Willis Cemetery Road"/>
    <tag k="addr:state" v="VT"/>
    <tag k="ref:vcgi:esiteid" v="760915"/>
  </node>
  <node id="-771" visible="true" lat="43.024453647337" lon="-72.888099638081">
    <tag k="addr:city" v="Stratton"/>
    <tag k="addr:housenumber" v="11"/>
    <tag k="addr:street" v="Gagners Way"/>
    <tag k="addr:state" v="VT"/>
    <tag k="ref:vcgi:esiteid" v="760916"/>
  </node>
  <node id="-772" visible="true" lat="43.056658393804" lon="-72.89714374418">
    <tag k="addr:city" v="Stratton"/>
    <tag k="addr:housenumber" v="264"/>
    <tag k="addr:street" v="West Jamaica Road"/>
    <tag k="addr:state" v="VT"/>
    <tag k="ref:vcgi:esiteid" v="761131"/>
  </node>
  <node id="-774" visible="true" lat="43.007075026523" lon="-72.87885740611">
    <tag k="addr:city" v="Stratton"/>
    <tag k="addr:housenumber" v="836"/>
    <tag k="addr:street" v="Vermont Route 100"/>
    <tag k="addr:state" v="VT"/>
    <tag k="ref:vcgi:esiteid" v="761881"/>
  </node>
  <node id="-777" visible="true" lat="43.047954538426" lon="-72.900967272741">
    <tag k="addr:city" v="Stratton"/>
    <tag k="addr:housenumber" v="116"/>
    <tag k="addr:street" v="West Jamaica Road"/>
    <tag k="addr:state" v="VT"/>
    <tag k="ref:vcgi:esiteid" v="762303"/>
  </node>
  <node id="-778" visible="true" lat="43.035221935574" lon="-72.876801408961">
    <tag k="addr:city" v="Stratton"/>
    <tag k="addr:housenumber" v="218"/>
    <tag k="addr:street" v="Kerri Ann Lane"/>
    <tag k="addr:state" v="VT"/>
    <tag k="ref:vcgi:esiteid" v="762986"/>
  </node>
  <node id="-779" visible="true" lat="43.051378728165" lon="-72.899306120158">
    <tag k="addr:city" v="Stratton"/>
    <tag k="addr:housenumber" v="29"/>
    <tag k="addr:street" v="Ball Farm Road"/>
    <tag k="addr:state" v="VT"/>
    <tag k="ref:vcgi:esiteid" v="764069"/>
  </node>
  <node id="-780" visible="true" lat="43.038526213902" lon="-72.875749019489">
    <tag k="addr:city" v="Stratton"/>
    <tag k="addr:housenumber" v="54"/>
    <tag k="addr:street" v="Remy Lane"/>
    <tag k="addr:state" v="VT"/>
    <tag k="ref:vcgi:esiteid" v="764070"/>
  </node>
  <node id="-782" visible="true" lat="43.045957222105" lon="-72.939685122348">
    <tag k="addr:city" v="Stratton"/>
    <tag k="addr:housenumber" v="1160"/>
    <tag k="addr:street" v="Grout Pond Road"/>
    <tag k="addr:state" v="VT"/>
    <tag k="ref:vcgi:esiteid" v="765457"/>
  </node>
  <node id="-785" visible="true" lat="43.075523381677" lon="-72.874819575182">
    <tag k="addr:city" v="Stratton"/>
    <tag k="addr:housenumber" v="42"/>
    <tag k="addr:street" v="Forrester Road"/>
    <tag k="addr:state" v="VT"/>
    <tag k="ref:vcgi:esiteid" v="765957"/>
  </node>
  <node id="-786" visible="true" lat="43.026679077639" lon="-72.884772519489">
    <tag k="addr:city" v="Stratton"/>
    <tag k="addr:housenumber" v="92"/>
    <tag k="addr:street" v="Oakmont Lane"/>
    <tag k="addr:state" v="VT"/>
    <tag k="ref:vcgi:esiteid" v="767300"/>
  </node>
  <node id="-787" visible="true" lat="43.061744101206" lon="-72.986854258536">
    <tag k="addr:city" v="Stratton"/>
    <tag k="addr:housenumber" v="1670"/>
    <tag k="addr:street" v="Stratton Arlington Road"/>
    <tag k="addr:state" v="VT"/>
    <tag k="ref:vcgi:esiteid" v="768387"/>
  </node>
  <node id="-789" visible="true" lat="43.024307971981" lon="-72.893615688046">
    <tag k="addr:city" v="Stratton"/>
    <tag k="addr:housenumber" v="140"/>
    <tag k="addr:street" v="Willis Cemetery Road"/>
    <tag k="addr:state" v="VT"/>
    <tag k="ref:vcgi:esiteid" v="769932"/>
  </node>
  <node id="-794" visible="true" lat="43.059158777631" lon="-72.956804857491">
    <tag k="addr:city" v="Stratton"/>
    <tag k="addr:housenumber" v="1248"/>
    <tag k="addr:street" v="Stratton Arlington Road"/>
    <tag k="addr:state" v="VT"/>
    <tag k="ref:vcgi:esiteid" v="1050294"/>
  </node>
  <node id="-795" visible="true" lat="43.050334694106" lon="-72.904479344311">
    <tag k="addr:city" v="Stratton"/>
    <tag k="addr:housenumber" v="35"/>
    <tag k="addr:street" v="Old Town Road"/>
    <tag k="addr:state" v="VT"/>
    <tag k="ref:vcgi:esiteid" v="1050295"/>
  </node>
  <node id="-796" visible="true" lat="43.050028547483" lon="-72.904843655983">
    <tag k="addr:city" v="Stratton"/>
    <tag k="addr:housenumber" v="37"/>
    <tag k="addr:street" v="Old Town Road"/>
    <tag k="addr:state" v="VT"/>
    <tag k="ref:vcgi:esiteid" v="1050296"/>
  </node>
</osm>
