<?xml version="1.0" encoding="UTF-8"?>
<osm version="0.6" generator="JOSM" upload="false">
  <node id="-100" visible="true" lat="43.067257111139" lon="-73.137752092435">
    <tag k="addr:city" v="Arlington"/>
    <tag k="addr:housenumber" v="1500"/>
    <tag k="addr:street" v="East Arlington Road"/>
    <tag k="addr:state" v="VT"/>
    <tag k="ref:vcgi:esiteid" v="4872"/>
  </node>
  <node id="-746" visible="true" lat="43.07061183734" lon="-73.137624093941">
    <tag k="addr:city" v="Arlington"/>
    <tag k="addr:housenumber" v="100"/>
    <tag k="addr:street" v="Town Line Road"/>
    <tag k="addr:state" v="VT"/>
    <tag k="ref:vcgi:esiteid" v="767392"/>
  </node>
  <node id="-747" visible="true" lat="43.069972436324" lon="-73.137648873096">
    <tag k="addr:city" v="Arlington"/>
    <tag k="addr:housenumber" v="72"/>
    <tag k="addr:street" v="Town Line Road"/>
    <tag k="addr:state" v="VT"/>
    <tag k="ref:vcgi:esiteid" v="767393"/>
  </node>
</osm>
