<?xml version="1.0" encoding="UTF-8"?>
<osm version="0.6" generator="JOSM" upload="false">
  <node id="-113" visible="true" lat="44.694946862802" lon="-72.078121394447">
    <tag k="addr:city" v="Sutton"/>
    <tag k="addr:housenumber" v="5301"/>
    <tag k="addr:street" v="Underpass Road"/>
    <tag k="addr:state" v="VT"/>
    <tag k="ref:vcgi:esiteid" v="254337"/>
  </node>
  <node id="-117" visible="true" lat="44.692060002463" lon="-72.056641693249">
    <tag k="addr:city" v="Sutton"/>
    <tag k="addr:housenumber" v="102"/>
    <tag k="addr:street" v="Marl Pond Road"/>
    <tag k="addr:state" v="VT"/>
    <tag k="ref:vcgi:esiteid" v="254342"/>
  </node>
  <node id="-120" visible="true" lat="44.691140658977" lon="-72.0641947983">
    <tag k="addr:city" v="Sutton"/>
    <tag k="addr:housenumber" v="4758"/>
    <tag k="addr:street" v="Underpass Road"/>
    <tag k="addr:state" v="VT"/>
    <tag k="ref:vcgi:esiteid" v="254345"/>
  </node>
  <node id="-121" visible="true" lat="44.69107580942" lon="-72.056557771163">
    <tag k="addr:city" v="Sutton"/>
    <tag k="addr:housenumber" v="64"/>
    <tag k="addr:street" v="Marl Pond Road"/>
    <tag k="addr:state" v="VT"/>
    <tag k="ref:vcgi:esiteid" v="254346"/>
  </node>
  <node id="-127" visible="true" lat="44.689317235111" lon="-72.026360617443">
    <tag k="addr:city" v="Sutton"/>
    <tag k="addr:housenumber" v="1090"/>
    <tag k="addr:street" v="Dolloff Pond Road"/>
    <tag k="addr:state" v="VT"/>
    <tag k="ref:vcgi:esiteid" v="254352"/>
  </node>
  <node id="-129" visible="true" lat="44.689077273885" lon="-72.045781303305">
    <tag k="addr:city" v="Sutton"/>
    <tag k="addr:housenumber" v="2108"/>
    <tag k="addr:street" v="Dolloff Pond Road"/>
    <tag k="addr:state" v="VT"/>
    <tag k="ref:vcgi:esiteid" v="254354"/>
  </node>
  <node id="-135" visible="true" lat="44.688172826352" lon="-72.058014985487">
    <tag k="addr:city" v="Sutton"/>
    <tag k="addr:housenumber" v="4220"/>
    <tag k="addr:street" v="Underpass Road"/>
    <tag k="addr:state" v="VT"/>
    <tag k="ref:vcgi:esiteid" v="254360"/>
  </node>
  <node id="-141" visible="true" lat="44.687863242072" lon="-72.046106722959">
    <tag k="addr:city" v="Sutton"/>
    <tag k="addr:housenumber" v="31"/>
    <tag k="addr:street" v="Pumping Station Drive"/>
    <tag k="addr:state" v="VT"/>
    <tag k="ref:vcgi:esiteid" v="254366"/>
  </node>
  <node id="-142" visible="true" lat="44.6878612033" lon="-72.045841528214">
    <tag k="addr:city" v="Sutton"/>
    <tag k="addr:housenumber" v="43"/>
    <tag k="addr:street" v="Pumping Station Drive"/>
    <tag k="addr:state" v="VT"/>
    <tag k="ref:vcgi:esiteid" v="254367"/>
  </node>
  <node id="-143" visible="true" lat="44.687824437485" lon="-72.045581850307">
    <tag k="addr:city" v="Sutton"/>
    <tag k="addr:housenumber" v="57"/>
    <tag k="addr:street" v="Pumping Station Drive"/>
    <tag k="addr:state" v="VT"/>
    <tag k="ref:vcgi:esiteid" v="254368"/>
  </node>
  <node id="-144" visible="true" lat="44.687734656393" lon="-72.045310907302">
    <tag k="addr:city" v="Sutton"/>
    <tag k="addr:housenumber" v="69"/>
    <tag k="addr:street" v="Pumping Station Drive"/>
    <tag k="addr:state" v="VT"/>
    <tag k="ref:vcgi:esiteid" v="254369"/>
  </node>
  <node id="-145" visible="true" lat="44.68766980707" lon="-72.045043878649">
    <tag k="addr:city" v="Sutton"/>
    <tag k="addr:housenumber" v="81"/>
    <tag k="addr:street" v="Pumping Station Drive"/>
    <tag k="addr:state" v="VT"/>
    <tag k="ref:vcgi:esiteid" v="254370"/>
  </node>
  <node id="-147" visible="true" lat="44.687558525725" lon="-72.04480927881">
    <tag k="addr:city" v="Sutton"/>
    <tag k="addr:housenumber" v="97"/>
    <tag k="addr:street" v="Pumping Station Drive"/>
    <tag k="addr:state" v="VT"/>
    <tag k="ref:vcgi:esiteid" v="254372"/>
  </node>
  <node id="-148" visible="true" lat="44.687372229156" lon="-72.044291847172">
    <tag k="addr:city" v="Sutton"/>
    <tag k="addr:housenumber" v="119"/>
    <tag k="addr:street" v="Pumping Station Drive"/>
    <tag k="addr:state" v="VT"/>
    <tag k="ref:vcgi:esiteid" v="254373"/>
  </node>
  <node id="-149" visible="true" lat="44.687453686609" lon="-72.044538630322">
    <tag k="addr:city" v="Sutton"/>
    <tag k="addr:housenumber" v="111"/>
    <tag k="addr:street" v="Pumping Station Drive"/>
    <tag k="addr:state" v="VT"/>
    <tag k="ref:vcgi:esiteid" v="254374"/>
  </node>
  <node id="-194" visible="true" lat="44.675939090879" lon="-72.016579727835">
    <tag k="addr:city" v="Sutton"/>
    <tag k="addr:housenumber" v="533"/>
    <tag k="addr:street" v="Cross Road"/>
    <tag k="addr:state" v="VT"/>
    <tag k="ref:vcgi:esiteid" v="254420"/>
  </node>
  <node id="-211" visible="true" lat="44.67357779192" lon="-72.017350296949">
    <tag k="addr:city" v="Sutton"/>
    <tag k="addr:housenumber" v="868"/>
    <tag k="addr:street" v="Pierce Hill Road"/>
    <tag k="addr:state" v="VT"/>
    <tag k="ref:vcgi:esiteid" v="254437"/>
  </node>
  <node id="-225" visible="true" lat="44.67043448119" lon="-72.017060380383">
    <tag k="addr:city" v="Sutton"/>
    <tag k="addr:housenumber" v="651"/>
    <tag k="addr:street" v="Pierce Hill Road"/>
    <tag k="addr:state" v="VT"/>
    <tag k="ref:vcgi:esiteid" v="254451"/>
  </node>
  <node id="-235" visible="true" lat="44.666413789502" lon="-72.016175369763">
    <tag k="addr:city" v="Sutton"/>
    <tag k="addr:housenumber" v="386"/>
    <tag k="addr:street" v="Pierce Hill Road"/>
    <tag k="addr:state" v="VT"/>
    <tag k="ref:vcgi:esiteid" v="254461"/>
  </node>
  <node id="-247" visible="true" lat="44.663184779797" lon="-72.06937376526">
    <tag k="addr:city" v="Sutton"/>
    <tag k="addr:housenumber" v="94"/>
    <tag k="addr:street" v="Queen Elizabeth Farm Lane"/>
    <tag k="addr:state" v="VT"/>
    <tag k="ref:vcgi:esiteid" v="254473"/>
  </node>
  <node id="-248" visible="true" lat="44.663026419935" lon="-72.069717959648">
    <tag k="addr:city" v="Sutton"/>
    <tag k="addr:housenumber" v="92"/>
    <tag k="addr:street" v="Queen Elizabeth Farm Lane"/>
    <tag k="addr:state" v="VT"/>
    <tag k="ref:vcgi:esiteid" v="254474"/>
  </node>
  <node id="-252" visible="true" lat="44.661050417715" lon="-72.015945172987">
    <tag k="addr:city" v="Sutton"/>
    <tag k="addr:housenumber" v="119"/>
    <tag k="addr:street" v="Michaud Drive"/>
    <tag k="addr:state" v="VT"/>
    <tag k="ref:vcgi:esiteid" v="254479"/>
  </node>
  <node id="-256" visible="true" lat="44.660640054427" lon="-72.073644025042">
    <tag k="addr:city" v="Sutton"/>
    <tag k="addr:housenumber" v="2684"/>
    <tag k="addr:street" v="King George Farm Road"/>
    <tag k="addr:state" v="VT"/>
    <tag k="ref:vcgi:esiteid" v="254483"/>
  </node>
  <node id="-258" visible="true" lat="44.660171070372" lon="-72.009976003518">
    <tag k="addr:city" v="Sutton"/>
    <tag k="addr:housenumber" v="453"/>
    <tag k="addr:street" v="Michaud Drive"/>
    <tag k="addr:state" v="VT"/>
    <tag k="ref:vcgi:esiteid" v="254485"/>
  </node>
  <node id="-260" visible="true" lat="44.660332365269" lon="-72.074072157545">
    <tag k="addr:city" v="Sutton"/>
    <tag k="addr:housenumber" v="2706"/>
    <tag k="addr:street" v="King George Farm Road"/>
    <tag k="addr:state" v="VT"/>
    <tag k="ref:vcgi:esiteid" v="254487"/>
  </node>
  <node id="-261" visible="true" lat="44.660042547529" lon="-72.07357368976">
    <tag k="addr:city" v="Sutton"/>
    <tag k="addr:housenumber" v="2709"/>
    <tag k="addr:street" v="King George Farm Road"/>
    <tag k="addr:state" v="VT"/>
    <tag k="ref:vcgi:esiteid" v="254488"/>
  </node>
  <node id="-267" visible="true" lat="44.659261231001" lon="-72.014947036711">
    <tag k="addr:city" v="Sutton"/>
    <tag k="addr:housenumber" v="257"/>
    <tag k="addr:street" v="Michaud Drive"/>
    <tag k="addr:state" v="VT"/>
    <tag k="ref:vcgi:esiteid" v="254494"/>
  </node>
  <node id="-270" visible="true" lat="44.658719543624" lon="-72.018220048096">
    <tag k="addr:city" v="Sutton"/>
    <tag k="addr:housenumber" v="29"/>
    <tag k="addr:street" v="Michaud Drive"/>
    <tag k="addr:state" v="VT"/>
    <tag k="ref:vcgi:esiteid" v="254498"/>
  </node>
  <node id="-272" visible="true" lat="44.658154968051" lon="-72.052430264326">
    <tag k="addr:city" v="Sutton"/>
    <tag k="addr:housenumber" v="1460"/>
    <tag k="addr:street" v="King George Farm Road"/>
    <tag k="addr:state" v="VT"/>
    <tag k="ref:vcgi:esiteid" v="254500"/>
  </node>
  <node id="-276" visible="true" lat="44.657399657152" lon="-72.055703275435">
    <tag k="addr:city" v="Sutton"/>
    <tag k="addr:housenumber" v="1624"/>
    <tag k="addr:street" v="King George Farm Road"/>
    <tag k="addr:state" v="VT"/>
    <tag k="ref:vcgi:esiteid" v="254504"/>
  </node>
  <node id="-283" visible="true" lat="44.656075956553" lon="-72.051835171458">
    <tag k="addr:city" v="Sutton"/>
    <tag k="addr:housenumber" v="1389"/>
    <tag k="addr:street" v="King George Farm Road"/>
    <tag k="addr:state" v="VT"/>
    <tag k="ref:vcgi:esiteid" v="254511"/>
  </node>
  <node id="-284" visible="true" lat="44.655904294821" lon="-72.050141444638">
    <tag k="addr:city" v="Sutton"/>
    <tag k="addr:housenumber" v="1324"/>
    <tag k="addr:street" v="King George Farm Road"/>
    <tag k="addr:state" v="VT"/>
    <tag k="ref:vcgi:esiteid" v="254512"/>
  </node>
  <node id="-307" visible="true" lat="44.650621967259" lon="-72.045016730841">
    <tag k="addr:city" v="Sutton"/>
    <tag k="addr:housenumber" v="822"/>
    <tag k="addr:street" v="King George Farm Road"/>
    <tag k="addr:state" v="VT"/>
    <tag k="ref:vcgi:esiteid" v="254535"/>
  </node>
  <node id="-312" visible="true" lat="44.649117946796" lon="-72.045067895879">
    <tag k="addr:city" v="Sutton"/>
    <tag k="addr:housenumber" v="770"/>
    <tag k="addr:street" v="King George Farm Road"/>
    <tag k="addr:state" v="VT"/>
    <tag k="ref:vcgi:esiteid" v="254540"/>
  </node>
  <node id="-315" visible="true" lat="44.64768743663" lon="-72.042504417072">
    <tag k="addr:city" v="Sutton"/>
    <tag k="addr:housenumber" v="612"/>
    <tag k="addr:street" v="King George Farm Road"/>
    <tag k="addr:state" v="VT"/>
    <tag k="ref:vcgi:esiteid" v="254543"/>
  </node>
  <node id="-317" visible="true" lat="44.647294522205" lon="-72.041611778175">
    <tag k="addr:city" v="Sutton"/>
    <tag k="addr:housenumber" v="558"/>
    <tag k="addr:street" v="King George Farm Road"/>
    <tag k="addr:state" v="VT"/>
    <tag k="ref:vcgi:esiteid" v="254545"/>
  </node>
  <node id="-322" visible="true" lat="44.646901608869" lon="-72.042946923201">
    <tag k="addr:city" v="Sutton"/>
    <tag k="addr:housenumber" v="581"/>
    <tag k="addr:street" v="King George Farm Road"/>
    <tag k="addr:state" v="VT"/>
    <tag k="ref:vcgi:esiteid" v="254550"/>
  </node>
  <node id="-325" visible="true" lat="44.646237851363" lon="-72.040757286615">
    <tag k="addr:city" v="Sutton"/>
    <tag k="addr:housenumber" v="484"/>
    <tag k="addr:street" v="King George Farm Road"/>
    <tag k="addr:state" v="VT"/>
    <tag k="ref:vcgi:esiteid" v="254553"/>
  </node>
  <node id="-327" visible="true" lat="44.645234584373" lon="-72.041390526712">
    <tag k="addr:city" v="Sutton"/>
    <tag k="addr:housenumber" v="443"/>
    <tag k="addr:street" v="King George Farm Road"/>
    <tag k="addr:state" v="VT"/>
    <tag k="ref:vcgi:esiteid" v="254557"/>
  </node>
  <node id="-333" visible="true" lat="44.644372464341" lon="-72.038727865521">
    <tag k="addr:city" v="Sutton"/>
    <tag k="addr:housenumber" v="306"/>
    <tag k="addr:street" v="King George Farm Road"/>
    <tag k="addr:state" v="VT"/>
    <tag k="ref:vcgi:esiteid" v="254563"/>
  </node>
  <node id="-335" visible="true" lat="44.644101619853" lon="-72.039895163576">
    <tag k="addr:city" v="Sutton"/>
    <tag k="addr:housenumber" v="20"/>
    <tag k="addr:street" v="Craig Pond Road"/>
    <tag k="addr:state" v="VT"/>
    <tag k="ref:vcgi:esiteid" v="254565"/>
  </node>
  <node id="-351" visible="true" lat="44.641652488921" lon="-72.040380743987">
    <tag k="addr:city" v="Sutton"/>
    <tag k="addr:housenumber" v="183"/>
    <tag k="addr:street" v="Craig Pond Road"/>
    <tag k="addr:state" v="VT"/>
    <tag k="ref:vcgi:esiteid" v="254581"/>
  </node>
  <node id="-352" visible="true" lat="44.641377925084" lon="-72.041527855046">
    <tag k="addr:city" v="Sutton"/>
    <tag k="addr:housenumber" v="230"/>
    <tag k="addr:street" v="Craig Pond Road"/>
    <tag k="addr:state" v="VT"/>
    <tag k="ref:vcgi:esiteid" v="254582"/>
  </node>
  <node id="-354" visible="true" lat="44.640534877758" lon="-72.032319172499">
    <tag k="addr:city" v="Sutton"/>
    <tag k="addr:housenumber" v="620"/>
    <tag k="addr:street" v="Underpass Road"/>
    <tag k="addr:state" v="VT"/>
    <tag k="ref:vcgi:esiteid" v="254584"/>
  </node>
  <node id="-356" visible="true" lat="44.639863491488" lon="-72.032288655605">
    <tag k="addr:city" v="Sutton"/>
    <tag k="addr:housenumber" v="579"/>
    <tag k="addr:street" v="Underpass Road"/>
    <tag k="addr:state" v="VT"/>
    <tag k="ref:vcgi:esiteid" v="254586"/>
  </node>
  <node id="-359" visible="true" lat="44.63668848555" lon="-72.030029557128">
    <tag k="addr:city" v="Sutton"/>
    <tag k="addr:housenumber" v="335"/>
    <tag k="addr:street" v="Underpass Road"/>
    <tag k="addr:state" v="VT"/>
    <tag k="ref:vcgi:esiteid" v="254590"/>
  </node>
  <node id="-360" visible="true" lat="44.636661707921" lon="-72.055724838444">
    <tag k="addr:city" v="Sutton"/>
    <tag k="addr:housenumber" v="26"/>
    <tag k="addr:street" v="Wood Hill Road"/>
    <tag k="addr:state" v="VT"/>
    <tag k="ref:vcgi:esiteid" v="254591"/>
  </node>
  <node id="-361" visible="true" lat="44.635941980719" lon="-72.057717435875">
    <tag k="addr:city" v="Sutton"/>
    <tag k="addr:housenumber" v="144"/>
    <tag k="addr:street" v="Wood Hill Road"/>
    <tag k="addr:state" v="VT"/>
    <tag k="ref:vcgi:esiteid" v="254592"/>
  </node>
  <node id="-362" visible="true" lat="44.635272681449" lon="-72.043387626204">
    <tag k="addr:city" v="Sutton"/>
    <tag k="addr:housenumber" v="852"/>
    <tag k="addr:street" v="Sheffield Road"/>
    <tag k="addr:state" v="VT"/>
    <tag k="ref:vcgi:esiteid" v="254593"/>
  </node>
  <node id="-364" visible="true" lat="44.633792713521" lon="-72.042642573173">
    <tag k="addr:city" v="Sutton"/>
    <tag k="addr:housenumber" v="799"/>
    <tag k="addr:street" v="Sheffield Road"/>
    <tag k="addr:state" v="VT"/>
    <tag k="ref:vcgi:esiteid" v="254595"/>
  </node>
  <node id="-366" visible="true" lat="44.633705251324" lon="-72.040465765832">
    <tag k="addr:city" v="Sutton"/>
    <tag k="addr:housenumber" v="694"/>
    <tag k="addr:street" v="Sheffield Road"/>
    <tag k="addr:state" v="VT"/>
    <tag k="ref:vcgi:esiteid" v="254597"/>
  </node>
  <node id="-367" visible="true" lat="44.633378504372" lon="-72.026154618323">
    <tag k="addr:city" v="Sutton"/>
    <tag k="addr:housenumber" v="14"/>
    <tag k="addr:street" v="Burke Road"/>
    <tag k="addr:state" v="VT"/>
    <tag k="ref:vcgi:esiteid" v="254598"/>
  </node>
  <node id="-368" visible="true" lat="44.633471214595" lon="-72.026495331752">
    <tag k="addr:city" v="Sutton"/>
    <tag k="addr:housenumber" v="31"/>
    <tag k="addr:street" v="Station Road"/>
    <tag k="addr:state" v="VT"/>
    <tag k="ref:vcgi:esiteid" v="254599"/>
  </node>
  <node id="-369" visible="true" lat="44.633298395963" lon="-72.025750260871">
    <tag k="addr:city" v="Sutton"/>
    <tag k="addr:housenumber" v="27"/>
    <tag k="addr:street" v="Burke Road"/>
    <tag k="addr:state" v="VT"/>
    <tag k="ref:vcgi:esiteid" v="254600"/>
  </node>
  <node id="-370" visible="true" lat="44.633148505925" lon="-72.041503770182">
    <tag k="addr:city" v="Sutton"/>
    <tag k="addr:housenumber" v="723"/>
    <tag k="addr:street" v="Sheffield Road"/>
    <tag k="addr:state" v="VT"/>
    <tag k="ref:vcgi:esiteid" v="254601"/>
  </node>
  <node id="-371" visible="true" lat="44.633284309074" lon="-72.02540613742">
    <tag k="addr:city" v="Sutton"/>
    <tag k="addr:housenumber" v="41"/>
    <tag k="addr:street" v="Burke Road"/>
    <tag k="addr:state" v="VT"/>
    <tag k="ref:vcgi:esiteid" v="254602"/>
  </node>
  <node id="-372" visible="true" lat="44.633212344954" lon="-72.024617200424">
    <tag k="addr:city" v="Sutton"/>
    <tag k="addr:housenumber" v="75"/>
    <tag k="addr:street" v="Burke Road"/>
    <tag k="addr:state" v="VT"/>
    <tag k="ref:vcgi:esiteid" v="254603"/>
  </node>
  <node id="-373" visible="true" lat="44.632977152908" lon="-72.02579849394">
    <tag k="addr:city" v="Sutton"/>
    <tag k="addr:housenumber" v="34"/>
    <tag k="addr:street" v="Burke Road"/>
    <tag k="addr:state" v="VT"/>
    <tag k="ref:vcgi:esiteid" v="254604"/>
  </node>
  <node id="-374" visible="true" lat="44.63296212149" lon="-72.019900123408">
    <tag k="addr:city" v="Sutton"/>
    <tag k="addr:housenumber" v="301"/>
    <tag k="addr:street" v="Burke Road"/>
    <tag k="addr:state" v="VT"/>
    <tag k="ref:vcgi:esiteid" v="254605"/>
  </node>
  <node id="-375" visible="true" lat="44.632852610182" lon="-72.025167605621">
    <tag k="addr:city" v="Sutton"/>
    <tag k="addr:housenumber" v="64"/>
    <tag k="addr:street" v="Burke Road"/>
    <tag k="addr:state" v="VT"/>
    <tag k="ref:vcgi:esiteid" v="254606"/>
  </node>
  <node id="-376" visible="true" lat="44.632849659174" lon="-72.024700039317">
    <tag k="addr:city" v="Sutton"/>
    <tag k="addr:housenumber" v="88"/>
    <tag k="addr:street" v="Burke Road"/>
    <tag k="addr:state" v="VT"/>
    <tag k="ref:vcgi:esiteid" v="254607"/>
  </node>
  <node id="-377" visible="true" lat="44.632868055809" lon="-72.026275040078">
    <tag k="addr:city" v="Sutton"/>
    <tag k="addr:housenumber" v="4546"/>
    <tag k="addr:street" v="Calendar Brook Road"/>
    <tag k="addr:state" v="VT"/>
    <tag k="ref:vcgi:esiteid" v="254608"/>
  </node>
  <node id="-378" visible="true" lat="44.63271856092" lon="-72.038064107489">
    <tag k="addr:city" v="Sutton"/>
    <tag k="addr:housenumber" v="559"/>
    <tag k="addr:street" v="Sheffield Road"/>
    <tag k="addr:state" v="VT"/>
    <tag k="ref:vcgi:esiteid" v="254611"/>
  </node>
  <node id="-379" visible="true" lat="44.632752893001" lon="-72.061272733983">
    <tag k="addr:city" v="Sutton"/>
    <tag k="addr:housenumber" v="415"/>
    <tag k="addr:street" v="Wood Hill Road"/>
    <tag k="addr:state" v="VT"/>
    <tag k="ref:vcgi:esiteid" v="254612"/>
  </node>
  <node id="-380" visible="true" lat="44.63258350438" lon="-72.026229817745">
    <tag k="addr:city" v="Sutton"/>
    <tag k="addr:housenumber" v="4522"/>
    <tag k="addr:street" v="Calendar Brook Road"/>
    <tag k="addr:state" v="VT"/>
    <tag k="ref:vcgi:esiteid" v="254613"/>
  </node>
  <node id="-381" visible="true" lat="44.632431538765" lon="-72.019425515228">
    <tag k="addr:city" v="Sutton"/>
    <tag k="addr:housenumber" v="349"/>
    <tag k="addr:street" v="Burke Road"/>
    <tag k="addr:state" v="VT"/>
    <tag k="ref:vcgi:esiteid" v="254614"/>
  </node>
  <node id="-382" visible="true" lat="44.632551190702" lon="-72.035563793971">
    <tag k="addr:city" v="Sutton"/>
    <tag k="addr:housenumber" v="434"/>
    <tag k="addr:street" v="Sheffield Road"/>
    <tag k="addr:state" v="VT"/>
    <tag k="ref:vcgi:esiteid" v="254615"/>
  </node>
  <node id="-383" visible="true" lat="44.632423421907" lon="-72.026867679832">
    <tag k="addr:city" v="Sutton"/>
    <tag k="addr:housenumber" v="16"/>
    <tag k="addr:street" v="Center Street"/>
    <tag k="addr:state" v="VT"/>
    <tag k="ref:vcgi:esiteid" v="254616"/>
  </node>
  <node id="-385" visible="true" lat="44.632320983008" lon="-72.023648006317">
    <tag k="addr:city" v="Sutton"/>
    <tag k="addr:housenumber" v="146"/>
    <tag k="addr:street" v="Burke Road"/>
    <tag k="addr:state" v="VT"/>
    <tag k="ref:vcgi:esiteid" v="254618"/>
  </node>
  <node id="-386" visible="true" lat="44.632233064943" lon="-72.018174002227">
    <tag k="addr:city" v="Sutton"/>
    <tag k="addr:housenumber" v="411"/>
    <tag k="addr:street" v="Burke Road"/>
    <tag k="addr:state" v="VT"/>
    <tag k="ref:vcgi:esiteid" v="254619"/>
  </node>
  <node id="-387" visible="true" lat="44.631720179097" lon="-72.018366638693">
    <tag k="addr:city" v="Sutton"/>
    <tag k="addr:housenumber" v="394"/>
    <tag k="addr:street" v="Burke Road"/>
    <tag k="addr:state" v="VT"/>
    <tag k="ref:vcgi:esiteid" v="254620"/>
  </node>
  <node id="-388" visible="true" lat="44.632024287071" lon="-72.026574235003">
    <tag k="addr:city" v="Sutton"/>
    <tag k="addr:housenumber" v="45"/>
    <tag k="addr:street" v="Center Street"/>
    <tag k="addr:state" v="VT"/>
    <tag k="ref:vcgi:esiteid" v="254621"/>
  </node>
  <node id="-389" visible="true" lat="44.631937307044" lon="-72.02704105694">
    <tag k="addr:city" v="Sutton"/>
    <tag k="addr:housenumber" v="50"/>
    <tag k="addr:street" v="Center Street"/>
    <tag k="addr:state" v="VT"/>
    <tag k="ref:vcgi:esiteid" v="254622"/>
  </node>
  <node id="-390" visible="true" lat="44.631551350918" lon="-72.03521593294">
    <tag k="addr:city" v="Sutton"/>
    <tag k="addr:housenumber" v="407"/>
    <tag k="addr:street" v="Sheffield Road"/>
    <tag k="addr:state" v="VT"/>
    <tag k="ref:vcgi:esiteid" v="254623"/>
  </node>
  <node id="-391" visible="true" lat="44.631581783124" lon="-72.008454417929">
    <tag k="addr:city" v="Sutton"/>
    <tag k="addr:housenumber" v="885"/>
    <tag k="addr:street" v="Burke Road"/>
    <tag k="addr:state" v="VT"/>
    <tag k="ref:vcgi:esiteid" v="254624"/>
  </node>
  <node id="-392" visible="true" lat="44.6316991485" lon="-72.026195096941">
    <tag k="addr:city" v="Sutton"/>
    <tag k="addr:housenumber" v="4459"/>
    <tag k="addr:street" v="Calendar Brook Road"/>
    <tag k="addr:state" v="VT"/>
    <tag k="ref:vcgi:esiteid" v="254625"/>
  </node>
  <node id="-393" visible="true" lat="44.631217494038" lon="-72.03255624368">
    <tag k="addr:city" v="Sutton"/>
    <tag k="addr:housenumber" v="277"/>
    <tag k="addr:street" v="Sheffield Road"/>
    <tag k="addr:state" v="VT"/>
    <tag k="ref:vcgi:esiteid" v="254626"/>
  </node>
  <node id="-395" visible="true" lat="44.631349084503" lon="-72.026078326445">
    <tag k="addr:city" v="Sutton"/>
    <tag k="addr:housenumber" v="4439"/>
    <tag k="addr:street" v="Calendar Brook Road"/>
    <tag k="addr:state" v="VT"/>
    <tag k="ref:vcgi:esiteid" v="254628"/>
  </node>
  <node id="-396" visible="true" lat="44.631168768987" lon="-72.026718797354">
    <tag k="addr:city" v="Sutton"/>
    <tag k="addr:housenumber" v="105"/>
    <tag k="addr:street" v="Center Street"/>
    <tag k="addr:state" v="VT"/>
    <tag k="ref:vcgi:esiteid" v="254629"/>
  </node>
  <node id="-397" visible="true" lat="44.631012450994" lon="-72.030195868528">
    <tag k="addr:city" v="Sutton"/>
    <tag k="addr:housenumber" v="135"/>
    <tag k="addr:street" v="Sheffield Road"/>
    <tag k="addr:state" v="VT"/>
    <tag k="ref:vcgi:esiteid" v="254630"/>
  </node>
  <node id="-398" visible="true" lat="44.630803893366" lon="-72.026851481202">
    <tag k="addr:city" v="Sutton"/>
    <tag k="addr:housenumber" v="125"/>
    <tag k="addr:street" v="Center Street"/>
    <tag k="addr:state" v="VT"/>
    <tag k="ref:vcgi:esiteid" v="254631"/>
  </node>
  <node id="-399" visible="true" lat="44.630620151381" lon="-72.025849994586">
    <tag k="addr:city" v="Sutton"/>
    <tag k="addr:housenumber" v="36"/>
    <tag k="addr:street" v="Church Street"/>
    <tag k="addr:state" v="VT"/>
    <tag k="ref:vcgi:esiteid" v="254632"/>
  </node>
  <node id="-400" visible="true" lat="44.63032154987" lon="-72.027609093279">
    <tag k="addr:city" v="Sutton"/>
    <tag k="addr:housenumber" v="22"/>
    <tag k="addr:street" v="Wheelock Road"/>
    <tag k="addr:state" v="VT"/>
    <tag k="ref:vcgi:esiteid" v="254633"/>
  </node>
  <node id="-401" visible="true" lat="44.630199951132" lon="-72.026734980843">
    <tag k="addr:city" v="Sutton"/>
    <tag k="addr:housenumber" v="77"/>
    <tag k="addr:street" v="Church Street"/>
    <tag k="addr:state" v="VT"/>
    <tag k="ref:vcgi:esiteid" v="254634"/>
  </node>
  <node id="-403" visible="true" lat="44.630066682454" lon="-72.064679298452">
    <tag k="addr:city" v="Sutton"/>
    <tag k="addr:housenumber" v="694"/>
    <tag k="addr:street" v="Wood Hill Road"/>
    <tag k="addr:state" v="VT"/>
    <tag k="ref:vcgi:esiteid" v="254636"/>
  </node>
  <node id="-404" visible="true" lat="44.629697321198" lon="-72.025254349061">
    <tag k="addr:city" v="Sutton"/>
    <tag k="addr:housenumber" v="4317"/>
    <tag k="addr:street" v="Calendar Brook Road"/>
    <tag k="addr:state" v="VT"/>
    <tag k="ref:vcgi:esiteid" v="254637"/>
  </node>
  <node id="-406" visible="true" lat="44.629461674518" lon="-72.026859765871">
    <tag k="addr:city" v="Sutton"/>
    <tag k="addr:housenumber" v="79"/>
    <tag k="addr:street" v="Wheelock Road"/>
    <tag k="addr:state" v="VT"/>
    <tag k="ref:vcgi:esiteid" v="254639"/>
  </node>
  <node id="-408" visible="true" lat="44.629208175553" lon="-72.028879619508">
    <tag k="addr:city" v="Sutton"/>
    <tag k="addr:housenumber" v="126"/>
    <tag k="addr:street" v="Wheelock Road"/>
    <tag k="addr:state" v="VT"/>
    <tag k="ref:vcgi:esiteid" v="254641"/>
  </node>
  <node id="-409" visible="true" lat="44.628907438481" lon="-72.024977658356">
    <tag k="addr:city" v="Sutton"/>
    <tag k="addr:housenumber" v="4253"/>
    <tag k="addr:street" v="Calendar Brook Road"/>
    <tag k="addr:state" v="VT"/>
    <tag k="ref:vcgi:esiteid" v="254642"/>
  </node>
  <node id="-410" visible="true" lat="44.628958818853" lon="-72.063752724415">
    <tag k="addr:city" v="Sutton"/>
    <tag k="addr:housenumber" v="779"/>
    <tag k="addr:street" v="Wood Hill Road"/>
    <tag k="addr:state" v="VT"/>
    <tag k="ref:vcgi:esiteid" v="254643"/>
  </node>
  <node id="-414" visible="true" lat="44.628472802565" lon="-72.024041276368">
    <tag k="addr:city" v="Sutton"/>
    <tag k="addr:housenumber" v="4216"/>
    <tag k="addr:street" v="Calendar Brook Road"/>
    <tag k="addr:state" v="VT"/>
    <tag k="ref:vcgi:esiteid" v="254647"/>
  </node>
  <node id="-415" visible="true" lat="44.628164680594" lon="-72.024574752973">
    <tag k="addr:city" v="Sutton"/>
    <tag k="addr:housenumber" v="4211"/>
    <tag k="addr:street" v="Calendar Brook Road"/>
    <tag k="addr:state" v="VT"/>
    <tag k="ref:vcgi:esiteid" v="254648"/>
  </node>
  <node id="-418" visible="true" lat="44.627179621275" lon="-72.022362808325">
    <tag k="addr:city" v="Sutton"/>
    <tag k="addr:housenumber" v="4062"/>
    <tag k="addr:street" v="Calendar Brook Road"/>
    <tag k="addr:state" v="VT"/>
    <tag k="ref:vcgi:esiteid" v="254651"/>
  </node>
  <node id="-419" visible="true" lat="44.626988885158" lon="-72.023591142194">
    <tag k="addr:city" v="Sutton"/>
    <tag k="addr:housenumber" v="4113"/>
    <tag k="addr:street" v="Calendar Brook Road"/>
    <tag k="addr:state" v="VT"/>
    <tag k="ref:vcgi:esiteid" v="254652"/>
  </node>
  <node id="-420" visible="true" lat="44.62616253766" lon="-72.021882132813">
    <tag k="addr:city" v="Sutton"/>
    <tag k="addr:housenumber" v="4054"/>
    <tag k="addr:street" v="Calendar Brook Road"/>
    <tag k="addr:state" v="VT"/>
    <tag k="ref:vcgi:esiteid" v="254653"/>
  </node>
  <node id="-424" visible="true" lat="44.624898431305" lon="-72.025086503343">
    <tag k="addr:city" v="Sutton"/>
    <tag k="addr:housenumber" v="3903"/>
    <tag k="addr:street" v="Calendar Brook Road"/>
    <tag k="addr:state" v="VT"/>
    <tag k="ref:vcgi:esiteid" v="254657"/>
  </node>
  <node id="-425" visible="true" lat="44.624796925483" lon="-72.022402970161">
    <tag k="addr:city" v="Sutton"/>
    <tag k="addr:housenumber" v="3948"/>
    <tag k="addr:street" v="Calendar Brook Road"/>
    <tag k="addr:state" v="VT"/>
    <tag k="ref:vcgi:esiteid" v="254658"/>
  </node>
  <node id="-428" visible="true" lat="44.623659645087" lon="-72.021995400428">
    <tag k="addr:city" v="Sutton"/>
    <tag k="addr:housenumber" v="3860"/>
    <tag k="addr:street" v="Calendar Brook Road"/>
    <tag k="addr:state" v="VT"/>
    <tag k="ref:vcgi:esiteid" v="254661"/>
  </node>
  <node id="-430" visible="true" lat="44.62295847503" lon="-72.021312435662">
    <tag k="addr:city" v="Sutton"/>
    <tag k="addr:housenumber" v="3792"/>
    <tag k="addr:street" v="Calendar Brook Road"/>
    <tag k="addr:state" v="VT"/>
    <tag k="ref:vcgi:esiteid" v="254663"/>
  </node>
  <node id="-431" visible="true" lat="44.622699802218" lon="-72.020744760042">
    <tag k="addr:city" v="Sutton"/>
    <tag k="addr:housenumber" v="3766"/>
    <tag k="addr:street" v="Calendar Brook Road"/>
    <tag k="addr:state" v="VT"/>
    <tag k="ref:vcgi:esiteid" v="254664"/>
  </node>
  <node id="-433" visible="true" lat="44.622125425772" lon="-72.020935708962">
    <tag k="addr:city" v="Sutton"/>
    <tag k="addr:housenumber" v="3745"/>
    <tag k="addr:street" v="Calendar Brook Road"/>
    <tag k="addr:state" v="VT"/>
    <tag k="ref:vcgi:esiteid" v="254666"/>
  </node>
  <node id="-436" visible="true" lat="44.621180343459" lon="-72.017901003796">
    <tag k="addr:city" v="Sutton"/>
    <tag k="addr:housenumber" v="3588"/>
    <tag k="addr:street" v="Calendar Brook Road"/>
    <tag k="addr:state" v="VT"/>
    <tag k="ref:vcgi:esiteid" v="254669"/>
  </node>
  <node id="-438" visible="true" lat="44.620772815028" lon="-72.018309997834">
    <tag k="addr:city" v="Sutton"/>
    <tag k="addr:housenumber" v="3577"/>
    <tag k="addr:street" v="Calendar Brook Road"/>
    <tag k="addr:state" v="VT"/>
    <tag k="ref:vcgi:esiteid" v="254671"/>
  </node>
  <node id="-439" visible="true" lat="44.620692619979" lon="-72.016789316673">
    <tag k="addr:city" v="Sutton"/>
    <tag k="addr:housenumber" v="3530"/>
    <tag k="addr:street" v="Calendar Brook Road"/>
    <tag k="addr:state" v="VT"/>
    <tag k="ref:vcgi:esiteid" v="254672"/>
  </node>
  <node id="-447" visible="true" lat="44.618844019251" lon="-72.016286567091">
    <tag k="addr:city" v="Sutton"/>
    <tag k="addr:housenumber" v="5463"/>
    <tag k="addr:street" v="Pudding Hill Road"/>
    <tag k="addr:state" v="VT"/>
    <tag k="ref:vcgi:esiteid" v="254680"/>
  </node>
  <node id="-479" visible="true" lat="44.608067984413" lon="-71.996705144501">
    <tag k="addr:city" v="Sutton"/>
    <tag k="addr:housenumber" v="1489"/>
    <tag k="addr:street" v="Simpson Hill"/>
    <tag k="addr:state" v="VT"/>
    <tag k="ref:vcgi:esiteid" v="254712"/>
  </node>
  <node id="-517" visible="true" lat="44.634555363851" lon="-72.026462373878">
    <tag k="addr:city" v="Sutton"/>
    <tag k="addr:housenumber" v="99"/>
    <tag k="addr:street" v="Station Road"/>
    <tag k="addr:state" v="VT"/>
    <tag k="ref:vcgi:esiteid" v="254750"/>
  </node>
  <node id="-524" visible="true" lat="44.694324072967" lon="-72.077373020619">
    <tag k="addr:city" v="Sutton"/>
    <tag k="addr:housenumber" v="5181"/>
    <tag k="addr:street" v="Underpass Road"/>
    <tag k="addr:state" v="VT"/>
    <tag k="ref:vcgi:esiteid" v="254757"/>
  </node>
  <node id="-525" visible="true" lat="44.693136350598" lon="-72.071415127852">
    <tag k="addr:city" v="Sutton"/>
    <tag k="addr:housenumber" v="4948"/>
    <tag k="addr:street" v="Underpass Road"/>
    <tag k="addr:state" v="VT"/>
    <tag k="ref:vcgi:esiteid" v="254758"/>
  </node>
  <node id="-532" visible="true" lat="44.625435852792" lon="-72.023545197716">
    <tag k="addr:city" v="Sutton"/>
    <tag k="addr:housenumber" v="25"/>
    <tag k="addr:street" v="Sutton Hollow"/>
    <tag k="addr:state" v="VT"/>
    <tag k="ref:vcgi:esiteid" v="254766"/>
  </node>
  <node id="-545" visible="true" lat="44.634121215076" lon="-72.04562658521">
    <tag k="addr:city" v="Sutton"/>
    <tag k="addr:housenumber" v="935"/>
    <tag k="addr:street" v="Sheffield Road"/>
    <tag k="addr:state" v="VT"/>
    <tag k="ref:vcgi:esiteid" v="254780"/>
  </node>
  <node id="-595" visible="true" lat="44.631529374744" lon="-72.012469846358">
    <tag k="addr:city" v="Sutton"/>
    <tag k="addr:housenumber" v="691"/>
    <tag k="addr:street" v="Burke Road"/>
    <tag k="addr:state" v="VT"/>
    <tag k="ref:vcgi:esiteid" v="750453"/>
  </node>
  <node id="-689" visible="true" lat="44.630099058597" lon="-72.007328498752">
    <tag k="addr:city" v="Sutton"/>
    <tag k="addr:housenumber" v="960"/>
    <tag k="addr:street" v="Burke Road"/>
    <tag k="addr:state" v="VT"/>
    <tag k="ref:vcgi:esiteid" v="1050947"/>
  </node>
</osm>
