<?xml version="1.0" encoding="UTF-8"?>
<osm version="0.6" generator="JOSM" upload="false">
  <node id="-321" visible="true" lat="44.646859580674" lon="-72.074453509633">
    <!-- duplicates-in-different-towns: "474 Union House Road, Sutton, VT"  ignoring town mismatch for duplicate housenumber/street when matching to esiteid 450464: "474 Union House Road, Sheffield, VT" -->
    <tag k="addr:city" v="Sutton"/>
    <tag k="addr:housenumber" v="474"/>
    <tag k="addr:street" v="Union House Road"/>
    <tag k="addr:state" v="VT"/>
    <tag k="ref:vcgi:esiteid" v="254549"/>
  </node>
  <node id="-554" visible="true" lat="44.628010432144" lon="-72.063538668206">
    <!-- duplicates-in-different-towns: "798 Wood Hill Road, Sutton, VT"  ignoring town mismatch for duplicate housenumber/street when matching to esiteid 220204: "798 Wood Hill Road, Sheffield, VT" -->
    <tag k="addr:city" v="Sutton"/>
    <tag k="addr:housenumber" v="798"/>
    <tag k="addr:street" v="Wood Hill Road"/>
    <tag k="addr:state" v="VT"/>
    <tag k="ref:vcgi:esiteid" v="342887"/>
  </node>
  <node id="-570" visible="true" lat="44.691278007365" lon="-71.997832610501">
    <!-- duplicates-in-different-towns: "3756 Vermont Route 5A, West Burke, VT"  ignoring town mismatch for duplicate housenumber/street when matching to esiteid 254339: "3756 Vermont Route 5A, Newark, VT" -->
    <tag k="addr:city" v="West Burke"/>
    <tag k="addr:housenumber" v="3756"/>
    <tag k="addr:street" v="Vermont Route 5A"/>
    <tag k="addr:state" v="VT"/>
    <tag k="ref:vcgi:esiteid" v="454224"/>
  </node>
</osm>
