<?xml version="1.0" encoding="UTF-8"?>
<osm version="0.6" generator="JOSM" upload="false">
  <node id="-1690" visible="true" lat="44.917512418115" lon="-73.118998682574">
    <!-- multiple: "36 Greenwich Street, Swanton, VT" Multiple exact matches in OSM. -->
    <tag k="addr:city" v="Swanton"/>
    <tag k="addr:housenumber" v="36"/>
    <tag k="addr:street" v="Greenwich Street"/>
    <tag k="addr:state" v="VT"/>
    <tag k="ref:vcgi:esiteid" v="256403"/>
  </node>
  <node id="-1691" visible="true" lat="44.917124875623" lon="-73.119336320315">
    <!-- multiple: "38 Greenwich Street, Swanton, VT" Multiple exact matches in OSM. -->
    <tag k="addr:city" v="Swanton"/>
    <tag k="addr:housenumber" v="38"/>
    <tag k="addr:street" v="Greenwich Street"/>
    <tag k="addr:state" v="VT"/>
    <tag k="ref:vcgi:esiteid" v="256404"/>
  </node>
  <node id="-1717" visible="true" lat="44.917810442966" lon="-73.118697160813">
    <!-- multiple: "37 Greenwich Street, Swanton, VT" Multiple exact matches in OSM. -->
    <tag k="addr:city" v="Swanton"/>
    <tag k="addr:housenumber" v="37"/>
    <tag k="addr:street" v="Greenwich Street"/>
    <tag k="addr:state" v="VT"/>
    <tag k="ref:vcgi:esiteid" v="256431"/>
  </node>
  <node id="-1757" visible="true" lat="44.922276923338" lon="-73.110222824636">
    <!-- multiple: "165 First Street, Swanton, VT" Multiple exact matches in OSM. -->
    <tag k="addr:city" v="Swanton"/>
    <tag k="addr:housenumber" v="165"/>
    <tag k="addr:street" v="First Street"/>
    <tag k="addr:state" v="VT"/>
    <tag k="ref:vcgi:esiteid" v="256471"/>
  </node>
  <node id="-1758" visible="true" lat="44.921420245519" lon="-73.109746591872">
    <!-- multiple: "166 First Street, Swanton, VT" Multiple exact matches in OSM. -->
    <tag k="addr:city" v="Swanton"/>
    <tag k="addr:housenumber" v="166"/>
    <tag k="addr:street" v="First Street"/>
    <tag k="addr:state" v="VT"/>
    <tag k="ref:vcgi:esiteid" v="256472"/>
  </node>
  <node id="-3283" visible="true" lat="44.917664090649" lon="-73.119086678452">
    <!-- multiple: "36 Greenwich Street, Swanton, VT" Multiple exact matches in OSM. -->
    <tag k="addr:city" v="Swanton"/>
    <tag k="addr:housenumber" v="36"/>
    <tag k="addr:street" v="Greenwich Street"/>
    <tag k="addr:state" v="VT"/>
    <tag k="ref:vcgi:esiteid" v="258093"/>
  </node>
  <node id="-3284" visible="true" lat="44.917591979412" lon="-73.11817060295">
    <!-- multiple: "37 Greenwich Street, Swanton, VT" Multiple exact matches in OSM. -->
    <tag k="addr:city" v="Swanton"/>
    <tag k="addr:housenumber" v="37"/>
    <tag k="addr:street" v="Greenwich Street"/>
    <tag k="addr:state" v="VT"/>
    <tag k="ref:vcgi:esiteid" v="258094"/>
  </node>
  <node id="-3285" visible="true" lat="44.917251925878" lon="-73.118816552424">
    <!-- multiple: "38 Greenwich Street, Swanton, VT" Multiple exact matches in OSM. -->
    <tag k="addr:city" v="Swanton"/>
    <tag k="addr:housenumber" v="38"/>
    <tag k="addr:street" v="Greenwich Street"/>
    <tag k="addr:state" v="VT"/>
    <tag k="ref:vcgi:esiteid" v="258095"/>
  </node>
</osm>
