<?xml version="1.0" encoding="UTF-8"?>
<osm version="0.6" generator="JOSM" upload="false">
  <node id="-100" visible="true" lat="44.925167016257" lon="-73.096739381306">
    <!-- duplicates-in-different-towns: "26 Vermont Route 78, Swanton, VT"  ignoring town mismatch for duplicate housenumber/street when matching to esiteid 770142: "26 Vermont Route 78, , VT" -->
    <tag k="addr:city" v="Swanton"/>
    <tag k="addr:housenumber" v="26"/>
    <tag k="addr:street" v="Vermont Route 78"/>
    <tag k="addr:state" v="VT"/>
    <tag k="ref:vcgi:esiteid" v="127966"/>
  </node>
  <node id="-110" visible="true" lat="44.925494929943" lon="-73.097874482116">
    <!-- duplicates-in-different-towns: "4 Vermont Route 78, Swanton, VT"  ignoring town mismatch for duplicate housenumber/street when matching to esiteid 770141: "4 Vermont Route 78, , VT" -->
    <tag k="addr:city" v="Swanton"/>
    <tag k="addr:housenumber" v="4"/>
    <tag k="addr:street" v="Vermont Route 78"/>
    <tag k="addr:state" v="VT"/>
    <tag k="ref:vcgi:esiteid" v="254793"/>
  </node>
  <node id="-638" visible="true" lat="44.929139784677" lon="-73.214501024057">
    <!-- duplicates-in-different-towns: "91 Lakewood Campground Main Street, Swanton, VT"  ignoring town mismatch for duplicate housenumber/street when matching to esiteid 771924: "91 Lakewood Campground Main Street, , VT" -->
    <tag k="addr:city" v="Swanton"/>
    <tag k="addr:housenumber" v="91"/>
    <tag k="addr:street" v="Lakewood Campground Main Street"/>
    <tag k="addr:state" v="VT"/>
    <tag k="ref:vcgi:esiteid" v="255336"/>
  </node>
  <node id="-1666" visible="true" lat="44.915592627568" lon="-73.124386379553">
    <!-- duplicates-in-different-towns: "32 Church Street, Swanton, VT"  ignoring town mismatch for duplicate housenumber/street when matching to esiteid 256380: "32 Church Street, , VT" -->
    <tag k="addr:city" v="Swanton"/>
    <tag k="addr:housenumber" v="32"/>
    <tag k="addr:street" v="Church Street"/>
    <tag k="addr:state" v="VT"/>
    <tag k="ref:vcgi:esiteid" v="256379"/>
  </node>
  <node id="-1729" visible="true" lat="44.91882022053" lon="-73.117658039969">
    <!-- duplicates-in-different-towns: "35 New Street, Swanton, VT"  ignoring town mismatch for duplicate housenumber/street when matching to esiteid 258118: "35 New Street, , VT" -->
    <tag k="addr:city" v="Swanton"/>
    <tag k="addr:housenumber" v="35"/>
    <tag k="addr:street" v="New Street"/>
    <tag k="addr:state" v="VT"/>
    <tag k="ref:vcgi:esiteid" v="256443"/>
  </node>
  <node id="-1730" visible="true" lat="44.918730056478" lon="-73.117635896184">
    <!-- duplicates-in-different-towns: "35 New Street, Swanton, VT"  ignoring town mismatch for duplicate housenumber/street when matching to esiteid 258118: "35 New Street, , VT" -->
    <tag k="addr:city" v="Swanton"/>
    <tag k="addr:housenumber" v="35"/>
    <tag k="addr:street" v="New Street"/>
    <tag k="addr:state" v="VT"/>
    <tag k="ref:vcgi:esiteid" v="256444"/>
  </node>
  <node id="-1731" visible="true" lat="44.918550035542" lon="-73.117535136107">
    <!-- duplicates-in-different-towns: "35 New Street, Swanton, VT"  ignoring town mismatch for duplicate housenumber/street when matching to esiteid 258118: "35 New Street, , VT" -->
    <tag k="addr:city" v="Swanton"/>
    <tag k="addr:housenumber" v="35"/>
    <tag k="addr:street" v="New Street"/>
    <tag k="addr:state" v="VT"/>
    <tag k="ref:vcgi:esiteid" v="256445"/>
  </node>
  <node id="-1732" visible="true" lat="44.918487696678" lon="-73.117005014742">
    <!-- duplicates-in-different-towns: "37 New Street, Swanton, VT"  ignoring town mismatch for duplicate housenumber/street when matching to esiteid 258116: "37 New Street, , VT" -->
    <tag k="addr:city" v="Swanton"/>
    <tag k="addr:housenumber" v="37"/>
    <tag k="addr:street" v="New Street"/>
    <tag k="addr:state" v="VT"/>
    <tag k="ref:vcgi:esiteid" v="256446"/>
  </node>
  <node id="-1733" visible="true" lat="44.918407602781" lon="-73.116975920241">
    <!-- duplicates-in-different-towns: "37 New Street, Swanton, VT"  ignoring town mismatch for duplicate housenumber/street when matching to esiteid 258116: "37 New Street, , VT" -->
    <tag k="addr:city" v="Swanton"/>
    <tag k="addr:housenumber" v="37"/>
    <tag k="addr:street" v="New Street"/>
    <tag k="addr:state" v="VT"/>
    <tag k="ref:vcgi:esiteid" v="256447"/>
  </node>
  <node id="-1734" visible="true" lat="44.918307293831" lon="-73.116974845477">
    <!-- duplicates-in-different-towns: "37 New Street, Swanton, VT"  ignoring town mismatch for duplicate housenumber/street when matching to esiteid 258116: "37 New Street, , VT" -->
    <tag k="addr:city" v="Swanton"/>
    <tag k="addr:housenumber" v="37"/>
    <tag k="addr:street" v="New Street"/>
    <tag k="addr:state" v="VT"/>
    <tag k="ref:vcgi:esiteid" v="256448"/>
  </node>
  <node id="-1973" visible="true" lat="44.907835455256" lon="-73.122293522463">
    <!-- duplicates-in-different-towns: "65 Demers Drive, Swanton, VT"  ignoring town mismatch for duplicate housenumber/street when matching to esiteid 257327: "65 Demers Drive, , VT" -->
    <tag k="addr:city" v="Swanton"/>
    <tag k="addr:housenumber" v="65"/>
    <tag k="addr:street" v="Demers Drive"/>
    <tag k="addr:state" v="VT"/>
    <tag k="ref:vcgi:esiteid" v="256692"/>
  </node>
  <node id="-2043" visible="true" lat="44.906370826588" lon="-73.143355460925">
    <!-- duplicates-in-different-towns: "144 Middle Road, Swanton, VT"  ignoring town mismatch for duplicate housenumber/street when matching to esiteid 257943: "144 Middle Road, , VT" -->
    <tag k="addr:city" v="Swanton"/>
    <tag k="addr:housenumber" v="144"/>
    <tag k="addr:street" v="Middle Road"/>
    <tag k="addr:state" v="VT"/>
    <tag k="ref:vcgi:esiteid" v="256767"/>
  </node>
  <node id="-2358" visible="true" lat="44.865737132275" lon="-73.032104862104">
    <!-- duplicates-in-different-towns: "2134 Sheldon Road, Saint Albans, VT"  ignoring town mismatch for duplicate housenumber/street when matching to esiteid 257090: "2134 Sheldon Road, , VT" -->
    <tag k="addr:city" v="Saint Albans"/>
    <tag k="addr:housenumber" v="2134"/>
    <tag k="addr:street" v="Sheldon Road"/>
    <tag k="addr:state" v="VT"/>
    <tag k="ref:vcgi:esiteid" v="257089"/>
  </node>
  <node id="-3302" visible="true" lat="44.918343934041" lon="-73.117438910158">
    <!-- duplicates-in-different-towns: "37 New Street, Swanton, VT"  ignoring town mismatch for duplicate housenumber/street when matching to esiteid 258116: "37 New Street, , VT" -->
    <tag k="addr:city" v="Swanton"/>
    <tag k="addr:housenumber" v="37"/>
    <tag k="addr:street" v="New Street"/>
    <tag k="addr:state" v="VT"/>
    <tag k="ref:vcgi:esiteid" v="258115"/>
  </node>
  <node id="-4059" visible="true" lat="44.863027669553" lon="-73.091958449356">
    <!-- duplicates-in-different-towns: "31 Maple Grove Estate, Swanton, VT"  ignoring town mismatch for duplicate housenumber/street when matching to esiteid 762538: "31 Maple Grove Estate, , VT" -->
    <tag k="addr:city" v="Swanton"/>
    <tag k="addr:housenumber" v="31"/>
    <tag k="addr:street" v="Maple Grove Estate"/>
    <tag k="addr:state" v="VT"/>
    <tag k="ref:vcgi:esiteid" v="620859"/>
  </node>
  <node id="-4107" visible="true" lat="44.922708197358" lon="-73.090072245114">
    <!-- duplicates-in-different-towns: "10 Endeavors Lane, Swanton, VT"  ignoring town mismatch for duplicate housenumber/street when matching to esiteid 757134: "10 Endeavors Lane, , VT" -->
    <tag k="addr:city" v="Swanton"/>
    <tag k="addr:housenumber" v="10"/>
    <tag k="addr:street" v="Endeavors Lane"/>
    <tag k="addr:state" v="VT"/>
    <tag k="ref:vcgi:esiteid" v="757133"/>
  </node>
</osm>
