<?xml version="1.0" encoding="UTF-8"?>
<osm version="0.6" generator="JOSM" upload="false">
  <node id="-229" visible="true" lat="43.885439000768" lon="-72.260710879054">
    <tag k="addr:city" v="Post Mills"/>
    <tag k="addr:housenumber" v="7922"/>
    <tag k="addr:street" v="Vermont Route 113"/>
    <tag k="addr:state" v="VT"/>
    <tag k="ref:vcgi:esiteid" v="258602"/>
  </node>
  <node id="-803" visible="true" lat="43.822884919122" lon="-72.230776593039">
    <tag k="addr:city" v="Thetford"/>
    <tag k="addr:housenumber" v="229"/>
    <tag k="addr:street" v="Houghton Hill Road"/>
    <tag k="addr:state" v="VT"/>
    <tag k="ref:vcgi:esiteid" v="259195"/>
  </node>
  <node id="-805" visible="true" lat="43.823018060957" lon="-72.234015107638">
    <tag k="addr:city" v="Thetford"/>
    <tag k="addr:housenumber" v="2952"/>
    <tag k="addr:street" v="Vermont Route 113"/>
    <tag k="addr:state" v="VT"/>
    <tag k="ref:vcgi:esiteid" v="259197"/>
  </node>
  <node id="-808" visible="true" lat="43.822595123978" lon="-72.22699629978">
    <tag k="addr:city" v="Thetford"/>
    <tag k="addr:housenumber" v="272"/>
    <tag k="addr:street" v="Houghton Hill Road"/>
    <tag k="addr:state" v="VT"/>
    <tag k="ref:vcgi:esiteid" v="259200"/>
  </node>
  <node id="-818" visible="true" lat="43.821873541179" lon="-72.225538101814">
    <tag k="addr:city" v="Thetford"/>
    <tag k="addr:housenumber" v="268"/>
    <tag k="addr:street" v="Houghton Hill Road"/>
    <tag k="addr:state" v="VT"/>
    <tag k="ref:vcgi:esiteid" v="259210"/>
  </node>
  <node id="-819" visible="true" lat="43.82181145683" lon="-72.227348786191">
    <tag k="addr:city" v="Thetford"/>
    <tag k="addr:housenumber" v="194"/>
    <tag k="addr:street" v="Houghton Hill Road"/>
    <tag k="addr:state" v="VT"/>
    <tag k="ref:vcgi:esiteid" v="259211"/>
  </node>
  <node id="-822" visible="true" lat="43.821543590743" lon="-72.233324253701">
    <tag k="addr:city" v="Thetford"/>
    <tag k="addr:housenumber" v="2840"/>
    <tag k="addr:street" v="Vermont Route 113"/>
    <tag k="addr:state" v="VT"/>
    <tag k="ref:vcgi:esiteid" v="259214"/>
  </node>
  <node id="-828" visible="true" lat="43.820698161097" lon="-72.22850487602">
    <tag k="addr:city" v="Thetford"/>
    <tag k="addr:housenumber" v="143"/>
    <tag k="addr:street" v="Houghton Hill Road"/>
    <tag k="addr:state" v="VT"/>
    <tag k="ref:vcgi:esiteid" v="259220"/>
  </node>
  <node id="-829" visible="true" lat="43.821175335865" lon="-72.227775416365">
    <tag k="addr:city" v="Thetford"/>
    <tag k="addr:housenumber" v="142"/>
    <tag k="addr:street" v="Houghton Hill Road"/>
    <tag k="addr:state" v="VT"/>
    <tag k="ref:vcgi:esiteid" v="259221"/>
  </node>
  <node id="-832" visible="true" lat="43.821095074466" lon="-72.233916937072">
    <tag k="addr:city" v="Thetford"/>
    <tag k="addr:housenumber" v="2829"/>
    <tag k="addr:street" v="Vermont Route 113"/>
    <tag k="addr:state" v="VT"/>
    <tag k="ref:vcgi:esiteid" v="259224"/>
  </node>
  <node id="-834" visible="true" lat="43.820862705322" lon="-72.227596901097">
    <tag k="addr:city" v="Thetford"/>
    <tag k="addr:housenumber" v="128"/>
    <tag k="addr:street" v="Houghton Hill Road"/>
    <tag k="addr:state" v="VT"/>
    <tag k="ref:vcgi:esiteid" v="259226"/>
  </node>
  <node id="-850" visible="true" lat="43.820096225937" lon="-72.231114725459">
    <tag k="addr:city" v="Thetford"/>
    <tag k="addr:housenumber" v="2684"/>
    <tag k="addr:street" v="Vermont Route 113"/>
    <tag k="addr:state" v="VT"/>
    <tag k="ref:vcgi:esiteid" v="259242"/>
  </node>
  <node id="-853" visible="true" lat="43.819531628074" lon="-72.231569876784">
    <tag k="addr:city" v="Thetford"/>
    <tag k="addr:housenumber" v="2689"/>
    <tag k="addr:street" v="Vermont Route 113"/>
    <tag k="addr:state" v="VT"/>
    <tag k="ref:vcgi:esiteid" v="259246"/>
  </node>
  <node id="-855" visible="true" lat="43.819289553579" lon="-72.229018193932">
    <tag k="addr:city" v="Thetford"/>
    <tag k="addr:housenumber" v="29"/>
    <tag k="addr:street" v="Houghton Hill Road"/>
    <tag k="addr:state" v="VT"/>
    <tag k="ref:vcgi:esiteid" v="259249"/>
  </node>
  <node id="-856" visible="true" lat="43.819428988588" lon="-72.229435303394">
    <tag k="addr:city" v="Thetford"/>
    <tag k="addr:housenumber" v="2596"/>
    <tag k="addr:street" v="Vermont Route 113"/>
    <tag k="addr:state" v="VT"/>
    <tag k="ref:vcgi:esiteid" v="259250"/>
  </node>
  <node id="-858" visible="true" lat="43.819235855593" lon="-72.228485365445">
    <tag k="addr:city" v="Thetford"/>
    <tag k="addr:housenumber" v="18"/>
    <tag k="addr:street" v="Houghton Hill Road"/>
    <tag k="addr:state" v="VT"/>
    <tag k="ref:vcgi:esiteid" v="259252"/>
  </node>
  <node id="-859" visible="true" lat="43.819067882249" lon="-72.227578980427">
    <tag k="addr:city" v="Thetford"/>
    <tag k="addr:housenumber" v="37"/>
    <tag k="addr:street" v="Nonsuch Way"/>
    <tag k="addr:state" v="VT"/>
    <tag k="ref:vcgi:esiteid" v="259253"/>
  </node>
  <node id="-863" visible="true" lat="43.818941157646" lon="-72.229833470794">
    <tag k="addr:city" v="Thetford"/>
    <tag k="addr:housenumber" v="16"/>
    <tag k="addr:street" v="Library Road"/>
    <tag k="addr:state" v="VT"/>
    <tag k="ref:vcgi:esiteid" v="259257"/>
  </node>
  <node id="-869" visible="true" lat="43.818772638317" lon="-72.228745573311">
    <tag k="addr:city" v="Thetford"/>
    <tag k="addr:housenumber" v="21"/>
    <tag k="addr:street" v="Academy Road"/>
    <tag k="addr:state" v="VT"/>
    <tag k="ref:vcgi:esiteid" v="259264"/>
  </node>
  <node id="-870" visible="true" lat="43.818878971534" lon="-72.226425663596">
    <tag k="addr:city" v="Thetford"/>
    <tag k="addr:housenumber" v="2436"/>
    <tag k="addr:street" v="Vermont Route 113"/>
    <tag k="addr:state" v="VT"/>
    <tag k="ref:vcgi:esiteid" v="259265"/>
  </node>
  <node id="-874" visible="true" lat="43.81868978936" lon="-72.228066047673">
    <tag k="addr:city" v="Thetford"/>
    <tag k="addr:housenumber" v="2507"/>
    <tag k="addr:street" v="Vermont Route 113"/>
    <tag k="addr:state" v="VT"/>
    <tag k="ref:vcgi:esiteid" v="259269"/>
  </node>
  <node id="-876" visible="true" lat="43.818455376106" lon="-72.229957832735">
    <tag k="addr:city" v="Thetford"/>
    <tag k="addr:housenumber" v="48"/>
    <tag k="addr:street" v="Library Road"/>
    <tag k="addr:state" v="VT"/>
    <tag k="ref:vcgi:esiteid" v="259271"/>
  </node>
  <node id="-877" visible="true" lat="43.818389063626" lon="-72.228805587464">
    <tag k="addr:city" v="Thetford"/>
    <tag k="addr:housenumber" v="37"/>
    <tag k="addr:street" v="Academy Road"/>
    <tag k="addr:state" v="VT"/>
    <tag k="ref:vcgi:esiteid" v="259272"/>
  </node>
  <node id="-879" visible="true" lat="43.818532939977" lon="-72.227400668379">
    <tag k="addr:city" v="Thetford"/>
    <tag k="addr:housenumber" v="2489"/>
    <tag k="addr:street" v="Vermont Route 113"/>
    <tag k="addr:state" v="VT"/>
    <tag k="ref:vcgi:esiteid" v="259274"/>
  </node>
  <node id="-880" visible="true" lat="43.818125813498" lon="-72.228846016729">
    <tag k="addr:city" v="Thetford"/>
    <tag k="addr:housenumber" v="57"/>
    <tag k="addr:street" v="Academy Road"/>
    <tag k="addr:state" v="VT"/>
    <tag k="ref:vcgi:esiteid" v="259275"/>
  </node>
  <node id="-884" visible="true" lat="43.818217712803" lon="-72.224607713644">
    <tag k="addr:city" v="Thetford"/>
    <tag k="addr:housenumber" v="2344"/>
    <tag k="addr:street" v="Vermont Route 113"/>
    <tag k="addr:state" v="VT"/>
    <tag k="ref:vcgi:esiteid" v="259279"/>
  </node>
  <node id="-885" visible="true" lat="43.818080256218" lon="-72.22979444775">
    <tag k="addr:city" v="Thetford"/>
    <tag k="addr:housenumber" v="72"/>
    <tag k="addr:street" v="Library Road"/>
    <tag k="addr:state" v="VT"/>
    <tag k="ref:vcgi:esiteid" v="259280"/>
  </node>
  <node id="-887" visible="true" lat="43.818147083703" lon="-72.227568757518">
    <tag k="addr:city" v="Thetford"/>
    <tag k="addr:housenumber" v="2491"/>
    <tag k="addr:street" v="Vermont Route 113"/>
    <tag k="addr:state" v="VT"/>
    <tag k="ref:vcgi:esiteid" v="259282"/>
  </node>
  <node id="-889" visible="true" lat="43.818117303667" lon="-72.219618069669">
    <tag k="addr:city" v="Thetford"/>
    <tag k="addr:housenumber" v="197"/>
    <tag k="addr:street" v="Garey Road"/>
    <tag k="addr:state" v="VT"/>
    <tag k="ref:vcgi:esiteid" v="259284"/>
  </node>
  <node id="-892" visible="true" lat="43.817837134161" lon="-72.229086082536">
    <tag k="addr:city" v="Thetford"/>
    <tag k="addr:housenumber" v="85"/>
    <tag k="addr:street" v="Academy Road"/>
    <tag k="addr:state" v="VT"/>
    <tag k="ref:vcgi:esiteid" v="259287"/>
  </node>
  <node id="-895" visible="true" lat="43.817625520941" lon="-72.229798065805">
    <tag k="addr:city" v="Thetford"/>
    <tag k="addr:housenumber" v="102"/>
    <tag k="addr:street" v="Academy Road"/>
    <tag k="addr:state" v="VT"/>
    <tag k="ref:vcgi:esiteid" v="259290"/>
  </node>
  <node id="-896" visible="true" lat="43.817618153326" lon="-72.229185161284">
    <tag k="addr:city" v="Thetford"/>
    <tag k="addr:housenumber" v="101"/>
    <tag k="addr:street" v="Academy Road"/>
    <tag k="addr:state" v="VT"/>
    <tag k="ref:vcgi:esiteid" v="259291"/>
  </node>
  <node id="-901" visible="true" lat="43.817551198359" lon="-72.223490815031">
    <tag k="addr:city" v="Thetford"/>
    <tag k="addr:housenumber" v="2274"/>
    <tag k="addr:street" v="Vermont Route 113"/>
    <tag k="addr:state" v="VT"/>
    <tag k="ref:vcgi:esiteid" v="259296"/>
  </node>
  <node id="-903" visible="true" lat="43.817439158901" lon="-72.229139471158">
    <tag k="addr:city" v="Thetford"/>
    <tag k="addr:housenumber" v="113"/>
    <tag k="addr:street" v="Academy Road"/>
    <tag k="addr:state" v="VT"/>
    <tag k="ref:vcgi:esiteid" v="259298"/>
  </node>
  <node id="-904" visible="true" lat="43.817409306196" lon="-72.2286428896">
    <tag k="addr:city" v="Thetford"/>
    <tag k="addr:housenumber" v="111"/>
    <tag k="addr:street" v="Academy Road"/>
    <tag k="addr:state" v="VT"/>
    <tag k="ref:vcgi:esiteid" v="259299"/>
  </node>
  <node id="-907" visible="true" lat="43.817345939976" lon="-72.220677144071">
    <tag k="addr:city" v="Thetford"/>
    <tag k="addr:housenumber" v="130"/>
    <tag k="addr:street" v="Garey Road"/>
    <tag k="addr:state" v="VT"/>
    <tag k="ref:vcgi:esiteid" v="259302"/>
  </node>
  <node id="-926" visible="true" lat="43.816303549217" lon="-72.229050202038">
    <tag k="addr:city" v="Thetford"/>
    <tag k="addr:housenumber" v="193"/>
    <tag k="addr:street" v="Academy Road"/>
    <tag k="addr:state" v="VT"/>
    <tag k="ref:vcgi:esiteid" v="259321"/>
  </node>
  <node id="-927" visible="true" lat="43.816222728515" lon="-72.230026667059">
    <tag k="addr:city" v="Thetford"/>
    <tag k="addr:housenumber" v="196"/>
    <tag k="addr:street" v="Academy Road"/>
    <tag k="addr:state" v="VT"/>
    <tag k="ref:vcgi:esiteid" v="259322"/>
  </node>
  <node id="-929" visible="true" lat="43.816024166144" lon="-72.229030166553">
    <tag k="addr:city" v="Thetford"/>
    <tag k="addr:housenumber" v="205"/>
    <tag k="addr:street" v="Academy Road"/>
    <tag k="addr:state" v="VT"/>
    <tag k="ref:vcgi:esiteid" v="259324"/>
  </node>
  <node id="-934" visible="true" lat="43.815711816333" lon="-72.229244220943">
    <tag k="addr:city" v="Thetford"/>
    <tag k="addr:housenumber" v="227"/>
    <tag k="addr:street" v="Academy Road"/>
    <tag k="addr:state" v="VT"/>
    <tag k="ref:vcgi:esiteid" v="259330"/>
  </node>
  <node id="-935" visible="true" lat="43.815676187663" lon="-72.230148755865">
    <tag k="addr:city" v="Thetford"/>
    <tag k="addr:housenumber" v="242"/>
    <tag k="addr:street" v="Academy Road"/>
    <tag k="addr:state" v="VT"/>
    <tag k="ref:vcgi:esiteid" v="259331"/>
  </node>
  <node id="-968" visible="true" lat="43.813560974299" lon="-72.230959174728">
    <tag k="addr:city" v="Thetford"/>
    <tag k="addr:housenumber" v="386"/>
    <tag k="addr:street" v="Academy Road"/>
    <tag k="addr:state" v="VT"/>
    <tag k="ref:vcgi:esiteid" v="259369"/>
  </node>
  <node id="-971" visible="true" lat="43.813591299649" lon="-72.22963793142">
    <tag k="addr:city" v="Thetford"/>
    <tag k="addr:housenumber" v="385"/>
    <tag k="addr:street" v="Academy Road"/>
    <tag k="addr:state" v="VT"/>
    <tag k="ref:vcgi:esiteid" v="259372"/>
  </node>
  <node id="-985" visible="true" lat="43.812994990228" lon="-72.229581030358">
    <tag k="addr:city" v="Thetford"/>
    <tag k="addr:housenumber" v="399"/>
    <tag k="addr:street" v="Academy Road"/>
    <tag k="addr:state" v="VT"/>
    <tag k="ref:vcgi:esiteid" v="259388"/>
  </node>
  <node id="-1009" visible="true" lat="43.812060655042" lon="-72.229445714183">
    <tag k="addr:city" v="Thetford"/>
    <tag k="addr:housenumber" v="523"/>
    <tag k="addr:street" v="Academy Road"/>
    <tag k="addr:state" v="VT"/>
    <tag k="ref:vcgi:esiteid" v="259413"/>
  </node>
  <node id="-1093" visible="true" lat="43.805885261984" lon="-72.188984915224">
    <tag k="addr:city" v="East Thetford"/>
    <tag k="addr:housenumber" v="263"/>
    <tag k="addr:street" v="Pavillion Road"/>
    <tag k="addr:state" v="VT"/>
    <tag k="ref:vcgi:esiteid" v="259498"/>
  </node>
  <node id="-1338" visible="true" lat="43.820912197295" lon="-72.237061749586">
    <tag k="addr:city" v="Thetford"/>
    <tag k="addr:housenumber" v="2833"/>
    <tag k="addr:street" v="Vermont Route 113"/>
    <tag k="addr:state" v="VT"/>
    <tag k="ref:vcgi:esiteid" v="259749"/>
  </node>
  <node id="-1339" visible="true" lat="43.821040522573" lon="-72.238383288256">
    <tag k="addr:city" v="Thetford"/>
    <tag k="addr:housenumber" v="2835"/>
    <tag k="addr:street" v="Vermont Route 113"/>
    <tag k="addr:state" v="VT"/>
    <tag k="ref:vcgi:esiteid" v="259750"/>
  </node>
  <node id="-1340" visible="true" lat="43.82050081642" lon="-72.238615584068">
    <tag k="addr:city" v="Thetford"/>
    <tag k="addr:housenumber" v="2837"/>
    <tag k="addr:street" v="Vermont Route 113"/>
    <tag k="addr:state" v="VT"/>
    <tag k="ref:vcgi:esiteid" v="259751"/>
  </node>
  <node id="-1341" visible="true" lat="43.817505216573" lon="-72.229833906533">
    <tag k="addr:city" v="Thetford"/>
    <tag k="addr:housenumber" v="104"/>
    <tag k="addr:street" v="Academy Road"/>
    <tag k="addr:state" v="VT"/>
    <tag k="ref:vcgi:esiteid" v="259752"/>
  </node>
  <node id="-1571" visible="true" lat="43.885423032888" lon="-72.220064532404">
    <tag k="addr:city" v="Fairlee"/>
    <tag k="addr:housenumber" v="284"/>
    <tag k="addr:street" v="Bragg Road"/>
    <tag k="addr:state" v="VT"/>
    <tag k="ref:vcgi:esiteid" v="452872"/>
  </node>
  <node id="-1627" visible="true" lat="43.814228641952" lon="-72.231474672667">
    <tag k="addr:city" v="Thetford"/>
    <tag k="addr:housenumber" v="88"/>
    <tag k="addr:street" v="Panther Way"/>
    <tag k="addr:state" v="VT"/>
    <tag k="ref:vcgi:esiteid" v="750800"/>
  </node>
  <node id="-1628" visible="true" lat="43.814303227473" lon="-72.23281611685">
    <tag k="addr:city" v="Thetford"/>
    <tag k="addr:housenumber" v="133"/>
    <tag k="addr:street" v="Panther Way"/>
    <tag k="addr:state" v="VT"/>
    <tag k="ref:vcgi:esiteid" v="750801"/>
  </node>
  <node id="-1629" visible="true" lat="43.816225667683" lon="-72.234631173601">
    <tag k="addr:city" v="Thetford"/>
    <tag k="addr:housenumber" v="163"/>
    <tag k="addr:street" v="Panther Way"/>
    <tag k="addr:state" v="VT"/>
    <tag k="ref:vcgi:esiteid" v="750802"/>
  </node>
  <node id="-1630" visible="true" lat="43.81504985561" lon="-72.23335213765">
    <tag k="addr:city" v="Thetford"/>
    <tag k="addr:housenumber" v="159"/>
    <tag k="addr:street" v="Panther Way"/>
    <tag k="addr:state" v="VT"/>
    <tag k="ref:vcgi:esiteid" v="750803"/>
  </node>
  <node id="-1631" visible="true" lat="43.814574373148" lon="-72.231657290057">
    <tag k="addr:city" v="Thetford"/>
    <tag k="addr:housenumber" v="160"/>
    <tag k="addr:street" v="Panther Way"/>
    <tag k="addr:state" v="VT"/>
    <tag k="ref:vcgi:esiteid" v="750804"/>
  </node>
  <node id="-1632" visible="true" lat="43.816111548761" lon="-72.232668282747">
    <tag k="addr:city" v="Thetford"/>
    <tag k="addr:housenumber" v="201"/>
    <tag k="addr:street" v="Panther Way"/>
    <tag k="addr:state" v="VT"/>
    <tag k="ref:vcgi:esiteid" v="750806"/>
  </node>
  <node id="-1633" visible="true" lat="43.815335097833" lon="-72.23109545655">
    <tag k="addr:city" v="Thetford"/>
    <tag k="addr:housenumber" v="245"/>
    <tag k="addr:street" v="Panther Way"/>
    <tag k="addr:state" v="VT"/>
    <tag k="ref:vcgi:esiteid" v="750808"/>
  </node>
  <node id="-1670" visible="true" lat="43.824492772173" lon="-72.237852043627">
    <tag k="addr:city" v="Thetford"/>
    <tag k="addr:housenumber" v="3059"/>
    <tag k="addr:street" v="Vermont Route 113"/>
    <tag k="addr:state" v="VT"/>
    <tag k="ref:vcgi:esiteid" v="759472"/>
  </node>
</osm>
