<?xml version="1.0" encoding="UTF-8"?>
<osm version="0.6" generator="JOSM" upload="false">
  <node id="-250" visible="true" lat="44.132491238564" lon="-72.19242905945">
    <tag k="addr:city" v="Topsham"/>
    <tag k="addr:housenumber" v="2"/>
    <tag k="addr:street" v="James Downing Road"/>
    <tag k="addr:state" v="VT"/>
    <tag k="ref:vcgi:esiteid" v="260405"/>
  </node>
  <node id="-253" visible="true" lat="44.131819852592" lon="-72.198212141957">
    <tag k="addr:city" v="Topsham"/>
    <tag k="addr:housenumber" v="8"/>
    <tag k="addr:street" v="Harts Crossroad"/>
    <tag k="addr:state" v="VT"/>
    <tag k="ref:vcgi:esiteid" v="260408"/>
  </node>
  <node id="-276" visible="true" lat="44.127764828363" lon="-72.201843735513">
    <tag k="addr:city" v="Topsham"/>
    <tag k="addr:housenumber" v="223"/>
    <tag k="addr:street" v="Lime Kiln Road"/>
    <tag k="addr:state" v="VT"/>
    <tag k="ref:vcgi:esiteid" v="260434"/>
  </node>
  <node id="-279" visible="true" lat="44.127070553347" lon="-72.20250749268">
    <tag k="addr:city" v="Topsham"/>
    <tag k="addr:housenumber" v="217"/>
    <tag k="addr:street" v="Lime Kiln Road"/>
    <tag k="addr:state" v="VT"/>
    <tag k="ref:vcgi:esiteid" v="260437"/>
  </node>
  <node id="-280" visible="true" lat="44.127161918214" lon="-72.242378747497">
    <tag k="addr:city" v="Topsham"/>
    <tag k="addr:housenumber" v="68"/>
    <tag k="addr:street" v="Powder Spring Road"/>
    <tag k="addr:state" v="VT"/>
    <tag k="ref:vcgi:esiteid" v="260438"/>
  </node>
  <node id="-282" visible="true" lat="44.126190911002" lon="-72.242667669669">
    <tag k="addr:city" v="Topsham"/>
    <tag k="addr:housenumber" v="3"/>
    <tag k="addr:street" v="McTaggart Road"/>
    <tag k="addr:state" v="VT"/>
    <tag k="ref:vcgi:esiteid" v="260440"/>
  </node>
  <node id="-288" visible="true" lat="44.125693447522" lon="-72.202759262986">
    <tag k="addr:city" v="Topsham"/>
    <tag k="addr:housenumber" v="207"/>
    <tag k="addr:street" v="Lime Kiln Road"/>
    <tag k="addr:state" v="VT"/>
    <tag k="ref:vcgi:esiteid" v="260446"/>
  </node>
  <node id="-291" visible="true" lat="44.125338679506" lon="-72.201797957529">
    <tag k="addr:city" v="Topsham"/>
    <tag k="addr:housenumber" v="206"/>
    <tag k="addr:street" v="Lime Kiln Road"/>
    <tag k="addr:state" v="VT"/>
    <tag k="ref:vcgi:esiteid" v="260449"/>
  </node>
  <node id="-297" visible="true" lat="44.124608416845" lon="-72.240609307964">
    <tag k="addr:city" v="Topsham"/>
    <tag k="addr:housenumber" v="439"/>
    <tag k="addr:street" v="Willey Hill Road"/>
    <tag k="addr:state" v="VT"/>
    <tag k="ref:vcgi:esiteid" v="260455"/>
  </node>
  <node id="-298" visible="true" lat="44.124505420145" lon="-72.239823480631">
    <tag k="addr:city" v="Topsham"/>
    <tag k="addr:housenumber" v="443"/>
    <tag k="addr:street" v="Willey Hill Road"/>
    <tag k="addr:state" v="VT"/>
    <tag k="ref:vcgi:esiteid" v="260456"/>
  </node>
  <node id="-300" visible="true" lat="44.124524765154" lon="-72.236369891627">
    <tag k="addr:city" v="Topsham"/>
    <tag k="addr:housenumber" v="17"/>
    <tag k="addr:street" v="Walter Sweet Road"/>
    <tag k="addr:state" v="VT"/>
    <tag k="ref:vcgi:esiteid" v="260458"/>
  </node>
  <node id="-301" visible="true" lat="44.124253165011" lon="-72.235749348759">
    <tag k="addr:city" v="Topsham"/>
    <tag k="addr:housenumber" v="16"/>
    <tag k="addr:street" v="Walter Sweet Road"/>
    <tag k="addr:state" v="VT"/>
    <tag k="ref:vcgi:esiteid" v="260459"/>
  </node>
  <node id="-304" visible="true" lat="44.124095088924" lon="-72.203110215753">
    <tag k="addr:city" v="Topsham"/>
    <tag k="addr:housenumber" v="199"/>
    <tag k="addr:street" v="Lime Kiln Road"/>
    <tag k="addr:state" v="VT"/>
    <tag k="ref:vcgi:esiteid" v="260462"/>
  </node>
  <node id="-305" visible="true" lat="44.123673332805" lon="-72.230622394852">
    <tag k="addr:city" v="Topsham"/>
    <tag k="addr:housenumber" v="13"/>
    <tag k="addr:street" v="Galusha Hill Road"/>
    <tag k="addr:state" v="VT"/>
    <tag k="ref:vcgi:esiteid" v="260463"/>
  </node>
  <node id="-306" visible="true" lat="44.123581778726" lon="-72.238061056769">
    <tag k="addr:city" v="Topsham"/>
    <tag k="addr:housenumber" v="36"/>
    <tag k="addr:street" v="Powder Spring Road"/>
    <tag k="addr:state" v="VT"/>
    <tag k="ref:vcgi:esiteid" v="260464"/>
  </node>
  <node id="-307" visible="true" lat="44.123040396291" lon="-72.238241375669">
    <tag k="addr:city" v="Topsham"/>
    <tag k="addr:housenumber" v="31"/>
    <tag k="addr:street" v="Powder Spring Road"/>
    <tag k="addr:state" v="VT"/>
    <tag k="ref:vcgi:esiteid" v="260465"/>
  </node>
  <node id="-308" visible="true" lat="44.12266566716" lon="-72.192778404357">
    <tag k="addr:city" v="Topsham"/>
    <tag k="addr:housenumber" v="61"/>
    <tag k="addr:street" v="Crosby Road"/>
    <tag k="addr:state" v="VT"/>
    <tag k="ref:vcgi:esiteid" v="260466"/>
  </node>
  <node id="-309" visible="true" lat="44.122802878699" lon="-72.237278596475">
    <tag k="addr:city" v="Topsham"/>
    <tag k="addr:housenumber" v="28"/>
    <tag k="addr:street" v="Powder Spring Road"/>
    <tag k="addr:state" v="VT"/>
    <tag k="ref:vcgi:esiteid" v="260467"/>
  </node>
  <node id="-310" visible="true" lat="44.122483629981" lon="-72.237496514236">
    <tag k="addr:city" v="Topsham"/>
    <tag k="addr:housenumber" v="27"/>
    <tag k="addr:street" v="Powder Spring Road"/>
    <tag k="addr:state" v="VT"/>
    <tag k="ref:vcgi:esiteid" v="260468"/>
  </node>
  <node id="-311" visible="true" lat="44.122389832992" lon="-72.236657847394">
    <tag k="addr:city" v="Topsham"/>
    <tag k="addr:housenumber" v="24"/>
    <tag k="addr:street" v="Powder Spring Road"/>
    <tag k="addr:state" v="VT"/>
    <tag k="ref:vcgi:esiteid" v="260469"/>
  </node>
  <node id="-312" visible="true" lat="44.122279293041" lon="-72.211525438503">
    <tag k="addr:city" v="Topsham"/>
    <tag k="addr:housenumber" v="131"/>
    <tag k="addr:street" v="Lime Kiln Road"/>
    <tag k="addr:state" v="VT"/>
    <tag k="ref:vcgi:esiteid" v="260470"/>
  </node>
  <node id="-313" visible="true" lat="44.122234433216" lon="-72.231496281914">
    <tag k="addr:city" v="Topsham"/>
    <tag k="addr:housenumber" v="10"/>
    <tag k="addr:street" v="Galusha Hill Road"/>
    <tag k="addr:state" v="VT"/>
    <tag k="ref:vcgi:esiteid" v="260471"/>
  </node>
  <node id="-314" visible="true" lat="44.122147259161" lon="-72.23229029115">
    <tag k="addr:city" v="Topsham"/>
    <tag k="addr:housenumber" v="7"/>
    <tag k="addr:street" v="Galusha Hill Road"/>
    <tag k="addr:state" v="VT"/>
    <tag k="ref:vcgi:esiteid" v="260472"/>
  </node>
  <node id="-315" visible="true" lat="44.121871119851" lon="-72.201080795473">
    <tag k="addr:city" v="Topsham"/>
    <tag k="addr:housenumber" v="9"/>
    <tag k="addr:street" v="Crosby Road"/>
    <tag k="addr:state" v="VT"/>
    <tag k="ref:vcgi:esiteid" v="260473"/>
  </node>
  <node id="-316" visible="true" lat="44.121994066584" lon="-72.231905974758">
    <tag k="addr:city" v="Topsham"/>
    <tag k="addr:housenumber" v="6"/>
    <tag k="addr:street" v="Galusha Hill Road"/>
    <tag k="addr:state" v="VT"/>
    <tag k="ref:vcgi:esiteid" v="260474"/>
  </node>
  <node id="-317" visible="true" lat="44.121985675231" lon="-72.234054081218">
    <tag k="addr:city" v="Topsham"/>
    <tag k="addr:housenumber" v="5"/>
    <tag k="addr:street" v="Schoolhouse Road"/>
    <tag k="addr:state" v="VT"/>
    <tag k="ref:vcgi:esiteid" v="260475"/>
  </node>
  <node id="-318" visible="true" lat="44.121851043509" lon="-72.233664168117">
    <tag k="addr:city" v="Topsham"/>
    <tag k="addr:housenumber" v="4"/>
    <tag k="addr:street" v="Schoolhouse Road"/>
    <tag k="addr:state" v="VT"/>
    <tag k="ref:vcgi:esiteid" v="260476"/>
  </node>
  <node id="-319" visible="true" lat="44.121572470822" lon="-72.232035304762">
    <tag k="addr:city" v="Topsham"/>
    <tag k="addr:housenumber" v="5"/>
    <tag k="addr:street" v="Harts Road"/>
    <tag k="addr:state" v="VT"/>
    <tag k="ref:vcgi:esiteid" v="260477"/>
  </node>
  <node id="-320" visible="true" lat="44.121556174178" lon="-72.233803852132">
    <tag k="addr:city" v="Topsham"/>
    <tag k="addr:housenumber" v="3"/>
    <tag k="addr:street" v="Schoolhouse Road"/>
    <tag k="addr:state" v="VT"/>
    <tag k="ref:vcgi:esiteid" v="260478"/>
  </node>
  <node id="-321" visible="true" lat="44.121552358846" lon="-72.234727009395">
    <tag k="addr:city" v="Topsham"/>
    <tag k="addr:housenumber" v="10"/>
    <tag k="addr:street" v="Powder Spring Road"/>
    <tag k="addr:state" v="VT"/>
    <tag k="ref:vcgi:esiteid" v="260479"/>
  </node>
  <node id="-322" visible="true" lat="44.121443376756" lon="-72.233278664846">
    <tag k="addr:city" v="Topsham"/>
    <tag k="addr:housenumber" v="2"/>
    <tag k="addr:street" v="Schoolhouse Road"/>
    <tag k="addr:state" v="VT"/>
    <tag k="ref:vcgi:esiteid" v="260480"/>
  </node>
  <node id="-323" visible="true" lat="44.12154912162" lon="-72.237067734151">
    <tag k="addr:city" v="Topsham"/>
    <tag k="addr:housenumber" v="31"/>
    <tag k="addr:street" v="Old County Road"/>
    <tag k="addr:state" v="VT"/>
    <tag k="ref:vcgi:esiteid" v="260481"/>
  </node>
  <node id="-324" visible="true" lat="44.121602087675" lon="-72.235448197023">
    <tag k="addr:city" v="Topsham"/>
    <tag k="addr:housenumber" v="16"/>
    <tag k="addr:street" v="Powder Spring Road"/>
    <tag k="addr:state" v="VT"/>
    <tag k="ref:vcgi:esiteid" v="260482"/>
  </node>
  <node id="-326" visible="true" lat="44.121394793927" lon="-72.233619790779">
    <tag k="addr:city" v="Topsham"/>
    <tag k="addr:housenumber" v="1"/>
    <tag k="addr:street" v="Schoolhouse Road"/>
    <tag k="addr:state" v="VT"/>
    <tag k="ref:vcgi:esiteid" v="260484"/>
  </node>
  <node id="-327" visible="true" lat="44.121450614932" lon="-72.231132812059">
    <tag k="addr:city" v="Topsham"/>
    <tag k="addr:housenumber" v="9"/>
    <tag k="addr:street" v="Harts Road"/>
    <tag k="addr:state" v="VT"/>
    <tag k="ref:vcgi:esiteid" v="260485"/>
  </node>
  <node id="-328" visible="true" lat="44.121477022414" lon="-72.235110714599">
    <tag k="addr:city" v="Topsham"/>
    <tag k="addr:housenumber" v="14"/>
    <tag k="addr:street" v="Powder Spring Road"/>
    <tag k="addr:state" v="VT"/>
    <tag k="ref:vcgi:esiteid" v="260486"/>
  </node>
  <node id="-329" visible="true" lat="44.121260769628" lon="-72.209541795514">
    <tag k="addr:city" v="Topsham"/>
    <tag k="addr:housenumber" v="140"/>
    <tag k="addr:street" v="Lime Kiln Road"/>
    <tag k="addr:state" v="VT"/>
    <tag k="ref:vcgi:esiteid" v="260487"/>
  </node>
  <node id="-331" visible="true" lat="44.121143794724" lon="-72.230763263847">
    <tag k="addr:city" v="Topsham"/>
    <tag k="addr:housenumber" v="12"/>
    <tag k="addr:street" v="Harts Road"/>
    <tag k="addr:state" v="VT"/>
    <tag k="ref:vcgi:esiteid" v="260490"/>
  </node>
  <node id="-332" visible="true" lat="44.121161527002" lon="-72.235297091864">
    <tag k="addr:city" v="Topsham"/>
    <tag k="addr:housenumber" v="13"/>
    <tag k="addr:street" v="Powder Spring Road"/>
    <tag k="addr:state" v="VT"/>
    <tag k="ref:vcgi:esiteid" v="260491"/>
  </node>
  <node id="-333" visible="true" lat="44.121136555997" lon="-72.233063799514">
    <tag k="addr:city" v="Topsham"/>
    <tag k="addr:housenumber" v="375"/>
    <tag k="addr:street" v="Topsham Corinth Road"/>
    <tag k="addr:state" v="VT"/>
    <tag k="ref:vcgi:esiteid" v="260492"/>
  </node>
  <node id="-334" visible="true" lat="44.121117484098" lon="-72.230309587769">
    <tag k="addr:city" v="Topsham"/>
    <tag k="addr:housenumber" v="14"/>
    <tag k="addr:street" v="Harts Road"/>
    <tag k="addr:state" v="VT"/>
    <tag k="ref:vcgi:esiteid" v="260493"/>
  </node>
  <node id="-336" visible="true" lat="44.121079337629" lon="-72.235947714478">
    <tag k="addr:city" v="Topsham"/>
    <tag k="addr:housenumber" v="17"/>
    <tag k="addr:street" v="Powder Spring Road"/>
    <tag k="addr:state" v="VT"/>
    <tag k="ref:vcgi:esiteid" v="260495"/>
  </node>
  <node id="-337" visible="true" lat="44.120998639346" lon="-72.234229621698">
    <tag k="addr:city" v="Topsham"/>
    <tag k="addr:housenumber" v="3"/>
    <tag k="addr:street" v="Welch Road"/>
    <tag k="addr:state" v="VT"/>
    <tag k="ref:vcgi:esiteid" v="260496"/>
  </node>
  <node id="-339" visible="true" lat="44.121063110286" lon="-72.234597457008">
    <tag k="addr:city" v="Topsham"/>
    <tag k="addr:housenumber" v="4"/>
    <tag k="addr:street" v="Welch Road"/>
    <tag k="addr:state" v="VT"/>
    <tag k="ref:vcgi:esiteid" v="260498"/>
  </node>
  <node id="-340" visible="true" lat="44.120803915474" lon="-72.232513117516">
    <tag k="addr:city" v="Topsham"/>
    <tag k="addr:housenumber" v="372"/>
    <tag k="addr:street" v="Topsham Corinth Road"/>
    <tag k="addr:state" v="VT"/>
    <tag k="ref:vcgi:esiteid" v="260499"/>
  </node>
  <node id="-342" visible="true" lat="44.120805876891" lon="-72.232982256587">
    <tag k="addr:city" v="Topsham"/>
    <tag k="addr:housenumber" v="371"/>
    <tag k="addr:street" v="Topsham Corinth Road"/>
    <tag k="addr:state" v="VT"/>
    <tag k="ref:vcgi:esiteid" v="260502"/>
  </node>
  <node id="-344" visible="true" lat="44.120583426913" lon="-72.232956990576">
    <tag k="addr:city" v="Topsham"/>
    <tag k="addr:housenumber" v="369"/>
    <tag k="addr:street" v="Topsham Corinth Road"/>
    <tag k="addr:state" v="VT"/>
    <tag k="ref:vcgi:esiteid" v="260504"/>
  </node>
  <node id="-345" visible="true" lat="44.120558865122" lon="-72.22956896251">
    <tag k="addr:city" v="Topsham"/>
    <tag k="addr:housenumber" v="20"/>
    <tag k="addr:street" v="Harts Road"/>
    <tag k="addr:state" v="VT"/>
    <tag k="ref:vcgi:esiteid" v="260505"/>
  </node>
  <node id="-346" visible="true" lat="44.120198334077" lon="-72.232547946887">
    <tag k="addr:city" v="Topsham"/>
    <tag k="addr:housenumber" v="368"/>
    <tag k="addr:street" v="Topsham Corinth Road"/>
    <tag k="addr:state" v="VT"/>
    <tag k="ref:vcgi:esiteid" v="260506"/>
  </node>
  <node id="-351" visible="true" lat="44.119749854133" lon="-72.202684165887">
    <tag k="addr:city" v="Topsham"/>
    <tag k="addr:housenumber" v="10"/>
    <tag k="addr:street" v="Crosby Road"/>
    <tag k="addr:state" v="VT"/>
    <tag k="ref:vcgi:esiteid" v="260511"/>
  </node>
  <node id="-353" visible="true" lat="44.119675528438" lon="-72.232545000532">
    <tag k="addr:city" v="Topsham"/>
    <tag k="addr:housenumber" v="366"/>
    <tag k="addr:street" v="Topsham Corinth Road"/>
    <tag k="addr:state" v="VT"/>
    <tag k="ref:vcgi:esiteid" v="260513"/>
  </node>
  <node id="-354" visible="true" lat="44.11978991246" lon="-72.208423509488">
    <tag k="addr:city" v="Topsham"/>
    <tag k="addr:housenumber" v="154"/>
    <tag k="addr:street" v="Lime Kiln Road"/>
    <tag k="addr:state" v="VT"/>
    <tag k="ref:vcgi:esiteid" v="260514"/>
  </node>
  <node id="-357" visible="true" lat="44.118944331072" lon="-72.233225992646">
    <tag k="addr:city" v="Topsham"/>
    <tag k="addr:housenumber" v="363"/>
    <tag k="addr:street" v="Topsham Corinth Road"/>
    <tag k="addr:state" v="VT"/>
    <tag k="ref:vcgi:esiteid" v="260517"/>
  </node>
  <node id="-386" visible="true" lat="44.11433855905" lon="-72.222225853104">
    <tag k="addr:city" v="Topsham"/>
    <tag k="addr:housenumber" v="25"/>
    <tag k="addr:street" v="Miller Drive"/>
    <tag k="addr:state" v="VT"/>
    <tag k="ref:vcgi:esiteid" v="260546"/>
  </node>
  <node id="-397" visible="true" lat="44.115509861766" lon="-72.225981042238">
    <tag k="addr:city" v="Topsham"/>
    <tag k="addr:housenumber" v="45"/>
    <tag k="addr:street" v="Lime Kiln Road"/>
    <tag k="addr:state" v="VT"/>
    <tag k="ref:vcgi:esiteid" v="260558"/>
  </node>
  <node id="-403" visible="true" lat="44.114603039827" lon="-72.232664390654">
    <tag k="addr:city" v="Topsham"/>
    <tag k="addr:housenumber" v="330"/>
    <tag k="addr:street" v="Topsham Corinth Road"/>
    <tag k="addr:state" v="VT"/>
    <tag k="ref:vcgi:esiteid" v="260564"/>
  </node>
  <node id="-406" visible="true" lat="44.114115840377" lon="-72.228928093303">
    <tag k="addr:city" v="Topsham"/>
    <tag k="addr:housenumber" v="23"/>
    <tag k="addr:street" v="Lime Kiln Road"/>
    <tag k="addr:state" v="VT"/>
    <tag k="ref:vcgi:esiteid" v="260567"/>
  </node>
  <node id="-409" visible="true" lat="44.113783961142" lon="-72.226219657202">
    <tag k="addr:city" v="Topsham"/>
    <tag k="addr:housenumber" v="52"/>
    <tag k="addr:street" v="Miller Drive"/>
    <tag k="addr:state" v="VT"/>
    <tag k="ref:vcgi:esiteid" v="260570"/>
  </node>
  <node id="-411" visible="true" lat="44.11372826578" lon="-72.232722086877">
    <tag k="addr:city" v="Topsham"/>
    <tag k="addr:housenumber" v="3"/>
    <tag k="addr:street" v="Lime Kiln Road"/>
    <tag k="addr:state" v="VT"/>
    <tag k="ref:vcgi:esiteid" v="260572"/>
  </node>
  <node id="-412" visible="true" lat="44.113587615528" lon="-72.231914171627">
    <tag k="addr:city" v="Topsham"/>
    <tag k="addr:housenumber" v="7"/>
    <tag k="addr:street" v="Lime Kiln Road"/>
    <tag k="addr:state" v="VT"/>
    <tag k="ref:vcgi:esiteid" v="260573"/>
  </node>
  <node id="-414" visible="true" lat="44.113131646991" lon="-72.223213675268">
    <tag k="addr:city" v="Topsham"/>
    <tag k="addr:housenumber" v="41"/>
    <tag k="addr:street" v="Miller Drive"/>
    <tag k="addr:state" v="VT"/>
    <tag k="ref:vcgi:esiteid" v="260575"/>
  </node>
  <node id="-416" visible="true" lat="44.113040170984" lon="-72.234620616896">
    <tag k="addr:city" v="Topsham"/>
    <tag k="addr:housenumber" v="315"/>
    <tag k="addr:street" v="Topsham Corinth Road"/>
    <tag k="addr:state" v="VT"/>
    <tag k="ref:vcgi:esiteid" v="260577"/>
  </node>
  <node id="-417" visible="true" lat="44.112918025996" lon="-72.231552605098">
    <tag k="addr:city" v="Topsham"/>
    <tag k="addr:housenumber" v="12"/>
    <tag k="addr:street" v="Lime Kiln Road"/>
    <tag k="addr:state" v="VT"/>
    <tag k="ref:vcgi:esiteid" v="260578"/>
  </node>
  <node id="-447" visible="true" lat="44.106118091343" lon="-72.235398394836">
    <tag k="addr:city" v="Topsham"/>
    <tag k="addr:housenumber" v="16"/>
    <tag k="addr:street" v="Harold White Road"/>
    <tag k="addr:state" v="VT"/>
    <tag k="ref:vcgi:esiteid" v="260609"/>
  </node>
  <node id="-448" visible="true" lat="44.105851062168" lon="-72.232277971171">
    <tag k="addr:city" v="Topsham"/>
    <tag k="addr:housenumber" v="268"/>
    <tag k="addr:street" v="Topsham Corinth Road"/>
    <tag k="addr:state" v="VT"/>
    <tag k="ref:vcgi:esiteid" v="260610"/>
  </node>
  <node id="-449" visible="true" lat="44.105240992742" lon="-72.206925712573">
    <tag k="addr:city" v="Topsham"/>
    <tag k="addr:housenumber" v="102"/>
    <tag k="addr:street" v="Swamp Road"/>
    <tag k="addr:state" v="VT"/>
    <tag k="ref:vcgi:esiteid" v="260611"/>
  </node>
  <node id="-452" visible="true" lat="44.104977496887" lon="-72.231789691465">
    <tag k="addr:city" v="Topsham"/>
    <tag k="addr:housenumber" v="262"/>
    <tag k="addr:street" v="Topsham Corinth Road"/>
    <tag k="addr:state" v="VT"/>
    <tag k="ref:vcgi:esiteid" v="260614"/>
  </node>
  <node id="-458" visible="true" lat="44.102566492032" lon="-72.230028009475">
    <tag k="addr:city" v="Topsham"/>
    <tag k="addr:housenumber" v="242"/>
    <tag k="addr:street" v="Topsham Corinth Road"/>
    <tag k="addr:state" v="VT"/>
    <tag k="ref:vcgi:esiteid" v="260620"/>
  </node>
  <node id="-461" visible="true" lat="44.101719374799" lon="-72.21260636762">
    <tag k="addr:city" v="Topsham"/>
    <tag k="addr:housenumber" v="3"/>
    <tag k="addr:street" v="Powers Road"/>
    <tag k="addr:state" v="VT"/>
    <tag k="ref:vcgi:esiteid" v="260623"/>
  </node>
  <node id="-462" visible="true" lat="44.101601637456" lon="-72.229335811645">
    <tag k="addr:city" v="Topsham"/>
    <tag k="addr:housenumber" v="235"/>
    <tag k="addr:street" v="Topsham Corinth Road"/>
    <tag k="addr:state" v="VT"/>
    <tag k="ref:vcgi:esiteid" v="260624"/>
  </node>
  <node id="-465" visible="true" lat="44.101485826961" lon="-72.229170465396">
    <tag k="addr:city" v="Topsham"/>
    <tag k="addr:housenumber" v="233"/>
    <tag k="addr:street" v="Topsham Corinth Road"/>
    <tag k="addr:state" v="VT"/>
    <tag k="ref:vcgi:esiteid" v="260627"/>
  </node>
  <node id="-468" visible="true" lat="44.100790610975" lon="-72.211443731961">
    <tag k="addr:city" v="Topsham"/>
    <tag k="addr:housenumber" v="13"/>
    <tag k="addr:street" v="Powers Road"/>
    <tag k="addr:state" v="VT"/>
    <tag k="ref:vcgi:esiteid" v="260630"/>
  </node>
  <node id="-471" visible="true" lat="44.100474479865" lon="-72.212334156588">
    <tag k="addr:city" v="Topsham"/>
    <tag k="addr:housenumber" v="10"/>
    <tag k="addr:street" v="Powers Road"/>
    <tag k="addr:state" v="VT"/>
    <tag k="ref:vcgi:esiteid" v="260633"/>
  </node>
  <node id="-481" visible="true" lat="44.099642874711" lon="-72.217979909088">
    <tag k="addr:city" v="Topsham"/>
    <tag k="addr:housenumber" v="35"/>
    <tag k="addr:street" v="Swamp Road"/>
    <tag k="addr:state" v="VT"/>
    <tag k="ref:vcgi:esiteid" v="260643"/>
  </node>
  <node id="-484" visible="true" lat="44.099520804409" lon="-72.219261647991">
    <tag k="addr:city" v="Topsham"/>
    <tag k="addr:housenumber" v="25"/>
    <tag k="addr:street" v="Swamp Road"/>
    <tag k="addr:state" v="VT"/>
    <tag k="ref:vcgi:esiteid" v="260646"/>
  </node>
  <node id="-493" visible="true" lat="44.099234703327" lon="-72.221321585868">
    <tag k="addr:city" v="Topsham"/>
    <tag k="addr:housenumber" v="17"/>
    <tag k="addr:street" v="Swamp Road"/>
    <tag k="addr:state" v="VT"/>
    <tag k="ref:vcgi:esiteid" v="260655"/>
  </node>
  <node id="-494" visible="true" lat="44.099070671445" lon="-72.218803885191">
    <tag k="addr:city" v="Topsham"/>
    <tag k="addr:housenumber" v="30"/>
    <tag k="addr:street" v="Swamp Road"/>
    <tag k="addr:state" v="VT"/>
    <tag k="ref:vcgi:esiteid" v="260656"/>
  </node>
  <node id="-497" visible="true" lat="44.098876121647" lon="-72.22383165679">
    <tag k="addr:city" v="Topsham"/>
    <tag k="addr:housenumber" v="4"/>
    <tag k="addr:street" v="Swamp Road"/>
    <tag k="addr:state" v="VT"/>
    <tag k="ref:vcgi:esiteid" v="260659"/>
  </node>
  <node id="-502" visible="true" lat="44.098297961551" lon="-72.22549543631">
    <tag k="addr:city" v="Topsham"/>
    <tag k="addr:housenumber" v="8"/>
    <tag k="addr:street" v="Colby Road"/>
    <tag k="addr:state" v="VT"/>
    <tag k="ref:vcgi:esiteid" v="260664"/>
  </node>
  <node id="-506" visible="true" lat="44.098042465266" lon="-72.200300467161">
    <tag k="addr:city" v="Topsham"/>
    <tag k="addr:housenumber" v="83"/>
    <tag k="addr:street" v="Powers Road"/>
    <tag k="addr:state" v="VT"/>
    <tag k="ref:vcgi:esiteid" v="260668"/>
  </node>
  <node id="-511" visible="true" lat="44.097638502558" lon="-72.225304735855">
    <tag k="addr:city" v="Topsham"/>
    <tag k="addr:housenumber" v="13"/>
    <tag k="addr:street" v="Colby Road"/>
    <tag k="addr:state" v="VT"/>
    <tag k="ref:vcgi:esiteid" v="260673"/>
  </node>
  <node id="-516" visible="true" lat="44.097210772194" lon="-72.225945571346">
    <tag k="addr:city" v="Topsham"/>
    <tag k="addr:housenumber" v="16"/>
    <tag k="addr:street" v="Colby Road"/>
    <tag k="addr:state" v="VT"/>
    <tag k="ref:vcgi:esiteid" v="260678"/>
  </node>
  <node id="-519" visible="true" lat="44.096785666228" lon="-72.203140734219">
    <tag k="addr:city" v="Topsham"/>
    <tag k="addr:housenumber" v="72"/>
    <tag k="addr:street" v="Powers Road"/>
    <tag k="addr:state" v="VT"/>
    <tag k="ref:vcgi:esiteid" v="260681"/>
  </node>
  <node id="-659" visible="true" lat="44.121572762569" lon="-72.232825854176">
    <tag k="addr:city" v="Topsham"/>
    <tag k="addr:housenumber" v="1"/>
    <tag k="addr:street" v="Galusha Hill Road"/>
    <tag k="addr:state" v="VT"/>
    <tag k="ref:vcgi:esiteid" v="260825"/>
  </node>
  <node id="-660" visible="true" lat="44.124310386215" lon="-72.238366232205">
    <tag k="addr:city" v="Topsham"/>
    <tag k="addr:housenumber" v="42"/>
    <tag k="addr:street" v="Powder Spring Road"/>
    <tag k="addr:state" v="VT"/>
    <tag k="ref:vcgi:esiteid" v="260826"/>
  </node>
  <node id="-666" visible="true" lat="44.079645632871" lon="-72.261272106539">
    <tag k="addr:city" v="East Corinth"/>
    <tag k="addr:housenumber" v="6"/>
    <tag k="addr:street" v="Waits River Valley School Road"/>
    <tag k="addr:state" v="VT"/>
    <tag k="ref:vcgi:esiteid" v="260832"/>
  </node>
  <node id="-693" visible="true" lat="44.119267840001" lon="-72.233079093061">
    <tag k="addr:city" v="Topsham"/>
    <tag k="addr:housenumber" v="365"/>
    <tag k="addr:street" v="Topsham Corinth Road"/>
    <tag k="addr:state" v="VT"/>
    <tag k="ref:vcgi:esiteid" v="260862"/>
  </node>
  <node id="-696" visible="true" lat="44.120100886622" lon="-72.213963875831">
    <tag k="addr:city" v="Topsham"/>
    <tag k="addr:housenumber" v="4"/>
    <tag k="addr:street" v="Bagley Road"/>
    <tag k="addr:state" v="VT"/>
    <tag k="ref:vcgi:esiteid" v="260865"/>
  </node>
  <node id="-698" visible="true" lat="44.101943138779" lon="-72.213081836122">
    <tag k="addr:city" v="Topsham"/>
    <tag k="addr:housenumber" v="63"/>
    <tag k="addr:street" v="Swamp Road"/>
    <tag k="addr:state" v="VT"/>
    <tag k="ref:vcgi:esiteid" v="260868"/>
  </node>
  <node id="-722" visible="true" lat="44.11905205881" lon="-72.22088670862">
    <tag k="addr:city" v="Topsham"/>
    <tag k="addr:housenumber" v="77"/>
    <tag k="addr:street" v="Lime Kiln Road"/>
    <tag k="addr:state" v="VT"/>
    <tag k="ref:vcgi:esiteid" v="260894"/>
  </node>
  <node id="-724" visible="true" lat="44.121037699204" lon="-72.232049394739">
    <tag k="addr:city" v="Topsham"/>
    <tag k="addr:housenumber" v="4"/>
    <tag k="addr:street" v="Harts Road"/>
    <tag k="addr:state" v="VT"/>
    <tag k="ref:vcgi:esiteid" v="260896"/>
  </node>
  <node id="-727" visible="true" lat="44.123350007878" lon="-72.237589941672">
    <tag k="addr:city" v="Topsham"/>
    <tag k="addr:housenumber" v="34"/>
    <tag k="addr:street" v="Powder Spring Road"/>
    <tag k="addr:state" v="VT"/>
    <tag k="ref:vcgi:esiteid" v="260900"/>
  </node>
  <node id="-756" visible="true" lat="44.103846271334" lon="-72.239078473524">
    <tag k="addr:city" v="Topsham"/>
    <tag k="addr:housenumber" v="44"/>
    <tag k="addr:street" v="Harold White Road"/>
    <tag k="addr:state" v="VT"/>
    <tag k="ref:vcgi:esiteid" v="260931"/>
  </node>
  <node id="-766" visible="true" lat="44.122167442237" lon="-72.19752171401">
    <tag k="addr:city" v="Topsham"/>
    <tag k="addr:housenumber" v="37"/>
    <tag k="addr:street" v="Crosby Road"/>
    <tag k="addr:state" v="VT"/>
    <tag k="ref:vcgi:esiteid" v="260942"/>
  </node>
  <node id="-769" visible="true" lat="44.124871138601" lon="-72.238753645748">
    <tag k="addr:city" v="Topsham"/>
    <tag k="addr:housenumber" v="44"/>
    <tag k="addr:street" v="Powder Spring Road"/>
    <tag k="addr:state" v="VT"/>
    <tag k="ref:vcgi:esiteid" v="260945"/>
  </node>
  <node id="-780" visible="true" lat="44.098382976543" lon="-72.220533611163">
    <tag k="addr:city" v="Topsham"/>
    <tag k="addr:housenumber" v="18"/>
    <tag k="addr:street" v="Swamp Road"/>
    <tag k="addr:state" v="VT"/>
    <tag k="ref:vcgi:esiteid" v="260956"/>
  </node>
  <node id="-828" visible="true" lat="44.097942528638" lon="-72.221343294745">
    <tag k="addr:city" v="Topsham"/>
    <tag k="addr:housenumber" v="12"/>
    <tag k="addr:street" v="Swamp Road"/>
    <tag k="addr:state" v="VT"/>
    <tag k="ref:vcgi:esiteid" v="446566"/>
  </node>
  <node id="-836" visible="true" lat="44.115593857837" lon="-72.22546724495">
    <tag k="addr:city" v="Topsham"/>
    <tag k="addr:housenumber" v="47"/>
    <tag k="addr:street" v="Lime Kiln Road"/>
    <tag k="addr:state" v="VT"/>
    <tag k="ref:vcgi:esiteid" v="454305"/>
  </node>
</osm>
