<?xml version="1.0" encoding="UTF-8"?>
<osm version="0.6" generator="JOSM" upload="false">
  <node id="-209" visible="true" lat="43.08829475556" lon="-72.6433582554">
    <tag k="addr:city" v="Townshend"/>
    <tag k="addr:housenumber" v="3585"/>
    <tag k="addr:street" v="Grafton Road"/>
    <tag k="addr:state" v="VT"/>
    <tag k="ref:vcgi:esiteid" v="261068"/>
  </node>
  <node id="-210" visible="true" lat="43.08813970895" lon="-72.643120968428">
    <tag k="addr:city" v="Townshend"/>
    <tag k="addr:housenumber" v="3533"/>
    <tag k="addr:street" v="Grafton Road"/>
    <tag k="addr:state" v="VT"/>
    <tag k="ref:vcgi:esiteid" v="261069"/>
  </node>
  <node id="-235" visible="true" lat="43.084890669588" lon="-72.6390673388">
    <tag k="addr:city" v="Townshend"/>
    <tag k="addr:housenumber" v="3222"/>
    <tag k="addr:street" v="Grafton Road"/>
    <tag k="addr:state" v="VT"/>
    <tag k="ref:vcgi:esiteid" v="261094"/>
  </node>
  <node id="-261" visible="true" lat="43.08434539136" lon="-72.638486041934">
    <tag k="addr:city" v="Townshend"/>
    <tag k="addr:housenumber" v="3188"/>
    <tag k="addr:street" v="Grafton Road"/>
    <tag k="addr:state" v="VT"/>
    <tag k="ref:vcgi:esiteid" v="261120"/>
  </node>
  <node id="-271" visible="true" lat="43.084156685039" lon="-72.640051605897">
    <tag k="addr:city" v="Townshend"/>
    <tag k="addr:housenumber" v="3175"/>
    <tag k="addr:street" v="Grafton Road"/>
    <tag k="addr:state" v="VT"/>
    <tag k="ref:vcgi:esiteid" v="261131"/>
  </node>
  <node id="-277" visible="true" lat="43.083773305067" lon="-72.639321075858">
    <tag k="addr:city" v="Townshend"/>
    <tag k="addr:housenumber" v="3156"/>
    <tag k="addr:street" v="Grafton Road"/>
    <tag k="addr:state" v="VT"/>
    <tag k="ref:vcgi:esiteid" v="261137"/>
  </node>
  <node id="-284" visible="true" lat="43.082898312445" lon="-72.639779291523">
    <tag k="addr:city" v="Townshend"/>
    <tag k="addr:housenumber" v="3105"/>
    <tag k="addr:street" v="Grafton Road"/>
    <tag k="addr:state" v="VT"/>
    <tag k="ref:vcgi:esiteid" v="261144"/>
  </node>
  <node id="-294" visible="true" lat="43.081578733925" lon="-72.642722426922">
    <tag k="addr:city" v="Townshend"/>
    <tag k="addr:housenumber" v="59"/>
    <tag k="addr:street" v="Greenwood Road"/>
    <tag k="addr:state" v="VT"/>
    <tag k="ref:vcgi:esiteid" v="261155"/>
  </node>
  <node id="-301" visible="true" lat="43.0810931849" lon="-72.641776056165">
    <tag k="addr:city" v="Townshend"/>
    <tag k="addr:housenumber" v="2919"/>
    <tag k="addr:street" v="Grafton Road"/>
    <tag k="addr:state" v="VT"/>
    <tag k="ref:vcgi:esiteid" v="261162"/>
  </node>
  <node id="-304" visible="true" lat="43.080242491245" lon="-72.641964477147">
    <tag k="addr:city" v="Townshend"/>
    <tag k="addr:housenumber" v="2870"/>
    <tag k="addr:street" v="Grafton Road"/>
    <tag k="addr:state" v="VT"/>
    <tag k="ref:vcgi:esiteid" v="261165"/>
  </node>
  <node id="-305" visible="true" lat="43.079931752453" lon="-72.642358485237">
    <tag k="addr:city" v="Townshend"/>
    <tag k="addr:housenumber" v="2850"/>
    <tag k="addr:street" v="Grafton Road"/>
    <tag k="addr:state" v="VT"/>
    <tag k="ref:vcgi:esiteid" v="261166"/>
  </node>
  <node id="-310" visible="true" lat="43.07943306927" lon="-72.643077930965">
    <tag k="addr:city" v="Townshend"/>
    <tag k="addr:housenumber" v="2800"/>
    <tag k="addr:street" v="Grafton Road"/>
    <tag k="addr:state" v="VT"/>
    <tag k="ref:vcgi:esiteid" v="261171"/>
  </node>
  <node id="-314" visible="true" lat="43.078975233259" lon="-72.643523951667">
    <tag k="addr:city" v="Townshend"/>
    <tag k="addr:housenumber" v="2776"/>
    <tag k="addr:street" v="Grafton Road"/>
    <tag k="addr:state" v="VT"/>
    <tag k="ref:vcgi:esiteid" v="261175"/>
  </node>
  <node id="-318" visible="true" lat="43.078492862007" lon="-72.645576836535">
    <tag k="addr:city" v="Townshend"/>
    <tag k="addr:housenumber" v="2643"/>
    <tag k="addr:street" v="Grafton Road"/>
    <tag k="addr:state" v="VT"/>
    <tag k="ref:vcgi:esiteid" v="261179"/>
  </node>
  <node id="-319" visible="true" lat="43.078381709253" lon="-72.644242487509">
    <tag k="addr:city" v="Townshend"/>
    <tag k="addr:housenumber" v="2710"/>
    <tag k="addr:street" v="Grafton Road"/>
    <tag k="addr:state" v="VT"/>
    <tag k="ref:vcgi:esiteid" v="261180"/>
  </node>
  <node id="-322" visible="true" lat="43.078026942648" lon="-72.64714928917">
    <tag k="addr:city" v="Townshend"/>
    <tag k="addr:housenumber" v="2607"/>
    <tag k="addr:street" v="Grafton Road"/>
    <tag k="addr:state" v="VT"/>
    <tag k="ref:vcgi:esiteid" v="261183"/>
  </node>
  <node id="-328" visible="true" lat="43.077398544166" lon="-72.646937496726">
    <tag k="addr:city" v="Townshend"/>
    <tag k="addr:housenumber" v="2557"/>
    <tag k="addr:street" v="Grafton Road"/>
    <tag k="addr:state" v="VT"/>
    <tag k="ref:vcgi:esiteid" v="261190"/>
  </node>
  <node id="-330" visible="true" lat="43.077107601951" lon="-72.64533349269">
    <tag k="addr:city" v="Townshend"/>
    <tag k="addr:housenumber" v="2604"/>
    <tag k="addr:street" v="Grafton Road"/>
    <tag k="addr:state" v="VT"/>
    <tag k="ref:vcgi:esiteid" v="261192"/>
  </node>
  <node id="-336" visible="true" lat="43.076788869732" lon="-72.646973250592">
    <tag k="addr:city" v="Townshend"/>
    <tag k="addr:housenumber" v="2528"/>
    <tag k="addr:street" v="Grafton Road"/>
    <tag k="addr:state" v="VT"/>
    <tag k="ref:vcgi:esiteid" v="261198"/>
  </node>
  <node id="-338" visible="true" lat="43.076226405758" lon="-72.648186886845">
    <tag k="addr:city" v="Townshend"/>
    <tag k="addr:housenumber" v="2447"/>
    <tag k="addr:street" v="Grafton Road"/>
    <tag k="addr:state" v="VT"/>
    <tag k="ref:vcgi:esiteid" v="261200"/>
  </node>
  <node id="-344" visible="true" lat="43.075760942201" lon="-72.648788119385">
    <tag k="addr:city" v="Townshend"/>
    <tag k="addr:housenumber" v="2405"/>
    <tag k="addr:street" v="Grafton Road"/>
    <tag k="addr:state" v="VT"/>
    <tag k="ref:vcgi:esiteid" v="261206"/>
  </node>
  <node id="-351" visible="true" lat="43.073654388708" lon="-72.651100657117">
    <tag k="addr:city" v="Townshend"/>
    <tag k="addr:housenumber" v="2361"/>
    <tag k="addr:street" v="Grafton Road"/>
    <tag k="addr:state" v="VT"/>
    <tag k="ref:vcgi:esiteid" v="261213"/>
  </node>
  <node id="-355" visible="true" lat="43.073002986536" lon="-72.650048459229">
    <tag k="addr:city" v="Townshend"/>
    <tag k="addr:housenumber" v="2220"/>
    <tag k="addr:street" v="Grafton Road"/>
    <tag k="addr:state" v="VT"/>
    <tag k="ref:vcgi:esiteid" v="261217"/>
  </node>
  <node id="-358" visible="true" lat="43.072185436302" lon="-72.649549961347">
    <tag k="addr:city" v="Townshend"/>
    <tag k="addr:housenumber" v="69"/>
    <tag k="addr:street" v="East Hill Road"/>
    <tag k="addr:state" v="VT"/>
    <tag k="ref:vcgi:esiteid" v="261220"/>
  </node>
  <node id="-360" visible="true" lat="43.071928138505" lon="-72.651452495251">
    <tag k="addr:city" v="Townshend"/>
    <tag k="addr:housenumber" v="2113"/>
    <tag k="addr:street" v="Grafton Road"/>
    <tag k="addr:state" v="VT"/>
    <tag k="ref:vcgi:esiteid" v="261222"/>
  </node>
  <node id="-361" visible="true" lat="43.071530513641" lon="-72.652711119589">
    <tag k="addr:city" v="Townshend"/>
    <tag k="addr:housenumber" v="2045"/>
    <tag k="addr:street" v="Grafton Road"/>
    <tag k="addr:state" v="VT"/>
    <tag k="ref:vcgi:esiteid" v="261223"/>
  </node>
  <node id="-366" visible="true" lat="43.07085548608" lon="-72.653092590156">
    <tag k="addr:city" v="Townshend"/>
    <tag k="addr:housenumber" v="2002"/>
    <tag k="addr:street" v="Grafton Road"/>
    <tag k="addr:state" v="VT"/>
    <tag k="ref:vcgi:esiteid" v="261228"/>
  </node>
  <node id="-367" visible="true" lat="43.0706798354" lon="-72.655495848839">
    <tag k="addr:city" v="Townshend"/>
    <tag k="addr:housenumber" v="1895"/>
    <tag k="addr:street" v="Grafton Road"/>
    <tag k="addr:state" v="VT"/>
    <tag k="ref:vcgi:esiteid" v="261229"/>
  </node>
  <node id="-368" visible="true" lat="43.070846577415" lon="-72.65790782226">
    <tag k="addr:city" v="Townshend"/>
    <tag k="addr:housenumber" v="99"/>
    <tag k="addr:street" v="Simpson Brook Road"/>
    <tag k="addr:state" v="VT"/>
    <tag k="ref:vcgi:esiteid" v="261230"/>
  </node>
  <node id="-369" visible="true" lat="43.070168676291" lon="-72.656801697887">
    <tag k="addr:city" v="Townshend"/>
    <tag k="addr:housenumber" v="1835"/>
    <tag k="addr:street" v="Grafton Road"/>
    <tag k="addr:state" v="VT"/>
    <tag k="ref:vcgi:esiteid" v="261232"/>
  </node>
  <node id="-370" visible="true" lat="43.070328269689" lon="-72.658296703443">
    <tag k="addr:city" v="Townshend"/>
    <tag k="addr:housenumber" v="1737"/>
    <tag k="addr:street" v="Grafton Road"/>
    <tag k="addr:state" v="VT"/>
    <tag k="ref:vcgi:esiteid" v="261233"/>
  </node>
  <node id="-372" visible="true" lat="43.070083391328" lon="-72.656229872499">
    <tag k="addr:city" v="Townshend"/>
    <tag k="addr:housenumber" v="1836"/>
    <tag k="addr:street" v="Grafton Road"/>
    <tag k="addr:state" v="VT"/>
    <tag k="ref:vcgi:esiteid" v="261235"/>
  </node>
  <node id="-373" visible="true" lat="43.069918857905" lon="-72.662360074594">
    <tag k="addr:city" v="Townshend"/>
    <tag k="addr:housenumber" v="320"/>
    <tag k="addr:street" v="Deer Ridge Road"/>
    <tag k="addr:state" v="VT"/>
    <tag k="ref:vcgi:esiteid" v="261236"/>
  </node>
  <node id="-374" visible="true" lat="43.070110015214" lon="-72.659268055505">
    <tag k="addr:city" v="Townshend"/>
    <tag k="addr:housenumber" v="1669"/>
    <tag k="addr:street" v="Grafton Road"/>
    <tag k="addr:state" v="VT"/>
    <tag k="ref:vcgi:esiteid" v="261237"/>
  </node>
  <node id="-375" visible="true" lat="43.069737759158" lon="-72.656936610135">
    <tag k="addr:city" v="Townshend"/>
    <tag k="addr:housenumber" v="1796"/>
    <tag k="addr:street" v="Grafton Road"/>
    <tag k="addr:state" v="VT"/>
    <tag k="ref:vcgi:esiteid" v="261238"/>
  </node>
  <node id="-380" visible="true" lat="43.067849329367" lon="-72.663941591041">
    <tag k="addr:city" v="Townshend"/>
    <tag k="addr:housenumber" v="229"/>
    <tag k="addr:street" v="Deer Ridge Road"/>
    <tag k="addr:state" v="VT"/>
    <tag k="ref:vcgi:esiteid" v="261243"/>
  </node>
  <node id="-382" visible="true" lat="43.066581746344" lon="-72.661461606705">
    <tag k="addr:city" v="Townshend"/>
    <tag k="addr:housenumber" v="1463"/>
    <tag k="addr:street" v="Grafton Road"/>
    <tag k="addr:state" v="VT"/>
    <tag k="ref:vcgi:esiteid" v="261245"/>
  </node>
  <node id="-386" visible="true" lat="43.062786404999" lon="-72.659975952917">
    <tag k="addr:city" v="Townshend"/>
    <tag k="addr:housenumber" v="89"/>
    <tag k="addr:street" v="Phoenix Way"/>
    <tag k="addr:state" v="VT"/>
    <tag k="ref:vcgi:esiteid" v="261249"/>
  </node>
  <node id="-387" visible="true" lat="43.062418081702" lon="-72.659332220798">
    <tag k="addr:city" v="Townshend"/>
    <tag k="addr:housenumber" v="110"/>
    <tag k="addr:street" v="Phoenix Way"/>
    <tag k="addr:state" v="VT"/>
    <tag k="ref:vcgi:esiteid" v="261250"/>
  </node>
  <node id="-388" visible="true" lat="43.062272240549" lon="-72.661767211917">
    <tag k="addr:city" v="Townshend"/>
    <tag k="addr:housenumber" v="1169"/>
    <tag k="addr:street" v="Grafton Road"/>
    <tag k="addr:state" v="VT"/>
    <tag k="ref:vcgi:esiteid" v="261251"/>
  </node>
  <node id="-389" visible="true" lat="43.062184315196" lon="-72.659649483581">
    <tag k="addr:city" v="Townshend"/>
    <tag k="addr:housenumber" v="60"/>
    <tag k="addr:street" v="Phoenix Way"/>
    <tag k="addr:state" v="VT"/>
    <tag k="ref:vcgi:esiteid" v="261253"/>
  </node>
  <node id="-393" visible="true" lat="43.061435540625" lon="-72.661435606773">
    <tag k="addr:city" v="Townshend"/>
    <tag k="addr:housenumber" v="1102"/>
    <tag k="addr:street" v="Grafton Road"/>
    <tag k="addr:state" v="VT"/>
    <tag k="ref:vcgi:esiteid" v="261257"/>
  </node>
  <node id="-397" visible="true" lat="43.060785922836" lon="-72.662216824664">
    <tag k="addr:city" v="Townshend"/>
    <tag k="addr:housenumber" v="15"/>
    <tag k="addr:street" v="Maple Lane"/>
    <tag k="addr:state" v="VT"/>
    <tag k="ref:vcgi:esiteid" v="261261"/>
  </node>
  <node id="-398" visible="true" lat="43.060766740407" lon="-72.661133461673">
    <tag k="addr:city" v="Townshend"/>
    <tag k="addr:housenumber" v="1068"/>
    <tag k="addr:street" v="Grafton Road"/>
    <tag k="addr:state" v="VT"/>
    <tag k="ref:vcgi:esiteid" v="261262"/>
  </node>
  <node id="-399" visible="true" lat="43.060522235695" lon="-72.663662708302">
    <tag k="addr:city" v="Townshend"/>
    <tag k="addr:housenumber" v="75"/>
    <tag k="addr:street" v="Maple Lane"/>
    <tag k="addr:state" v="VT"/>
    <tag k="ref:vcgi:esiteid" v="261263"/>
  </node>
  <node id="-400" visible="true" lat="43.060090233474" lon="-72.661759582378">
    <tag k="addr:city" v="Townshend"/>
    <tag k="addr:housenumber" v="1022"/>
    <tag k="addr:street" v="Grafton Road"/>
    <tag k="addr:state" v="VT"/>
    <tag k="ref:vcgi:esiteid" v="261264"/>
  </node>
  <node id="-401" visible="true" lat="43.059691970001" lon="-72.661803312493">
    <tag k="addr:city" v="Townshend"/>
    <tag k="addr:housenumber" v="984"/>
    <tag k="addr:street" v="Grafton Road"/>
    <tag k="addr:state" v="VT"/>
    <tag k="ref:vcgi:esiteid" v="261265"/>
  </node>
  <node id="-402" visible="true" lat="43.059373068928" lon="-72.661942688388">
    <tag k="addr:city" v="Townshend"/>
    <tag k="addr:housenumber" v="970"/>
    <tag k="addr:street" v="Grafton Road"/>
    <tag k="addr:state" v="VT"/>
    <tag k="ref:vcgi:esiteid" v="261266"/>
  </node>
  <node id="-403" visible="true" lat="43.059416535118" lon="-72.662649436551">
    <tag k="addr:city" v="Townshend"/>
    <tag k="addr:housenumber" v="961"/>
    <tag k="addr:street" v="Grafton Road"/>
    <tag k="addr:state" v="VT"/>
    <tag k="ref:vcgi:esiteid" v="261267"/>
  </node>
  <node id="-405" visible="true" lat="43.0590411901" lon="-72.662049501019">
    <tag k="addr:city" v="Townshend"/>
    <tag k="addr:housenumber" v="948"/>
    <tag k="addr:street" v="Grafton Road"/>
    <tag k="addr:state" v="VT"/>
    <tag k="ref:vcgi:esiteid" v="261269"/>
  </node>
  <node id="-406" visible="true" lat="43.05852620707" lon="-72.662263122315">
    <tag k="addr:city" v="Townshend"/>
    <tag k="addr:housenumber" v="910"/>
    <tag k="addr:street" v="Grafton Road"/>
    <tag k="addr:state" v="VT"/>
    <tag k="ref:vcgi:esiteid" v="261270"/>
  </node>
  <node id="-407" visible="true" lat="43.058292879555" lon="-72.663059423963">
    <tag k="addr:city" v="Townshend"/>
    <tag k="addr:housenumber" v="895"/>
    <tag k="addr:street" v="Grafton Road"/>
    <tag k="addr:state" v="VT"/>
    <tag k="ref:vcgi:esiteid" v="261272"/>
  </node>
  <node id="-409" visible="true" lat="43.057454276392" lon="-72.666291444051">
    <tag k="addr:city" v="Townshend"/>
    <tag k="addr:housenumber" v="749"/>
    <tag k="addr:street" v="Grafton Road"/>
    <tag k="addr:state" v="VT"/>
    <tag k="ref:vcgi:esiteid" v="261274"/>
  </node>
  <node id="-412" visible="true" lat="43.057004143257" lon="-72.663430420044">
    <tag k="addr:city" v="Townshend"/>
    <tag k="addr:housenumber" v="791"/>
    <tag k="addr:street" v="Grafton Road"/>
    <tag k="addr:state" v="VT"/>
    <tag k="ref:vcgi:esiteid" v="261277"/>
  </node>
  <node id="-415" visible="true" lat="43.05680174044" lon="-72.663115615592">
    <tag k="addr:city" v="Townshend"/>
    <tag k="addr:housenumber" v="786"/>
    <tag k="addr:street" v="Grafton Road"/>
    <tag k="addr:state" v="VT"/>
    <tag k="ref:vcgi:esiteid" v="261280"/>
  </node>
  <node id="-418" visible="true" lat="43.056130575496" lon="-72.664056030573">
    <tag k="addr:city" v="Townshend"/>
    <tag k="addr:housenumber" v="723"/>
    <tag k="addr:street" v="Grafton Road"/>
    <tag k="addr:state" v="VT"/>
    <tag k="ref:vcgi:esiteid" v="261283"/>
  </node>
  <node id="-421" visible="true" lat="43.055684255686" lon="-72.663666931437">
    <tag k="addr:city" v="Townshend"/>
    <tag k="addr:housenumber" v="704"/>
    <tag k="addr:street" v="Grafton Road"/>
    <tag k="addr:state" v="VT"/>
    <tag k="ref:vcgi:esiteid" v="261286"/>
  </node>
  <node id="-423" visible="true" lat="43.055741979962" lon="-72.664504564506">
    <tag k="addr:city" v="Townshend"/>
    <tag k="addr:housenumber" v="679"/>
    <tag k="addr:street" v="Grafton Road"/>
    <tag k="addr:state" v="VT"/>
    <tag k="ref:vcgi:esiteid" v="261288"/>
  </node>
  <node id="-425" visible="true" lat="43.055129250774" lon="-72.664872999131">
    <tag k="addr:city" v="Townshend"/>
    <tag k="addr:housenumber" v="639"/>
    <tag k="addr:street" v="Grafton Road"/>
    <tag k="addr:state" v="VT"/>
    <tag k="ref:vcgi:esiteid" v="261290"/>
  </node>
  <node id="-428" visible="true" lat="43.054736604702" lon="-72.665433726369">
    <tag k="addr:city" v="Townshend"/>
    <tag k="addr:housenumber" v="609"/>
    <tag k="addr:street" v="Grafton Road"/>
    <tag k="addr:state" v="VT"/>
    <tag k="ref:vcgi:esiteid" v="261293"/>
  </node>
  <node id="-432" visible="true" lat="43.054360597096" lon="-72.665422678352">
    <tag k="addr:city" v="Townshend"/>
    <tag k="addr:housenumber" v="575"/>
    <tag k="addr:street" v="Grafton Road"/>
    <tag k="addr:state" v="VT"/>
    <tag k="ref:vcgi:esiteid" v="261297"/>
  </node>
  <node id="-434" visible="true" lat="43.053710192011" lon="-72.665830033236">
    <tag k="addr:city" v="Townshend"/>
    <tag k="addr:housenumber" v="533"/>
    <tag k="addr:street" v="Grafton Road"/>
    <tag k="addr:state" v="VT"/>
    <tag k="ref:vcgi:esiteid" v="261299"/>
  </node>
  <node id="-439" visible="true" lat="43.052567850749" lon="-72.666141474442">
    <tag k="addr:city" v="Townshend"/>
    <tag k="addr:housenumber" v="457"/>
    <tag k="addr:street" v="Grafton Road"/>
    <tag k="addr:state" v="VT"/>
    <tag k="ref:vcgi:esiteid" v="261304"/>
  </node>
  <node id="-440" visible="true" lat="43.052477849762" lon="-72.665688160222">
    <tag k="addr:city" v="Townshend"/>
    <tag k="addr:housenumber" v="456"/>
    <tag k="addr:street" v="Grafton Road"/>
    <tag k="addr:state" v="VT"/>
    <tag k="ref:vcgi:esiteid" v="261305"/>
  </node>
  <node id="-443" visible="true" lat="43.052035369518" lon="-72.665830737491">
    <tag k="addr:city" v="Townshend"/>
    <tag k="addr:housenumber" v="428"/>
    <tag k="addr:street" v="Grafton Road"/>
    <tag k="addr:state" v="VT"/>
    <tag k="ref:vcgi:esiteid" v="261308"/>
  </node>
  <node id="-444" visible="true" lat="43.051837229013" lon="-72.666524980344">
    <tag k="addr:city" v="Townshend"/>
    <tag k="addr:housenumber" v="409"/>
    <tag k="addr:street" v="Grafton Road"/>
    <tag k="addr:state" v="VT"/>
    <tag k="ref:vcgi:esiteid" v="261309"/>
  </node>
  <node id="-448" visible="true" lat="43.051449696733" lon="-72.666011824354">
    <tag k="addr:city" v="Townshend"/>
    <tag k="addr:housenumber" v="382"/>
    <tag k="addr:street" v="Grafton Road"/>
    <tag k="addr:state" v="VT"/>
    <tag k="ref:vcgi:esiteid" v="261313"/>
  </node>
  <node id="-449" visible="true" lat="43.051202036697" lon="-72.666181142202">
    <tag k="addr:city" v="Townshend"/>
    <tag k="addr:housenumber" v="366"/>
    <tag k="addr:street" v="Grafton Road"/>
    <tag k="addr:state" v="VT"/>
    <tag k="ref:vcgi:esiteid" v="261314"/>
  </node>
  <node id="-451" visible="true" lat="43.051082594467" lon="-72.6662382307">
    <tag k="addr:city" v="Townshend"/>
    <tag k="addr:housenumber" v="360"/>
    <tag k="addr:street" v="Grafton Road"/>
    <tag k="addr:state" v="VT"/>
    <tag k="ref:vcgi:esiteid" v="261316"/>
  </node>
  <node id="-453" visible="true" lat="43.05073621008" lon="-72.666928158685">
    <tag k="addr:city" v="Townshend"/>
    <tag k="addr:housenumber" v="325"/>
    <tag k="addr:street" v="Grafton Road"/>
    <tag k="addr:state" v="VT"/>
    <tag k="ref:vcgi:esiteid" v="261318"/>
  </node>
  <node id="-454" visible="true" lat="43.050785742806" lon="-72.666387411403">
    <tag k="addr:city" v="Townshend"/>
    <tag k="addr:housenumber" v="332"/>
    <tag k="addr:street" v="Grafton Road"/>
    <tag k="addr:state" v="VT"/>
    <tag k="ref:vcgi:esiteid" v="261319"/>
  </node>
  <node id="-458" visible="true" lat="43.050420848335" lon="-72.667074126818">
    <tag k="addr:city" v="Townshend"/>
    <tag k="addr:housenumber" v="297"/>
    <tag k="addr:street" v="Grafton Road"/>
    <tag k="addr:state" v="VT"/>
    <tag k="ref:vcgi:esiteid" v="261323"/>
  </node>
  <node id="-460" visible="true" lat="43.050370472294" lon="-72.666634912225">
    <tag k="addr:city" v="Townshend"/>
    <tag k="addr:housenumber" v="298"/>
    <tag k="addr:street" v="Grafton Road"/>
    <tag k="addr:state" v="VT"/>
    <tag k="ref:vcgi:esiteid" v="261325"/>
  </node>
  <node id="-462" visible="true" lat="43.050015615882" lon="-72.666665283859">
    <tag k="addr:city" v="Townshend"/>
    <tag k="addr:housenumber" v="282"/>
    <tag k="addr:street" v="Grafton Road"/>
    <tag k="addr:state" v="VT"/>
    <tag k="ref:vcgi:esiteid" v="261327"/>
  </node>
  <node id="-465" visible="true" lat="43.049676108319" lon="-72.666863649407">
    <tag k="addr:city" v="Townshend"/>
    <tag k="addr:housenumber" v="254"/>
    <tag k="addr:street" v="Grafton Road"/>
    <tag k="addr:state" v="VT"/>
    <tag k="ref:vcgi:esiteid" v="261330"/>
  </node>
  <node id="-467" visible="true" lat="43.04911364337" lon="-72.667221267814">
    <tag k="addr:city" v="Townshend"/>
    <tag k="addr:housenumber" v="208"/>
    <tag k="addr:street" v="Grafton Road"/>
    <tag k="addr:state" v="VT"/>
    <tag k="ref:vcgi:esiteid" v="261332"/>
  </node>
  <node id="-470" visible="true" lat="43.048847936084" lon="-72.668005233601">
    <tag k="addr:city" v="Townshend"/>
    <tag k="addr:housenumber" v="185"/>
    <tag k="addr:street" v="Grafton Road"/>
    <tag k="addr:state" v="VT"/>
    <tag k="ref:vcgi:esiteid" v="261336"/>
  </node>
  <node id="-471" visible="true" lat="43.048714802983" lon="-72.666382996797">
    <tag k="addr:city" v="Townshend"/>
    <tag k="addr:housenumber" v="59"/>
    <tag k="addr:street" v="Peaked Mountain Road"/>
    <tag k="addr:state" v="VT"/>
    <tag k="ref:vcgi:esiteid" v="261337"/>
  </node>
  <node id="-472" visible="true" lat="43.048812125004" lon="-72.666974013968">
    <tag k="addr:city" v="Townshend"/>
    <tag k="addr:housenumber" v="33"/>
    <tag k="addr:street" v="Peaked Mountain Road"/>
    <tag k="addr:state" v="VT"/>
    <tag k="ref:vcgi:esiteid" v="261338"/>
  </node>
  <node id="-474" visible="true" lat="43.048539483685" lon="-72.667938343573">
    <tag k="addr:city" v="Townshend"/>
    <tag k="addr:housenumber" v="163"/>
    <tag k="addr:street" v="Grafton Road"/>
    <tag k="addr:state" v="VT"/>
    <tag k="ref:vcgi:esiteid" v="261341"/>
  </node>
  <node id="-475" visible="true" lat="43.048577471444" lon="-72.667290227792">
    <tag k="addr:city" v="Townshend"/>
    <tag k="addr:housenumber" v="170"/>
    <tag k="addr:street" v="Grafton Road"/>
    <tag k="addr:state" v="VT"/>
    <tag k="ref:vcgi:esiteid" v="261342"/>
  </node>
  <node id="-476" visible="true" lat="43.048781549253" lon="-72.664035732594">
    <tag k="addr:city" v="Townshend"/>
    <tag k="addr:housenumber" v="187"/>
    <tag k="addr:street" v="Peaked Mountain Road"/>
    <tag k="addr:state" v="VT"/>
    <tag k="ref:vcgi:esiteid" v="261343"/>
  </node>
  <node id="-479" visible="true" lat="43.048491030921" lon="-72.665571002211">
    <tag k="addr:city" v="Townshend"/>
    <tag k="addr:housenumber" v="111"/>
    <tag k="addr:street" v="Peaked Mountain Road"/>
    <tag k="addr:state" v="VT"/>
    <tag k="ref:vcgi:esiteid" v="261346"/>
  </node>
  <node id="-480" visible="true" lat="43.048299002141" lon="-72.667420594787">
    <tag k="addr:city" v="Townshend"/>
    <tag k="addr:housenumber" v="154"/>
    <tag k="addr:street" v="Grafton Road"/>
    <tag k="addr:state" v="VT"/>
    <tag k="ref:vcgi:esiteid" v="261347"/>
  </node>
  <node id="-481" visible="true" lat="43.048287557337" lon="-72.667458741397">
    <tag k="addr:city" v="Townshend"/>
    <tag k="addr:housenumber" v="152"/>
    <tag k="addr:street" v="Grafton Road"/>
    <tag k="addr:state" v="VT"/>
    <tag k="ref:vcgi:esiteid" v="261348"/>
  </node>
  <node id="-483" visible="true" lat="43.048272923457" lon="-72.668152922544">
    <tag k="addr:city" v="Townshend"/>
    <tag k="addr:housenumber" v="133"/>
    <tag k="addr:street" v="Grafton Road"/>
    <tag k="addr:state" v="VT"/>
    <tag k="ref:vcgi:esiteid" v="261350"/>
  </node>
  <node id="-485" visible="true" lat="43.048031971286" lon="-72.667512147696">
    <tag k="addr:city" v="Townshend"/>
    <tag k="addr:housenumber" v="136"/>
    <tag k="addr:street" v="Grafton Road"/>
    <tag k="addr:state" v="VT"/>
    <tag k="ref:vcgi:esiteid" v="261352"/>
  </node>
  <node id="-487" visible="true" lat="43.04796330821" lon="-72.66875573845">
    <tag k="addr:city" v="Townshend"/>
    <tag k="addr:housenumber" v="109"/>
    <tag k="addr:street" v="Grafton Road"/>
    <tag k="addr:state" v="VT"/>
    <tag k="ref:vcgi:esiteid" v="261354"/>
  </node>
  <node id="-488" visible="true" lat="43.047894642938" lon="-72.66758081138">
    <tag k="addr:city" v="Townshend"/>
    <tag k="addr:housenumber" v="126"/>
    <tag k="addr:street" v="Grafton Road"/>
    <tag k="addr:state" v="VT"/>
    <tag k="ref:vcgi:esiteid" v="261355"/>
  </node>
  <node id="-489" visible="true" lat="43.047871754443" lon="-72.666070192455">
    <tag k="addr:city" v="Townshend"/>
    <tag k="addr:housenumber" v="92"/>
    <tag k="addr:street" v="Peaked Mountain Road"/>
    <tag k="addr:state" v="VT"/>
    <tag k="ref:vcgi:esiteid" v="261356"/>
  </node>
  <node id="-490" visible="true" lat="43.04786031194" lon="-72.668183534127">
    <tag k="addr:city" v="Townshend"/>
    <tag k="addr:housenumber" v="115"/>
    <tag k="addr:street" v="Grafton Road"/>
    <tag k="addr:state" v="VT"/>
    <tag k="ref:vcgi:esiteid" v="261357"/>
  </node>
  <node id="-492" visible="true" lat="43.047870761628" lon="-72.663786487986">
    <tag k="addr:city" v="Townshend"/>
    <tag k="addr:housenumber" v="219"/>
    <tag k="addr:street" v="Peaked Mountain Road"/>
    <tag k="addr:state" v="VT"/>
    <tag k="ref:vcgi:esiteid" v="261359"/>
  </node>
  <node id="-493" visible="true" lat="43.047698876622" lon="-72.667672528875">
    <tag k="addr:city" v="Townshend"/>
    <tag k="addr:housenumber" v="108"/>
    <tag k="addr:street" v="Grafton Road"/>
    <tag k="addr:state" v="VT"/>
    <tag k="ref:vcgi:esiteid" v="261360"/>
  </node>
  <node id="-499" visible="true" lat="43.047430538946" lon="-72.668540616926">
    <tag k="addr:city" v="Townshend"/>
    <tag k="addr:housenumber" v="10"/>
    <tag k="addr:street" v="Common Road"/>
    <tag k="addr:state" v="VT"/>
    <tag k="ref:vcgi:esiteid" v="261367"/>
  </node>
  <node id="-500" visible="true" lat="43.04741190796" lon="-72.668288661489">
    <tag k="addr:city" v="Townshend"/>
    <tag k="addr:housenumber" v="85"/>
    <tag k="addr:street" v="Grafton Road"/>
    <tag k="addr:state" v="VT"/>
    <tag k="ref:vcgi:esiteid" v="261368"/>
  </node>
  <node id="-502" visible="true" lat="43.047456492991" lon="-72.667541159108">
    <tag k="addr:city" v="Townshend"/>
    <tag k="addr:housenumber" v="92"/>
    <tag k="addr:street" v="Grafton Road"/>
    <tag k="addr:state" v="VT"/>
    <tag k="ref:vcgi:esiteid" v="261370"/>
  </node>
  <node id="-506" visible="true" lat="43.047296667372" lon="-72.667859251799">
    <tag k="addr:city" v="Townshend"/>
    <tag k="addr:housenumber" v="74"/>
    <tag k="addr:street" v="Grafton Road"/>
    <tag k="addr:state" v="VT"/>
    <tag k="ref:vcgi:esiteid" v="261375"/>
  </node>
  <node id="-507" visible="true" lat="43.047269663265" lon="-72.664079589449">
    <tag k="addr:city" v="Townshend"/>
    <tag k="addr:housenumber" v="208"/>
    <tag k="addr:street" v="Peaked Mountain Road"/>
    <tag k="addr:state" v="VT"/>
    <tag k="ref:vcgi:esiteid" v="261376"/>
  </node>
  <node id="-512" visible="true" lat="43.047072597387" lon="-72.668902825806">
    <tag k="addr:city" v="Townshend"/>
    <tag k="addr:housenumber" v="34"/>
    <tag k="addr:street" v="Common Road"/>
    <tag k="addr:state" v="VT"/>
    <tag k="ref:vcgi:esiteid" v="261381"/>
  </node>
  <node id="-517" visible="true" lat="43.046976967929" lon="-72.66934960717">
    <tag k="addr:city" v="Townshend"/>
    <tag k="addr:housenumber" v="46"/>
    <tag k="addr:street" v="Common Road"/>
    <tag k="addr:state" v="VT"/>
    <tag k="ref:vcgi:esiteid" v="261386"/>
  </node>
  <node id="-518" visible="true" lat="43.046816612479" lon="-72.664003438502">
    <tag k="addr:city" v="Townshend"/>
    <tag k="addr:housenumber" v="42"/>
    <tag k="addr:street" v="Bellstrom Lane"/>
    <tag k="addr:state" v="VT"/>
    <tag k="ref:vcgi:esiteid" v="261387"/>
  </node>
  <node id="-524" visible="true" lat="43.046668387331" lon="-72.669591087573">
    <tag k="addr:city" v="Townshend"/>
    <tag k="addr:housenumber" v="66"/>
    <tag k="addr:street" v="Common Road"/>
    <tag k="addr:state" v="VT"/>
    <tag k="ref:vcgi:esiteid" v="261393"/>
  </node>
  <node id="-526" visible="true" lat="43.046599905684" lon="-72.667084438729">
    <tag k="addr:city" v="Townshend"/>
    <tag k="addr:housenumber" v="2042"/>
    <tag k="addr:street" v="Vermont Route 30"/>
    <tag k="addr:state" v="VT"/>
    <tag k="ref:vcgi:esiteid" v="261395"/>
  </node>
  <node id="-527" visible="true" lat="43.046418355779" lon="-72.66951104968">
    <tag k="addr:city" v="Townshend"/>
    <tag k="addr:housenumber" v="70"/>
    <tag k="addr:street" v="Common Road"/>
    <tag k="addr:state" v="VT"/>
    <tag k="ref:vcgi:esiteid" v="261396"/>
  </node>
  <node id="-529" visible="true" lat="43.046430289738" lon="-72.663621532063">
    <tag k="addr:city" v="Townshend"/>
    <tag k="addr:housenumber" v="72"/>
    <tag k="addr:street" v="Bellstrom Lane"/>
    <tag k="addr:state" v="VT"/>
    <tag k="ref:vcgi:esiteid" v="261398"/>
  </node>
  <node id="-530" visible="true" lat="43.046267548003" lon="-72.669398508118">
    <tag k="addr:city" v="Townshend"/>
    <tag k="addr:housenumber" v="82"/>
    <tag k="addr:street" v="Common Road"/>
    <tag k="addr:state" v="VT"/>
    <tag k="ref:vcgi:esiteid" v="261399"/>
  </node>
  <node id="-534" visible="true" lat="43.046122562256" lon="-72.66717523906">
    <tag k="addr:city" v="Townshend"/>
    <tag k="addr:housenumber" v="2030"/>
    <tag k="addr:street" v="Vermont Route 30"/>
    <tag k="addr:state" v="VT"/>
    <tag k="ref:vcgi:esiteid" v="261403"/>
  </node>
  <node id="-537" visible="true" lat="43.045953605505" lon="-72.668396178508">
    <tag k="addr:city" v="Townshend"/>
    <tag k="addr:housenumber" v="2087"/>
    <tag k="addr:street" v="Vermont Route 30"/>
    <tag k="addr:state" v="VT"/>
    <tag k="ref:vcgi:esiteid" v="261406"/>
  </node>
  <node id="-538" visible="true" lat="43.045964240755" lon="-72.668932054042">
    <tag k="addr:city" v="Townshend"/>
    <tag k="addr:housenumber" v="2111"/>
    <tag k="addr:street" v="Vermont Route 30"/>
    <tag k="addr:state" v="VT"/>
    <tag k="ref:vcgi:esiteid" v="261407"/>
  </node>
  <node id="-542" visible="true" lat="43.045954964038" lon="-72.667816328496">
    <tag k="addr:city" v="Townshend"/>
    <tag k="addr:housenumber" v="2041"/>
    <tag k="addr:street" v="Vermont Route 30"/>
    <tag k="addr:state" v="VT"/>
    <tag k="ref:vcgi:esiteid" v="261411"/>
  </node>
  <node id="-545" visible="true" lat="43.045948765876" lon="-72.668050373169">
    <tag k="addr:city" v="Townshend"/>
    <tag k="addr:housenumber" v="2045"/>
    <tag k="addr:street" v="Vermont Route 30"/>
    <tag k="addr:state" v="VT"/>
    <tag k="ref:vcgi:esiteid" v="261414"/>
  </node>
  <node id="-552" visible="true" lat="43.045769635545" lon="-72.667596917521">
    <tag k="addr:city" v="Townshend"/>
    <tag k="addr:housenumber" v="2015"/>
    <tag k="addr:street" v="Vermont Route 30"/>
    <tag k="addr:state" v="VT"/>
    <tag k="ref:vcgi:esiteid" v="261421"/>
  </node>
  <node id="-553" visible="true" lat="43.045669886035" lon="-72.666780098111">
    <tag k="addr:city" v="Townshend"/>
    <tag k="addr:housenumber" v="1988"/>
    <tag k="addr:street" v="Vermont Route 30"/>
    <tag k="addr:state" v="VT"/>
    <tag k="ref:vcgi:esiteid" v="261422"/>
  </node>
  <node id="-555" visible="true" lat="43.045523772995" lon="-72.666656198767">
    <tag k="addr:city" v="Townshend"/>
    <tag k="addr:housenumber" v="1978"/>
    <tag k="addr:street" v="Vermont Route 30"/>
    <tag k="addr:state" v="VT"/>
    <tag k="ref:vcgi:esiteid" v="261424"/>
  </node>
  <node id="-559" visible="true" lat="43.045269919643" lon="-72.666460645908">
    <tag k="addr:city" v="Townshend"/>
    <tag k="addr:housenumber" v="1956"/>
    <tag k="addr:street" v="Vermont Route 30"/>
    <tag k="addr:state" v="VT"/>
    <tag k="ref:vcgi:esiteid" v="261428"/>
  </node>
  <node id="-560" visible="true" lat="43.045277846074" lon="-72.667049744159">
    <tag k="addr:city" v="Townshend"/>
    <tag k="addr:housenumber" v="1971"/>
    <tag k="addr:street" v="Vermont Route 30"/>
    <tag k="addr:state" v="VT"/>
    <tag k="ref:vcgi:esiteid" v="261429"/>
  </node>
  <node id="-562" visible="true" lat="43.045105906132" lon="-72.66633375911">
    <tag k="addr:city" v="Townshend"/>
    <tag k="addr:housenumber" v="1944"/>
    <tag k="addr:street" v="Vermont Route 30"/>
    <tag k="addr:state" v="VT"/>
    <tag k="ref:vcgi:esiteid" v="261431"/>
  </node>
  <node id="-566" visible="true" lat="43.044903615683" lon="-72.666705433946">
    <tag k="addr:city" v="Townshend"/>
    <tag k="addr:housenumber" v="1939"/>
    <tag k="addr:street" v="Vermont Route 30"/>
    <tag k="addr:state" v="VT"/>
    <tag k="ref:vcgi:esiteid" v="261435"/>
  </node>
  <node id="-567" visible="true" lat="43.044819726064" lon="-72.666123326413">
    <tag k="addr:city" v="Townshend"/>
    <tag k="addr:housenumber" v="1920"/>
    <tag k="addr:street" v="Vermont Route 30"/>
    <tag k="addr:state" v="VT"/>
    <tag k="ref:vcgi:esiteid" v="261436"/>
  </node>
  <node id="-570" visible="true" lat="43.044287891337" lon="-72.666135313158">
    <tag k="addr:city" v="Townshend"/>
    <tag k="addr:housenumber" v="1889"/>
    <tag k="addr:street" v="Vermont Route 30"/>
    <tag k="addr:state" v="VT"/>
    <tag k="ref:vcgi:esiteid" v="261439"/>
  </node>
  <node id="-574" visible="true" lat="43.043721363472" lon="-72.665269103483">
    <tag k="addr:city" v="Townshend"/>
    <tag k="addr:housenumber" v="1844"/>
    <tag k="addr:street" v="Vermont Route 30"/>
    <tag k="addr:state" v="VT"/>
    <tag k="ref:vcgi:esiteid" v="261443"/>
  </node>
  <node id="-577" visible="true" lat="43.044004440127" lon="-72.665922439406">
    <tag k="addr:city" v="Townshend"/>
    <tag k="addr:housenumber" v="1849"/>
    <tag k="addr:street" v="Vermont Route 30"/>
    <tag k="addr:state" v="VT"/>
    <tag k="ref:vcgi:esiteid" v="261446"/>
  </node>
  <node id="-579" visible="true" lat="43.043049976683" lon="-72.664826599171">
    <tag k="addr:city" v="Townshend"/>
    <tag k="addr:housenumber" v="1796"/>
    <tag k="addr:street" v="Vermont Route 30"/>
    <tag k="addr:state" v="VT"/>
    <tag k="ref:vcgi:esiteid" v="261448"/>
  </node>
  <node id="-580" visible="true" lat="43.042740201126" lon="-72.664559169571">
    <tag k="addr:city" v="Townshend"/>
    <tag k="addr:housenumber" v="1772"/>
    <tag k="addr:street" v="Vermont Route 30"/>
    <tag k="addr:state" v="VT"/>
    <tag k="ref:vcgi:esiteid" v="261449"/>
  </node>
  <node id="-595" visible="true" lat="43.039510313122" lon="-72.665443311667">
    <tag k="addr:city" v="Townshend"/>
    <tag k="addr:housenumber" v="1731"/>
    <tag k="addr:street" v="Vermont Route 30"/>
    <tag k="addr:state" v="VT"/>
    <tag k="ref:vcgi:esiteid" v="261466"/>
  </node>
  <node id="-598" visible="true" lat="43.038858992467" lon="-72.664281722851">
    <tag k="addr:city" v="Townshend"/>
    <tag k="addr:housenumber" v="1491"/>
    <tag k="addr:street" v="Vermont Route 30"/>
    <tag k="addr:state" v="VT"/>
    <tag k="ref:vcgi:esiteid" v="261469"/>
  </node>
  <node id="-601" visible="true" lat="43.038312063101" lon="-72.665131928082">
    <tag k="addr:city" v="Townshend"/>
    <tag k="addr:housenumber" v="1455"/>
    <tag k="addr:street" v="Vermont Route 30"/>
    <tag k="addr:state" v="VT"/>
    <tag k="ref:vcgi:esiteid" v="261472"/>
  </node>
  <node id="-603" visible="true" lat="43.038199806357" lon="-72.665895337731">
    <tag k="addr:city" v="Townshend"/>
    <tag k="addr:housenumber" v="80"/>
    <tag k="addr:street" v="Depot Road"/>
    <tag k="addr:state" v="VT"/>
    <tag k="ref:vcgi:esiteid" v="261474"/>
  </node>
  <node id="-605" visible="true" lat="43.038001077373" lon="-72.668392900302">
    <tag k="addr:city" v="Townshend"/>
    <tag k="addr:housenumber" v="254"/>
    <tag k="addr:street" v="Depot Road"/>
    <tag k="addr:state" v="VT"/>
    <tag k="ref:vcgi:esiteid" v="261476"/>
  </node>
  <node id="-607" visible="true" lat="43.037908558664" lon="-72.664530134928">
    <tag k="addr:city" v="Townshend"/>
    <tag k="addr:housenumber" v="38"/>
    <tag k="addr:street" v="Depot Road"/>
    <tag k="addr:state" v="VT"/>
    <tag k="ref:vcgi:esiteid" v="261478"/>
  </node>
  <node id="-609" visible="true" lat="43.037713517856" lon="-72.66769798752">
    <tag k="addr:city" v="Townshend"/>
    <tag k="addr:housenumber" v="229"/>
    <tag k="addr:street" v="Depot Road"/>
    <tag k="addr:state" v="VT"/>
    <tag k="ref:vcgi:esiteid" v="261480"/>
  </node>
  <node id="-612" visible="true" lat="43.037615197016" lon="-72.663908458375">
    <tag k="addr:city" v="Townshend"/>
    <tag k="addr:housenumber" v="1407"/>
    <tag k="addr:street" v="Vermont Route 30"/>
    <tag k="addr:state" v="VT"/>
    <tag k="ref:vcgi:esiteid" v="261483"/>
  </node>
  <node id="-613" visible="true" lat="43.037640197492" lon="-72.664518942801">
    <tag k="addr:city" v="Townshend"/>
    <tag k="addr:housenumber" v="45"/>
    <tag k="addr:street" v="Depot Road"/>
    <tag k="addr:state" v="VT"/>
    <tag k="ref:vcgi:esiteid" v="261484"/>
  </node>
  <node id="-616" visible="true" lat="43.037325772488" lon="-72.664970564353">
    <tag k="addr:city" v="Townshend"/>
    <tag k="addr:housenumber" v="59"/>
    <tag k="addr:street" v="Depot Road"/>
    <tag k="addr:state" v="VT"/>
    <tag k="ref:vcgi:esiteid" v="261487"/>
  </node>
  <node id="-617" visible="true" lat="43.037387552404" lon="-72.662595399081">
    <tag k="addr:city" v="Townshend"/>
    <tag k="addr:housenumber" v="3733"/>
    <tag k="addr:street" v="East Hill Road"/>
    <tag k="addr:state" v="VT"/>
    <tag k="ref:vcgi:esiteid" v="261488"/>
  </node>
  <node id="-619" visible="true" lat="43.036935015937" lon="-72.663117614668">
    <tag k="addr:city" v="Townshend"/>
    <tag k="addr:housenumber" v="1362"/>
    <tag k="addr:street" v="Vermont Route 30"/>
    <tag k="addr:state" v="VT"/>
    <tag k="ref:vcgi:esiteid" v="261490"/>
  </node>
  <node id="-620" visible="true" lat="43.036952049419" lon="-72.665399095043">
    <tag k="addr:city" v="Townshend"/>
    <tag k="addr:housenumber" v="73"/>
    <tag k="addr:street" v="Depot Road"/>
    <tag k="addr:state" v="VT"/>
    <tag k="ref:vcgi:esiteid" v="261491"/>
  </node>
  <node id="-621" visible="true" lat="43.036767169429" lon="-72.663102355893">
    <tag k="addr:city" v="Townshend"/>
    <tag k="addr:housenumber" v="1352"/>
    <tag k="addr:street" v="Vermont Route 30"/>
    <tag k="addr:state" v="VT"/>
    <tag k="ref:vcgi:esiteid" v="261492"/>
  </node>
  <node id="-622" visible="true" lat="43.036580239352" lon="-72.663193083409">
    <tag k="addr:city" v="Townshend"/>
    <tag k="addr:housenumber" v="1348"/>
    <tag k="addr:street" v="Vermont Route 30"/>
    <tag k="addr:state" v="VT"/>
    <tag k="ref:vcgi:esiteid" v="261493"/>
  </node>
  <node id="-624" visible="true" lat="43.0367613283" lon="-72.664072753309">
    <tag k="addr:city" v="Townshend"/>
    <tag k="addr:housenumber" v="1335"/>
    <tag k="addr:street" v="Vermont Route 30"/>
    <tag k="addr:state" v="VT"/>
    <tag k="ref:vcgi:esiteid" v="261495"/>
  </node>
  <node id="-625" visible="true" lat="43.036416847744" lon="-72.663748245711">
    <tag k="addr:city" v="Townshend"/>
    <tag k="addr:housenumber" v="1317"/>
    <tag k="addr:street" v="Vermont Route 30"/>
    <tag k="addr:state" v="VT"/>
    <tag k="ref:vcgi:esiteid" v="261496"/>
  </node>
  <node id="-626" visible="true" lat="43.036256260677" lon="-72.663322607587">
    <tag k="addr:city" v="Townshend"/>
    <tag k="addr:housenumber" v="1314"/>
    <tag k="addr:street" v="Vermont Route 30"/>
    <tag k="addr:state" v="VT"/>
    <tag k="ref:vcgi:esiteid" v="261497"/>
  </node>
  <node id="-628" visible="true" lat="43.036176693845" lon="-72.663873232061">
    <tag k="addr:city" v="Townshend"/>
    <tag k="addr:housenumber" v="1299"/>
    <tag k="addr:street" v="Vermont Route 30"/>
    <tag k="addr:state" v="VT"/>
    <tag k="ref:vcgi:esiteid" v="261499"/>
  </node>
  <node id="-736" visible="true" lat="43.071002571557" lon="-72.652463843843">
    <tag k="addr:city" v="Townshend"/>
    <tag k="addr:housenumber" v="2044"/>
    <tag k="addr:street" v="Grafton Road"/>
    <tag k="addr:state" v="VT"/>
    <tag k="ref:vcgi:esiteid" v="261608"/>
  </node>
  <node id="-758" visible="true" lat="43.038220257451" lon="-72.663585247299">
    <tag k="addr:city" v="Townshend"/>
    <tag k="addr:housenumber" v="1436"/>
    <tag k="addr:street" v="Vermont Route 30"/>
    <tag k="addr:state" v="VT"/>
    <tag k="ref:vcgi:esiteid" v="261632"/>
  </node>
  <node id="-760" visible="true" lat="43.037885951514" lon="-72.663374681601">
    <tag k="addr:city" v="Townshend"/>
    <tag k="addr:housenumber" v="1424"/>
    <tag k="addr:street" v="Vermont Route 30"/>
    <tag k="addr:state" v="VT"/>
    <tag k="ref:vcgi:esiteid" v="261635"/>
  </node>
  <node id="-772" visible="true" lat="43.065335149616" lon="-72.662027871872">
    <tag k="addr:city" v="Townshend"/>
    <tag k="addr:housenumber" v="1417"/>
    <tag k="addr:street" v="Grafton Road"/>
    <tag k="addr:state" v="VT"/>
    <tag k="ref:vcgi:esiteid" v="261650"/>
  </node>
  <node id="-799" visible="true" lat="43.070567571211" lon="-72.656021938228">
    <tag k="addr:city" v="Townshend"/>
    <tag k="addr:housenumber" v="9"/>
    <tag k="addr:street" v="Simpson Brook Road"/>
    <tag k="addr:state" v="VT"/>
    <tag k="ref:vcgi:esiteid" v="261678"/>
  </node>
  <node id="-813" visible="true" lat="43.064291111059" lon="-72.660152809375">
    <tag k="addr:city" v="Townshend"/>
    <tag k="addr:housenumber" v="1350"/>
    <tag k="addr:street" v="Grafton Road"/>
    <tag k="addr:state" v="VT"/>
    <tag k="ref:vcgi:esiteid" v="261695"/>
  </node>
  <node id="-814" visible="true" lat="43.057968413673" lon="-72.665558441135">
    <tag k="addr:city" v="Townshend"/>
    <tag k="addr:housenumber" v="235"/>
    <tag k="addr:street" v="Sleeper Lane"/>
    <tag k="addr:state" v="VT"/>
    <tag k="ref:vcgi:esiteid" v="261696"/>
  </node>
  <node id="-823" visible="true" lat="43.057561225057" lon="-72.664417335543">
    <tag k="addr:city" v="Townshend"/>
    <tag k="addr:housenumber" v="159"/>
    <tag k="addr:street" v="Sleeper Lane"/>
    <tag k="addr:state" v="VT"/>
    <tag k="ref:vcgi:esiteid" v="261707"/>
  </node>
  <node id="-831" visible="true" lat="43.048420797907" lon="-72.664563485912">
    <tag k="addr:city" v="Townshend"/>
    <tag k="addr:housenumber" v="141"/>
    <tag k="addr:street" v="Peaked Mountain Road"/>
    <tag k="addr:state" v="VT"/>
    <tag k="ref:vcgi:esiteid" v="309976"/>
  </node>
  <node id="-840" visible="true" lat="43.069659263695" lon="-72.657061091419">
    <tag k="addr:city" v="Townshend"/>
    <tag k="addr:housenumber" v="1794"/>
    <tag k="addr:street" v="Grafton Road"/>
    <tag k="addr:state" v="VT"/>
    <tag k="ref:vcgi:esiteid" v="311152"/>
  </node>
  <node id="-849" visible="true" lat="43.052215602821" lon="-72.666606196527">
    <tag k="addr:city" v="Townshend"/>
    <tag k="addr:housenumber" v="451"/>
    <tag k="addr:street" v="Grafton Road"/>
    <tag k="addr:state" v="VT"/>
    <tag k="ref:vcgi:esiteid" v="317491"/>
  </node>
  <node id="-850" visible="true" lat="43.053068937334" lon="-72.666331022764">
    <tag k="addr:city" v="Townshend"/>
    <tag k="addr:housenumber" v="461"/>
    <tag k="addr:street" v="Grafton Road"/>
    <tag k="addr:state" v="VT"/>
    <tag k="ref:vcgi:esiteid" v="317492"/>
  </node>
  <node id="-852" visible="true" lat="43.037133539725" lon="-72.666291330444">
    <tag k="addr:city" v="Townshend"/>
    <tag k="addr:housenumber" v="201"/>
    <tag k="addr:street" v="Depot Road"/>
    <tag k="addr:state" v="VT"/>
    <tag k="ref:vcgi:esiteid" v="317494"/>
  </node>
  <node id="-855" visible="true" lat="43.087990972214" lon="-72.641564618765">
    <tag k="addr:city" v="Townshend"/>
    <tag k="addr:housenumber" v="3520"/>
    <tag k="addr:street" v="Grafton Road"/>
    <tag k="addr:state" v="VT"/>
    <tag k="ref:vcgi:esiteid" v="318258"/>
  </node>
  <node id="-856" visible="true" lat="43.087482365424" lon="-72.641059257522">
    <tag k="addr:city" v="Townshend"/>
    <tag k="addr:housenumber" v="3500"/>
    <tag k="addr:street" v="Grafton Road"/>
    <tag k="addr:state" v="VT"/>
    <tag k="ref:vcgi:esiteid" v="318259"/>
  </node>
  <node id="-857" visible="true" lat="43.036307698549" lon="-72.662786775418">
    <tag k="addr:city" v="Townshend"/>
    <tag k="addr:housenumber" v="1310"/>
    <tag k="addr:street" v="Vermont Route 30"/>
    <tag k="addr:state" v="VT"/>
    <tag k="ref:vcgi:esiteid" v="323937"/>
  </node>
  <node id="-906" visible="true" lat="43.080226426149" lon="-72.646196843139">
    <tag k="addr:city" v="Townshend"/>
    <tag k="addr:housenumber" v="2619"/>
    <tag k="addr:street" v="Grafton Road"/>
    <tag k="addr:state" v="VT"/>
    <tag k="ref:vcgi:esiteid" v="344334"/>
  </node>
  <node id="-926" visible="true" lat="43.08702466518" lon="-72.641896826489">
    <tag k="addr:city" v="Townshend"/>
    <tag k="addr:housenumber" v="3519"/>
    <tag k="addr:street" v="Grafton Road"/>
    <tag k="addr:state" v="VT"/>
    <tag k="ref:vcgi:esiteid" v="454667"/>
  </node>
  <node id="-931" visible="true" lat="43.059738942751" lon="-72.661549715812">
    <tag k="addr:city" v="Townshend"/>
    <tag k="addr:housenumber" v="986"/>
    <tag k="addr:street" v="Grafton Road"/>
    <tag k="addr:state" v="VT"/>
    <tag k="ref:vcgi:esiteid" v="610646"/>
  </node>
</osm>
