<?xml version="1.0" encoding="UTF-8"?>
<osm version="0.6" generator="JOSM" upload="false">
  <node id="-911" visible="true" lat="44.851725653345" lon="-72.405560859565">
    <!-- duplicates-in-different-towns: "5063 Loop Road, Westfield, VT"  ignoring town mismatch for duplicate housenumber/street when matching to esiteid 762082: "5063 Loop Road, , VT" -->
    <tag k="addr:city" v="Westfield"/>
    <tag k="addr:housenumber" v="5063"/>
    <tag k="addr:street" v="Loop Road"/>
    <tag k="addr:state" v="VT"/>
    <tag k="ref:vcgi:esiteid" v="281250"/>
  </node>
  <node id="-1015" visible="true" lat="44.851779739146" lon="-72.401717764786">
    <!-- duplicates-in-different-towns: "5065 Loop Road, Westfield, VT"  ignoring town mismatch for duplicate housenumber/street when matching to esiteid 762084: "5065 Loop Road, , VT" -->
    <tag k="addr:city" v="Westfield"/>
    <tag k="addr:housenumber" v="5065"/>
    <tag k="addr:street" v="Loop Road"/>
    <tag k="addr:state" v="VT"/>
    <tag k="ref:vcgi:esiteid" v="762083"/>
  </node>
  <node id="-1016" visible="true" lat="44.843894449829" lon="-72.404699088136">
    <!-- duplicates-in-different-towns: "132 Carter Road, Westfield, VT"  ignoring town mismatch for duplicate housenumber/street when matching to esiteid 762085: "132 Carter Road, , VT" -->
    <tag k="addr:city" v="Westfield"/>
    <tag k="addr:housenumber" v="132"/>
    <tag k="addr:street" v="Carter Road"/>
    <tag k="addr:state" v="VT"/>
    <tag k="ref:vcgi:esiteid" v="762086"/>
  </node>
  <node id="-1024" visible="true" lat="44.841436748248" lon="-72.392942544146">
    <!-- duplicates-in-different-towns: "165 Robtoy Road, Lowell, VT"  ignoring town mismatch for duplicate housenumber/street when matching to esiteid 764378: "165 Robtoy Road, , VT" -->
    <tag k="addr:city" v="Lowell"/>
    <tag k="addr:housenumber" v="165"/>
    <tag k="addr:street" v="Robtoy Road"/>
    <tag k="addr:state" v="VT"/>
    <tag k="ref:vcgi:esiteid" v="764379"/>
  </node>
</osm>
