<?xml version="1.0" encoding="UTF-8"?>
<osm version="0.6" generator="JOSM" upload="false">
  <node id="-107" visible="true" lat="43.964933299378" lon="-72.510952162881">
    <!-- duplicates-in-different-towns: "3400 Chelsea Mountain Road, Chelsea, VT"  ignoring town mismatch for duplicate housenumber/street when matching to esiteid 342578: "3400 Chelsea Mountain Road, Randolph, VT" -->
    <tag k="addr:city" v="Chelsea"/>
    <tag k="addr:housenumber" v="3400"/>
    <tag k="addr:street" v="Chelsea Mountain Road"/>
    <tag k="addr:state" v="VT"/>
    <tag k="ref:vcgi:esiteid" v="262623"/>
  </node>
</osm>
