<?xml version="1.0" encoding="UTF-8"?>
<osm version="0.6" generator="JOSM" upload="false">
  <node id="-1041" visible="true" lat="44.162123084389" lon="-73.263198471487">
    <!-- offset: "109 Panton Road, Vergennes, VT" Significant offset - 205.7m -->
    <tag k="addr:city" v="Vergennes"/>
    <tag k="addr:housenumber" v="109"/>
    <tag k="addr:street" v="Panton Road"/>
    <tag k="addr:state" v="VT"/>
    <tag k="ref:vcgi:esiteid" v="265517"/>
  </node>
  <node id="-1161" visible="true" lat="44.15786966132" lon="-73.254448217311">
    <!-- offset: "451 Commodore Drive, Vergennes, VT" Significant offset - 132.8m -->
    <tag k="addr:city" v="Vergennes"/>
    <tag k="addr:housenumber" v="451"/>
    <tag k="addr:street" v="Commodore Drive"/>
    <tag k="addr:state" v="VT"/>
    <tag k="ref:vcgi:esiteid" v="759127"/>
  </node>
</osm>
