<?xml version="1.0" encoding="UTF-8"?>
<osm version="0.6" generator="JOSM" upload="false">
  <node id="-194" visible="true" lat="44.21288861" lon="-72.78522367">
    <!-- multiple: "1812 North Road, Waitsfield, VT" Multiple exact matches in OSM. -->
    <tag k="addr:city" v="Waitsfield"/>
    <tag k="addr:housenumber" v="1812"/>
    <tag k="addr:street" v="North Road"/>
    <tag k="addr:state" v="VT"/>
    <tag k="ref:vcgi:esiteid" v="267513"/>
  </node>
  <node id="-454" visible="true" lat="44.19080831" lon="-72.82423104">
    <!-- multiple: "4348 Main Street, Waitsfield, VT" Multiple exact matches in OSM. -->
    <tag k="addr:city" v="Waitsfield"/>
    <tag k="addr:housenumber" v="4348"/>
    <tag k="addr:street" v="Main Street"/>
    <tag k="addr:state" v="VT"/>
    <tag k="ref:vcgi:esiteid" v="267777"/>
  </node>
  <node id="-479" visible="true" lat="44.18968373" lon="-72.82396339">
    <!-- multiple: "40 Bridge Street, Waitsfield, VT" Multiple exact matches in OSM. -->
    <tag k="addr:city" v="Waitsfield"/>
    <tag k="addr:housenumber" v="40"/>
    <tag k="addr:street" v="Bridge Street"/>
    <tag k="addr:state" v="VT"/>
    <tag k="ref:vcgi:esiteid" v="267803"/>
  </node>
  <node id="-534" visible="true" lat="44.18786761" lon="-72.83526733">
    <!-- multiple: "155 Carroll Road, Waitsfield, VT" Multiple exact matches in OSM. -->
    <tag k="addr:city" v="Waitsfield"/>
    <tag k="addr:housenumber" v="155"/>
    <tag k="addr:street" v="Carroll Road"/>
    <tag k="addr:state" v="VT"/>
    <tag k="ref:vcgi:esiteid" v="267860"/>
  </node>
  <node id="-579" visible="true" lat="44.18449898" lon="-72.83659863">
    <!-- multiple: "5134 Main Street, Waitsfield, VT" Multiple exact matches in OSM. -->
    <tag k="addr:city" v="Waitsfield"/>
    <tag k="addr:housenumber" v="5134"/>
    <tag k="addr:street" v="Main Street"/>
    <tag k="addr:state" v="VT"/>
    <tag k="ref:vcgi:esiteid" v="267906"/>
  </node>
  <node id="-581" visible="true" lat="44.18431458" lon="-72.8360058">
    <!-- multiple: "5127 Main Street, Waitsfield, VT" Multiple exact matches in OSM. -->
    <tag k="addr:city" v="Waitsfield"/>
    <tag k="addr:housenumber" v="5127"/>
    <tag k="addr:street" v="Main Street"/>
    <tag k="addr:state" v="VT"/>
    <tag k="ref:vcgi:esiteid" v="267908"/>
  </node>
  <node id="-600" visible="true" lat="44.18323271" lon="-72.83713637">
    <!-- multiple: "5197 Main Street, Waitsfield, VT" Multiple exact matches in OSM. -->
    <tag k="addr:city" v="Waitsfield"/>
    <tag k="addr:housenumber" v="5197"/>
    <tag k="addr:street" v="Main Street"/>
    <tag k="addr:state" v="VT"/>
    <tag k="ref:vcgi:esiteid" v="267929"/>
  </node>
  <node id="-633" visible="true" lat="44.18090073" lon="-72.84061258">
    <!-- multiple: "9 Vermont Route 17, Waitsfield, VT" Multiple exact matches in OSM. -->
    <tag k="addr:city" v="Waitsfield"/>
    <tag k="addr:housenumber" v="9"/>
    <tag k="addr:street" v="Vermont Route 17"/>
    <tag k="addr:state" v="VT"/>
    <tag k="ref:vcgi:esiteid" v="267962"/>
  </node>
  <node id="-1129" visible="true" lat="44.19299787" lon="-72.82198832">
    <!-- multiple: "4144 Main Street, Waitsfield, VT" Multiple exact matches in OSM. -->
    <tag k="addr:city" v="Waitsfield"/>
    <tag k="addr:housenumber" v="4144"/>
    <tag k="addr:street" v="Main Street"/>
    <tag k="addr:state" v="VT"/>
    <tag k="ref:vcgi:esiteid" v="451488"/>
  </node>
</osm>
