<?xml version="1.0" encoding="UTF-8"?>
<osm version="0.6" generator="JOSM" upload="false">
  <node id="-115" visible="true" lat="43.051194351955" lon="-72.786278971263">
    <tag k="addr:city" v="Wardsboro"/>
    <tag k="addr:housenumber" v="34"/>
    <tag k="addr:street" v="Vermont Route 100"/>
    <tag k="addr:state" v="VT"/>
    <tag k="ref:vcgi:esiteid" v="270305"/>
  </node>
  <node id="-122" visible="true" lat="43.050469826331" lon="-72.790046090452">
    <tag k="addr:city" v="Wardsboro"/>
    <tag k="addr:housenumber" v="695"/>
    <tag k="addr:street" v="Main Street"/>
    <tag k="addr:state" v="VT"/>
    <tag k="ref:vcgi:esiteid" v="270312"/>
  </node>
  <node id="-125" visible="true" lat="43.050389452177" lon="-72.795174848189">
    <tag k="addr:city" v="Wardsboro"/>
    <tag k="addr:housenumber" v="332"/>
    <tag k="addr:street" v="Melis Road"/>
    <tag k="addr:state" v="VT"/>
    <tag k="ref:vcgi:esiteid" v="270315"/>
  </node>
  <node id="-126" visible="true" lat="43.050459162611" lon="-72.786419866468">
    <tag k="addr:city" v="Wardsboro"/>
    <tag k="addr:housenumber" v="59"/>
    <tag k="addr:street" v="Peters Lane"/>
    <tag k="addr:state" v="VT"/>
    <tag k="ref:vcgi:esiteid" v="270316"/>
  </node>
  <node id="-127" visible="true" lat="43.05086808729" lon="-72.787678940931">
    <tag k="addr:city" v="Wardsboro"/>
    <tag k="addr:housenumber" v="88"/>
    <tag k="addr:street" v="Peters Lane"/>
    <tag k="addr:state" v="VT"/>
    <tag k="ref:vcgi:esiteid" v="270317"/>
  </node>
  <node id="-130" visible="true" lat="43.050445130397" lon="-72.765186710574">
    <tag k="addr:city" v="Wardsboro"/>
    <tag k="addr:housenumber" v="1505"/>
    <tag k="addr:street" v="East Hill Road"/>
    <tag k="addr:state" v="VT"/>
    <tag k="ref:vcgi:esiteid" v="270320"/>
  </node>
  <node id="-134" visible="true" lat="43.0500499446" lon="-72.789445171704">
    <tag k="addr:city" v="Wardsboro"/>
    <tag k="addr:housenumber" v="654"/>
    <tag k="addr:street" v="Main Street"/>
    <tag k="addr:state" v="VT"/>
    <tag k="ref:vcgi:esiteid" v="270324"/>
  </node>
  <node id="-135" visible="true" lat="43.050065203019" lon="-72.778161293378">
    <tag k="addr:city" v="Wardsboro"/>
    <tag k="addr:housenumber" v="153"/>
    <tag k="addr:street" v="Rast Road"/>
    <tag k="addr:state" v="VT"/>
    <tag k="ref:vcgi:esiteid" v="270325"/>
  </node>
  <node id="-136" visible="true" lat="43.049939316631" lon="-72.78580594947">
    <tag k="addr:city" v="Wardsboro"/>
    <tag k="addr:housenumber" v="122"/>
    <tag k="addr:street" v="Vermont Route 100"/>
    <tag k="addr:state" v="VT"/>
    <tag k="ref:vcgi:esiteid" v="270326"/>
  </node>
  <node id="-141" visible="true" lat="43.049832505728" lon="-72.76670193793">
    <tag k="addr:city" v="Wardsboro"/>
    <tag k="addr:housenumber" v="1420"/>
    <tag k="addr:street" v="East Hill Road"/>
    <tag k="addr:state" v="VT"/>
    <tag k="ref:vcgi:esiteid" v="270331"/>
  </node>
  <node id="-142" visible="true" lat="43.049760026307" lon="-72.790040264035">
    <tag k="addr:city" v="Wardsboro"/>
    <tag k="addr:housenumber" v="639"/>
    <tag k="addr:street" v="Main Street"/>
    <tag k="addr:state" v="VT"/>
    <tag k="ref:vcgi:esiteid" v="270332"/>
  </node>
  <node id="-147" visible="true" lat="43.049512071278" lon="-72.791390667671">
    <tag k="addr:city" v="Wardsboro"/>
    <tag k="addr:housenumber" v="130"/>
    <tag k="addr:street" v="Melis Road"/>
    <tag k="addr:state" v="VT"/>
    <tag k="ref:vcgi:esiteid" v="270337"/>
  </node>
  <node id="-152" visible="true" lat="43.049435776637" lon="-72.789498576231">
    <tag k="addr:city" v="Wardsboro"/>
    <tag k="addr:housenumber" v="612"/>
    <tag k="addr:street" v="Main Street"/>
    <tag k="addr:state" v="VT"/>
    <tag k="ref:vcgi:esiteid" v="270342"/>
  </node>
  <node id="-153" visible="true" lat="43.049458664907" lon="-72.774567846862">
    <tag k="addr:city" v="Wardsboro"/>
    <tag k="addr:housenumber" v="1005"/>
    <tag k="addr:street" v="East Hill Road"/>
    <tag k="addr:state" v="VT"/>
    <tag k="ref:vcgi:esiteid" v="270343"/>
  </node>
  <node id="-157" visible="true" lat="43.049321335137" lon="-72.787133464218">
    <tag k="addr:city" v="Wardsboro"/>
    <tag k="addr:housenumber" v="200"/>
    <tag k="addr:street" v="Vermont Route 100"/>
    <tag k="addr:state" v="VT"/>
    <tag k="ref:vcgi:esiteid" v="270347"/>
  </node>
  <node id="-159" visible="true" lat="43.04930989218" lon="-72.785958536436">
    <tag k="addr:city" v="Wardsboro"/>
    <tag k="addr:housenumber" v="166"/>
    <tag k="addr:street" v="Vermont Route 100"/>
    <tag k="addr:state" v="VT"/>
    <tag k="ref:vcgi:esiteid" v="270349"/>
  </node>
  <node id="-164" visible="true" lat="43.04907338064" lon="-72.786362895023">
    <tag k="addr:city" v="Wardsboro"/>
    <tag k="addr:housenumber" v="198"/>
    <tag k="addr:street" v="Vermont Route 100"/>
    <tag k="addr:state" v="VT"/>
    <tag k="ref:vcgi:esiteid" v="270354"/>
  </node>
  <node id="-170" visible="true" lat="43.048936051929" lon="-72.79001737543">
    <tag k="addr:city" v="Wardsboro"/>
    <tag k="addr:housenumber" v="573"/>
    <tag k="addr:street" v="Main Street"/>
    <tag k="addr:state" v="VT"/>
    <tag k="ref:vcgi:esiteid" v="270360"/>
  </node>
  <node id="-175" visible="true" lat="43.048779648158" lon="-72.792863140347">
    <tag k="addr:city" v="Wardsboro"/>
    <tag k="addr:housenumber" v="171"/>
    <tag k="addr:street" v="Melis Road"/>
    <tag k="addr:state" v="VT"/>
    <tag k="ref:vcgi:esiteid" v="270365"/>
  </node>
  <node id="-181" visible="true" lat="43.048623247889" lon="-72.781655557552">
    <tag k="addr:city" v="Wardsboro"/>
    <tag k="addr:housenumber" v="603"/>
    <tag k="addr:street" v="East Hill Road"/>
    <tag k="addr:state" v="VT"/>
    <tag k="ref:vcgi:esiteid" v="270371"/>
  </node>
  <node id="-189" visible="true" lat="43.048325700231" lon="-72.78070188092">
    <tag k="addr:city" v="Wardsboro"/>
    <tag k="addr:housenumber" v="655"/>
    <tag k="addr:street" v="East Hill Road"/>
    <tag k="addr:state" v="VT"/>
    <tag k="ref:vcgi:esiteid" v="270379"/>
  </node>
  <node id="-192" visible="true" lat="43.048199815427" lon="-72.787301309492">
    <tag k="addr:city" v="Wardsboro"/>
    <tag k="addr:housenumber" v="70"/>
    <tag k="addr:street" v="School Road"/>
    <tag k="addr:state" v="VT"/>
    <tag k="ref:vcgi:esiteid" v="270382"/>
  </node>
  <node id="-196" visible="true" lat="43.048024338863" lon="-72.776070839207">
    <tag k="addr:city" v="Wardsboro"/>
    <tag k="addr:housenumber" v="884"/>
    <tag k="addr:street" v="East Hill Road"/>
    <tag k="addr:state" v="VT"/>
    <tag k="ref:vcgi:esiteid" v="270386"/>
  </node>
  <node id="-198" visible="true" lat="43.047879379318" lon="-72.791840801135">
    <tag k="addr:city" v="Wardsboro"/>
    <tag k="addr:housenumber" v="85"/>
    <tag k="addr:street" v="Melis Road"/>
    <tag k="addr:state" v="VT"/>
    <tag k="ref:vcgi:esiteid" v="270388"/>
  </node>
  <node id="-207" visible="true" lat="43.047433059952" lon="-72.79063535709">
    <tag k="addr:city" v="Wardsboro"/>
    <tag k="addr:housenumber" v="26"/>
    <tag k="addr:street" v="Melis Road"/>
    <tag k="addr:state" v="VT"/>
    <tag k="ref:vcgi:esiteid" v="270397"/>
  </node>
  <node id="-210" visible="true" lat="43.047301414863" lon="-72.786444169812">
    <tag k="addr:city" v="Wardsboro"/>
    <tag k="addr:housenumber" v="304"/>
    <tag k="addr:street" v="Vermont Route 100"/>
    <tag k="addr:state" v="VT"/>
    <tag k="ref:vcgi:esiteid" v="270400"/>
  </node>
  <node id="-213" visible="true" lat="43.047113336983" lon="-72.780812532079">
    <tag k="addr:city" v="Wardsboro"/>
    <tag k="addr:housenumber" v="688"/>
    <tag k="addr:street" v="East Hill Road"/>
    <tag k="addr:state" v="VT"/>
    <tag k="ref:vcgi:esiteid" v="270403"/>
  </node>
  <node id="-215" visible="true" lat="43.046956223501" lon="-72.790330182314">
    <tag k="addr:city" v="Wardsboro"/>
    <tag k="addr:housenumber" v="436"/>
    <tag k="addr:street" v="Main Street"/>
    <tag k="addr:state" v="VT"/>
    <tag k="ref:vcgi:esiteid" v="270405"/>
  </node>
  <node id="-221" visible="true" lat="43.046811264786" lon="-72.782838113376">
    <tag k="addr:city" v="Wardsboro"/>
    <tag k="addr:housenumber" v="509"/>
    <tag k="addr:street" v="East Hill Road"/>
    <tag k="addr:state" v="VT"/>
    <tag k="ref:vcgi:esiteid" v="270411"/>
  </node>
  <node id="-222" visible="true" lat="43.046981123435" lon="-72.758679355664">
    <tag k="addr:city" v="Wardsboro"/>
    <tag k="addr:housenumber" v="1943"/>
    <tag k="addr:street" v="East Hill Road"/>
    <tag k="addr:state" v="VT"/>
    <tag k="ref:vcgi:esiteid" v="270412"/>
  </node>
  <node id="-227" visible="true" lat="43.046578568527" lon="-72.79033018214">
    <tag k="addr:city" v="Wardsboro"/>
    <tag k="addr:housenumber" v="408"/>
    <tag k="addr:street" v="Main Street"/>
    <tag k="addr:state" v="VT"/>
    <tag k="ref:vcgi:esiteid" v="270417"/>
  </node>
  <node id="-229" visible="true" lat="43.046536606615" lon="-72.79084898142">
    <tag k="addr:city" v="Wardsboro"/>
    <tag k="addr:housenumber" v="405"/>
    <tag k="addr:street" v="Main Street"/>
    <tag k="addr:state" v="VT"/>
    <tag k="ref:vcgi:esiteid" v="270419"/>
  </node>
  <node id="-231" visible="true" lat="43.046391648653" lon="-72.782647377018">
    <tag k="addr:city" v="Wardsboro"/>
    <tag k="addr:housenumber" v="496"/>
    <tag k="addr:street" v="East Hill Road"/>
    <tag k="addr:state" v="VT"/>
    <tag k="ref:vcgi:esiteid" v="270421"/>
  </node>
  <node id="-234" visible="true" lat="43.046284837101" lon="-72.786080606656">
    <tag k="addr:city" v="Wardsboro"/>
    <tag k="addr:housenumber" v="375"/>
    <tag k="addr:street" v="Vermont Route 100"/>
    <tag k="addr:state" v="VT"/>
    <tag k="ref:vcgi:esiteid" v="270424"/>
  </node>
  <node id="-237" visible="true" lat="43.04613606281" lon="-72.790337810889">
    <tag k="addr:city" v="Wardsboro"/>
    <tag k="addr:housenumber" v="376"/>
    <tag k="addr:street" v="Main Street"/>
    <tag k="addr:state" v="VT"/>
    <tag k="ref:vcgi:esiteid" v="270427"/>
  </node>
  <node id="-243" visible="true" lat="43.045762222403" lon="-72.783677345674">
    <tag k="addr:city" v="Wardsboro"/>
    <tag k="addr:housenumber" v="482"/>
    <tag k="addr:street" v="East Hill Road"/>
    <tag k="addr:state" v="VT"/>
    <tag k="ref:vcgi:esiteid" v="270433"/>
  </node>
  <node id="-251" visible="true" lat="43.045380754539" lon="-72.784737831943">
    <tag k="addr:city" v="Wardsboro"/>
    <tag k="addr:housenumber" v="377"/>
    <tag k="addr:street" v="East Hill Road"/>
    <tag k="addr:state" v="VT"/>
    <tag k="ref:vcgi:esiteid" v="270441"/>
  </node>
  <node id="-258" visible="true" lat="43.045056504747" lon="-72.790108928173">
    <tag k="addr:city" v="Wardsboro"/>
    <tag k="addr:housenumber" v="300"/>
    <tag k="addr:street" v="Main Street"/>
    <tag k="addr:state" v="VT"/>
    <tag k="ref:vcgi:esiteid" v="270448"/>
  </node>
  <node id="-261" visible="true" lat="43.044919173421" lon="-72.790696390628">
    <tag k="addr:city" v="Wardsboro"/>
    <tag k="addr:housenumber" v="295"/>
    <tag k="addr:street" v="Main Street"/>
    <tag k="addr:state" v="VT"/>
    <tag k="ref:vcgi:esiteid" v="270451"/>
  </node>
  <node id="-265" visible="true" lat="43.044732255619" lon="-72.790131816375">
    <tag k="addr:city" v="Wardsboro"/>
    <tag k="addr:housenumber" v="278"/>
    <tag k="addr:street" v="Main Street"/>
    <tag k="addr:state" v="VT"/>
    <tag k="ref:vcgi:esiteid" v="270455"/>
  </node>
  <node id="-269" visible="true" lat="43.044511002226" lon="-72.790017375492">
    <tag k="addr:city" v="Wardsboro"/>
    <tag k="addr:housenumber" v="262"/>
    <tag k="addr:street" v="Main Street"/>
    <tag k="addr:state" v="VT"/>
    <tag k="ref:vcgi:esiteid" v="270459"/>
  </node>
  <node id="-273" visible="true" lat="43.044308823529" lon="-72.787133463539">
    <tag k="addr:city" v="Wardsboro"/>
    <tag k="addr:housenumber" v="522"/>
    <tag k="addr:street" v="Vermont Route 100"/>
    <tag k="addr:state" v="VT"/>
    <tag k="ref:vcgi:esiteid" v="270463"/>
  </node>
  <node id="-282" visible="true" lat="43.043534439299" lon="-72.787797221361">
    <tag k="addr:city" v="Wardsboro"/>
    <tag k="addr:housenumber" v="586"/>
    <tag k="addr:street" v="Vermont Route 100"/>
    <tag k="addr:state" v="VT"/>
    <tag k="ref:vcgi:esiteid" v="270473"/>
  </node>
  <node id="-285" visible="true" lat="43.04329029811" lon="-72.79036832759">
    <tag k="addr:city" v="Wardsboro"/>
    <tag k="addr:housenumber" v="181"/>
    <tag k="addr:street" v="Main Street"/>
    <tag k="addr:state" v="VT"/>
    <tag k="ref:vcgi:esiteid" v="270476"/>
  </node>
  <node id="-287" visible="true" lat="43.043282668274" lon="-72.788026103429">
    <tag k="addr:city" v="Wardsboro"/>
    <tag k="addr:housenumber" v="606"/>
    <tag k="addr:street" v="Vermont Route 100"/>
    <tag k="addr:state" v="VT"/>
    <tag k="ref:vcgi:esiteid" v="270478"/>
  </node>
  <node id="-290" visible="true" lat="43.043164414198" lon="-72.789849528522">
    <tag k="addr:city" v="Wardsboro"/>
    <tag k="addr:housenumber" v="170"/>
    <tag k="addr:street" v="Main Street"/>
    <tag k="addr:state" v="VT"/>
    <tag k="ref:vcgi:esiteid" v="270482"/>
  </node>
  <node id="-292" visible="true" lat="43.043206377088" lon="-72.746842617229">
    <tag k="addr:city" v="Wardsboro"/>
    <tag k="addr:housenumber" v="426"/>
    <tag k="addr:street" v="Kaiser Road"/>
    <tag k="addr:state" v="VT"/>
    <tag k="ref:vcgi:esiteid" v="270484"/>
  </node>
  <node id="-296" visible="true" lat="43.042950681457" lon="-72.78826247246">
    <tag k="addr:city" v="Wardsboro"/>
    <tag k="addr:housenumber" v="634"/>
    <tag k="addr:street" v="Vermont Route 100"/>
    <tag k="addr:state" v="VT"/>
    <tag k="ref:vcgi:esiteid" v="270488"/>
  </node>
  <node id="-297" visible="true" lat="43.042866868109" lon="-72.790444620904">
    <tag k="addr:city" v="Wardsboro"/>
    <tag k="addr:housenumber" v="153"/>
    <tag k="addr:street" v="Main Street"/>
    <tag k="addr:state" v="VT"/>
    <tag k="ref:vcgi:esiteid" v="270489"/>
  </node>
  <node id="-298" visible="true" lat="43.042840164824" lon="-72.789826641373">
    <tag k="addr:city" v="Wardsboro"/>
    <tag k="addr:housenumber" v="146"/>
    <tag k="addr:street" v="Main Street"/>
    <tag k="addr:state" v="VT"/>
    <tag k="ref:vcgi:esiteid" v="270490"/>
  </node>
  <node id="-300" visible="true" lat="43.042916460312" lon="-72.748391384343">
    <tag k="addr:city" v="Wardsboro"/>
    <tag k="addr:housenumber" v="463"/>
    <tag k="addr:street" v="Kaiser Road"/>
    <tag k="addr:state" v="VT"/>
    <tag k="ref:vcgi:esiteid" v="270492"/>
  </node>
  <node id="-301" visible="true" lat="43.042742164668" lon="-72.78836775214">
    <tag k="addr:city" v="Wardsboro"/>
    <tag k="addr:housenumber" v="642"/>
    <tag k="addr:street" v="Vermont Route 100"/>
    <tag k="addr:state" v="VT"/>
    <tag k="ref:vcgi:esiteid" v="270493"/>
  </node>
  <node id="-305" visible="true" lat="43.042653243704" lon="-72.789811382797">
    <tag k="addr:city" v="Wardsboro"/>
    <tag k="addr:housenumber" v="134"/>
    <tag k="addr:street" v="Main Street"/>
    <tag k="addr:state" v="VT"/>
    <tag k="ref:vcgi:esiteid" v="270497"/>
  </node>
  <node id="-308" visible="true" lat="43.042557876826" lon="-72.790284403958">
    <tag k="addr:city" v="Wardsboro"/>
    <tag k="addr:housenumber" v="131"/>
    <tag k="addr:street" v="Main Street"/>
    <tag k="addr:state" v="VT"/>
    <tag k="ref:vcgi:esiteid" v="270500"/>
  </node>
  <node id="-309" visible="true" lat="43.042556758324" lon="-72.788516085166">
    <tag k="addr:city" v="Wardsboro"/>
    <tag k="addr:housenumber" v="660"/>
    <tag k="addr:street" v="Vermont Route 100"/>
    <tag k="addr:state" v="VT"/>
    <tag k="ref:vcgi:esiteid" v="270501"/>
  </node>
  <node id="-310" visible="true" lat="43.042546432228" lon="-72.784989601506">
    <tag k="addr:city" v="Wardsboro"/>
    <tag k="addr:housenumber" v="198"/>
    <tag k="addr:street" v="East Hill Road"/>
    <tag k="addr:state" v="VT"/>
    <tag k="ref:vcgi:esiteid" v="270502"/>
  </node>
  <node id="-311" visible="true" lat="43.042743960231" lon="-72.800123090866">
    <tag k="addr:city" v="Wardsboro"/>
    <tag k="addr:housenumber" v="510"/>
    <tag k="addr:street" v="Fornuto Road"/>
    <tag k="addr:state" v="VT"/>
    <tag k="ref:vcgi:esiteid" v="270503"/>
  </node>
  <node id="-312" visible="true" lat="43.042441277292" lon="-72.78975229738">
    <tag k="addr:city" v="Wardsboro"/>
    <tag k="addr:housenumber" v="122"/>
    <tag k="addr:street" v="Main Street"/>
    <tag k="addr:state" v="VT"/>
    <tag k="ref:vcgi:esiteid" v="270504"/>
  </node>
  <node id="-318" visible="true" lat="43.042233627635" lon="-72.789696941468">
    <tag k="addr:city" v="Wardsboro"/>
    <tag k="addr:housenumber" v="104"/>
    <tag k="addr:street" v="Main Street"/>
    <tag k="addr:state" v="VT"/>
    <tag k="ref:vcgi:esiteid" v="270510"/>
  </node>
  <node id="-319" visible="true" lat="43.042191665704" lon="-72.791306742739">
    <tag k="addr:city" v="Wardsboro"/>
    <tag k="addr:housenumber" v="18"/>
    <tag k="addr:street" v="Fornuto Road"/>
    <tag k="addr:state" v="VT"/>
    <tag k="ref:vcgi:esiteid" v="270511"/>
  </node>
  <node id="-321" visible="true" lat="43.042089288834" lon="-72.788584749189">
    <tag k="addr:city" v="Wardsboro"/>
    <tag k="addr:housenumber" v="688"/>
    <tag k="addr:street" v="Vermont Route 100"/>
    <tag k="addr:state" v="VT"/>
    <tag k="ref:vcgi:esiteid" v="270513"/>
  </node>
  <node id="-323" visible="true" lat="43.042016190583" lon="-72.786271341499">
    <tag k="addr:city" v="Wardsboro"/>
    <tag k="addr:housenumber" v="130"/>
    <tag k="addr:street" v="East Hill Road"/>
    <tag k="addr:state" v="VT"/>
    <tag k="ref:vcgi:esiteid" v="270515"/>
  </node>
  <node id="-325" visible="true" lat="43.041800914447" lon="-72.789659825756">
    <tag k="addr:city" v="Wardsboro"/>
    <tag k="addr:housenumber" v="76"/>
    <tag k="addr:street" v="Main Street"/>
    <tag k="addr:state" v="VT"/>
    <tag k="ref:vcgi:esiteid" v="270517"/>
  </node>
  <node id="-327" visible="true" lat="43.041720207055" lon="-72.790365158345">
    <tag k="addr:city" v="Wardsboro"/>
    <tag k="addr:housenumber" v="71"/>
    <tag k="addr:street" v="Main Street"/>
    <tag k="addr:state" v="VT"/>
    <tag k="ref:vcgi:esiteid" v="270519"/>
  </node>
  <node id="-328" visible="true" lat="43.041691940713" lon="-72.797021161127">
    <tag k="addr:city" v="Wardsboro"/>
    <tag k="addr:housenumber" v="356"/>
    <tag k="addr:street" v="Fornuto Road"/>
    <tag k="addr:state" v="VT"/>
    <tag k="ref:vcgi:esiteid" v="270520"/>
  </node>
  <node id="-331" visible="true" lat="43.041493210509" lon="-72.789524377619">
    <tag k="addr:city" v="Wardsboro"/>
    <tag k="addr:housenumber" v="62"/>
    <tag k="addr:street" v="Main Street"/>
    <tag k="addr:state" v="VT"/>
    <tag k="ref:vcgi:esiteid" v="270523"/>
  </node>
  <node id="-333" visible="true" lat="43.041558425436" lon="-72.78675199406">
    <tag k="addr:city" v="Wardsboro"/>
    <tag k="addr:housenumber" v="90"/>
    <tag k="addr:street" v="East Hill Road"/>
    <tag k="addr:state" v="VT"/>
    <tag k="ref:vcgi:esiteid" v="270525"/>
  </node>
  <node id="-334" visible="true" lat="43.041554612269" lon="-72.788544901738">
    <tag k="addr:city" v="Wardsboro"/>
    <tag k="addr:housenumber" v="724"/>
    <tag k="addr:street" v="Vermont Route 100"/>
    <tag k="addr:state" v="VT"/>
    <tag k="ref:vcgi:esiteid" v="270526"/>
  </node>
  <node id="-335" visible="true" lat="43.041509847914" lon="-72.790062802382">
    <tag k="addr:city" v="Wardsboro"/>
    <tag k="addr:housenumber" v="57"/>
    <tag k="addr:street" v="Main Street"/>
    <tag k="addr:state" v="VT"/>
    <tag k="ref:vcgi:esiteid" v="270527"/>
  </node>
  <node id="-337" visible="true" lat="43.04127995183" lon="-72.787591226793">
    <tag k="addr:city" v="Wardsboro"/>
    <tag k="addr:housenumber" v="5"/>
    <tag k="addr:street" v="East Hill Road"/>
    <tag k="addr:state" v="VT"/>
    <tag k="ref:vcgi:esiteid" v="270529"/>
  </node>
  <node id="-338" visible="true" lat="43.041218391356" lon="-72.790332988347">
    <tag k="addr:city" v="Wardsboro"/>
    <tag k="addr:housenumber" v="49"/>
    <tag k="addr:street" v="Main Street"/>
    <tag k="addr:state" v="VT"/>
    <tag k="ref:vcgi:esiteid" v="270531"/>
  </node>
  <node id="-339" visible="true" lat="43.041205627077" lon="-72.789496777145">
    <tag k="addr:city" v="Wardsboro"/>
    <tag k="addr:housenumber" v="34"/>
    <tag k="addr:street" v="Main Street"/>
    <tag k="addr:state" v="VT"/>
    <tag k="ref:vcgi:esiteid" v="270532"/>
  </node>
  <node id="-341" visible="true" lat="43.041001480726" lon="-72.790131816769">
    <tag k="addr:city" v="Wardsboro"/>
    <tag k="addr:housenumber" v="23"/>
    <tag k="addr:street" v="Main Street"/>
    <tag k="addr:state" v="VT"/>
    <tag k="ref:vcgi:esiteid" v="270536"/>
  </node>
  <node id="-343" visible="true" lat="43.041017029977" lon="-72.789586033441">
    <tag k="addr:city" v="Wardsboro"/>
    <tag k="addr:housenumber" v="18"/>
    <tag k="addr:street" v="Main Street"/>
    <tag k="addr:state" v="VT"/>
    <tag k="ref:vcgi:esiteid" v="270538"/>
  </node>
  <node id="-346" visible="true" lat="43.040909927209" lon="-72.789193401202">
    <tag k="addr:city" v="Wardsboro"/>
    <tag k="addr:housenumber" v="812"/>
    <tag k="addr:street" v="Vermont Route 100"/>
    <tag k="addr:state" v="VT"/>
    <tag k="ref:vcgi:esiteid" v="270541"/>
  </node>
  <node id="-348" visible="true" lat="43.040875594158" lon="-72.788644084574">
    <tag k="addr:city" v="Wardsboro"/>
    <tag k="addr:housenumber" v="772"/>
    <tag k="addr:street" v="Vermont Route 100"/>
    <tag k="addr:state" v="VT"/>
    <tag k="ref:vcgi:esiteid" v="270543"/>
  </node>
  <node id="-349" visible="true" lat="43.040656563916" lon="-72.790219812468">
    <tag k="addr:city" v="Wardsboro"/>
    <tag k="addr:housenumber" v="10"/>
    <tag k="addr:street" v="Fornuto Road"/>
    <tag k="addr:state" v="VT"/>
    <tag k="ref:vcgi:esiteid" v="270544"/>
  </node>
  <node id="-350" visible="true" lat="43.040627639906" lon="-72.788949259509">
    <tag k="addr:city" v="Wardsboro"/>
    <tag k="addr:housenumber" v="799"/>
    <tag k="addr:street" v="Vermont Route 100"/>
    <tag k="addr:state" v="VT"/>
    <tag k="ref:vcgi:esiteid" v="270545"/>
  </node>
  <node id="-352" visible="true" lat="43.040539286353" lon="-72.790633853952">
    <tag k="addr:city" v="Wardsboro"/>
    <tag k="addr:housenumber" v="16"/>
    <tag k="addr:street" v="Fornuto Road"/>
    <tag k="addr:state" v="VT"/>
    <tag k="ref:vcgi:esiteid" v="270547"/>
  </node>
  <node id="-353" visible="true" lat="43.040569730906" lon="-72.788618880595">
    <tag k="addr:city" v="Wardsboro"/>
    <tag k="addr:housenumber" v="783"/>
    <tag k="addr:street" v="Vermont Route 100"/>
    <tag k="addr:state" v="VT"/>
    <tag k="ref:vcgi:esiteid" v="270548"/>
  </node>
  <node id="-355" visible="true" lat="43.040566603633" lon="-72.789460430172">
    <tag k="addr:city" v="Wardsboro"/>
    <tag k="addr:housenumber" v="827"/>
    <tag k="addr:street" v="Vermont Route 100"/>
    <tag k="addr:state" v="VT"/>
    <tag k="ref:vcgi:esiteid" v="270550"/>
  </node>
  <node id="-357" visible="true" lat="43.040501753723" lon="-72.789742716353">
    <tag k="addr:city" v="Wardsboro"/>
    <tag k="addr:housenumber" v="847"/>
    <tag k="addr:street" v="Vermont Route 100"/>
    <tag k="addr:state" v="VT"/>
    <tag k="ref:vcgi:esiteid" v="270552"/>
  </node>
  <node id="-358" visible="true" lat="43.040468275777" lon="-72.789860215436">
    <tag k="addr:city" v="Wardsboro"/>
    <tag k="addr:housenumber" v="861"/>
    <tag k="addr:street" v="Vermont Route 100"/>
    <tag k="addr:state" v="VT"/>
    <tag k="ref:vcgi:esiteid" v="270553"/>
  </node>
  <node id="-359" visible="true" lat="43.040391455039" lon="-72.790568010205">
    <tag k="addr:city" v="Wardsboro"/>
    <tag k="addr:housenumber" v="11"/>
    <tag k="addr:street" v="Fornuto Road"/>
    <tag k="addr:state" v="VT"/>
    <tag k="ref:vcgi:esiteid" v="270554"/>
  </node>
  <node id="-360" visible="true" lat="43.04041052851" lon="-72.791770060202">
    <tag k="addr:city" v="Wardsboro"/>
    <tag k="addr:housenumber" v="77"/>
    <tag k="addr:street" v="Fornuto Road"/>
    <tag k="addr:state" v="VT"/>
    <tag k="ref:vcgi:esiteid" v="270555"/>
  </node>
  <node id="-361" visible="true" lat="43.040285141534" lon="-72.790894115348">
    <tag k="addr:city" v="Wardsboro"/>
    <tag k="addr:housenumber" v="25"/>
    <tag k="addr:street" v="Fornuto Road"/>
    <tag k="addr:state" v="VT"/>
    <tag k="ref:vcgi:esiteid" v="270556"/>
  </node>
  <node id="-365" visible="true" lat="43.039996398448" lon="-72.791632521138">
    <tag k="addr:city" v="Wardsboro"/>
    <tag k="addr:housenumber" v="930"/>
    <tag k="addr:street" v="Vermont Route 100"/>
    <tag k="addr:state" v="VT"/>
    <tag k="ref:vcgi:esiteid" v="270560"/>
  </node>
  <node id="-366" visible="true" lat="43.039966385097" lon="-72.788283382541">
    <tag k="addr:city" v="Wardsboro"/>
    <tag k="addr:housenumber" v="76"/>
    <tag k="addr:street" v="South Wardsboro Road"/>
    <tag k="addr:state" v="VT"/>
    <tag k="ref:vcgi:esiteid" v="270561"/>
  </node>
  <node id="-368" visible="true" lat="43.039821100048" lon="-72.813768105571">
    <tag k="addr:city" v="Wardsboro"/>
    <tag k="addr:housenumber" v="240"/>
    <tag k="addr:street" v="Melbourne Road"/>
    <tag k="addr:state" v="VT"/>
    <tag k="ref:vcgi:esiteid" v="270563"/>
  </node>
  <node id="-371" visible="true" lat="43.039662991463" lon="-72.789006791633">
    <tag k="addr:city" v="Wardsboro"/>
    <tag k="addr:housenumber" v="106"/>
    <tag k="addr:street" v="South Wardsboro Road"/>
    <tag k="addr:state" v="VT"/>
    <tag k="ref:vcgi:esiteid" v="270567"/>
  </node>
  <node id="-375" visible="true" lat="43.039200942697" lon="-72.789574870127">
    <tag k="addr:city" v="Wardsboro"/>
    <tag k="addr:housenumber" v="174"/>
    <tag k="addr:street" v="South Wardsboro Road"/>
    <tag k="addr:state" v="VT"/>
    <tag k="ref:vcgi:esiteid" v="270572"/>
  </node>
  <node id="-382" visible="true" lat="43.039019845529" lon="-72.806775982627">
    <tag k="addr:city" v="Wardsboro"/>
    <tag k="addr:housenumber" v="338"/>
    <tag k="addr:street" v="Mill Road"/>
    <tag k="addr:state" v="VT"/>
    <tag k="ref:vcgi:esiteid" v="270579"/>
  </node>
  <node id="-383" visible="true" lat="43.038808028119" lon="-72.787209758055">
    <tag k="addr:city" v="Wardsboro"/>
    <tag k="addr:housenumber" v="126"/>
    <tag k="addr:street" v="Fairview Road"/>
    <tag k="addr:state" v="VT"/>
    <tag k="ref:vcgi:esiteid" v="270580"/>
  </node>
  <node id="-386" visible="true" lat="43.038205307067" lon="-72.79300046933">
    <tag k="addr:city" v="Wardsboro"/>
    <tag k="addr:housenumber" v="1082"/>
    <tag k="addr:street" v="Vermont Route 100"/>
    <tag k="addr:state" v="VT"/>
    <tag k="ref:vcgi:esiteid" v="270585"/>
  </node>
  <node id="-387" visible="true" lat="43.038022200452" lon="-72.793305646293">
    <tag k="addr:city" v="Wardsboro"/>
    <tag k="addr:housenumber" v="1102"/>
    <tag k="addr:street" v="Vermont Route 100"/>
    <tag k="addr:state" v="VT"/>
    <tag k="ref:vcgi:esiteid" v="270586"/>
  </node>
  <node id="-389" visible="true" lat="43.037709395252" lon="-72.793710003966">
    <tag k="addr:city" v="Wardsboro"/>
    <tag k="addr:housenumber" v="1132"/>
    <tag k="addr:street" v="Vermont Route 100"/>
    <tag k="addr:state" v="VT"/>
    <tag k="ref:vcgi:esiteid" v="270588"/>
  </node>
  <node id="-390" visible="true" lat="43.037538344044" lon="-72.793953357682">
    <tag k="addr:city" v="Wardsboro"/>
    <tag k="addr:housenumber" v="1146"/>
    <tag k="addr:street" v="Vermont Route 100"/>
    <tag k="addr:state" v="VT"/>
    <tag k="ref:vcgi:esiteid" v="270589"/>
  </node>
  <node id="-393" visible="true" lat="43.036974857765" lon="-72.814239751095">
    <tag k="addr:city" v="Wardsboro"/>
    <tag k="addr:housenumber" v="240"/>
    <tag k="addr:street" v="Bills Road"/>
    <tag k="addr:state" v="VT"/>
    <tag k="ref:vcgi:esiteid" v="270592"/>
  </node>
  <node id="-394" visible="true" lat="43.039119161489" lon="-72.818522186437">
    <tag k="addr:city" v="Wardsboro"/>
    <tag k="addr:housenumber" v="153"/>
    <tag k="addr:street" v="Lorchs Hill Road"/>
    <tag k="addr:state" v="VT"/>
    <tag k="ref:vcgi:esiteid" v="270593"/>
  </node>
  <node id="-395" visible="true" lat="43.03674659784" lon="-72.811624129881">
    <tag k="addr:city" v="Wardsboro"/>
    <tag k="addr:housenumber" v="144"/>
    <tag k="addr:street" v="Bills Road"/>
    <tag k="addr:state" v="VT"/>
    <tag k="ref:vcgi:esiteid" v="270594"/>
  </node>
  <node id="-396" visible="true" lat="43.036705846101" lon="-72.812709224491">
    <tag k="addr:city" v="Wardsboro"/>
    <tag k="addr:housenumber" v="14"/>
    <tag k="addr:street" v="Melbourne Road"/>
    <tag k="addr:state" v="VT"/>
    <tag k="ref:vcgi:esiteid" v="270595"/>
  </node>
  <node id="-399" visible="true" lat="43.03638385443" lon="-72.810967569813">
    <tag k="addr:city" v="Wardsboro"/>
    <tag k="addr:housenumber" v="110"/>
    <tag k="addr:street" v="Bills Road"/>
    <tag k="addr:state" v="VT"/>
    <tag k="ref:vcgi:esiteid" v="270598"/>
  </node>
  <node id="-409" visible="true" lat="43.035356213146" lon="-72.818218993135">
    <tag k="addr:city" v="Wardsboro"/>
    <tag k="addr:housenumber" v="132"/>
    <tag k="addr:street" v="Hi Hopes Road"/>
    <tag k="addr:state" v="VT"/>
    <tag k="ref:vcgi:esiteid" v="270608"/>
  </node>
  <node id="-410" visible="true" lat="43.035241368141" lon="-72.816587594323">
    <tag k="addr:city" v="Wardsboro"/>
    <tag k="addr:housenumber" v="456"/>
    <tag k="addr:street" v="Bills Road"/>
    <tag k="addr:state" v="VT"/>
    <tag k="ref:vcgi:esiteid" v="270609"/>
  </node>
  <node id="-412" visible="true" lat="43.035346288473" lon="-72.817324606713">
    <tag k="addr:city" v="Wardsboro"/>
    <tag k="addr:housenumber" v="94"/>
    <tag k="addr:street" v="Hi Hopes Road"/>
    <tag k="addr:state" v="VT"/>
    <tag k="ref:vcgi:esiteid" v="270611"/>
  </node>
  <node id="-414" visible="true" lat="43.03524128468" lon="-72.811372058036">
    <tag k="addr:city" v="Wardsboro"/>
    <tag k="addr:housenumber" v="2226"/>
    <tag k="addr:street" v="Vermont Route 100"/>
    <tag k="addr:state" v="VT"/>
    <tag k="ref:vcgi:esiteid" v="270613"/>
  </node>
  <node id="-415" visible="true" lat="43.035055326773" lon="-72.801420293807">
    <tag k="addr:city" v="Wardsboro"/>
    <tag k="addr:housenumber" v="120"/>
    <tag k="addr:street" v="Brown Hill Road"/>
    <tag k="addr:state" v="VT"/>
    <tag k="ref:vcgi:esiteid" v="270614"/>
  </node>
  <node id="-416" visible="true" lat="43.035116831656" lon="-72.796423772332">
    <tag k="addr:city" v="Wardsboro"/>
    <tag k="addr:housenumber" v="1351"/>
    <tag k="addr:street" v="Vermont Route 100"/>
    <tag k="addr:state" v="VT"/>
    <tag k="ref:vcgi:esiteid" v="270615"/>
  </node>
  <node id="-417" visible="true" lat="43.034875075219" lon="-72.811539904198">
    <tag k="addr:city" v="Wardsboro"/>
    <tag k="addr:housenumber" v="2236"/>
    <tag k="addr:street" v="Vermont Route 100"/>
    <tag k="addr:state" v="VT"/>
    <tag k="ref:vcgi:esiteid" v="270616"/>
  </node>
  <node id="-418" visible="true" lat="43.034861584248" lon="-72.81751212422">
    <tag k="addr:city" v="Wardsboro"/>
    <tag k="addr:housenumber" v="58"/>
    <tag k="addr:street" v="Hi Hopes Road"/>
    <tag k="addr:state" v="VT"/>
    <tag k="ref:vcgi:esiteid" v="270617"/>
  </node>
  <node id="-420" visible="true" lat="43.034701380506" lon="-72.816767116893">
    <tag k="addr:city" v="Wardsboro"/>
    <tag k="addr:housenumber" v="470"/>
    <tag k="addr:street" v="Bills Road"/>
    <tag k="addr:state" v="VT"/>
    <tag k="ref:vcgi:esiteid" v="270619"/>
  </node>
  <node id="-421" visible="true" lat="43.034716411521" lon="-72.805710472816">
    <tag k="addr:city" v="Wardsboro"/>
    <tag k="addr:housenumber" v="1938"/>
    <tag k="addr:street" v="Vermont Route 100"/>
    <tag k="addr:state" v="VT"/>
    <tag k="ref:vcgi:esiteid" v="270620"/>
  </node>
  <node id="-422" visible="true" lat="43.034558454055" lon="-72.841492917229">
    <tag k="addr:city" v="Wardsboro"/>
    <tag k="addr:housenumber" v="4448"/>
    <tag k="addr:street" v="Vermont Route 100"/>
    <tag k="addr:state" v="VT"/>
    <tag k="ref:vcgi:esiteid" v="270621"/>
  </node>
  <node id="-423" visible="true" lat="43.034601908787" lon="-72.808528092771">
    <tag k="addr:city" v="Wardsboro"/>
    <tag k="addr:housenumber" v="2085"/>
    <tag k="addr:street" v="Vermont Route 100"/>
    <tag k="addr:state" v="VT"/>
    <tag k="ref:vcgi:esiteid" v="270622"/>
  </node>
  <node id="-425" visible="true" lat="43.034254978659" lon="-72.807233134027">
    <tag k="addr:city" v="Wardsboro"/>
    <tag k="addr:housenumber" v="2025"/>
    <tag k="addr:street" v="Vermont Route 100"/>
    <tag k="addr:state" v="VT"/>
    <tag k="ref:vcgi:esiteid" v="270624"/>
  </node>
  <node id="-426" visible="true" lat="43.034347099955" lon="-72.81960913482">
    <tag k="addr:city" v="Wardsboro"/>
    <tag k="addr:housenumber" v="191"/>
    <tag k="addr:street" v="Hi Hopes Road"/>
    <tag k="addr:state" v="VT"/>
    <tag k="ref:vcgi:esiteid" v="270625"/>
  </node>
  <node id="-430" visible="true" lat="43.034169520838" lon="-72.806662783406">
    <tag k="addr:city" v="Wardsboro"/>
    <tag k="addr:housenumber" v="1991"/>
    <tag k="addr:street" v="Vermont Route 100"/>
    <tag k="addr:state" v="VT"/>
    <tag k="ref:vcgi:esiteid" v="270629"/>
  </node>
  <node id="-431" visible="true" lat="43.034409683853" lon="-72.747262234549">
    <tag k="addr:city" v="Wardsboro"/>
    <tag k="addr:housenumber" v="3057"/>
    <tag k="addr:street" v="East Hill Road"/>
    <tag k="addr:state" v="VT"/>
    <tag k="ref:vcgi:esiteid" v="270630"/>
  </node>
  <node id="-432" visible="true" lat="43.034218947731" lon="-72.797379743582">
    <tag k="addr:city" v="Wardsboro"/>
    <tag k="addr:housenumber" v="1454"/>
    <tag k="addr:street" v="Vermont Route 100"/>
    <tag k="addr:state" v="VT"/>
    <tag k="ref:vcgi:esiteid" v="270631"/>
  </node>
  <node id="-433" visible="true" lat="43.034003601527" lon="-72.817766746071">
    <tag k="addr:city" v="Wardsboro"/>
    <tag k="addr:housenumber" v="2552"/>
    <tag k="addr:street" v="Vermont Route 100"/>
    <tag k="addr:state" v="VT"/>
    <tag k="ref:vcgi:esiteid" v="270632"/>
  </node>
  <node id="-434" visible="true" lat="43.034046651065" lon="-72.802161445068">
    <tag k="addr:city" v="Wardsboro"/>
    <tag k="addr:housenumber" v="14"/>
    <tag k="addr:street" v="Brown Hill Road"/>
    <tag k="addr:state" v="VT"/>
    <tag k="ref:vcgi:esiteid" v="270633"/>
  </node>
  <node id="-435" visible="true" lat="43.033997304672" lon="-72.802959473732">
    <tag k="addr:city" v="Wardsboro"/>
    <tag k="addr:housenumber" v="1792"/>
    <tag k="addr:street" v="Vermont Route 100"/>
    <tag k="addr:state" v="VT"/>
    <tag k="ref:vcgi:esiteid" v="270634"/>
  </node>
  <node id="-436" visible="true" lat="43.033841290007" lon="-72.841553953397">
    <tag k="addr:city" v="Wardsboro"/>
    <tag k="addr:housenumber" v="4428"/>
    <tag k="addr:street" v="Vermont Route 100"/>
    <tag k="addr:state" v="VT"/>
    <tag k="ref:vcgi:esiteid" v="270635"/>
  </node>
  <node id="-438" visible="true" lat="43.033909958714" lon="-72.747361415828">
    <tag k="addr:city" v="Wardsboro"/>
    <tag k="addr:housenumber" v="3091"/>
    <tag k="addr:street" v="East Hill Road"/>
    <tag k="addr:state" v="VT"/>
    <tag k="ref:vcgi:esiteid" v="270637"/>
  </node>
  <node id="-441" visible="true" lat="43.033560220462" lon="-72.809475837342">
    <tag k="addr:city" v="Wardsboro"/>
    <tag k="addr:housenumber" v="89"/>
    <tag k="addr:street" v="Gilfeather Road"/>
    <tag k="addr:state" v="VT"/>
    <tag k="ref:vcgi:esiteid" v="270640"/>
  </node>
  <node id="-442" visible="true" lat="43.033450828682" lon="-72.826738302398">
    <tag k="addr:city" v="Wardsboro"/>
    <tag k="addr:housenumber" v="14"/>
    <tag k="addr:street" v="Lackey Hill Road"/>
    <tag k="addr:state" v="VT"/>
    <tag k="ref:vcgi:esiteid" v="270641"/>
  </node>
  <node id="-443" visible="true" lat="43.033321557796" lon="-72.798766100018">
    <tag k="addr:city" v="Wardsboro"/>
    <tag k="addr:housenumber" v="1578"/>
    <tag k="addr:street" v="Vermont Route 100"/>
    <tag k="addr:state" v="VT"/>
    <tag k="ref:vcgi:esiteid" v="270642"/>
  </node>
  <node id="-447" visible="true" lat="43.033053538766" lon="-72.816966943198">
    <tag k="addr:city" v="Wardsboro"/>
    <tag k="addr:housenumber" v="2583"/>
    <tag k="addr:street" v="Vermont Route 100"/>
    <tag k="addr:state" v="VT"/>
    <tag k="ref:vcgi:esiteid" v="270646"/>
  </node>
  <node id="-453" visible="true" lat="43.032760053089" lon="-72.818305442318">
    <tag k="addr:city" v="Wardsboro"/>
    <tag k="addr:housenumber" v="2634"/>
    <tag k="addr:street" v="Vermont Route 100"/>
    <tag k="addr:state" v="VT"/>
    <tag k="ref:vcgi:esiteid" v="270652"/>
  </node>
  <node id="-454" visible="true" lat="43.032706587224" lon="-72.819653861975">
    <tag k="addr:city" v="Wardsboro"/>
    <tag k="addr:housenumber" v="37"/>
    <tag k="addr:street" v="Hi Hopes Road"/>
    <tag k="addr:state" v="VT"/>
    <tag k="ref:vcgi:esiteid" v="270653"/>
  </node>
  <node id="-455" visible="true" lat="43.032579304906" lon="-72.840755318019">
    <tag k="addr:city" v="Wardsboro"/>
    <tag k="addr:housenumber" v="4345"/>
    <tag k="addr:street" v="Vermont Route 100"/>
    <tag k="addr:state" v="VT"/>
    <tag k="ref:vcgi:esiteid" v="270654"/>
  </node>
  <node id="-456" visible="true" lat="43.032907103042" lon="-72.747220630571">
    <tag k="addr:city" v="Wardsboro"/>
    <tag k="addr:housenumber" v="1589"/>
    <tag k="addr:street" v="Townshend Dam Road"/>
    <tag k="addr:state" v="VT"/>
    <tag k="ref:vcgi:esiteid" v="270655"/>
  </node>
  <node id="-461" visible="true" lat="43.032303671686" lon="-72.83338151915">
    <tag k="addr:city" v="Wardsboro"/>
    <tag k="addr:housenumber" v="255"/>
    <tag k="addr:street" v="Fitts Road"/>
    <tag k="addr:state" v="VT"/>
    <tag k="ref:vcgi:esiteid" v="270660"/>
  </node>
  <node id="-462" visible="true" lat="43.032296338257" lon="-72.837701106231">
    <tag k="addr:city" v="Wardsboro"/>
    <tag k="addr:housenumber" v="4260"/>
    <tag k="addr:street" v="Vermont Route 100"/>
    <tag k="addr:state" v="VT"/>
    <tag k="ref:vcgi:esiteid" v="270661"/>
  </node>
  <node id="-463" visible="true" lat="43.032388110988" lon="-72.809644439005">
    <tag k="addr:city" v="Wardsboro"/>
    <tag k="addr:housenumber" v="164"/>
    <tag k="addr:street" v="Gilfeather Road"/>
    <tag k="addr:state" v="VT"/>
    <tag k="ref:vcgi:esiteid" v="270662"/>
  </node>
  <node id="-464" visible="true" lat="43.032438966712" lon="-72.746504953564">
    <tag k="addr:city" v="Wardsboro"/>
    <tag k="addr:housenumber" v="1618"/>
    <tag k="addr:street" v="Townshend Dam Road"/>
    <tag k="addr:state" v="VT"/>
    <tag k="ref:vcgi:esiteid" v="270663"/>
  </node>
  <node id="-465" visible="true" lat="43.032376892374" lon="-72.818575693801">
    <tag k="addr:city" v="Wardsboro"/>
    <tag k="addr:housenumber" v="2672"/>
    <tag k="addr:street" v="Vermont Route 100"/>
    <tag k="addr:state" v="VT"/>
    <tag k="ref:vcgi:esiteid" v="270664"/>
  </node>
  <node id="-467" visible="true" lat="43.032183600945" lon="-72.829673609941">
    <tag k="addr:city" v="Wardsboro"/>
    <tag k="addr:housenumber" v="438"/>
    <tag k="addr:street" v="Fitts Road"/>
    <tag k="addr:state" v="VT"/>
    <tag k="ref:vcgi:esiteid" v="270666"/>
  </node>
  <node id="-473" visible="true" lat="43.031851509683" lon="-72.822783625971">
    <tag k="addr:city" v="Wardsboro"/>
    <tag k="addr:housenumber" v="791"/>
    <tag k="addr:street" v="Fitts Road"/>
    <tag k="addr:state" v="VT"/>
    <tag k="ref:vcgi:esiteid" v="270672"/>
  </node>
  <node id="-474" visible="true" lat="43.032054692941" lon="-72.825350014016">
    <tag k="addr:city" v="Wardsboro"/>
    <tag k="addr:housenumber" v="655"/>
    <tag k="addr:street" v="Fitts Road"/>
    <tag k="addr:state" v="VT"/>
    <tag k="ref:vcgi:esiteid" v="270673"/>
  </node>
  <node id="-475" visible="true" lat="43.031888165557" lon="-72.818887013477">
    <tag k="addr:city" v="Wardsboro"/>
    <tag k="addr:housenumber" v="2698"/>
    <tag k="addr:street" v="Vermont Route 100"/>
    <tag k="addr:state" v="VT"/>
    <tag k="ref:vcgi:esiteid" v="270674"/>
  </node>
  <node id="-479" visible="true" lat="43.031820200403" lon="-72.829142507916">
    <tag k="addr:city" v="Wardsboro"/>
    <tag k="addr:housenumber" v="480"/>
    <tag k="addr:street" v="Fitts Road"/>
    <tag k="addr:state" v="VT"/>
    <tag k="ref:vcgi:esiteid" v="270678"/>
  </node>
  <node id="-483" visible="true" lat="43.031701244908" lon="-72.818482656372">
    <tag k="addr:city" v="Wardsboro"/>
    <tag k="addr:housenumber" v="2705"/>
    <tag k="addr:street" v="Vermont Route 100"/>
    <tag k="addr:state" v="VT"/>
    <tag k="ref:vcgi:esiteid" v="270682"/>
  </node>
  <node id="-487" visible="true" lat="43.03144397885" lon="-72.819058431631">
    <tag k="addr:city" v="Wardsboro"/>
    <tag k="addr:housenumber" v="2726"/>
    <tag k="addr:street" v="Vermont Route 100"/>
    <tag k="addr:state" v="VT"/>
    <tag k="ref:vcgi:esiteid" v="270686"/>
  </node>
  <node id="-488" visible="true" lat="43.031626046092" lon="-72.74575822189">
    <tag k="addr:city" v="Wardsboro"/>
    <tag k="addr:housenumber" v="53"/>
    <tag k="addr:street" v="Mort Davis Way"/>
    <tag k="addr:state" v="VT"/>
    <tag k="ref:vcgi:esiteid" v="270687"/>
  </node>
  <node id="-495" visible="true" lat="43.031148113568" lon="-72.824143667261">
    <tag k="addr:city" v="Wardsboro"/>
    <tag k="addr:housenumber" v="739"/>
    <tag k="addr:street" v="Fitts Road"/>
    <tag k="addr:state" v="VT"/>
    <tag k="ref:vcgi:esiteid" v="270694"/>
  </node>
  <node id="-498" visible="true" lat="43.031091645406" lon="-72.821476623087">
    <tag k="addr:city" v="Wardsboro"/>
    <tag k="addr:housenumber" v="916"/>
    <tag k="addr:street" v="Fitts Road"/>
    <tag k="addr:state" v="VT"/>
    <tag k="ref:vcgi:esiteid" v="270697"/>
  </node>
  <node id="-499" visible="true" lat="43.030953562759" lon="-72.837952877122">
    <tag k="addr:city" v="Wardsboro"/>
    <tag k="addr:housenumber" v="4153"/>
    <tag k="addr:street" v="Vermont Route 100"/>
    <tag k="addr:state" v="VT"/>
    <tag k="ref:vcgi:esiteid" v="270699"/>
  </node>
  <node id="-503" visible="true" lat="43.030806739085" lon="-72.818800109104">
    <tag k="addr:city" v="Wardsboro"/>
    <tag k="addr:housenumber" v="2773"/>
    <tag k="addr:street" v="Vermont Route 100"/>
    <tag k="addr:state" v="VT"/>
    <tag k="ref:vcgi:esiteid" v="270705"/>
  </node>
  <node id="-509" visible="true" lat="43.030606426074" lon="-72.837601924453">
    <tag k="addr:city" v="Wardsboro"/>
    <tag k="addr:housenumber" v="4123"/>
    <tag k="addr:street" v="Vermont Route 100"/>
    <tag k="addr:state" v="VT"/>
    <tag k="ref:vcgi:esiteid" v="270711"/>
  </node>
  <node id="-511" visible="true" lat="43.030470016886" lon="-72.835267366419">
    <tag k="addr:city" v="Wardsboro"/>
    <tag k="addr:housenumber" v="84"/>
    <tag k="addr:street" v="Fitts Road"/>
    <tag k="addr:state" v="VT"/>
    <tag k="ref:vcgi:esiteid" v="270713"/>
  </node>
  <node id="-514" visible="true" lat="43.030369042293" lon="-72.819312562152">
    <tag k="addr:city" v="Wardsboro"/>
    <tag k="addr:housenumber" v="2796"/>
    <tag k="addr:street" v="Vermont Route 100"/>
    <tag k="addr:state" v="VT"/>
    <tag k="ref:vcgi:esiteid" v="270716"/>
  </node>
  <node id="-520" visible="true" lat="43.030259288504" lon="-72.837067865994">
    <tag k="addr:city" v="Wardsboro"/>
    <tag k="addr:housenumber" v="4093"/>
    <tag k="addr:street" v="Vermont Route 100"/>
    <tag k="addr:state" v="VT"/>
    <tag k="ref:vcgi:esiteid" v="270722"/>
  </node>
  <node id="-524" visible="true" lat="43.030091443521" lon="-72.819871204538">
    <tag k="addr:city" v="Wardsboro"/>
    <tag k="addr:housenumber" v="2822"/>
    <tag k="addr:street" v="Vermont Route 100"/>
    <tag k="addr:state" v="VT"/>
    <tag k="ref:vcgi:esiteid" v="270726"/>
  </node>
  <node id="-526" visible="true" lat="43.02999989003" lon="-72.818841235905">
    <tag k="addr:city" v="Wardsboro"/>
    <tag k="addr:housenumber" v="2827"/>
    <tag k="addr:street" v="Vermont Route 100"/>
    <tag k="addr:state" v="VT"/>
    <tag k="ref:vcgi:esiteid" v="270728"/>
  </node>
  <node id="-537" visible="true" lat="43.029649572542" lon="-72.818851178594">
    <tag k="addr:city" v="Wardsboro"/>
    <tag k="addr:housenumber" v="2853"/>
    <tag k="addr:street" v="Vermont Route 100"/>
    <tag k="addr:state" v="VT"/>
    <tag k="ref:vcgi:esiteid" v="270739"/>
  </node>
  <node id="-544" visible="true" lat="43.029312214067" lon="-72.819449873873">
    <tag k="addr:city" v="Wardsboro"/>
    <tag k="addr:housenumber" v="2878"/>
    <tag k="addr:street" v="Vermont Route 100"/>
    <tag k="addr:state" v="VT"/>
    <tag k="ref:vcgi:esiteid" v="270747"/>
  </node>
  <node id="-551" visible="true" lat="43.029091347702" lon="-72.818928992513">
    <tag k="addr:city" v="Wardsboro"/>
    <tag k="addr:housenumber" v="2887"/>
    <tag k="addr:street" v="Vermont Route 100"/>
    <tag k="addr:state" v="VT"/>
    <tag k="ref:vcgi:esiteid" v="270754"/>
  </node>
  <node id="-561" visible="true" lat="43.028752483699" lon="-72.818986196285">
    <tag k="addr:city" v="Wardsboro"/>
    <tag k="addr:housenumber" v="2941"/>
    <tag k="addr:street" v="Vermont Route 100"/>
    <tag k="addr:state" v="VT"/>
    <tag k="ref:vcgi:esiteid" v="270764"/>
  </node>
  <node id="-587" visible="true" lat="43.027339066373" lon="-72.828698772224">
    <tag k="addr:city" v="Wardsboro"/>
    <tag k="addr:housenumber" v="3730"/>
    <tag k="addr:street" v="Vermont Route 100"/>
    <tag k="addr:state" v="VT"/>
    <tag k="ref:vcgi:esiteid" v="270791"/>
  </node>
  <node id="-590" visible="true" lat="43.027352492494" lon="-72.75156521338">
    <tag k="addr:city" v="Wardsboro"/>
    <tag k="addr:housenumber" v="1091"/>
    <tag k="addr:street" v="Townshend Dam Road"/>
    <tag k="addr:state" v="VT"/>
    <tag k="ref:vcgi:esiteid" v="270794"/>
  </node>
  <node id="-592" visible="true" lat="43.026690045053" lon="-72.81982287029">
    <tag k="addr:city" v="Wardsboro"/>
    <tag k="addr:housenumber" v="3047"/>
    <tag k="addr:street" v="Vermont Route 100"/>
    <tag k="addr:state" v="VT"/>
    <tag k="ref:vcgi:esiteid" v="270796"/>
  </node>
  <node id="-596" visible="true" lat="43.026318825214" lon="-72.819874678344">
    <tag k="addr:city" v="Wardsboro"/>
    <tag k="addr:housenumber" v="3069"/>
    <tag k="addr:street" v="Vermont Route 100"/>
    <tag k="addr:state" v="VT"/>
    <tag k="ref:vcgi:esiteid" v="270800"/>
  </node>
  <node id="-601" visible="true" lat="43.026017225176" lon="-72.820015271515">
    <tag k="addr:city" v="Wardsboro"/>
    <tag k="addr:housenumber" v="3103"/>
    <tag k="addr:street" v="Vermont Route 100"/>
    <tag k="addr:state" v="VT"/>
    <tag k="ref:vcgi:esiteid" v="270805"/>
  </node>
  <node id="-603" visible="true" lat="43.025722664324" lon="-72.830350562233">
    <tag k="addr:city" v="Wardsboro"/>
    <tag k="addr:housenumber" v="481"/>
    <tag k="addr:street" v="Lower Podunk Road"/>
    <tag k="addr:state" v="VT"/>
    <tag k="ref:vcgi:esiteid" v="270807"/>
  </node>
  <node id="-605" visible="true" lat="43.025975385464" lon="-72.751015897151">
    <tag k="addr:city" v="Wardsboro"/>
    <tag k="addr:housenumber" v="993"/>
    <tag k="addr:street" v="Townshend Dam Road"/>
    <tag k="addr:state" v="VT"/>
    <tag k="ref:vcgi:esiteid" v="270809"/>
  </node>
  <node id="-606" visible="true" lat="43.025663941976" lon="-72.823457617706">
    <tag k="addr:city" v="Wardsboro"/>
    <tag k="addr:housenumber" v="3316"/>
    <tag k="addr:street" v="Vermont Route 100"/>
    <tag k="addr:state" v="VT"/>
    <tag k="ref:vcgi:esiteid" v="270810"/>
  </node>
  <node id="-607" visible="true" lat="43.025644727877" lon="-72.820674216539">
    <tag k="addr:city" v="Wardsboro"/>
    <tag k="addr:housenumber" v="3142"/>
    <tag k="addr:street" v="Vermont Route 100"/>
    <tag k="addr:state" v="VT"/>
    <tag k="ref:vcgi:esiteid" v="270811"/>
  </node>
  <node id="-609" visible="true" lat="43.025672615546" lon="-72.828125353997">
    <tag k="addr:city" v="Wardsboro"/>
    <tag k="addr:housenumber" v="14"/>
    <tag k="addr:street" v="Black Piece Road"/>
    <tag k="addr:state" v="VT"/>
    <tag k="ref:vcgi:esiteid" v="270813"/>
  </node>
  <node id="-610" visible="true" lat="43.025639690344" lon="-72.820084828188">
    <tag k="addr:city" v="Wardsboro"/>
    <tag k="addr:housenumber" v="3129"/>
    <tag k="addr:street" v="Vermont Route 100"/>
    <tag k="addr:state" v="VT"/>
    <tag k="ref:vcgi:esiteid" v="270814"/>
  </node>
  <node id="-612" visible="true" lat="43.025508630321" lon="-72.822518473716">
    <tag k="addr:city" v="Wardsboro"/>
    <tag k="addr:housenumber" v="3266"/>
    <tag k="addr:street" v="Vermont Route 100"/>
    <tag k="addr:state" v="VT"/>
    <tag k="ref:vcgi:esiteid" v="270816"/>
  </node>
  <node id="-613" visible="true" lat="43.025478638169" lon="-72.82120901982">
    <tag k="addr:city" v="Wardsboro"/>
    <tag k="addr:housenumber" v="3186"/>
    <tag k="addr:street" v="Vermont Route 100"/>
    <tag k="addr:state" v="VT"/>
    <tag k="ref:vcgi:esiteid" v="270817"/>
  </node>
  <node id="-615" visible="true" lat="43.025364940927" lon="-72.820350384475">
    <tag k="addr:city" v="Wardsboro"/>
    <tag k="addr:housenumber" v="3153"/>
    <tag k="addr:street" v="Vermont Route 100"/>
    <tag k="addr:state" v="VT"/>
    <tag k="ref:vcgi:esiteid" v="270819"/>
  </node>
  <node id="-616" visible="true" lat="43.025250591028" lon="-72.824486990009">
    <tag k="addr:city" v="Wardsboro"/>
    <tag k="addr:housenumber" v="194"/>
    <tag k="addr:street" v="Black Piece Road"/>
    <tag k="addr:state" v="VT"/>
    <tag k="ref:vcgi:esiteid" v="270820"/>
  </node>
  <node id="-619" visible="true" lat="43.025185722619" lon="-72.820607394373">
    <tag k="addr:city" v="Wardsboro"/>
    <tag k="addr:housenumber" v="3167"/>
    <tag k="addr:street" v="Vermont Route 100"/>
    <tag k="addr:state" v="VT"/>
    <tag k="ref:vcgi:esiteid" v="270823"/>
  </node>
  <node id="-620" visible="true" lat="43.024910058885" lon="-72.821321612466">
    <tag k="addr:city" v="Wardsboro"/>
    <tag k="addr:housenumber" v="3205"/>
    <tag k="addr:street" v="Vermont Route 100"/>
    <tag k="addr:state" v="VT"/>
    <tag k="ref:vcgi:esiteid" v="270824"/>
  </node>
  <node id="-622" visible="true" lat="43.024747053112" lon="-72.750779386223">
    <tag k="addr:city" v="Wardsboro"/>
    <tag k="addr:housenumber" v="909"/>
    <tag k="addr:street" v="Townshend Dam Road"/>
    <tag k="addr:state" v="VT"/>
    <tag k="ref:vcgi:esiteid" v="270826"/>
  </node>
  <node id="-624" visible="true" lat="43.024335066275" lon="-72.74958156899">
    <tag k="addr:city" v="Wardsboro"/>
    <tag k="addr:housenumber" v="866"/>
    <tag k="addr:street" v="Townshend Dam Road"/>
    <tag k="addr:state" v="VT"/>
    <tag k="ref:vcgi:esiteid" v="270828"/>
  </node>
  <node id="-627" visible="true" lat="43.023792280802" lon="-72.759147020139">
    <tag k="addr:city" v="Wardsboro"/>
    <tag k="addr:housenumber" v="1010"/>
    <tag k="addr:street" v="Tomlinson Road"/>
    <tag k="addr:state" v="VT"/>
    <tag k="ref:vcgi:esiteid" v="270831"/>
  </node>
  <node id="-632" visible="true" lat="43.026706475273" lon="-72.825852611575">
    <tag k="addr:city" v="Wardsboro"/>
    <tag k="addr:housenumber" v="3406"/>
    <tag k="addr:street" v="Vermont Route 100"/>
    <tag k="addr:state" v="VT"/>
    <tag k="ref:vcgi:esiteid" v="270836"/>
  </node>
  <node id="-650" visible="true" lat="43.020042568768" lon="-72.762171966889">
    <tag k="addr:city" v="Wardsboro"/>
    <tag k="addr:housenumber" v="643"/>
    <tag k="addr:street" v="Tomlinson Road"/>
    <tag k="addr:state" v="VT"/>
    <tag k="ref:vcgi:esiteid" v="270854"/>
  </node>
  <node id="-659" visible="true" lat="43.018693127783" lon="-72.762406584924">
    <tag k="addr:city" v="Wardsboro"/>
    <tag k="addr:housenumber" v="570"/>
    <tag k="addr:street" v="Tomlinson Road"/>
    <tag k="addr:state" v="VT"/>
    <tag k="ref:vcgi:esiteid" v="270863"/>
  </node>
  <node id="-663" visible="true" lat="43.018107087435" lon="-72.763708621138">
    <tag k="addr:city" v="Wardsboro"/>
    <tag k="addr:housenumber" v="503"/>
    <tag k="addr:street" v="Tomlinson Road"/>
    <tag k="addr:state" v="VT"/>
    <tag k="ref:vcgi:esiteid" v="270868"/>
  </node>
  <node id="-669" visible="true" lat="43.016999399647" lon="-72.834801933612">
    <tag k="addr:city" v="Wardsboro"/>
    <tag k="addr:housenumber" v="2270"/>
    <tag k="addr:street" v="Upper Podunk Road"/>
    <tag k="addr:state" v="VT"/>
    <tag k="ref:vcgi:esiteid" v="270874"/>
  </node>
  <node id="-675" visible="true" lat="43.016209758787" lon="-72.753892179812">
    <tag k="addr:city" v="Wardsboro"/>
    <tag k="addr:housenumber" v="140"/>
    <tag k="addr:street" v="Blackmer Lane"/>
    <tag k="addr:state" v="VT"/>
    <tag k="ref:vcgi:esiteid" v="270880"/>
  </node>
  <node id="-676" visible="true" lat="43.016045726374" lon="-72.755059476896">
    <tag k="addr:city" v="Wardsboro"/>
    <tag k="addr:housenumber" v="153"/>
    <tag k="addr:street" v="Blackmer Lane"/>
    <tag k="addr:state" v="VT"/>
    <tag k="ref:vcgi:esiteid" v="270881"/>
  </node>
  <node id="-678" visible="true" lat="43.015393413744" lon="-72.765076874383">
    <tag k="addr:city" v="Wardsboro"/>
    <tag k="addr:housenumber" v="301"/>
    <tag k="addr:street" v="Tomlinson Road"/>
    <tag k="addr:state" v="VT"/>
    <tag k="ref:vcgi:esiteid" v="270883"/>
  </node>
  <node id="-679" visible="true" lat="43.015214123255" lon="-72.754769558525">
    <tag k="addr:city" v="Wardsboro"/>
    <tag k="addr:housenumber" v="151"/>
    <tag k="addr:street" v="Blackmer Lane"/>
    <tag k="addr:state" v="VT"/>
    <tag k="ref:vcgi:esiteid" v="270884"/>
  </node>
  <node id="-682" visible="true" lat="43.014718209348" lon="-72.83802916798">
    <tag k="addr:city" v="Wardsboro"/>
    <tag k="addr:housenumber" v="2059"/>
    <tag k="addr:street" v="Upper Podunk Road"/>
    <tag k="addr:state" v="VT"/>
    <tag k="ref:vcgi:esiteid" v="270887"/>
  </node>
  <node id="-684" visible="true" lat="43.014538920715" lon="-72.752190823898">
    <tag k="addr:city" v="Wardsboro"/>
    <tag k="addr:housenumber" v="181"/>
    <tag k="addr:street" v="Townshend Dam Road"/>
    <tag k="addr:state" v="VT"/>
    <tag k="ref:vcgi:esiteid" v="270889"/>
  </node>
  <node id="-688" visible="true" lat="43.013623393172" lon="-72.752000088192">
    <tag k="addr:city" v="Wardsboro"/>
    <tag k="addr:housenumber" v="93"/>
    <tag k="addr:street" v="Townshend Dam Road"/>
    <tag k="addr:state" v="VT"/>
    <tag k="ref:vcgi:esiteid" v="270893"/>
  </node>
  <node id="-689" visible="true" lat="43.013550914238" lon="-72.764947175135">
    <tag k="addr:city" v="Wardsboro"/>
    <tag k="addr:housenumber" v="180"/>
    <tag k="addr:street" v="Tomlinson Road"/>
    <tag k="addr:state" v="VT"/>
    <tag k="ref:vcgi:esiteid" v="270894"/>
  </node>
  <node id="-714" visible="true" lat="43.011634211895" lon="-72.765059515967">
    <tag k="addr:city" v="Wardsboro"/>
    <tag k="addr:housenumber" v="1097"/>
    <tag k="addr:street" v="Newfane Road"/>
    <tag k="addr:state" v="VT"/>
    <tag k="ref:vcgi:esiteid" v="270920"/>
  </node>
  <node id="-720" visible="true" lat="43.011281167748" lon="-72.782998327808">
    <tag k="addr:city" v="Wardsboro"/>
    <tag k="addr:housenumber" v="25"/>
    <tag k="addr:street" v="Newfane Road"/>
    <tag k="addr:state" v="VT"/>
    <tag k="ref:vcgi:esiteid" v="270926"/>
  </node>
  <node id="-721" visible="true" lat="43.011197448503" lon="-72.784606523971">
    <tag k="addr:city" v="Wardsboro"/>
    <tag k="addr:housenumber" v="50"/>
    <tag k="addr:street" v="Cobb And Reed Road"/>
    <tag k="addr:state" v="VT"/>
    <tag k="ref:vcgi:esiteid" v="270927"/>
  </node>
  <node id="-722" visible="true" lat="43.011197246071" lon="-72.78512692883">
    <tag k="addr:city" v="Wardsboro"/>
    <tag k="addr:housenumber" v="64"/>
    <tag k="addr:street" v="Cobb And Reed Road"/>
    <tag k="addr:state" v="VT"/>
    <tag k="ref:vcgi:esiteid" v="270928"/>
  </node>
  <node id="-723" visible="true" lat="43.011124764316" lon="-72.784196142904">
    <tag k="addr:city" v="Wardsboro"/>
    <tag k="addr:housenumber" v="16"/>
    <tag k="addr:street" v="Cobb And Reed Road"/>
    <tag k="addr:state" v="VT"/>
    <tag k="ref:vcgi:esiteid" v="270929"/>
  </node>
  <node id="-724" visible="true" lat="43.011082804866" lon="-72.785996680265">
    <tag k="addr:city" v="Wardsboro"/>
    <tag k="addr:housenumber" v="110"/>
    <tag k="addr:street" v="Cobb And Reed Road"/>
    <tag k="addr:state" v="VT"/>
    <tag k="ref:vcgi:esiteid" v="270930"/>
  </node>
  <node id="-725" visible="true" lat="43.010943710991" lon="-72.783037477086">
    <tag k="addr:city" v="Wardsboro"/>
    <tag k="addr:housenumber" v="33"/>
    <tag k="addr:street" v="Newfane Road"/>
    <tag k="addr:state" v="VT"/>
    <tag k="ref:vcgi:esiteid" v="270931"/>
  </node>
  <node id="-727" visible="true" lat="43.010818571848" lon="-72.784951129853">
    <tag k="addr:city" v="Wardsboro"/>
    <tag k="addr:housenumber" v="57"/>
    <tag k="addr:street" v="Cobb And Reed Road"/>
    <tag k="addr:state" v="VT"/>
    <tag k="ref:vcgi:esiteid" v="270933"/>
  </node>
  <node id="-729" visible="true" lat="43.010861552363" lon="-72.764985320756">
    <tag k="addr:city" v="Wardsboro"/>
    <tag k="addr:housenumber" v="1060"/>
    <tag k="addr:street" v="Newfane Road"/>
    <tag k="addr:state" v="VT"/>
    <tag k="ref:vcgi:esiteid" v="270935"/>
  </node>
  <node id="-730" visible="true" lat="43.010885740789" lon="-72.784209551961">
    <tag k="addr:city" v="Wardsboro"/>
    <tag k="addr:housenumber" v="15"/>
    <tag k="addr:street" v="Cobb And Reed Road"/>
    <tag k="addr:state" v="VT"/>
    <tag k="ref:vcgi:esiteid" v="270936"/>
  </node>
  <node id="-732" visible="true" lat="43.010739480873" lon="-72.78625608066">
    <tag k="addr:city" v="Wardsboro"/>
    <tag k="addr:housenumber" v="119"/>
    <tag k="addr:street" v="Cobb And Reed Road"/>
    <tag k="addr:state" v="VT"/>
    <tag k="ref:vcgi:esiteid" v="270938"/>
  </node>
  <node id="-734" visible="true" lat="43.010772333048" lon="-72.783343496009">
    <tag k="addr:city" v="Wardsboro"/>
    <tag k="addr:housenumber" v="36"/>
    <tag k="addr:street" v="Newfane Road"/>
    <tag k="addr:state" v="VT"/>
    <tag k="ref:vcgi:esiteid" v="270940"/>
  </node>
  <node id="-737" visible="true" lat="43.010407602863" lon="-72.765084503472">
    <tag k="addr:city" v="Wardsboro"/>
    <tag k="addr:housenumber" v="1058"/>
    <tag k="addr:street" v="Newfane Road"/>
    <tag k="addr:state" v="VT"/>
    <tag k="ref:vcgi:esiteid" v="270943"/>
  </node>
  <node id="-738" visible="true" lat="43.010289347917" lon="-72.785989051503">
    <tag k="addr:city" v="Wardsboro"/>
    <tag k="addr:housenumber" v="3021"/>
    <tag k="addr:street" v="Potter Road"/>
    <tag k="addr:state" v="VT"/>
    <tag k="ref:vcgi:esiteid" v="270945"/>
  </node>
  <node id="-739" visible="true" lat="43.010271073428" lon="-72.774871248764">
    <tag k="addr:city" v="Wardsboro"/>
    <tag k="addr:housenumber" v="533"/>
    <tag k="addr:street" v="Newfane Road"/>
    <tag k="addr:state" v="VT"/>
    <tag k="ref:vcgi:esiteid" v="270946"/>
  </node>
  <node id="-741" visible="true" lat="43.01008704337" lon="-72.774076674255">
    <tag k="addr:city" v="Wardsboro"/>
    <tag k="addr:housenumber" v="549"/>
    <tag k="addr:street" v="Newfane Road"/>
    <tag k="addr:state" v="VT"/>
    <tag k="ref:vcgi:esiteid" v="270948"/>
  </node>
  <node id="-743" visible="true" lat="43.010029948629" lon="-72.78567624729">
    <tag k="addr:city" v="Wardsboro"/>
    <tag k="addr:housenumber" v="3012"/>
    <tag k="addr:street" v="Potter Road"/>
    <tag k="addr:state" v="VT"/>
    <tag k="ref:vcgi:esiteid" v="270950"/>
  </node>
  <node id="-744" visible="true" lat="43.009900249263" lon="-72.772286655424">
    <tag k="addr:city" v="Wardsboro"/>
    <tag k="addr:housenumber" v="631"/>
    <tag k="addr:street" v="Newfane Road"/>
    <tag k="addr:state" v="VT"/>
    <tag k="ref:vcgi:esiteid" v="270951"/>
  </node>
  <node id="-746" visible="true" lat="43.009835398877" lon="-72.781739477063">
    <tag k="addr:city" v="Wardsboro"/>
    <tag k="addr:housenumber" v="137"/>
    <tag k="addr:street" v="Newfane Road"/>
    <tag k="addr:state" v="VT"/>
    <tag k="ref:vcgi:esiteid" v="270953"/>
  </node>
  <node id="-749" visible="true" lat="43.009774362298" lon="-72.780236486983">
    <tag k="addr:city" v="Wardsboro"/>
    <tag k="addr:housenumber" v="281"/>
    <tag k="addr:street" v="Newfane Road"/>
    <tag k="addr:state" v="VT"/>
    <tag k="ref:vcgi:esiteid" v="270956"/>
  </node>
  <node id="-750" visible="true" lat="43.009935693973" lon="-72.77499221755">
    <tag k="addr:city" v="Wardsboro"/>
    <tag k="addr:housenumber" v="507"/>
    <tag k="addr:street" v="Newfane Road"/>
    <tag k="addr:state" v="VT"/>
    <tag k="ref:vcgi:esiteid" v="270957"/>
  </node>
  <node id="-753" visible="true" lat="43.009670159475" lon="-72.786631926544">
    <tag k="addr:city" v="Wardsboro"/>
    <tag k="addr:housenumber" v="2967"/>
    <tag k="addr:street" v="Potter Road"/>
    <tag k="addr:state" v="VT"/>
    <tag k="ref:vcgi:esiteid" v="270960"/>
  </node>
  <node id="-758" visible="true" lat="43.009606516929" lon="-72.779420140126">
    <tag k="addr:city" v="Wardsboro"/>
    <tag k="addr:housenumber" v="303"/>
    <tag k="addr:street" v="Newfane Road"/>
    <tag k="addr:state" v="VT"/>
    <tag k="ref:vcgi:esiteid" v="270965"/>
  </node>
  <node id="-760" visible="true" lat="43.009534675673" lon="-72.781881144938">
    <tag k="addr:city" v="Wardsboro"/>
    <tag k="addr:housenumber" v="146"/>
    <tag k="addr:street" v="Newfane Road"/>
    <tag k="addr:state" v="VT"/>
    <tag k="ref:vcgi:esiteid" v="270968"/>
  </node>
  <node id="-762" visible="true" lat="43.009318896913" lon="-72.76879164993">
    <tag k="addr:city" v="Wardsboro"/>
    <tag k="addr:housenumber" v="855"/>
    <tag k="addr:street" v="Newfane Road"/>
    <tag k="addr:state" v="VT"/>
    <tag k="ref:vcgi:esiteid" v="270970"/>
  </node>
  <node id="-766" visible="true" lat="43.008866359017" lon="-72.768812301241">
    <tag k="addr:city" v="Wardsboro"/>
    <tag k="addr:housenumber" v="826"/>
    <tag k="addr:street" v="Newfane Road"/>
    <tag k="addr:state" v="VT"/>
    <tag k="ref:vcgi:esiteid" v="270974"/>
  </node>
  <node id="-776" visible="true" lat="43.007152515039" lon="-72.770150819831">
    <tag k="addr:city" v="Wardsboro"/>
    <tag k="addr:housenumber" v="291"/>
    <tag k="addr:street" v="East Dover Road"/>
    <tag k="addr:state" v="VT"/>
    <tag k="ref:vcgi:esiteid" v="270984"/>
  </node>
  <node id="-778" visible="true" lat="43.005911845251" lon="-72.770111612852">
    <tag k="addr:city" v="Wardsboro"/>
    <tag k="addr:housenumber" v="357"/>
    <tag k="addr:street" v="East Dover Road"/>
    <tag k="addr:state" v="VT"/>
    <tag k="ref:vcgi:esiteid" v="270986"/>
  </node>
  <node id="-780" visible="true" lat="43.005665667081" lon="-72.771696309153">
    <tag k="addr:city" v="Wardsboro"/>
    <tag k="addr:housenumber" v="430"/>
    <tag k="addr:street" v="East Dover Road"/>
    <tag k="addr:state" v="VT"/>
    <tag k="ref:vcgi:esiteid" v="270988"/>
  </node>
  <node id="-782" visible="true" lat="43.005482826518" lon="-72.769219637023">
    <tag k="addr:city" v="Wardsboro"/>
    <tag k="addr:housenumber" v="71"/>
    <tag k="addr:street" v="Silver Mine Road"/>
    <tag k="addr:state" v="VT"/>
    <tag k="ref:vcgi:esiteid" v="270990"/>
  </node>
  <node id="-783" visible="true" lat="43.005446522294" lon="-72.768009490649">
    <tag k="addr:city" v="Wardsboro"/>
    <tag k="addr:housenumber" v="129"/>
    <tag k="addr:street" v="Silver Mine Road"/>
    <tag k="addr:state" v="VT"/>
    <tag k="ref:vcgi:esiteid" v="270991"/>
  </node>
  <node id="-784" visible="true" lat="43.005342368363" lon="-72.763731843489">
    <tag k="addr:city" v="Wardsboro"/>
    <tag k="addr:housenumber" v="311"/>
    <tag k="addr:street" v="Silver Mine Road"/>
    <tag k="addr:state" v="VT"/>
    <tag k="ref:vcgi:esiteid" v="270992"/>
  </node>
  <node id="-786" visible="true" lat="43.005398977177" lon="-72.765223424592">
    <tag k="addr:city" v="Wardsboro"/>
    <tag k="addr:housenumber" v="271"/>
    <tag k="addr:street" v="Silver Mine Road"/>
    <tag k="addr:state" v="VT"/>
    <tag k="ref:vcgi:esiteid" v="270994"/>
  </node>
  <node id="-787" visible="true" lat="43.005223613579" lon="-72.766046688513">
    <tag k="addr:city" v="Wardsboro"/>
    <tag k="addr:housenumber" v="229"/>
    <tag k="addr:street" v="Silver Mine Road"/>
    <tag k="addr:state" v="VT"/>
    <tag k="ref:vcgi:esiteid" v="270995"/>
  </node>
  <node id="-788" visible="true" lat="43.004954261068" lon="-72.768931592886">
    <tag k="addr:city" v="Wardsboro"/>
    <tag k="addr:housenumber" v="84"/>
    <tag k="addr:street" v="Silver Mine Road"/>
    <tag k="addr:state" v="VT"/>
    <tag k="ref:vcgi:esiteid" v="270996"/>
  </node>
  <node id="-789" visible="true" lat="43.004566546137" lon="-72.771345603943">
    <tag k="addr:city" v="Wardsboro"/>
    <tag k="addr:housenumber" v="479"/>
    <tag k="addr:street" v="East Dover Road"/>
    <tag k="addr:state" v="VT"/>
    <tag k="ref:vcgi:esiteid" v="270997"/>
  </node>
  <node id="-790" visible="true" lat="43.004725403148" lon="-72.763709987237">
    <tag k="addr:city" v="Wardsboro"/>
    <tag k="addr:housenumber" v="354"/>
    <tag k="addr:street" v="Silver Mine Road"/>
    <tag k="addr:state" v="VT"/>
    <tag k="ref:vcgi:esiteid" v="270998"/>
  </node>
  <node id="-791" visible="true" lat="43.006100595086" lon="-72.774756761186">
    <tag k="addr:city" v="Wardsboro"/>
    <tag k="addr:housenumber" v="582"/>
    <tag k="addr:street" v="East Dover Road"/>
    <tag k="addr:state" v="VT"/>
    <tag k="ref:vcgi:esiteid" v="270999"/>
  </node>
  <node id="-792" visible="true" lat="43.00404087184" lon="-72.765313385409">
    <tag k="addr:city" v="Wardsboro"/>
    <tag k="addr:housenumber" v="83"/>
    <tag k="addr:street" v="Gault Road"/>
    <tag k="addr:state" v="VT"/>
    <tag k="ref:vcgi:esiteid" v="271000"/>
  </node>
  <node id="-794" visible="true" lat="43.00391422511" lon="-72.774496830346">
    <tag k="addr:city" v="Wardsboro"/>
    <tag k="addr:housenumber" v="624"/>
    <tag k="addr:street" v="East Dover Road"/>
    <tag k="addr:state" v="VT"/>
    <tag k="ref:vcgi:esiteid" v="271002"/>
  </node>
  <node id="-795" visible="true" lat="43.003336431886" lon="-72.775360337891">
    <tag k="addr:city" v="Wardsboro"/>
    <tag k="addr:housenumber" v="688"/>
    <tag k="addr:street" v="East Dover Road"/>
    <tag k="addr:state" v="VT"/>
    <tag k="ref:vcgi:esiteid" v="271003"/>
  </node>
  <node id="-796" visible="true" lat="43.002985942892" lon="-72.776135410253">
    <tag k="addr:city" v="Wardsboro"/>
    <tag k="addr:housenumber" v="722"/>
    <tag k="addr:street" v="East Dover Road"/>
    <tag k="addr:state" v="VT"/>
    <tag k="ref:vcgi:esiteid" v="271004"/>
  </node>
  <node id="-798" visible="true" lat="43.00194958236" lon="-72.775614565712">
    <tag k="addr:city" v="Wardsboro"/>
    <tag k="addr:housenumber" v="773"/>
    <tag k="addr:street" v="East Dover Road"/>
    <tag k="addr:state" v="VT"/>
    <tag k="ref:vcgi:esiteid" v="271006"/>
  </node>
  <node id="-799" visible="true" lat="43.0009910878" lon="-72.77590030375">
    <tag k="addr:city" v="Wardsboro"/>
    <tag k="addr:housenumber" v="847"/>
    <tag k="addr:street" v="East Dover Road"/>
    <tag k="addr:state" v="VT"/>
    <tag k="ref:vcgi:esiteid" v="271007"/>
  </node>
  <node id="-800" visible="true" lat="43.000606890666" lon="-72.776987553691">
    <tag k="addr:city" v="Wardsboro"/>
    <tag k="addr:housenumber" v="888"/>
    <tag k="addr:street" v="East Dover Road"/>
    <tag k="addr:state" v="VT"/>
    <tag k="ref:vcgi:esiteid" v="271008"/>
  </node>
  <node id="-802" visible="true" lat="42.999388510797" lon="-72.776364196704">
    <tag k="addr:city" v="Wardsboro"/>
    <tag k="addr:housenumber" v="959"/>
    <tag k="addr:street" v="East Dover Road"/>
    <tag k="addr:state" v="VT"/>
    <tag k="ref:vcgi:esiteid" v="271010"/>
  </node>
  <node id="-803" visible="true" lat="42.996757350814" lon="-72.781033812837">
    <tag k="addr:city" v="Wardsboro"/>
    <tag k="addr:housenumber" v="1176"/>
    <tag k="addr:street" v="East Dover Road"/>
    <tag k="addr:state" v="VT"/>
    <tag k="ref:vcgi:esiteid" v="271011"/>
  </node>
  <node id="-804" visible="true" lat="42.995995674171" lon="-72.775544407061">
    <tag k="addr:city" v="Wardsboro"/>
    <tag k="addr:housenumber" v="1203"/>
    <tag k="addr:street" v="East Dover Road"/>
    <tag k="addr:state" v="VT"/>
    <tag k="ref:vcgi:esiteid" v="271012"/>
  </node>
  <node id="-805" visible="true" lat="42.995747717487" lon="-72.778466465661">
    <tag k="addr:city" v="Wardsboro"/>
    <tag k="addr:housenumber" v="1226"/>
    <tag k="addr:street" v="East Dover Road"/>
    <tag k="addr:state" v="VT"/>
    <tag k="ref:vcgi:esiteid" v="271013"/>
  </node>
  <node id="-806" visible="true" lat="42.995300707629" lon="-72.778590272125">
    <tag k="addr:city" v="Wardsboro"/>
    <tag k="addr:housenumber" v="1254"/>
    <tag k="addr:street" v="East Dover Road"/>
    <tag k="addr:state" v="VT"/>
    <tag k="ref:vcgi:esiteid" v="271014"/>
  </node>
  <node id="-807" visible="true" lat="42.994720372622" lon="-72.777581332559">
    <tag k="addr:city" v="Wardsboro"/>
    <tag k="addr:housenumber" v="1289"/>
    <tag k="addr:street" v="East Dover Road"/>
    <tag k="addr:state" v="VT"/>
    <tag k="ref:vcgi:esiteid" v="271015"/>
  </node>
  <node id="-809" visible="true" lat="42.991632764432" lon="-72.780670975525">
    <tag k="addr:city" v="Wardsboro"/>
    <tag k="addr:housenumber" v="140"/>
    <tag k="addr:street" v="Camp Bea Lou Road"/>
    <tag k="addr:state" v="VT"/>
    <tag k="ref:vcgi:esiteid" v="271017"/>
  </node>
  <node id="-810" visible="true" lat="42.990742043393" lon="-72.782056721524">
    <tag k="addr:city" v="Wardsboro"/>
    <tag k="addr:housenumber" v="103"/>
    <tag k="addr:street" v="Camp Bea Lou Road"/>
    <tag k="addr:state" v="VT"/>
    <tag k="ref:vcgi:esiteid" v="271018"/>
  </node>
  <node id="-811" visible="true" lat="42.991559180119" lon="-72.776040315982">
    <tag k="addr:city" v="Wardsboro"/>
    <tag k="addr:housenumber" v="145"/>
    <tag k="addr:street" v="Hunt Road"/>
    <tag k="addr:state" v="VT"/>
    <tag k="ref:vcgi:esiteid" v="271019"/>
  </node>
  <node id="-813" visible="true" lat="42.990708502421" lon="-72.775330783432">
    <tag k="addr:city" v="Wardsboro"/>
    <tag k="addr:housenumber" v="213"/>
    <tag k="addr:street" v="Hunt Road"/>
    <tag k="addr:state" v="VT"/>
    <tag k="ref:vcgi:esiteid" v="271021"/>
  </node>
  <node id="-814" visible="true" lat="42.990444720812" lon="-72.779257698976">
    <tag k="addr:city" v="Wardsboro"/>
    <tag k="addr:housenumber" v="1566"/>
    <tag k="addr:street" v="East Dover Road"/>
    <tag k="addr:state" v="VT"/>
    <tag k="ref:vcgi:esiteid" v="271022"/>
  </node>
  <node id="-815" visible="true" lat="42.990309034675" lon="-72.775269908447">
    <tag k="addr:city" v="Wardsboro"/>
    <tag k="addr:housenumber" v="212"/>
    <tag k="addr:street" v="Hunt Road"/>
    <tag k="addr:state" v="VT"/>
    <tag k="ref:vcgi:esiteid" v="271023"/>
  </node>
  <node id="-817" visible="true" lat="42.989602240584" lon="-72.777817965439">
    <tag k="addr:city" v="Wardsboro"/>
    <tag k="addr:housenumber" v="1661"/>
    <tag k="addr:street" v="East Dover Road"/>
    <tag k="addr:state" v="VT"/>
    <tag k="ref:vcgi:esiteid" v="271026"/>
  </node>
  <node id="-818" visible="true" lat="42.989564092344" lon="-72.772607087713">
    <tag k="addr:city" v="Wardsboro"/>
    <tag k="addr:housenumber" v="383"/>
    <tag k="addr:street" v="Hunt Road"/>
    <tag k="addr:state" v="VT"/>
    <tag k="ref:vcgi:esiteid" v="271027"/>
  </node>
  <node id="-819" visible="true" lat="42.989228400556" lon="-72.778947117321">
    <tag k="addr:city" v="Wardsboro"/>
    <tag k="addr:housenumber" v="1664"/>
    <tag k="addr:street" v="East Dover Road"/>
    <tag k="addr:state" v="VT"/>
    <tag k="ref:vcgi:esiteid" v="271028"/>
  </node>
  <node id="-820" visible="true" lat="42.98861804753" lon="-72.777329684105">
    <tag k="addr:city" v="Wardsboro"/>
    <tag k="addr:housenumber" v="1721"/>
    <tag k="addr:street" v="East Dover Road"/>
    <tag k="addr:state" v="VT"/>
    <tag k="ref:vcgi:esiteid" v="271029"/>
  </node>
  <node id="-821" visible="true" lat="42.988248023123" lon="-72.77875638098">
    <tag k="addr:city" v="Wardsboro"/>
    <tag k="addr:housenumber" v="1752"/>
    <tag k="addr:street" v="East Dover Road"/>
    <tag k="addr:state" v="VT"/>
    <tag k="ref:vcgi:esiteid" v="271030"/>
  </node>
  <node id="-824" visible="true" lat="43.037507348229" lon="-72.811780970418">
    <tag k="addr:city" v="Wardsboro"/>
    <tag k="addr:housenumber" v="91"/>
    <tag k="addr:street" v="Mill Road"/>
    <tag k="addr:state" v="VT"/>
    <tag k="ref:vcgi:esiteid" v="271035"/>
  </node>
  <node id="-825" visible="true" lat="43.033684372729" lon="-72.810810149235">
    <tag k="addr:city" v="Wardsboro"/>
    <tag k="addr:housenumber" v="40"/>
    <tag k="addr:street" v="Gilfeather Road"/>
    <tag k="addr:state" v="VT"/>
    <tag k="ref:vcgi:esiteid" v="271036"/>
  </node>
  <node id="-827" visible="true" lat="43.031995069812" lon="-72.838947662009">
    <tag k="addr:city" v="Wardsboro"/>
    <tag k="addr:housenumber" v="4259"/>
    <tag k="addr:street" v="Vermont Route 100"/>
    <tag k="addr:state" v="VT"/>
    <tag k="ref:vcgi:esiteid" v="271038"/>
  </node>
  <node id="-834" visible="true" lat="43.035323738306" lon="-72.81568991566">
    <tag k="addr:city" v="Wardsboro"/>
    <tag k="addr:housenumber" v="404"/>
    <tag k="addr:street" v="Bills Road"/>
    <tag k="addr:state" v="VT"/>
    <tag k="ref:vcgi:esiteid" v="271046"/>
  </node>
  <node id="-839" visible="true" lat="43.025016564749" lon="-72.750017136319">
    <tag k="addr:city" v="Wardsboro"/>
    <tag k="addr:housenumber" v="898"/>
    <tag k="addr:street" v="Townshend Dam Road"/>
    <tag k="addr:state" v="VT"/>
    <tag k="ref:vcgi:esiteid" v="271053"/>
  </node>
  <node id="-850" visible="true" lat="43.005289606347" lon="-72.770743917839">
    <tag k="addr:city" v="Wardsboro"/>
    <tag k="addr:housenumber" v="415"/>
    <tag k="addr:street" v="East Dover Road"/>
    <tag k="addr:state" v="VT"/>
    <tag k="ref:vcgi:esiteid" v="271065"/>
  </node>
  <node id="-854" visible="true" lat="43.036007925107" lon="-72.811268990384">
    <tag k="addr:city" v="Wardsboro"/>
    <tag k="addr:housenumber" v="119"/>
    <tag k="addr:street" v="Bills Road"/>
    <tag k="addr:state" v="VT"/>
    <tag k="ref:vcgi:esiteid" v="271069"/>
  </node>
  <node id="-859" visible="true" lat="43.032828124272" lon="-72.817674343283">
    <tag k="addr:city" v="Wardsboro"/>
    <tag k="addr:housenumber" v="2599"/>
    <tag k="addr:street" v="Vermont Route 100"/>
    <tag k="addr:state" v="VT"/>
    <tag k="ref:vcgi:esiteid" v="271074"/>
  </node>
  <node id="-860" visible="true" lat="43.023945548637" lon="-72.832240832304">
    <tag k="addr:city" v="Wardsboro"/>
    <tag k="addr:housenumber" v="175"/>
    <tag k="addr:street" v="Lower Podunk Road"/>
    <tag k="addr:state" v="VT"/>
    <tag k="ref:vcgi:esiteid" v="271075"/>
  </node>
  <node id="-862" visible="true" lat="43.013749928878" lon="-72.83889022063">
    <tag k="addr:city" v="Wardsboro"/>
    <tag k="addr:housenumber" v="1881"/>
    <tag k="addr:street" v="Upper Podunk Road"/>
    <tag k="addr:state" v="VT"/>
    <tag k="ref:vcgi:esiteid" v="271077"/>
  </node>
  <node id="-866" visible="true" lat="43.043968844573" lon="-72.788024612949">
    <tag k="addr:city" v="Wardsboro"/>
    <tag k="addr:housenumber" v="566"/>
    <tag k="addr:street" v="Vermont Route 100"/>
    <tag k="addr:state" v="VT"/>
    <tag k="ref:vcgi:esiteid" v="271082"/>
  </node>
  <node id="-867" visible="true" lat="43.036606756734" lon="-72.7932165717">
    <tag k="addr:city" v="Wardsboro"/>
    <tag k="addr:housenumber" v="190"/>
    <tag k="addr:street" v="Mitch Avenue"/>
    <tag k="addr:state" v="VT"/>
    <tag k="ref:vcgi:esiteid" v="271083"/>
  </node>
  <node id="-868" visible="true" lat="43.037425008962" lon="-72.791475058156">
    <tag k="addr:city" v="Wardsboro"/>
    <tag k="addr:housenumber" v="85"/>
    <tag k="addr:street" v="Mitch Avenue"/>
    <tag k="addr:state" v="VT"/>
    <tag k="ref:vcgi:esiteid" v="271084"/>
  </node>
  <node id="-869" visible="true" lat="43.036499061822" lon="-72.790938621523">
    <tag k="addr:city" v="Wardsboro"/>
    <tag k="addr:housenumber" v="85"/>
    <tag k="addr:street" v="Dump Road"/>
    <tag k="addr:state" v="VT"/>
    <tag k="ref:vcgi:esiteid" v="271085"/>
  </node>
  <node id="-875" visible="true" lat="43.036361266485" lon="-72.804453261002">
    <tag k="addr:city" v="Wardsboro"/>
    <tag k="addr:housenumber" v="77"/>
    <tag k="addr:street" v="Brown Hill Road"/>
    <tag k="addr:state" v="VT"/>
    <tag k="ref:vcgi:esiteid" v="271091"/>
  </node>
  <node id="-885" visible="true" lat="42.990752760105" lon="-72.773983565294">
    <tag k="addr:city" v="Wardsboro"/>
    <tag k="addr:housenumber" v="283"/>
    <tag k="addr:street" v="Hunt Road"/>
    <tag k="addr:state" v="VT"/>
    <tag k="ref:vcgi:esiteid" v="271101"/>
  </node>
  <node id="-897" visible="true" lat="43.031509333767" lon="-72.827753328751">
    <tag k="addr:city" v="Wardsboro"/>
    <tag k="addr:housenumber" v="572"/>
    <tag k="addr:street" v="Fitts Road"/>
    <tag k="addr:state" v="VT"/>
    <tag k="ref:vcgi:esiteid" v="271113"/>
  </node>
  <node id="-898" visible="true" lat="43.030284437242" lon="-72.824558641379">
    <tag k="addr:city" v="Wardsboro"/>
    <tag k="addr:housenumber" v="736"/>
    <tag k="addr:street" v="Fitts Road"/>
    <tag k="addr:state" v="VT"/>
    <tag k="ref:vcgi:esiteid" v="271114"/>
  </node>
  <node id="-899" visible="true" lat="43.015762672001" lon="-72.753804046994">
    <tag k="addr:city" v="Wardsboro"/>
    <tag k="addr:housenumber" v="139"/>
    <tag k="addr:street" v="Blackmer Lane"/>
    <tag k="addr:state" v="VT"/>
    <tag k="ref:vcgi:esiteid" v="271115"/>
  </node>
  <node id="-904" visible="true" lat="43.040245761054" lon="-72.785613422992">
    <tag k="addr:city" v="Wardsboro"/>
    <tag k="addr:housenumber" v="230"/>
    <tag k="addr:street" v="Fairview Road"/>
    <tag k="addr:state" v="VT"/>
    <tag k="ref:vcgi:esiteid" v="271120"/>
  </node>
  <node id="-920" visible="true" lat="42.999260761787" lon="-72.763861686877">
    <tag k="addr:city" v="Wardsboro"/>
    <tag k="addr:housenumber" v="425"/>
    <tag k="addr:street" v="Gault Road"/>
    <tag k="addr:state" v="VT"/>
    <tag k="ref:vcgi:esiteid" v="311790"/>
  </node>
  <node id="-921" visible="true" lat="42.998581992789" lon="-72.762237144778">
    <tag k="addr:city" v="Wardsboro"/>
    <tag k="addr:housenumber" v="465"/>
    <tag k="addr:street" v="Gault Road"/>
    <tag k="addr:state" v="VT"/>
    <tag k="ref:vcgi:esiteid" v="311791"/>
  </node>
  <node id="-932" visible="true" lat="42.996956033346" lon="-72.776146435621">
    <tag k="addr:city" v="Wardsboro"/>
    <tag k="addr:housenumber" v="1143"/>
    <tag k="addr:street" v="East Dover Road"/>
    <tag k="addr:state" v="VT"/>
    <tag k="ref:vcgi:esiteid" v="328822"/>
  </node>
  <node id="-939" visible="true" lat="43.016085245311" lon="-72.752771320207">
    <tag k="addr:city" v="Wardsboro"/>
    <tag k="addr:housenumber" v="86"/>
    <tag k="addr:street" v="Blackmer Lane"/>
    <tag k="addr:state" v="VT"/>
    <tag k="ref:vcgi:esiteid" v="329406"/>
  </node>
  <node id="-940" visible="true" lat="43.031084100446" lon="-72.837179620306">
    <tag k="addr:city" v="Wardsboro"/>
    <tag k="addr:housenumber" v="45"/>
    <tag k="addr:street" v="Fitts Road"/>
    <tag k="addr:state" v="VT"/>
    <tag k="ref:vcgi:esiteid" v="329407"/>
  </node>
  <node id="-941" visible="true" lat="43.020877887801" lon="-72.752886858494">
    <tag k="addr:city" v="Wardsboro"/>
    <tag k="addr:housenumber" v="619"/>
    <tag k="addr:street" v="Townshend Dam Road"/>
    <tag k="addr:state" v="VT"/>
    <tag k="ref:vcgi:esiteid" v="331937"/>
  </node>
  <node id="-947" visible="true" lat="43.022438400196" lon="-72.752483022268">
    <tag k="addr:city" v="Wardsboro"/>
    <tag k="addr:housenumber" v="621"/>
    <tag k="addr:street" v="Townshend Dam Road"/>
    <tag k="addr:state" v="VT"/>
    <tag k="ref:vcgi:esiteid" v="340008"/>
  </node>
  <node id="-948" visible="true" lat="43.050574229306" lon="-72.762494206946">
    <tag k="addr:city" v="Wardsboro"/>
    <tag k="addr:housenumber" v="1623"/>
    <tag k="addr:street" v="East Hill Road"/>
    <tag k="addr:state" v="VT"/>
    <tag k="ref:vcgi:esiteid" v="340009"/>
  </node>
  <node id="-960" visible="true" lat="43.005013952499" lon="-72.772770701994">
    <tag k="addr:city" v="Wardsboro"/>
    <tag k="addr:housenumber" v="482"/>
    <tag k="addr:street" v="East Dover Road"/>
    <tag k="addr:state" v="VT"/>
    <tag k="ref:vcgi:esiteid" v="449624"/>
  </node>
  <node id="-962" visible="true" lat="43.025291776882" lon="-72.833168157095">
    <tag k="addr:city" v="Wardsboro"/>
    <tag k="addr:housenumber" v="399"/>
    <tag k="addr:street" v="Lower Podunk Road"/>
    <tag k="addr:state" v="VT"/>
    <tag k="ref:vcgi:esiteid" v="449628"/>
  </node>
  <node id="-977" visible="true" lat="43.0257183107" lon="-72.759500072568">
    <tag k="addr:city" v="Wardsboro"/>
    <tag k="addr:housenumber" v="1111"/>
    <tag k="addr:street" v="Tomlinson Road"/>
    <tag k="addr:state" v="VT"/>
    <tag k="ref:vcgi:esiteid" v="700192"/>
  </node>
  <node id="-985" visible="true" lat="43.040956062858" lon="-72.796250571872">
    <tag k="addr:city" v="Wardsboro"/>
    <tag k="addr:housenumber" v="365"/>
    <tag k="addr:street" v="Fornuto Road"/>
    <tag k="addr:state" v="VT"/>
    <tag k="ref:vcgi:esiteid" v="755155"/>
  </node>
  <node id="-986" visible="true" lat="43.035184138805" lon="-72.809681070625">
    <tag k="addr:city" v="Wardsboro"/>
    <tag k="addr:housenumber" v="18"/>
    <tag k="addr:street" v="Bills Road"/>
    <tag k="addr:state" v="VT"/>
    <tag k="ref:vcgi:esiteid" v="756681"/>
  </node>
</osm>
