<?xml version="1.0" encoding="UTF-8"?>
<osm version="0.6" generator="JOSM" upload="false">
  <node id="-1624" visible="true" lat="44.338106505927" lon="-72.759094177246">
    <!-- duplicates-in-different-towns: "16 Winooski Street, Waterbury, VT"  ignoring town mismatch for duplicate housenumber/street when matching to esiteid 274864: "16 Winooski Street, , VT" -->
    <tag k="addr:city" v="Waterbury"/>
    <tag k="addr:housenumber" v="16"/>
    <tag k="addr:street" v="Winooski Street"/>
    <tag k="addr:state" v="VT"/>
    <tag k="ref:vcgi:esiteid" v="274873"/>
  </node>
  <node id="-1769" visible="true" lat="44.334389289607" lon="-72.754742079768">
    <!-- duplicates-in-different-towns: "40 Randall Street, Waterbury, VT"  ignoring town mismatch for duplicate housenumber/street when matching to esiteid 275047: "40 Randall Street, , VT" -->
    <tag k="addr:city" v="Waterbury"/>
    <tag k="addr:housenumber" v="40"/>
    <tag k="addr:street" v="Randall Street"/>
    <tag k="addr:state" v="VT"/>
    <tag k="ref:vcgi:esiteid" v="275055"/>
  </node>
  <node id="-1802" visible="true" lat="44.332251377543" lon="-72.751207294501">
    <!-- duplicates-in-different-towns: "109 South Main Street, Waterbury, VT"  ignoring town mismatch for duplicate housenumber/street when matching to esiteid 275098: "109 South Main Street, , VT" -->
    <tag k="addr:city" v="Waterbury"/>
    <tag k="addr:housenumber" v="109"/>
    <tag k="addr:street" v="South Main Street"/>
    <tag k="addr:state" v="VT"/>
    <tag k="ref:vcgi:esiteid" v="275105"/>
  </node>
  <node id="-1805" visible="true" lat="44.332164592661" lon="-72.751753354473">
    <!-- duplicates-in-different-towns: "109 South Main Street, Waterbury, VT"  ignoring town mismatch for duplicate housenumber/street when matching to esiteid 275098: "109 South Main Street, , VT" -->
    <tag k="addr:city" v="Waterbury"/>
    <tag k="addr:housenumber" v="109"/>
    <tag k="addr:street" v="South Main Street"/>
    <tag k="addr:state" v="VT"/>
    <tag k="ref:vcgi:esiteid" v="275111"/>
  </node>
  <node id="-2268" visible="true" lat="44.341843274432" lon="-72.761199447379">
    <!-- duplicates-in-different-towns: "36 North Main Street, Waterbury, VT"  ignoring town mismatch for duplicate housenumber/street when matching to esiteid 1050598: "36 North Main Street, , VT" -->
    <tag k="addr:city" v="Waterbury"/>
    <tag k="addr:housenumber" v="36"/>
    <tag k="addr:street" v="North Main Street"/>
    <tag k="addr:state" v="VT"/>
    <tag k="ref:vcgi:esiteid" v="450810"/>
  </node>
  <node id="-2619" visible="true" lat="44.34247888866" lon="-72.701037947743">
    <!-- duplicates-in-different-towns: "2386 Perry Hill Road, Waterbury, VT"  ignoring town mismatch for duplicate housenumber/street when matching to esiteid 773010: "2386 Perry Hill Road, , VT" -->
    <tag k="addr:city" v="Waterbury"/>
    <tag k="addr:housenumber" v="2386"/>
    <tag k="addr:street" v="Perry Hill Road"/>
    <tag k="addr:state" v="VT"/>
    <tag k="ref:vcgi:esiteid" v="773009"/>
  </node>
</osm>
