<?xml version="1.0" encoding="UTF-8"?>
<osm version="0.6" generator="JOSM" upload="false">
  <node id="-474" visible="true" lat="44.748301444777" lon="-72.744118805945">
    <!-- duplicates-in-different-towns: "335 Florences Road, Belvidere Center, VT"  ignoring town mismatch for duplicate housenumber/street when matching to esiteid 655821: "335 Florences Road, Belvidere, VT" -->
    <tag k="addr:city" v="Belvidere Center"/>
    <tag k="addr:housenumber" v="335"/>
    <tag k="addr:street" v="Florences Road"/>
    <tag k="addr:state" v="VT"/>
    <tag k="ref:vcgi:esiteid" v="768945"/>
  </node>
</osm>
