<?xml version="1.0" encoding="UTF-8"?>
<osm version="0.6" generator="JOSM" upload="false">
  <node id="-104" visible="true" lat="44.752640751561" lon="-72.746762042516">
    <tag k="addr:city" v="Waterville"/>
    <tag k="addr:housenumber" v="21"/>
    <tag k="addr:street" v="Rogers Road"/>
    <tag k="addr:state" v="VT"/>
    <tag k="ref:vcgi:esiteid" v="276004"/>
  </node>
  <node id="-105" visible="true" lat="44.752334559794" lon="-72.745178194024">
    <tag k="addr:city" v="Waterville"/>
    <tag k="addr:housenumber" v="1244"/>
    <tag k="addr:street" v="Smithville Road"/>
    <tag k="addr:state" v="VT"/>
    <tag k="ref:vcgi:esiteid" v="276005"/>
  </node>
  <node id="-120" visible="true" lat="44.737399679252" lon="-72.744901175869">
    <tag k="addr:city" v="Waterville"/>
    <tag k="addr:housenumber" v="65"/>
    <tag k="addr:street" v="Smithville Road"/>
    <tag k="addr:state" v="VT"/>
    <tag k="ref:vcgi:esiteid" v="276020"/>
  </node>
  <node id="-144" visible="true" lat="44.726863602875" lon="-72.748411389754">
    <tag k="addr:city" v="Waterville"/>
    <tag k="addr:housenumber" v="3414"/>
    <tag k="addr:street" v="Vermont Route 109"/>
    <tag k="addr:state" v="VT"/>
    <tag k="ref:vcgi:esiteid" v="276044"/>
  </node>
  <node id="-215" visible="true" lat="44.709539100077" lon="-72.716096268829">
    <tag k="addr:city" v="Waterville"/>
    <tag k="addr:housenumber" v="2233"/>
    <tag k="addr:street" v="Codding Hollow Road"/>
    <tag k="addr:state" v="VT"/>
    <tag k="ref:vcgi:esiteid" v="276116"/>
  </node>
  <node id="-276" visible="true" lat="44.693826284817" lon="-72.765628571539">
    <tag k="addr:city" v="Waterville"/>
    <tag k="addr:housenumber" v="46"/>
    <tag k="addr:street" v="Beals Hill Road"/>
    <tag k="addr:state" v="VT"/>
    <tag k="ref:vcgi:esiteid" v="276178"/>
  </node>
  <node id="-278" visible="true" lat="44.693587052634" lon="-72.767750909534">
    <tag k="addr:city" v="Waterville"/>
    <tag k="addr:housenumber" v="793"/>
    <tag k="addr:street" v="Vermont Route 109"/>
    <tag k="addr:state" v="VT"/>
    <tag k="ref:vcgi:esiteid" v="276180"/>
  </node>
  <node id="-280" visible="true" lat="44.693386414255" lon="-72.766245437932">
    <tag k="addr:city" v="Waterville"/>
    <tag k="addr:housenumber" v="850"/>
    <tag k="addr:street" v="Vermont Route 109"/>
    <tag k="addr:state" v="VT"/>
    <tag k="ref:vcgi:esiteid" v="276182"/>
  </node>
  <node id="-281" visible="true" lat="44.693418475719" lon="-72.767242487013">
    <tag k="addr:city" v="Waterville"/>
    <tag k="addr:housenumber" v="790"/>
    <tag k="addr:street" v="Vermont Route 109"/>
    <tag k="addr:state" v="VT"/>
    <tag k="ref:vcgi:esiteid" v="276183"/>
  </node>
  <node id="-282" visible="true" lat="44.693059125948" lon="-72.767962978342">
    <tag k="addr:city" v="Waterville"/>
    <tag k="addr:housenumber" v="756"/>
    <tag k="addr:street" v="Vermont Route 109"/>
    <tag k="addr:state" v="VT"/>
    <tag k="ref:vcgi:esiteid" v="276184"/>
  </node>
  <node id="-284" visible="true" lat="44.69282942299" lon="-72.768307975938">
    <tag k="addr:city" v="Waterville"/>
    <tag k="addr:housenumber" v="738"/>
    <tag k="addr:street" v="Vermont Route 109"/>
    <tag k="addr:state" v="VT"/>
    <tag k="ref:vcgi:esiteid" v="276186"/>
  </node>
  <node id="-289" visible="true" lat="44.691629088067" lon="-72.769085465262">
    <tag k="addr:city" v="Waterville"/>
    <tag k="addr:housenumber" v="634"/>
    <tag k="addr:street" v="Vermont Route 109"/>
    <tag k="addr:state" v="VT"/>
    <tag k="ref:vcgi:esiteid" v="276191"/>
  </node>
  <node id="-292" visible="true" lat="44.691522103889" lon="-72.769502122616">
    <tag k="addr:city" v="Waterville"/>
    <tag k="addr:housenumber" v="619"/>
    <tag k="addr:street" v="Vermont Route 109"/>
    <tag k="addr:state" v="VT"/>
    <tag k="ref:vcgi:esiteid" v="276194"/>
  </node>
  <node id="-293" visible="true" lat="44.691426249194" lon="-72.76897664884">
    <tag k="addr:city" v="Waterville"/>
    <tag k="addr:housenumber" v="600"/>
    <tag k="addr:street" v="Vermont Route 109"/>
    <tag k="addr:state" v="VT"/>
    <tag k="ref:vcgi:esiteid" v="276195"/>
  </node>
  <node id="-294" visible="true" lat="44.691103155379" lon="-72.769086889121">
    <tag k="addr:city" v="Waterville"/>
    <tag k="addr:housenumber" v="598"/>
    <tag k="addr:street" v="Vermont Route 109"/>
    <tag k="addr:state" v="VT"/>
    <tag k="ref:vcgi:esiteid" v="276196"/>
  </node>
  <node id="-295" visible="true" lat="44.690835458624" lon="-72.769135911446">
    <tag k="addr:city" v="Waterville"/>
    <tag k="addr:housenumber" v="570"/>
    <tag k="addr:street" v="Vermont Route 109"/>
    <tag k="addr:state" v="VT"/>
    <tag k="ref:vcgi:esiteid" v="276197"/>
  </node>
  <node id="-296" visible="true" lat="44.690556952989" lon="-72.769040946129">
    <tag k="addr:city" v="Waterville"/>
    <tag k="addr:housenumber" v="556"/>
    <tag k="addr:street" v="Vermont Route 109"/>
    <tag k="addr:state" v="VT"/>
    <tag k="ref:vcgi:esiteid" v="276198"/>
  </node>
  <node id="-297" visible="true" lat="44.690362058717" lon="-72.769545848812">
    <tag k="addr:city" v="Waterville"/>
    <tag k="addr:housenumber" v="549"/>
    <tag k="addr:street" v="Vermont Route 109"/>
    <tag k="addr:state" v="VT"/>
    <tag k="ref:vcgi:esiteid" v="276199"/>
  </node>
  <node id="-298" visible="true" lat="44.690360135798" lon="-72.768956018203">
    <tag k="addr:city" v="Waterville"/>
    <tag k="addr:housenumber" v="544"/>
    <tag k="addr:street" v="Vermont Route 109"/>
    <tag k="addr:state" v="VT"/>
    <tag k="ref:vcgi:esiteid" v="276200"/>
  </node>
  <node id="-299" visible="true" lat="44.690367348589" lon="-72.770468454414">
    <tag k="addr:city" v="Waterville"/>
    <tag k="addr:housenumber" v="58"/>
    <tag k="addr:street" v="Church Street"/>
    <tag k="addr:state" v="VT"/>
    <tag k="ref:vcgi:esiteid" v="276201"/>
  </node>
  <node id="-300" visible="true" lat="44.690433243652" lon="-72.770154110997">
    <tag k="addr:city" v="Waterville"/>
    <tag k="addr:housenumber" v="36"/>
    <tag k="addr:street" v="Church Street"/>
    <tag k="addr:state" v="VT"/>
    <tag k="ref:vcgi:esiteid" v="276202"/>
  </node>
  <node id="-301" visible="true" lat="44.6901019507" lon="-72.769632230218">
    <tag k="addr:city" v="Waterville"/>
    <tag k="addr:housenumber" v="21"/>
    <tag k="addr:street" v="Church Street"/>
    <tag k="addr:state" v="VT"/>
    <tag k="ref:vcgi:esiteid" v="276203"/>
  </node>
  <node id="-302" visible="true" lat="44.690080128785" lon="-72.77153969565">
    <tag k="addr:city" v="Waterville"/>
    <tag k="addr:housenumber" v="6"/>
    <tag k="addr:street" v="Griffin Road"/>
    <tag k="addr:state" v="VT"/>
    <tag k="ref:vcgi:esiteid" v="276204"/>
  </node>
  <node id="-303" visible="true" lat="44.690064055379" lon="-72.770068679962">
    <tag k="addr:city" v="Waterville"/>
    <tag k="addr:housenumber" v="37"/>
    <tag k="addr:street" v="Church Street"/>
    <tag k="addr:state" v="VT"/>
    <tag k="ref:vcgi:esiteid" v="276205"/>
  </node>
  <node id="-304" visible="true" lat="44.690037181177" lon="-72.770679576253">
    <tag k="addr:city" v="Waterville"/>
    <tag k="addr:housenumber" v="71"/>
    <tag k="addr:street" v="Church Street"/>
    <tag k="addr:state" v="VT"/>
    <tag k="ref:vcgi:esiteid" v="276206"/>
  </node>
  <node id="-305" visible="true" lat="44.690068587066" lon="-72.77034494142">
    <tag k="addr:city" v="Waterville"/>
    <tag k="addr:housenumber" v="53"/>
    <tag k="addr:street" v="Church Street"/>
    <tag k="addr:state" v="VT"/>
    <tag k="ref:vcgi:esiteid" v="276207"/>
  </node>
  <node id="-306" visible="true" lat="44.689980965582" lon="-72.769532640324">
    <tag k="addr:city" v="Waterville"/>
    <tag k="addr:housenumber" v="513"/>
    <tag k="addr:street" v="Vermont Route 109"/>
    <tag k="addr:state" v="VT"/>
    <tag k="ref:vcgi:esiteid" v="276208"/>
  </node>
  <node id="-309" visible="true" lat="44.689777454822" lon="-72.769589719657">
    <tag k="addr:city" v="Waterville"/>
    <tag k="addr:housenumber" v="501"/>
    <tag k="addr:street" v="Vermont Route 109"/>
    <tag k="addr:state" v="VT"/>
    <tag k="ref:vcgi:esiteid" v="276212"/>
  </node>
  <node id="-311" visible="true" lat="44.689451980851" lon="-72.76995710678">
    <tag k="addr:city" v="Waterville"/>
    <tag k="addr:housenumber" v="493"/>
    <tag k="addr:street" v="Vermont Route 109"/>
    <tag k="addr:state" v="VT"/>
    <tag k="ref:vcgi:esiteid" v="276214"/>
  </node>
  <node id="-312" visible="true" lat="44.689141733096" lon="-72.769021470271">
    <tag k="addr:city" v="Waterville"/>
    <tag k="addr:housenumber" v="454"/>
    <tag k="addr:street" v="Vermont Route 109"/>
    <tag k="addr:state" v="VT"/>
    <tag k="ref:vcgi:esiteid" v="276215"/>
  </node>
  <node id="-313" visible="true" lat="44.688884798019" lon="-72.768949138847">
    <tag k="addr:city" v="Waterville"/>
    <tag k="addr:housenumber" v="440"/>
    <tag k="addr:street" v="Vermont Route 109"/>
    <tag k="addr:state" v="VT"/>
    <tag k="ref:vcgi:esiteid" v="276217"/>
  </node>
  <node id="-315" visible="true" lat="44.688658606306" lon="-72.768852106045">
    <tag k="addr:city" v="Waterville"/>
    <tag k="addr:housenumber" v="29"/>
    <tag k="addr:street" v="Oakes Road"/>
    <tag k="addr:state" v="VT"/>
    <tag k="ref:vcgi:esiteid" v="276219"/>
  </node>
  <node id="-316" visible="true" lat="44.688721903936" lon="-72.769430860376">
    <tag k="addr:city" v="Waterville"/>
    <tag k="addr:housenumber" v="421"/>
    <tag k="addr:street" v="Vermont Route 109"/>
    <tag k="addr:state" v="VT"/>
    <tag k="ref:vcgi:esiteid" v="276220"/>
  </node>
  <node id="-317" visible="true" lat="44.688807814129" lon="-72.767974756382">
    <tag k="addr:city" v="Waterville"/>
    <tag k="addr:housenumber" v="59"/>
    <tag k="addr:street" v="Oakes Road"/>
    <tag k="addr:state" v="VT"/>
    <tag k="ref:vcgi:esiteid" v="276221"/>
  </node>
  <node id="-319" visible="true" lat="44.688386422346" lon="-72.769563158688">
    <tag k="addr:city" v="Waterville"/>
    <tag k="addr:housenumber" v="399"/>
    <tag k="addr:street" v="Vermont Route 109"/>
    <tag k="addr:state" v="VT"/>
    <tag k="ref:vcgi:esiteid" v="276223"/>
  </node>
  <node id="-320" visible="true" lat="44.68829486927" lon="-72.769120653152">
    <tag k="addr:city" v="Waterville"/>
    <tag k="addr:housenumber" v="396"/>
    <tag k="addr:street" v="Vermont Route 109"/>
    <tag k="addr:state" v="VT"/>
    <tag k="ref:vcgi:esiteid" v="276224"/>
  </node>
  <node id="-325" visible="true" lat="44.686929207735" lon="-72.768670519564">
    <tag k="addr:city" v="Waterville"/>
    <tag k="addr:housenumber" v="310"/>
    <tag k="addr:street" v="Vermont Route 109"/>
    <tag k="addr:state" v="VT"/>
    <tag k="ref:vcgi:esiteid" v="276229"/>
  </node>
  <node id="-326" visible="true" lat="44.686772805097" lon="-72.769456346425">
    <tag k="addr:city" v="Waterville"/>
    <tag k="addr:housenumber" v="294"/>
    <tag k="addr:street" v="Vermont Route 109"/>
    <tag k="addr:state" v="VT"/>
    <tag k="ref:vcgi:esiteid" v="276230"/>
  </node>
  <node id="-332" visible="true" lat="44.685195119972" lon="-72.770859772586">
    <tag k="addr:city" v="Waterville"/>
    <tag k="addr:housenumber" v="189"/>
    <tag k="addr:street" v="Vermont Route 109"/>
    <tag k="addr:state" v="VT"/>
    <tag k="ref:vcgi:esiteid" v="276236"/>
  </node>
  <node id="-334" visible="true" lat="44.683825163557" lon="-72.770521865392">
    <tag k="addr:city" v="Waterville"/>
    <tag k="addr:housenumber" v="92"/>
    <tag k="addr:street" v="Vermont Route 109"/>
    <tag k="addr:state" v="VT"/>
    <tag k="ref:vcgi:esiteid" v="276238"/>
  </node>
  <node id="-335" visible="true" lat="44.683497307394" lon="-72.771284844998">
    <tag k="addr:city" v="Waterville"/>
    <tag k="addr:housenumber" v="59"/>
    <tag k="addr:street" v="Vermont Route 109"/>
    <tag k="addr:state" v="VT"/>
    <tag k="ref:vcgi:esiteid" v="276239"/>
  </node>
  <node id="-354" visible="true" lat="44.693530342786" lon="-72.766948230369">
    <tag k="addr:city" v="Waterville"/>
    <tag k="addr:housenumber" v="814"/>
    <tag k="addr:street" v="Vermont Route 109"/>
    <tag k="addr:state" v="VT"/>
    <tag k="ref:vcgi:esiteid" v="276258"/>
  </node>
  <node id="-360" visible="true" lat="44.693288222056" lon="-72.766895072699">
    <tag k="addr:city" v="Waterville"/>
    <tag k="addr:housenumber" v="812"/>
    <tag k="addr:street" v="Vermont Route 109"/>
    <tag k="addr:state" v="VT"/>
    <tag k="ref:vcgi:esiteid" v="276264"/>
  </node>
  <node id="-361" visible="true" lat="44.690323879043" lon="-72.770722218528">
    <tag k="addr:city" v="Waterville"/>
    <tag k="addr:housenumber" v="64"/>
    <tag k="addr:street" v="Church Street"/>
    <tag k="addr:state" v="VT"/>
    <tag k="ref:vcgi:esiteid" v="276265"/>
  </node>
  <node id="-374" visible="true" lat="44.684681603417" lon="-72.771420795028">
    <tag k="addr:city" v="Waterville"/>
    <tag k="addr:housenumber" v="93"/>
    <tag k="addr:street" v="Vermont Route 109"/>
    <tag k="addr:state" v="VT"/>
    <tag k="ref:vcgi:esiteid" v="276279"/>
  </node>
  <node id="-379" visible="true" lat="44.69275919652" lon="-72.76761295004">
    <tag k="addr:city" v="Waterville"/>
    <tag k="addr:housenumber" v="40"/>
    <tag k="addr:street" v="Fox Hill Road"/>
    <tag k="addr:state" v="VT"/>
    <tag k="ref:vcgi:esiteid" v="276284"/>
  </node>
  <node id="-380" visible="true" lat="44.691921786478" lon="-72.768147030808">
    <tag k="addr:city" v="Waterville"/>
    <tag k="addr:housenumber" v="200"/>
    <tag k="addr:street" v="Fox Hill Road"/>
    <tag k="addr:state" v="VT"/>
    <tag k="ref:vcgi:esiteid" v="276285"/>
  </node>
  <node id="-411" visible="true" lat="44.684278997651" lon="-72.769710716822">
    <tag k="addr:city" v="Waterville"/>
    <tag k="addr:housenumber" v="100"/>
    <tag k="addr:street" v="Vermont Route 109"/>
    <tag k="addr:state" v="VT"/>
    <tag k="ref:vcgi:esiteid" v="305507"/>
  </node>
  <node id="-421" visible="true" lat="44.736679087285" lon="-72.744335650987">
    <tag k="addr:city" v="Waterville"/>
    <tag k="addr:housenumber" v="4101"/>
    <tag k="addr:street" v="Vermont Route 109"/>
    <tag k="addr:state" v="VT"/>
    <tag k="ref:vcgi:esiteid" v="315912"/>
  </node>
  <node id="-432" visible="true" lat="44.7368172039" lon="-72.745142410378">
    <tag k="addr:city" v="Waterville"/>
    <tag k="addr:housenumber" v="45"/>
    <tag k="addr:street" v="Smithville Road"/>
    <tag k="addr:state" v="VT"/>
    <tag k="ref:vcgi:esiteid" v="448620"/>
  </node>
</osm>
