<?xml version="1.0" encoding="UTF-8"?>
<osm version="0.6" generator="JOSM" upload="false">
  <node id="-953" visible="true" lat="43.369230937184" lon="-72.517613415363">
    <tag k="addr:city" v="Perkinsville"/>
    <tag k="addr:housenumber" v="1862"/>
    <tag k="addr:street" v="Vermont Route 106"/>
    <tag k="addr:state" v="VT"/>
    <tag k="ref:vcgi:esiteid" v="277199"/>
  </node>
  <node id="-1019" visible="true" lat="43.362038884944" lon="-72.521054692088">
    <tag k="addr:city" v="Perkinsville"/>
    <tag k="addr:housenumber" v="1342"/>
    <tag k="addr:street" v="Vermont Route 106"/>
    <tag k="addr:state" v="VT"/>
    <tag k="ref:vcgi:esiteid" v="277269"/>
  </node>
</osm>
