<?xml version="1.0" encoding="UTF-8"?>
<osm version="0.6" generator="JOSM" upload="false">
  <node id="-106" visible="true" lat="43.938778215637" lon="-72.264333369181">
    <tag k="addr:city" v="West Fairlee"/>
    <tag k="addr:housenumber" v="87"/>
    <tag k="addr:street" v="Beaver Meadow Road"/>
    <tag k="addr:state" v="VT"/>
    <tag k="ref:vcgi:esiteid" v="267180"/>
  </node>
  <node id="-107" visible="true" lat="43.937675382056" lon="-72.264861484319">
    <tag k="addr:city" v="West Fairlee"/>
    <tag k="addr:housenumber" v="2816"/>
    <tag k="addr:street" v="Vermont Route 113"/>
    <tag k="addr:state" v="VT"/>
    <tag k="ref:vcgi:esiteid" v="267188"/>
  </node>
  <node id="-108" visible="true" lat="43.939226960242" lon="-72.263946636444">
    <tag k="addr:city" v="West Fairlee"/>
    <tag k="addr:housenumber" v="127"/>
    <tag k="addr:street" v="Beaver Meadow Road"/>
    <tag k="addr:state" v="VT"/>
    <tag k="ref:vcgi:esiteid" v="267294"/>
  </node>
  <node id="-109" visible="true" lat="43.940152586767" lon="-72.263571756769">
    <tag k="addr:city" v="West Fairlee"/>
    <tag k="addr:housenumber" v="173"/>
    <tag k="addr:street" v="Beaver Meadow Road"/>
    <tag k="addr:state" v="VT"/>
    <tag k="ref:vcgi:esiteid" v="267295"/>
  </node>
  <node id="-164" visible="true" lat="43.946442699741" lon="-72.259775651761">
    <tag k="addr:city" v="West Fairlee"/>
    <tag k="addr:housenumber" v="38"/>
    <tag k="addr:street" v="Ravenwood Road"/>
    <tag k="addr:state" v="VT"/>
    <tag k="ref:vcgi:esiteid" v="278737"/>
  </node>
  <node id="-168" visible="true" lat="43.946199923841" lon="-72.260150296341">
    <tag k="addr:city" v="West Fairlee"/>
    <tag k="addr:housenumber" v="39"/>
    <tag k="addr:street" v="Ravenwood Road"/>
    <tag k="addr:state" v="VT"/>
    <tag k="ref:vcgi:esiteid" v="278741"/>
  </node>
  <node id="-173" visible="true" lat="43.945572280693" lon="-72.259718907851">
    <tag k="addr:city" v="West Fairlee"/>
    <tag k="addr:housenumber" v="643"/>
    <tag k="addr:street" v="Beaver Meadow Road"/>
    <tag k="addr:state" v="VT"/>
    <tag k="ref:vcgi:esiteid" v="278747"/>
  </node>
  <node id="-205" visible="true" lat="43.934295511227" lon="-72.266010956927">
    <tag k="addr:city" v="West Fairlee"/>
    <tag k="addr:housenumber" v="2624"/>
    <tag k="addr:street" v="Vermont Route 113"/>
    <tag k="addr:state" v="VT"/>
    <tag k="ref:vcgi:esiteid" v="278781"/>
  </node>
  <node id="-210" visible="true" lat="43.931146009376" lon="-72.268448962858">
    <tag k="addr:city" v="West Fairlee"/>
    <tag k="addr:housenumber" v="2437"/>
    <tag k="addr:street" v="Vermont Route 113"/>
    <tag k="addr:state" v="VT"/>
    <tag k="ref:vcgi:esiteid" v="278786"/>
  </node>
  <node id="-214" visible="true" lat="43.92998491506" lon="-72.269194028824">
    <tag k="addr:city" v="West Fairlee"/>
    <tag k="addr:housenumber" v="2361"/>
    <tag k="addr:street" v="Vermont Route 113"/>
    <tag k="addr:state" v="VT"/>
    <tag k="ref:vcgi:esiteid" v="278790"/>
  </node>
  <node id="-220" visible="true" lat="43.92669807179" lon="-72.267167224026">
    <tag k="addr:city" v="West Fairlee"/>
    <tag k="addr:housenumber" v="2112"/>
    <tag k="addr:street" v="Vermont Route 113"/>
    <tag k="addr:state" v="VT"/>
    <tag k="ref:vcgi:esiteid" v="278796"/>
  </node>
  <node id="-224" visible="true" lat="43.925324294876" lon="-72.264840230136">
    <tag k="addr:city" v="West Fairlee"/>
    <tag k="addr:housenumber" v="2034"/>
    <tag k="addr:street" v="Vermont Route 113"/>
    <tag k="addr:state" v="VT"/>
    <tag k="ref:vcgi:esiteid" v="278800"/>
  </node>
  <node id="-227" visible="true" lat="43.924383581745" lon="-72.265192801481">
    <tag k="addr:city" v="West Fairlee"/>
    <tag k="addr:housenumber" v="1930"/>
    <tag k="addr:street" v="Vermont Route 113"/>
    <tag k="addr:state" v="VT"/>
    <tag k="ref:vcgi:esiteid" v="278803"/>
  </node>
  <node id="-228" visible="true" lat="43.924559018958" lon="-72.26585413582">
    <tag k="addr:city" v="West Fairlee"/>
    <tag k="addr:housenumber" v="1931"/>
    <tag k="addr:street" v="Vermont Route 113"/>
    <tag k="addr:state" v="VT"/>
    <tag k="ref:vcgi:esiteid" v="278804"/>
  </node>
  <node id="-231" visible="true" lat="43.922666928808" lon="-72.26490734256">
    <tag k="addr:city" v="West Fairlee"/>
    <tag k="addr:housenumber" v="1817"/>
    <tag k="addr:street" v="Vermont Route 113"/>
    <tag k="addr:state" v="VT"/>
    <tag k="ref:vcgi:esiteid" v="278807"/>
  </node>
  <node id="-232" visible="true" lat="43.922337405124" lon="-72.263863994302">
    <tag k="addr:city" v="West Fairlee"/>
    <tag k="addr:housenumber" v="1764"/>
    <tag k="addr:street" v="Vermont Route 113"/>
    <tag k="addr:state" v="VT"/>
    <tag k="ref:vcgi:esiteid" v="278808"/>
  </node>
  <node id="-239" visible="true" lat="43.92088318196" lon="-72.262817818859">
    <tag k="addr:city" v="West Fairlee"/>
    <tag k="addr:housenumber" v="1646"/>
    <tag k="addr:street" v="Vermont Route 113"/>
    <tag k="addr:state" v="VT"/>
    <tag k="ref:vcgi:esiteid" v="278815"/>
  </node>
  <node id="-242" visible="true" lat="43.920347463322" lon="-72.264200587363">
    <tag k="addr:city" v="West Fairlee"/>
    <tag k="addr:housenumber" v="1675"/>
    <tag k="addr:street" v="Vermont Route 113"/>
    <tag k="addr:state" v="VT"/>
    <tag k="ref:vcgi:esiteid" v="278818"/>
  </node>
  <node id="-246" visible="true" lat="43.918953903941" lon="-72.261710002982">
    <tag k="addr:city" v="West Fairlee"/>
    <tag k="addr:housenumber" v="1520"/>
    <tag k="addr:street" v="Vermont Route 113"/>
    <tag k="addr:state" v="VT"/>
    <tag k="ref:vcgi:esiteid" v="278823"/>
  </node>
  <node id="-248" visible="true" lat="43.918726937705" lon="-72.262877935304">
    <tag k="addr:city" v="West Fairlee"/>
    <tag k="addr:housenumber" v="1505"/>
    <tag k="addr:street" v="Vermont Route 113"/>
    <tag k="addr:state" v="VT"/>
    <tag k="ref:vcgi:esiteid" v="278825"/>
  </node>
  <node id="-250" visible="true" lat="43.918468907211" lon="-72.26206986525">
    <tag k="addr:city" v="West Fairlee"/>
    <tag k="addr:housenumber" v="1516"/>
    <tag k="addr:street" v="Vermont Route 113"/>
    <tag k="addr:state" v="VT"/>
    <tag k="ref:vcgi:esiteid" v="278827"/>
  </node>
  <node id="-253" visible="true" lat="43.917580944394" lon="-72.262932909434">
    <tag k="addr:city" v="West Fairlee"/>
    <tag k="addr:housenumber" v="1425"/>
    <tag k="addr:street" v="Vermont Route 113"/>
    <tag k="addr:state" v="VT"/>
    <tag k="ref:vcgi:esiteid" v="278830"/>
  </node>
  <node id="-254" visible="true" lat="43.916898005864" lon="-72.26295490857">
    <tag k="addr:city" v="West Fairlee"/>
    <tag k="addr:housenumber" v="1371"/>
    <tag k="addr:street" v="Vermont Route 113"/>
    <tag k="addr:state" v="VT"/>
    <tag k="ref:vcgi:esiteid" v="278831"/>
  </node>
  <node id="-257" visible="true" lat="43.914895396805" lon="-72.263291489684">
    <tag k="addr:city" v="West Fairlee"/>
    <tag k="addr:housenumber" v="1243"/>
    <tag k="addr:street" v="Vermont Route 113"/>
    <tag k="addr:state" v="VT"/>
    <tag k="ref:vcgi:esiteid" v="278834"/>
  </node>
  <node id="-258" visible="true" lat="43.914391855965" lon="-72.263398301978">
    <tag k="addr:city" v="West Fairlee"/>
    <tag k="addr:housenumber" v="1207"/>
    <tag k="addr:street" v="Vermont Route 113"/>
    <tag k="addr:state" v="VT"/>
    <tag k="ref:vcgi:esiteid" v="278835"/>
  </node>
  <node id="-261" visible="true" lat="43.91401205256" lon="-72.263311068182">
    <tag k="addr:city" v="West Fairlee"/>
    <tag k="addr:housenumber" v="1187"/>
    <tag k="addr:street" v="Vermont Route 113"/>
    <tag k="addr:state" v="VT"/>
    <tag k="ref:vcgi:esiteid" v="278838"/>
  </node>
  <node id="-262" visible="true" lat="43.913554470838" lon="-72.265234558527">
    <tag k="addr:city" v="West Fairlee"/>
    <tag k="addr:housenumber" v="220"/>
    <tag k="addr:street" v="Austin Road"/>
    <tag k="addr:state" v="VT"/>
    <tag k="ref:vcgi:esiteid" v="278840"/>
  </node>
  <node id="-264" visible="true" lat="43.91358093944" lon="-72.262855164115">
    <tag k="addr:city" v="West Fairlee"/>
    <tag k="addr:housenumber" v="1142"/>
    <tag k="addr:street" v="Vermont Route 113"/>
    <tag k="addr:state" v="VT"/>
    <tag k="ref:vcgi:esiteid" v="278843"/>
  </node>
  <node id="-267" visible="true" lat="43.913238843458" lon="-72.262743199776">
    <tag k="addr:city" v="West Fairlee"/>
    <tag k="addr:housenumber" v="1076"/>
    <tag k="addr:street" v="Vermont Route 113"/>
    <tag k="addr:state" v="VT"/>
    <tag k="ref:vcgi:esiteid" v="278846"/>
  </node>
  <node id="-268" visible="true" lat="43.913101531233" lon="-72.272785014185">
    <tag k="addr:city" v="West Fairlee"/>
    <tag k="addr:housenumber" v="574"/>
    <tag k="addr:street" v="Beanville Road"/>
    <tag k="addr:state" v="VT"/>
    <tag k="ref:vcgi:esiteid" v="278847"/>
  </node>
  <node id="-269" visible="true" lat="43.912839852482" lon="-72.262614361395">
    <tag k="addr:city" v="West Fairlee"/>
    <tag k="addr:housenumber" v="1074"/>
    <tag k="addr:street" v="Vermont Route 113"/>
    <tag k="addr:state" v="VT"/>
    <tag k="ref:vcgi:esiteid" v="278848"/>
  </node>
  <node id="-270" visible="true" lat="43.912890747887" lon="-72.274009060399">
    <tag k="addr:city" v="West Fairlee"/>
    <tag k="addr:housenumber" v="636"/>
    <tag k="addr:street" v="Beanville Road"/>
    <tag k="addr:state" v="VT"/>
    <tag k="ref:vcgi:esiteid" v="278850"/>
  </node>
  <node id="-271" visible="true" lat="43.912850900152" lon="-72.274375516772">
    <tag k="addr:city" v="West Fairlee"/>
    <tag k="addr:housenumber" v="656"/>
    <tag k="addr:street" v="Beanville Road"/>
    <tag k="addr:state" v="VT"/>
    <tag k="ref:vcgi:esiteid" v="278851"/>
  </node>
  <node id="-272" visible="true" lat="43.912476434306" lon="-72.271160843178">
    <tag k="addr:city" v="West Fairlee"/>
    <tag k="addr:housenumber" v="509"/>
    <tag k="addr:street" v="Beanville Road"/>
    <tag k="addr:state" v="VT"/>
    <tag k="ref:vcgi:esiteid" v="278852"/>
  </node>
  <node id="-273" visible="true" lat="43.912618021924" lon="-72.269562854535">
    <tag k="addr:city" v="West Fairlee"/>
    <tag k="addr:housenumber" v="424"/>
    <tag k="addr:street" v="Beanville Road"/>
    <tag k="addr:state" v="VT"/>
    <tag k="ref:vcgi:esiteid" v="278853"/>
  </node>
  <node id="-274" visible="true" lat="43.912606327105" lon="-72.263389846972">
    <tag k="addr:city" v="West Fairlee"/>
    <tag k="addr:housenumber" v="1083"/>
    <tag k="addr:street" v="Vermont Route 113"/>
    <tag k="addr:state" v="VT"/>
    <tag k="ref:vcgi:esiteid" v="278854"/>
  </node>
  <node id="-276" visible="true" lat="43.912517259417" lon="-72.274074934984">
    <tag k="addr:city" v="West Fairlee"/>
    <tag k="addr:housenumber" v="661"/>
    <tag k="addr:street" v="Beanville Road"/>
    <tag k="addr:state" v="VT"/>
    <tag k="ref:vcgi:esiteid" v="278856"/>
  </node>
  <node id="-277" visible="true" lat="43.91229707308" lon="-72.27511735353">
    <tag k="addr:city" v="West Fairlee"/>
    <tag k="addr:housenumber" v="701"/>
    <tag k="addr:street" v="Beanville Road"/>
    <tag k="addr:state" v="VT"/>
    <tag k="ref:vcgi:esiteid" v="278857"/>
  </node>
  <node id="-279" visible="true" lat="43.912350993132" lon="-72.273102894379">
    <tag k="addr:city" v="West Fairlee"/>
    <tag k="addr:housenumber" v="585"/>
    <tag k="addr:street" v="Beanville Road"/>
    <tag k="addr:state" v="VT"/>
    <tag k="ref:vcgi:esiteid" v="278859"/>
  </node>
  <node id="-280" visible="true" lat="43.912327620221" lon="-72.270356284966">
    <tag k="addr:city" v="West Fairlee"/>
    <tag k="addr:housenumber" v="451"/>
    <tag k="addr:street" v="Beanville Road"/>
    <tag k="addr:state" v="VT"/>
    <tag k="ref:vcgi:esiteid" v="278860"/>
  </node>
  <node id="-281" visible="true" lat="43.912288350112" lon="-72.268939687758">
    <tag k="addr:city" v="West Fairlee"/>
    <tag k="addr:housenumber" v="380"/>
    <tag k="addr:street" v="Beanville Road"/>
    <tag k="addr:state" v="VT"/>
    <tag k="ref:vcgi:esiteid" v="278861"/>
  </node>
  <node id="-283" visible="true" lat="43.91211294384" lon="-72.268344468419">
    <tag k="addr:city" v="West Fairlee"/>
    <tag k="addr:housenumber" v="356"/>
    <tag k="addr:street" v="Beanville Road"/>
    <tag k="addr:state" v="VT"/>
    <tag k="ref:vcgi:esiteid" v="278863"/>
  </node>
  <node id="-284" visible="true" lat="43.911676435345" lon="-72.269605443182">
    <tag k="addr:city" v="West Fairlee"/>
    <tag k="addr:housenumber" v="395"/>
    <tag k="addr:street" v="Beanville Road"/>
    <tag k="addr:state" v="VT"/>
    <tag k="ref:vcgi:esiteid" v="278865"/>
  </node>
  <node id="-285" visible="true" lat="43.911933811354" lon="-72.26278239117">
    <tag k="addr:city" v="West Fairlee"/>
    <tag k="addr:housenumber" v="1026"/>
    <tag k="addr:street" v="Vermont Route 113"/>
    <tag k="addr:state" v="VT"/>
    <tag k="ref:vcgi:esiteid" v="278866"/>
  </node>
  <node id="-286" visible="true" lat="43.911832441491" lon="-72.26622412557">
    <tag k="addr:city" v="West Fairlee"/>
    <tag k="addr:housenumber" v="216"/>
    <tag k="addr:street" v="Beanville Road"/>
    <tag k="addr:state" v="VT"/>
    <tag k="ref:vcgi:esiteid" v="278867"/>
  </node>
  <node id="-287" visible="true" lat="43.911694865627" lon="-72.263314378992">
    <tag k="addr:city" v="West Fairlee"/>
    <tag k="addr:housenumber" v="1021"/>
    <tag k="addr:street" v="Vermont Route 113"/>
    <tag k="addr:state" v="VT"/>
    <tag k="ref:vcgi:esiteid" v="278868"/>
  </node>
  <node id="-288" visible="true" lat="43.911786843723" lon="-72.262133479757">
    <tag k="addr:city" v="West Fairlee"/>
    <tag k="addr:housenumber" v="1032"/>
    <tag k="addr:street" v="Vermont Route 113"/>
    <tag k="addr:state" v="VT"/>
    <tag k="ref:vcgi:esiteid" v="278869"/>
  </node>
  <node id="-289" visible="true" lat="43.911660392368" lon="-72.262775256538">
    <tag k="addr:city" v="West Fairlee"/>
    <tag k="addr:housenumber" v="1030"/>
    <tag k="addr:street" v="Vermont Route 113"/>
    <tag k="addr:state" v="VT"/>
    <tag k="ref:vcgi:esiteid" v="278871"/>
  </node>
  <node id="-290" visible="true" lat="43.911492201191" lon="-72.267266377779">
    <tag k="addr:city" v="West Fairlee"/>
    <tag k="addr:housenumber" v="289"/>
    <tag k="addr:street" v="Beanville Road"/>
    <tag k="addr:state" v="VT"/>
    <tag k="ref:vcgi:esiteid" v="278872"/>
  </node>
  <node id="-291" visible="true" lat="43.911291665568" lon="-72.262665731391">
    <tag k="addr:city" v="West Fairlee"/>
    <tag k="addr:housenumber" v="992"/>
    <tag k="addr:street" v="Vermont Route 113"/>
    <tag k="addr:state" v="VT"/>
    <tag k="ref:vcgi:esiteid" v="278873"/>
  </node>
  <node id="-293" visible="true" lat="43.910985330461" lon="-72.263177049441">
    <tag k="addr:city" v="West Fairlee"/>
    <tag k="addr:housenumber" v="973"/>
    <tag k="addr:street" v="Vermont Route 113"/>
    <tag k="addr:state" v="VT"/>
    <tag k="ref:vcgi:esiteid" v="278875"/>
  </node>
  <node id="-294" visible="true" lat="43.911003345309" lon="-72.267065854125">
    <tag k="addr:city" v="West Fairlee"/>
    <tag k="addr:housenumber" v="155"/>
    <tag k="addr:street" v="Roberts Road"/>
    <tag k="addr:state" v="VT"/>
    <tag k="ref:vcgi:esiteid" v="278876"/>
  </node>
  <node id="-295" visible="true" lat="43.910718084032" lon="-72.262651569662">
    <tag k="addr:city" v="West Fairlee"/>
    <tag k="addr:housenumber" v="954"/>
    <tag k="addr:street" v="Vermont Route 113"/>
    <tag k="addr:state" v="VT"/>
    <tag k="ref:vcgi:esiteid" v="278877"/>
  </node>
  <node id="-296" visible="true" lat="43.910405735316" lon="-72.264817367517">
    <tag k="addr:city" v="West Fairlee"/>
    <tag k="addr:housenumber" v="140"/>
    <tag k="addr:street" v="Beanville Road"/>
    <tag k="addr:state" v="VT"/>
    <tag k="ref:vcgi:esiteid" v="278879"/>
  </node>
  <node id="-298" visible="true" lat="43.910195688968" lon="-72.266320360539">
    <tag k="addr:city" v="West Fairlee"/>
    <tag k="addr:housenumber" v="107"/>
    <tag k="addr:street" v="Roberts Road"/>
    <tag k="addr:state" v="VT"/>
    <tag k="ref:vcgi:esiteid" v="278881"/>
  </node>
  <node id="-299" visible="true" lat="43.910195689073" lon="-72.265992296332">
    <tag k="addr:city" v="West Fairlee"/>
    <tag k="addr:housenumber" v="93"/>
    <tag k="addr:street" v="Roberts Road"/>
    <tag k="addr:state" v="VT"/>
    <tag k="ref:vcgi:esiteid" v="278882"/>
  </node>
  <node id="-300" visible="true" lat="43.910027003737" lon="-72.263299682403">
    <tag k="addr:city" v="West Fairlee"/>
    <tag k="addr:housenumber" v="915"/>
    <tag k="addr:street" v="Vermont Route 113"/>
    <tag k="addr:state" v="VT"/>
    <tag k="ref:vcgi:esiteid" v="278883"/>
  </node>
  <node id="-301" visible="true" lat="43.91004557906" lon="-72.262619496797">
    <tag k="addr:city" v="West Fairlee"/>
    <tag k="addr:housenumber" v="908"/>
    <tag k="addr:street" v="Vermont Route 113"/>
    <tag k="addr:state" v="VT"/>
    <tag k="ref:vcgi:esiteid" v="278884"/>
  </node>
  <node id="-303" visible="true" lat="43.909791092161" lon="-72.263055096519">
    <tag k="addr:city" v="West Fairlee"/>
    <tag k="addr:housenumber" v="891"/>
    <tag k="addr:street" v="Vermont Route 113"/>
    <tag k="addr:state" v="VT"/>
    <tag k="ref:vcgi:esiteid" v="278886"/>
  </node>
  <node id="-305" visible="true" lat="43.909538564285" lon="-72.263707128943">
    <tag k="addr:city" v="West Fairlee"/>
    <tag k="addr:housenumber" v="34"/>
    <tag k="addr:street" v="Beanville Road"/>
    <tag k="addr:state" v="VT"/>
    <tag k="ref:vcgi:esiteid" v="278889"/>
  </node>
  <node id="-306" visible="true" lat="43.909476597005" lon="-72.263091715368">
    <tag k="addr:city" v="West Fairlee"/>
    <tag k="addr:housenumber" v="8"/>
    <tag k="addr:street" v="Beanville Road"/>
    <tag k="addr:state" v="VT"/>
    <tag k="ref:vcgi:esiteid" v="278890"/>
  </node>
  <node id="-307" visible="true" lat="43.909406425652" lon="-72.26486665548">
    <tag k="addr:city" v="West Fairlee"/>
    <tag k="addr:housenumber" v="1"/>
    <tag k="addr:street" v="Roberts Road"/>
    <tag k="addr:state" v="VT"/>
    <tag k="ref:vcgi:esiteid" v="278891"/>
  </node>
  <node id="-308" visible="true" lat="43.909448922344" lon="-72.262553833463">
    <tag k="addr:city" v="West Fairlee"/>
    <tag k="addr:housenumber" v="864"/>
    <tag k="addr:street" v="Vermont Route 113"/>
    <tag k="addr:state" v="VT"/>
    <tag k="ref:vcgi:esiteid" v="278892"/>
  </node>
  <node id="-309" visible="true" lat="43.909430289242" lon="-72.262167512206">
    <tag k="addr:city" v="West Fairlee"/>
    <tag k="addr:housenumber" v="29"/>
    <tag k="addr:street" v="Mill Street"/>
    <tag k="addr:state" v="VT"/>
    <tag k="ref:vcgi:esiteid" v="278893"/>
  </node>
  <node id="-310" visible="true" lat="43.909435272158" lon="-72.261707107803">
    <tag k="addr:city" v="West Fairlee"/>
    <tag k="addr:housenumber" v="49"/>
    <tag k="addr:street" v="Mill Street"/>
    <tag k="addr:state" v="VT"/>
    <tag k="ref:vcgi:esiteid" v="278895"/>
  </node>
  <node id="-311" visible="true" lat="43.90939124466" lon="-72.261970359976">
    <tag k="addr:city" v="West Fairlee"/>
    <tag k="addr:housenumber" v="39"/>
    <tag k="addr:street" v="Mill Street"/>
    <tag k="addr:state" v="VT"/>
    <tag k="ref:vcgi:esiteid" v="278896"/>
  </node>
  <node id="-313" visible="true" lat="43.909357345324" lon="-72.260857552438">
    <tag k="addr:city" v="West Fairlee"/>
    <tag k="addr:housenumber" v="97"/>
    <tag k="addr:street" v="Mill Street"/>
    <tag k="addr:state" v="VT"/>
    <tag k="ref:vcgi:esiteid" v="278898"/>
  </node>
  <node id="-315" visible="true" lat="43.908977204767" lon="-72.263644012119">
    <tag k="addr:city" v="West Fairlee"/>
    <tag k="addr:housenumber" v="35"/>
    <tag k="addr:street" v="Beanville Road"/>
    <tag k="addr:state" v="VT"/>
    <tag k="ref:vcgi:esiteid" v="278900"/>
  </node>
  <node id="-316" visible="true" lat="43.908973504603" lon="-72.26115404035">
    <tag k="addr:city" v="West Fairlee"/>
    <tag k="addr:housenumber" v="78"/>
    <tag k="addr:street" v="Mill Street"/>
    <tag k="addr:state" v="VT"/>
    <tag k="ref:vcgi:esiteid" v="278901"/>
  </node>
  <node id="-317" visible="true" lat="43.909257169172" lon="-72.258961824159">
    <tag k="addr:city" v="West Fairlee"/>
    <tag k="addr:housenumber" v="195"/>
    <tag k="addr:street" v="Mill Street"/>
    <tag k="addr:state" v="VT"/>
    <tag k="ref:vcgi:esiteid" v="278902"/>
  </node>
  <node id="-319" visible="true" lat="43.909144435886" lon="-72.262436342086">
    <tag k="addr:city" v="West Fairlee"/>
    <tag k="addr:housenumber" v="840"/>
    <tag k="addr:street" v="Vermont Route 113"/>
    <tag k="addr:state" v="VT"/>
    <tag k="ref:vcgi:esiteid" v="278904"/>
  </node>
  <node id="-320" visible="true" lat="43.909009079705" lon="-72.264237937871">
    <tag k="addr:city" v="West Fairlee"/>
    <tag k="addr:housenumber" v="182"/>
    <tag k="addr:street" v="Back Street"/>
    <tag k="addr:state" v="VT"/>
    <tag k="ref:vcgi:esiteid" v="278905"/>
  </node>
  <node id="-321" visible="true" lat="43.909140331629" lon="-72.257569185012">
    <tag k="addr:city" v="West Fairlee"/>
    <tag k="addr:housenumber" v="259"/>
    <tag k="addr:street" v="Mill Street"/>
    <tag k="addr:state" v="VT"/>
    <tag k="ref:vcgi:esiteid" v="278906"/>
  </node>
  <node id="-322" visible="true" lat="43.909038068149" lon="-72.260529724689">
    <tag k="addr:city" v="West Fairlee"/>
    <tag k="addr:housenumber" v="116"/>
    <tag k="addr:street" v="Mill Street"/>
    <tag k="addr:state" v="VT"/>
    <tag k="ref:vcgi:esiteid" v="278907"/>
  </node>
  <node id="-323" visible="true" lat="43.90914941091" lon="-72.2568607279">
    <tag k="addr:city" v="West Fairlee"/>
    <tag k="addr:housenumber" v="295"/>
    <tag k="addr:street" v="Mill Street"/>
    <tag k="addr:state" v="VT"/>
    <tag k="ref:vcgi:esiteid" v="278909"/>
  </node>
  <node id="-324" visible="true" lat="43.908957164506" lon="-72.263026876908">
    <tag k="addr:city" v="West Fairlee"/>
    <tag k="addr:housenumber" v="833"/>
    <tag k="addr:street" v="Vermont Route 113"/>
    <tag k="addr:state" v="VT"/>
    <tag k="ref:vcgi:esiteid" v="278910"/>
  </node>
  <node id="-325" visible="true" lat="43.908894876045" lon="-72.262452256374">
    <tag k="addr:city" v="West Fairlee"/>
    <tag k="addr:housenumber" v="826"/>
    <tag k="addr:street" v="Vermont Route 113"/>
    <tag k="addr:state" v="VT"/>
    <tag k="ref:vcgi:esiteid" v="278911"/>
  </node>
  <node id="-326" visible="true" lat="43.908841748547" lon="-72.263070436655">
    <tag k="addr:city" v="West Fairlee"/>
    <tag k="addr:housenumber" v="823"/>
    <tag k="addr:street" v="Vermont Route 113"/>
    <tag k="addr:state" v="VT"/>
    <tag k="ref:vcgi:esiteid" v="278912"/>
  </node>
  <node id="-327" visible="true" lat="43.908779057693" lon="-72.264209393371">
    <tag k="addr:city" v="West Fairlee"/>
    <tag k="addr:housenumber" v="166"/>
    <tag k="addr:street" v="Back Street"/>
    <tag k="addr:state" v="VT"/>
    <tag k="ref:vcgi:esiteid" v="278913"/>
  </node>
  <node id="-328" visible="true" lat="43.908647288191" lon="-72.259127653997">
    <tag k="addr:city" v="West Fairlee"/>
    <tag k="addr:housenumber" v="182"/>
    <tag k="addr:street" v="Mill Street"/>
    <tag k="addr:state" v="VT"/>
    <tag k="ref:vcgi:esiteid" v="278914"/>
  </node>
  <node id="-329" visible="true" lat="43.908776136502" lon="-72.25708876148">
    <tag k="addr:city" v="West Fairlee"/>
    <tag k="addr:housenumber" v="288"/>
    <tag k="addr:street" v="Mill Street"/>
    <tag k="addr:state" v="VT"/>
    <tag k="ref:vcgi:esiteid" v="278915"/>
  </node>
  <node id="-331" visible="true" lat="43.908609948643" lon="-72.262992838935">
    <tag k="addr:city" v="West Fairlee"/>
    <tag k="addr:housenumber" v="809"/>
    <tag k="addr:street" v="Vermont Route 113"/>
    <tag k="addr:state" v="VT"/>
    <tag k="ref:vcgi:esiteid" v="278917"/>
  </node>
  <node id="-332" visible="true" lat="43.908250699896" lon="-72.264096495115">
    <tag k="addr:city" v="West Fairlee"/>
    <tag k="addr:housenumber" v="128"/>
    <tag k="addr:street" v="Back Street"/>
    <tag k="addr:state" v="VT"/>
    <tag k="ref:vcgi:esiteid" v="278918"/>
  </node>
  <node id="-333" visible="true" lat="43.908234874856" lon="-72.263232781713">
    <tag k="addr:city" v="West Fairlee"/>
    <tag k="addr:housenumber" v="773"/>
    <tag k="addr:street" v="Vermont Route 113"/>
    <tag k="addr:state" v="VT"/>
    <tag k="ref:vcgi:esiteid" v="278919"/>
  </node>
  <node id="-334" visible="true" lat="43.908157816365" lon="-72.264459242171">
    <tag k="addr:city" v="West Fairlee"/>
    <tag k="addr:housenumber" v="125"/>
    <tag k="addr:street" v="Back Street"/>
    <tag k="addr:state" v="VT"/>
    <tag k="ref:vcgi:esiteid" v="278920"/>
  </node>
  <node id="-335" visible="true" lat="43.908289884995" lon="-72.262426528602">
    <tag k="addr:city" v="West Fairlee"/>
    <tag k="addr:housenumber" v="794"/>
    <tag k="addr:street" v="Vermont Route 113"/>
    <tag k="addr:state" v="VT"/>
    <tag k="ref:vcgi:esiteid" v="278921"/>
  </node>
  <node id="-336" visible="true" lat="43.907906418484" lon="-72.262333809367">
    <tag k="addr:city" v="West Fairlee"/>
    <tag k="addr:housenumber" v="784"/>
    <tag k="addr:street" v="Vermont Route 113"/>
    <tag k="addr:state" v="VT"/>
    <tag k="ref:vcgi:esiteid" v="278923"/>
  </node>
  <node id="-338" visible="true" lat="43.907279069995" lon="-72.263744089891">
    <tag k="addr:city" v="West Fairlee"/>
    <tag k="addr:housenumber" v="57"/>
    <tag k="addr:street" v="Back Street"/>
    <tag k="addr:state" v="VT"/>
    <tag k="ref:vcgi:esiteid" v="278925"/>
  </node>
  <node id="-339" visible="true" lat="43.906600022528" lon="-72.263046087662">
    <tag k="addr:city" v="West Fairlee"/>
    <tag k="addr:housenumber" v="665"/>
    <tag k="addr:street" v="Vermont Route 113"/>
    <tag k="addr:state" v="VT"/>
    <tag k="ref:vcgi:esiteid" v="278926"/>
  </node>
  <node id="-341" visible="true" lat="43.906470810119" lon="-72.263976660228">
    <tag k="addr:city" v="West Fairlee"/>
    <tag k="addr:housenumber" v="653"/>
    <tag k="addr:street" v="Vermont Route 113"/>
    <tag k="addr:state" v="VT"/>
    <tag k="ref:vcgi:esiteid" v="278928"/>
  </node>
  <node id="-342" visible="true" lat="43.90599653871" lon="-72.263082760192">
    <tag k="addr:city" v="West Fairlee"/>
    <tag k="addr:housenumber" v="619"/>
    <tag k="addr:street" v="Vermont Route 113"/>
    <tag k="addr:state" v="VT"/>
    <tag k="ref:vcgi:esiteid" v="278929"/>
  </node>
  <node id="-344" visible="true" lat="43.905948560188" lon="-72.262438850563">
    <tag k="addr:city" v="West Fairlee"/>
    <tag k="addr:housenumber" v="612"/>
    <tag k="addr:street" v="Vermont Route 113"/>
    <tag k="addr:state" v="VT"/>
    <tag k="ref:vcgi:esiteid" v="278931"/>
  </node>
  <node id="-345" visible="true" lat="43.905518446613" lon="-72.263034071571">
    <tag k="addr:city" v="West Fairlee"/>
    <tag k="addr:housenumber" v="583"/>
    <tag k="addr:street" v="Vermont Route 113"/>
    <tag k="addr:state" v="VT"/>
    <tag k="ref:vcgi:esiteid" v="278932"/>
  </node>
  <node id="-347" visible="true" lat="43.904745214583" lon="-72.262570284863">
    <tag k="addr:city" v="West Fairlee"/>
    <tag k="addr:housenumber" v="534"/>
    <tag k="addr:street" v="Vermont Route 113"/>
    <tag k="addr:state" v="VT"/>
    <tag k="ref:vcgi:esiteid" v="278934"/>
  </node>
  <node id="-348" visible="true" lat="43.904378273266" lon="-72.262368332522">
    <tag k="addr:city" v="West Fairlee"/>
    <tag k="addr:housenumber" v="514"/>
    <tag k="addr:street" v="Vermont Route 113"/>
    <tag k="addr:state" v="VT"/>
    <tag k="ref:vcgi:esiteid" v="278935"/>
  </node>
  <node id="-356" visible="true" lat="43.900403359583" lon="-72.263894211586">
    <tag k="addr:city" v="West Fairlee"/>
    <tag k="addr:housenumber" v="233"/>
    <tag k="addr:street" v="Vermont Route 113"/>
    <tag k="addr:state" v="VT"/>
    <tag k="ref:vcgi:esiteid" v="278944"/>
  </node>
  <node id="-358" visible="true" lat="43.898715598504" lon="-72.263444896879">
    <tag k="addr:city" v="West Fairlee"/>
    <tag k="addr:housenumber" v="133"/>
    <tag k="addr:street" v="Vermont Route 113"/>
    <tag k="addr:state" v="VT"/>
    <tag k="ref:vcgi:esiteid" v="278946"/>
  </node>
  <node id="-360" visible="true" lat="43.897980667724" lon="-72.261894073539">
    <tag k="addr:city" v="West Fairlee"/>
    <tag k="addr:housenumber" v="42"/>
    <tag k="addr:street" v="Vermont Route 113"/>
    <tag k="addr:state" v="VT"/>
    <tag k="ref:vcgi:esiteid" v="278948"/>
  </node>
  <node id="-418" visible="true" lat="43.907522216678" lon="-72.263166540836">
    <tag k="addr:city" v="West Fairlee"/>
    <tag k="addr:housenumber" v="755"/>
    <tag k="addr:street" v="Vermont Route 113"/>
    <tag k="addr:state" v="VT"/>
    <tag k="ref:vcgi:esiteid" v="279015"/>
  </node>
  <node id="-421" visible="true" lat="43.90754104213" lon="-72.261524262348">
    <tag k="addr:city" v="West Fairlee"/>
    <tag k="addr:housenumber" v="744"/>
    <tag k="addr:street" v="Vermont Route 113"/>
    <tag k="addr:state" v="VT"/>
    <tag k="ref:vcgi:esiteid" v="279018"/>
  </node>
  <node id="-426" visible="true" lat="43.906977700254" lon="-72.251642656363">
    <tag k="addr:city" v="West Fairlee"/>
    <tag k="addr:housenumber" v="646"/>
    <tag k="addr:street" v="Mill Street"/>
    <tag k="addr:state" v="VT"/>
    <tag k="ref:vcgi:esiteid" v="279023"/>
  </node>
  <node id="-427" visible="true" lat="43.908211949235" lon="-72.249311577241">
    <tag k="addr:city" v="West Fairlee"/>
    <tag k="addr:housenumber" v="838"/>
    <tag k="addr:street" v="Mill Street"/>
    <tag k="addr:state" v="VT"/>
    <tag k="ref:vcgi:esiteid" v="279024"/>
  </node>
  <node id="-431" visible="true" lat="43.921597386319" lon="-72.263509294544">
    <tag k="addr:city" v="West Fairlee"/>
    <tag k="addr:housenumber" v="1705"/>
    <tag k="addr:street" v="Vermont Route 113"/>
    <tag k="addr:state" v="VT"/>
    <tag k="ref:vcgi:esiteid" v="279029"/>
  </node>
  <node id="-432" visible="true" lat="43.910540046011" lon="-72.263230393843">
    <tag k="addr:city" v="West Fairlee"/>
    <tag k="addr:housenumber" v="927"/>
    <tag k="addr:street" v="Vermont Route 113"/>
    <tag k="addr:state" v="VT"/>
    <tag k="ref:vcgi:esiteid" v="279030"/>
  </node>
  <node id="-437" visible="true" lat="43.946776364535" lon="-72.259072738443">
    <tag k="addr:city" v="West Fairlee"/>
    <tag k="addr:housenumber" v="733"/>
    <tag k="addr:street" v="Beaver Meadow Road"/>
    <tag k="addr:state" v="VT"/>
    <tag k="ref:vcgi:esiteid" v="306232"/>
  </node>
  <node id="-449" visible="true" lat="43.909185091602" lon="-72.263340388036">
    <tag k="addr:city" v="West Fairlee"/>
    <tag k="addr:housenumber" v="3"/>
    <tag k="addr:street" v="Beanville Road"/>
    <tag k="addr:state" v="VT"/>
    <tag k="ref:vcgi:esiteid" v="312689"/>
  </node>
  <node id="-452" visible="true" lat="43.911410810899" lon="-72.265015044197">
    <tag k="addr:city" v="West Fairlee"/>
    <tag k="addr:housenumber" v="917"/>
    <tag k="addr:street" v="Vermont Route 113"/>
    <tag k="addr:state" v="VT"/>
    <tag k="ref:vcgi:esiteid" v="316785"/>
  </node>
  <node id="-453" visible="true" lat="43.917542661475" lon="-72.261913440206">
    <tag k="addr:city" v="West Fairlee"/>
    <tag k="addr:housenumber" v="1462"/>
    <tag k="addr:street" v="Vermont Route 113"/>
    <tag k="addr:state" v="VT"/>
    <tag k="ref:vcgi:esiteid" v="316786"/>
  </node>
  <node id="-455" visible="true" lat="43.91463242518" lon="-72.269989956519">
    <tag k="addr:city" v="West Fairlee"/>
    <tag k="addr:housenumber" v="454"/>
    <tag k="addr:street" v="Beanville Road"/>
    <tag k="addr:state" v="VT"/>
    <tag k="ref:vcgi:esiteid" v="317504"/>
  </node>
  <node id="-457" visible="true" lat="43.913281778679" lon="-72.26440538218">
    <tag k="addr:city" v="West Fairlee"/>
    <tag k="addr:housenumber" v="21"/>
    <tag k="addr:street" v="Austin Road Extension"/>
    <tag k="addr:state" v="VT"/>
    <tag k="ref:vcgi:esiteid" v="326520"/>
  </node>
  <node id="-461" visible="true" lat="43.941117861166" lon="-72.262262398684">
    <tag k="addr:city" v="West Fairlee"/>
    <tag k="addr:housenumber" v="261"/>
    <tag k="addr:street" v="Beaver Meadow Road"/>
    <tag k="addr:state" v="VT"/>
    <tag k="ref:vcgi:esiteid" v="328188"/>
  </node>
  <node id="-462" visible="true" lat="43.91776955158" lon="-72.262381777322">
    <tag k="addr:city" v="West Fairlee"/>
    <tag k="addr:housenumber" v="1456"/>
    <tag k="addr:street" v="Vermont Route 113"/>
    <tag k="addr:state" v="VT"/>
    <tag k="ref:vcgi:esiteid" v="331930"/>
  </node>
  <node id="-467" visible="true" lat="43.926778871451" lon="-72.265451214911">
    <tag k="addr:city" v="West Fairlee"/>
    <tag k="addr:housenumber" v="2040"/>
    <tag k="addr:street" v="Vermont Route 113"/>
    <tag k="addr:state" v="VT"/>
    <tag k="ref:vcgi:esiteid" v="333187"/>
  </node>
  <node id="-476" visible="true" lat="43.913952315176" lon="-72.270416403897">
    <tag k="addr:city" v="West Fairlee"/>
    <tag k="addr:housenumber" v="452"/>
    <tag k="addr:street" v="Beanville Road"/>
    <tag k="addr:state" v="VT"/>
    <tag k="ref:vcgi:esiteid" v="345845"/>
  </node>
  <node id="-489" visible="true" lat="43.907591443367" lon="-72.264072598584">
    <tag k="addr:city" v="West Fairlee"/>
    <tag k="addr:housenumber" v="69"/>
    <tag k="addr:street" v="Back Street"/>
    <tag k="addr:state" v="VT"/>
    <tag k="ref:vcgi:esiteid" v="449976"/>
  </node>
  <node id="-508" visible="true" lat="43.911890485083" lon="-72.267908750687">
    <tag k="addr:city" v="West Fairlee"/>
    <tag k="addr:housenumber" v="350"/>
    <tag k="addr:street" v="Beanville Road"/>
    <tag k="addr:state" v="VT"/>
    <tag k="ref:vcgi:esiteid" v="454550"/>
  </node>
  <node id="-517" visible="true" lat="43.909131374925" lon="-72.263744595128">
    <tag k="addr:city" v="West Fairlee"/>
    <tag k="addr:housenumber" v="37"/>
    <tag k="addr:street" v="Beanville Road"/>
    <tag k="addr:state" v="VT"/>
    <tag k="ref:vcgi:esiteid" v="611001"/>
  </node>
  <node id="-518" visible="true" lat="43.907453838782" lon="-72.262844835414">
    <tag k="addr:city" v="West Fairlee"/>
    <tag k="addr:housenumber" v="745"/>
    <tag k="addr:street" v="Vermont Route 113"/>
    <tag k="addr:state" v="VT"/>
    <tag k="ref:vcgi:esiteid" v="611320"/>
  </node>
</osm>
