<?xml version="1.0" encoding="UTF-8"?>
<osm version="0.6" generator="JOSM" upload="false">
  <node id="-649" visible="true" lat="43.251751389069" lon="-72.800282633331">
    <!-- duplicates-in-different-towns: "315 Hobart Road, Londonderry, VT"  ignoring town mismatch for duplicate housenumber/street when matching to esiteid 617034: "315 Hobart Road, , VT" -->
    <tag k="addr:city" v="Londonderry"/>
    <tag k="addr:housenumber" v="315"/>
    <tag k="addr:street" v="Hobart Road"/>
    <tag k="addr:state" v="VT"/>
    <tag k="ref:vcgi:esiteid" v="285145"/>
  </node>
</osm>
