<?xml version="1.0" encoding="UTF-8"?>
<osm version="0.6" generator="JOSM" upload="false">
  <node id="-220" visible="true" lat="43.670488563213" lon="-73.316748668725">
    <!-- duplicates-in-different-towns: "1187 Stage Road, Fair Haven, VT"  ignoring town mismatch for duplicate housenumber/street when matching to esiteid 621044: "1187 Stage Road, Benson, VT" -->
    <tag k="addr:city" v="Fair Haven"/>
    <tag k="addr:housenumber" v="1187"/>
    <tag k="addr:street" v="Stage Road"/>
    <tag k="addr:state" v="VT"/>
    <tag k="ref:vcgi:esiteid" v="279158"/>
  </node>
</osm>
