<?xml version="1.0" encoding="UTF-8"?>
<osm version="0.6" generator="JOSM" upload="false">
  <node id="-471" visible="true" lat="44.83442307269" lon="-72.508969078852">
    <!-- duplicates-in-different-towns: "21 Route 58, Montgomery Center, VT"  ignoring town mismatch for duplicate housenumber/street when matching to esiteid 455367: "21 Route 58, , VT" -->
    <tag k="addr:city" v="Montgomery Center"/>
    <tag k="addr:housenumber" v="21"/>
    <tag k="addr:street" v="Route 58"/>
    <tag k="addr:state" v="VT"/>
    <tag k="ref:vcgi:esiteid" v="365446"/>
  </node>
</osm>
