<?xml version="1.0" encoding="UTF-8"?>
<osm version="0.6" generator="JOSM" upload="false">
  <node id="-101" visible="true" lat="44.906045249056" lon="-72.41105471212">
    <tag k="addr:city" v="Westfield"/>
    <tag k="addr:housenumber" v="22"/>
    <tag k="addr:street" v="Kennison Road"/>
    <tag k="addr:state" v="VT"/>
    <tag k="ref:vcgi:esiteid" v="280912"/>
  </node>
  <node id="-102" visible="true" lat="44.905720485262" lon="-72.411168193015">
    <tag k="addr:city" v="Westfield"/>
    <tag k="addr:housenumber" v="11"/>
    <tag k="addr:street" v="Kennison Road"/>
    <tag k="addr:state" v="VT"/>
    <tag k="ref:vcgi:esiteid" v="280913"/>
  </node>
  <node id="-103" visible="true" lat="44.924597890301" lon="-72.432369146866">
    <tag k="addr:city" v="Westfield"/>
    <tag k="addr:housenumber" v="2269"/>
    <tag k="addr:street" v="Kennison Road"/>
    <tag k="addr:state" v="VT"/>
    <tag k="ref:vcgi:esiteid" v="280914"/>
  </node>
  <node id="-104" visible="true" lat="44.924142397643" lon="-72.421708361181">
    <tag k="addr:city" v="Westfield"/>
    <tag k="addr:housenumber" v="1788"/>
    <tag k="addr:street" v="Kennison Road"/>
    <tag k="addr:state" v="VT"/>
    <tag k="ref:vcgi:esiteid" v="280915"/>
  </node>
  <node id="-105" visible="true" lat="44.923506497868" lon="-72.426608665866">
    <tag k="addr:city" v="Westfield"/>
    <tag k="addr:housenumber" v="1955"/>
    <tag k="addr:street" v="Kennison Road"/>
    <tag k="addr:state" v="VT"/>
    <tag k="ref:vcgi:esiteid" v="280916"/>
  </node>
  <node id="-106" visible="true" lat="44.923608140521" lon="-72.418756334074">
    <tag k="addr:city" v="Westfield"/>
    <tag k="addr:housenumber" v="1588"/>
    <tag k="addr:street" v="Kennison Road"/>
    <tag k="addr:state" v="VT"/>
    <tag k="ref:vcgi:esiteid" v="280917"/>
  </node>
  <node id="-107" visible="true" lat="44.922035927626" lon="-72.432693481524">
    <tag k="addr:city" v="Westfield"/>
    <tag k="addr:housenumber" v="2359"/>
    <tag k="addr:street" v="North Hill Road"/>
    <tag k="addr:state" v="VT"/>
    <tag k="ref:vcgi:esiteid" v="280918"/>
  </node>
  <node id="-109" visible="true" lat="44.919830195609" lon="-72.432067061569">
    <tag k="addr:city" v="Westfield"/>
    <tag k="addr:housenumber" v="2145"/>
    <tag k="addr:street" v="North Hill Road"/>
    <tag k="addr:state" v="VT"/>
    <tag k="ref:vcgi:esiteid" v="280920"/>
  </node>
  <node id="-111" visible="true" lat="44.919423616748" lon="-72.42093016244">
    <tag k="addr:city" v="Westfield"/>
    <tag k="addr:housenumber" v="1393"/>
    <tag k="addr:street" v="Kennison Road"/>
    <tag k="addr:state" v="VT"/>
    <tag k="ref:vcgi:esiteid" v="280922"/>
  </node>
  <node id="-112" visible="true" lat="44.919217308769" lon="-72.419498723456">
    <tag k="addr:city" v="Westfield"/>
    <tag k="addr:housenumber" v="1418"/>
    <tag k="addr:street" v="Kennison Road"/>
    <tag k="addr:state" v="VT"/>
    <tag k="ref:vcgi:esiteid" v="280923"/>
  </node>
  <node id="-113" visible="true" lat="44.918778930938" lon="-72.420670762666">
    <tag k="addr:city" v="Westfield"/>
    <tag k="addr:housenumber" v="1362"/>
    <tag k="addr:street" v="Kennison Road"/>
    <tag k="addr:state" v="VT"/>
    <tag k="ref:vcgi:esiteid" v="280924"/>
  </node>
  <node id="-114" visible="true" lat="44.91829446478" lon="-72.425080554375">
    <tag k="addr:city" v="Westfield"/>
    <tag k="addr:housenumber" v="1135"/>
    <tag k="addr:street" v="Kennison Road"/>
    <tag k="addr:state" v="VT"/>
    <tag k="ref:vcgi:esiteid" v="280925"/>
  </node>
  <node id="-115" visible="true" lat="44.917161333605" lon="-72.431834727609">
    <tag k="addr:city" v="Westfield"/>
    <tag k="addr:housenumber" v="2023"/>
    <tag k="addr:street" v="North Hill Road"/>
    <tag k="addr:state" v="VT"/>
    <tag k="ref:vcgi:esiteid" v="280926"/>
  </node>
  <node id="-117" visible="true" lat="44.915914094229" lon="-72.424714342836">
    <tag k="addr:city" v="Westfield"/>
    <tag k="addr:housenumber" v="1067"/>
    <tag k="addr:street" v="Kennison Road"/>
    <tag k="addr:state" v="VT"/>
    <tag k="ref:vcgi:esiteid" v="280928"/>
  </node>
  <node id="-118" visible="true" lat="44.915521179003" lon="-72.429620045616">
    <tag k="addr:city" v="Westfield"/>
    <tag k="addr:housenumber" v="1864"/>
    <tag k="addr:street" v="North Hill Road"/>
    <tag k="addr:state" v="VT"/>
    <tag k="ref:vcgi:esiteid" v="280929"/>
  </node>
  <node id="-120" visible="true" lat="44.914594208662" lon="-72.43029906189">
    <tag k="addr:city" v="Westfield"/>
    <tag k="addr:housenumber" v="1810"/>
    <tag k="addr:street" v="North Hill Road"/>
    <tag k="addr:state" v="VT"/>
    <tag k="ref:vcgi:esiteid" v="280932"/>
  </node>
  <node id="-121" visible="true" lat="44.913811935211" lon="-72.430861539992">
    <tag k="addr:city" v="Westfield"/>
    <tag k="addr:housenumber" v="1763"/>
    <tag k="addr:street" v="North Hill Road"/>
    <tag k="addr:state" v="VT"/>
    <tag k="ref:vcgi:esiteid" v="280933"/>
  </node>
  <node id="-122" visible="true" lat="44.911723996579" lon="-72.429811924914">
    <tag k="addr:city" v="Westfield"/>
    <tag k="addr:housenumber" v="1612"/>
    <tag k="addr:street" v="North Hill Road"/>
    <tag k="addr:state" v="VT"/>
    <tag k="ref:vcgi:esiteid" v="280934"/>
  </node>
  <node id="-123" visible="true" lat="44.911002728879" lon="-72.430500067169">
    <tag k="addr:city" v="Westfield"/>
    <tag k="addr:housenumber" v="444"/>
    <tag k="addr:street" v="Reservoir Road"/>
    <tag k="addr:state" v="VT"/>
    <tag k="ref:vcgi:esiteid" v="280935"/>
  </node>
  <node id="-124" visible="true" lat="44.910897766101" lon="-72.431237477034">
    <tag k="addr:city" v="Westfield"/>
    <tag k="addr:housenumber" v="1571"/>
    <tag k="addr:street" v="North Hill Road"/>
    <tag k="addr:state" v="VT"/>
    <tag k="ref:vcgi:esiteid" v="280936"/>
  </node>
  <node id="-125" visible="true" lat="44.910458640879" lon="-72.430301490797">
    <tag k="addr:city" v="Westfield"/>
    <tag k="addr:housenumber" v="1552"/>
    <tag k="addr:street" v="North Hill Road"/>
    <tag k="addr:state" v="VT"/>
    <tag k="ref:vcgi:esiteid" v="280938"/>
  </node>
  <node id="-126" visible="true" lat="44.909955536055" lon="-72.432305591382">
    <tag k="addr:city" v="Westfield"/>
    <tag k="addr:housenumber" v="1453"/>
    <tag k="addr:street" v="North Hill Road"/>
    <tag k="addr:state" v="VT"/>
    <tag k="ref:vcgi:esiteid" v="280939"/>
  </node>
  <node id="-127" visible="true" lat="44.908883213019" lon="-72.417023515945">
    <tag k="addr:city" v="Westfield"/>
    <tag k="addr:housenumber" v="340"/>
    <tag k="addr:street" v="Kennison Road"/>
    <tag k="addr:state" v="VT"/>
    <tag k="ref:vcgi:esiteid" v="280940"/>
  </node>
  <node id="-128" visible="true" lat="44.908677610999" lon="-72.431763904515">
    <tag k="addr:city" v="Westfield"/>
    <tag k="addr:housenumber" v="1395"/>
    <tag k="addr:street" v="North Hill Road"/>
    <tag k="addr:state" v="VT"/>
    <tag k="ref:vcgi:esiteid" v="280941"/>
  </node>
  <node id="-129" visible="true" lat="44.907619019461" lon="-72.418602040448">
    <tag k="addr:city" v="Westfield"/>
    <tag k="addr:housenumber" v="379"/>
    <tag k="addr:street" v="Kennison Road"/>
    <tag k="addr:state" v="VT"/>
    <tag k="ref:vcgi:esiteid" v="280942"/>
  </node>
  <node id="-130" visible="true" lat="44.907306015006" lon="-72.41428199266">
    <tag k="addr:city" v="Westfield"/>
    <tag k="addr:housenumber" v="192"/>
    <tag k="addr:street" v="Kennison Road"/>
    <tag k="addr:state" v="VT"/>
    <tag k="ref:vcgi:esiteid" v="280943"/>
  </node>
  <node id="-131" visible="true" lat="44.906621337613" lon="-72.414167681911">
    <tag k="addr:city" v="Westfield"/>
    <tag k="addr:housenumber" v="171"/>
    <tag k="addr:street" v="Kennison Road"/>
    <tag k="addr:state" v="VT"/>
    <tag k="ref:vcgi:esiteid" v="280944"/>
  </node>
  <node id="-132" visible="true" lat="44.906712019894" lon="-72.412953207804">
    <tag k="addr:city" v="Westfield"/>
    <tag k="addr:housenumber" v="104"/>
    <tag k="addr:street" v="Kennison Road"/>
    <tag k="addr:state" v="VT"/>
    <tag k="ref:vcgi:esiteid" v="280945"/>
  </node>
  <node id="-134" visible="true" lat="44.906379859851" lon="-72.413604971644">
    <tag k="addr:city" v="Westfield"/>
    <tag k="addr:housenumber" v="143"/>
    <tag k="addr:street" v="Kennison Road"/>
    <tag k="addr:state" v="VT"/>
    <tag k="ref:vcgi:esiteid" v="280947"/>
  </node>
  <node id="-135" visible="true" lat="44.906296506569" lon="-72.411780209816">
    <tag k="addr:city" v="Westfield"/>
    <tag k="addr:housenumber" v="50"/>
    <tag k="addr:street" v="Kennison Road"/>
    <tag k="addr:state" v="VT"/>
    <tag k="ref:vcgi:esiteid" v="280948"/>
  </node>
  <node id="-136" visible="true" lat="44.904505220984" lon="-72.431447411492">
    <tag k="addr:city" v="Westfield"/>
    <tag k="addr:housenumber" v="1111"/>
    <tag k="addr:street" v="North Hill Road"/>
    <tag k="addr:state" v="VT"/>
    <tag k="ref:vcgi:esiteid" v="280949"/>
  </node>
  <node id="-141" visible="true" lat="44.899508928214" lon="-72.431269208287">
    <tag k="addr:city" v="Westfield"/>
    <tag k="addr:housenumber" v="753"/>
    <tag k="addr:street" v="North Hill Road"/>
    <tag k="addr:state" v="VT"/>
    <tag k="ref:vcgi:esiteid" v="280954"/>
  </node>
  <node id="-142" visible="true" lat="44.898456000074" lon="-72.430615891304">
    <tag k="addr:city" v="Westfield"/>
    <tag k="addr:housenumber" v="682"/>
    <tag k="addr:street" v="North Hill Road"/>
    <tag k="addr:state" v="VT"/>
    <tag k="ref:vcgi:esiteid" v="280955"/>
  </node>
  <node id="-144" visible="true" lat="44.897138669537" lon="-72.431627575491">
    <tag k="addr:city" v="Westfield"/>
    <tag k="addr:housenumber" v="581"/>
    <tag k="addr:street" v="North Hill Road"/>
    <tag k="addr:state" v="VT"/>
    <tag k="ref:vcgi:esiteid" v="280957"/>
  </node>
  <node id="-146" visible="true" lat="44.895900979872" lon="-72.430951281927">
    <tag k="addr:city" v="Westfield"/>
    <tag k="addr:housenumber" v="492"/>
    <tag k="addr:street" v="North Hill Road"/>
    <tag k="addr:state" v="VT"/>
    <tag k="ref:vcgi:esiteid" v="280959"/>
  </node>
  <node id="-148" visible="true" lat="44.895475665663" lon="-72.434019272997">
    <tag k="addr:city" v="Westfield"/>
    <tag k="addr:housenumber" v="122"/>
    <tag k="addr:street" v="Bessette Road"/>
    <tag k="addr:state" v="VT"/>
    <tag k="ref:vcgi:esiteid" v="280961"/>
  </node>
  <node id="-150" visible="true" lat="44.894845207159" lon="-72.430958295526">
    <tag k="addr:city" v="Westfield"/>
    <tag k="addr:housenumber" v="452"/>
    <tag k="addr:street" v="North Hill Road"/>
    <tag k="addr:state" v="VT"/>
    <tag k="ref:vcgi:esiteid" v="280963"/>
  </node>
  <node id="-152" visible="true" lat="44.894527718391" lon="-72.431155498928">
    <tag k="addr:city" v="Westfield"/>
    <tag k="addr:housenumber" v="420"/>
    <tag k="addr:street" v="North Hill Road"/>
    <tag k="addr:state" v="VT"/>
    <tag k="ref:vcgi:esiteid" v="280965"/>
  </node>
  <node id="-153" visible="true" lat="44.89433796565" lon="-72.419005183539">
    <tag k="addr:city" v="Westfield"/>
    <tag k="addr:housenumber" v="560"/>
    <tag k="addr:street" v="Vermont Route 100"/>
    <tag k="addr:state" v="VT"/>
    <tag k="ref:vcgi:esiteid" v="280966"/>
  </node>
  <node id="-159" visible="true" lat="44.894250262819" lon="-72.422737530925">
    <tag k="addr:city" v="Westfield"/>
    <tag k="addr:housenumber" v="95"/>
    <tag k="addr:street" v="Sugarhouse Road"/>
    <tag k="addr:state" v="VT"/>
    <tag k="ref:vcgi:esiteid" v="280972"/>
  </node>
  <node id="-162" visible="true" lat="44.893708619963" lon="-72.418074181439">
    <tag k="addr:city" v="Westfield"/>
    <tag k="addr:housenumber" v="41"/>
    <tag k="addr:street" v="Loop Road"/>
    <tag k="addr:state" v="VT"/>
    <tag k="ref:vcgi:esiteid" v="280975"/>
  </node>
  <node id="-167" visible="true" lat="44.893506854814" lon="-72.422779492269">
    <tag k="addr:city" v="Westfield"/>
    <tag k="addr:housenumber" v="62"/>
    <tag k="addr:street" v="Sugarhouse Road"/>
    <tag k="addr:state" v="VT"/>
    <tag k="ref:vcgi:esiteid" v="280980"/>
  </node>
  <node id="-171" visible="true" lat="44.893524680839" lon="-72.431697029251">
    <tag k="addr:city" v="Westfield"/>
    <tag k="addr:housenumber" v="335"/>
    <tag k="addr:street" v="North Hill Road"/>
    <tag k="addr:state" v="VT"/>
    <tag k="ref:vcgi:esiteid" v="280984"/>
  </node>
  <node id="-176" visible="true" lat="44.893151791757" lon="-72.422417891785">
    <tag k="addr:city" v="Westfield"/>
    <tag k="addr:housenumber" v="36"/>
    <tag k="addr:street" v="Sugarhouse Road"/>
    <tag k="addr:state" v="VT"/>
    <tag k="ref:vcgi:esiteid" v="280989"/>
  </node>
  <node id="-180" visible="true" lat="44.892716658521" lon="-72.418030133908">
    <tag k="addr:city" v="Westfield"/>
    <tag k="addr:housenumber" v="117"/>
    <tag k="addr:street" v="Loop Road"/>
    <tag k="addr:state" v="VT"/>
    <tag k="ref:vcgi:esiteid" v="280994"/>
  </node>
  <node id="-183" visible="true" lat="44.892587215008" lon="-72.422739353703">
    <tag k="addr:city" v="Westfield"/>
    <tag k="addr:housenumber" v="776"/>
    <tag k="addr:street" v="Vermont Route 100"/>
    <tag k="addr:state" v="VT"/>
    <tag k="ref:vcgi:esiteid" v="280997"/>
  </node>
  <node id="-185" visible="true" lat="44.892416141976" lon="-72.422965716179">
    <tag k="addr:city" v="Westfield"/>
    <tag k="addr:housenumber" v="790"/>
    <tag k="addr:street" v="Vermont Route 100"/>
    <tag k="addr:state" v="VT"/>
    <tag k="ref:vcgi:esiteid" v="281000"/>
  </node>
  <node id="-187" visible="true" lat="44.892200678392" lon="-72.422047441564">
    <tag k="addr:city" v="Westfield"/>
    <tag k="addr:housenumber" v="757"/>
    <tag k="addr:street" v="Vermont Route 100"/>
    <tag k="addr:state" v="VT"/>
    <tag k="ref:vcgi:esiteid" v="281002"/>
  </node>
  <node id="-188" visible="true" lat="44.892262965162" lon="-72.434647817639">
    <tag k="addr:city" v="Westfield"/>
    <tag k="addr:housenumber" v="348"/>
    <tag k="addr:street" v="School Street"/>
    <tag k="addr:state" v="VT"/>
    <tag k="ref:vcgi:esiteid" v="281004"/>
  </node>
  <node id="-190" visible="true" lat="44.892138206112" lon="-72.430122182457">
    <tag k="addr:city" v="Westfield"/>
    <tag k="addr:housenumber" v="233"/>
    <tag k="addr:street" v="North Hill Road"/>
    <tag k="addr:state" v="VT"/>
    <tag k="ref:vcgi:esiteid" v="281006"/>
  </node>
  <node id="-192" visible="true" lat="44.892144710982" lon="-72.428658738851">
    <tag k="addr:city" v="Westfield"/>
    <tag k="addr:housenumber" v="258"/>
    <tag k="addr:street" v="North Hill Road"/>
    <tag k="addr:state" v="VT"/>
    <tag k="ref:vcgi:esiteid" v="281008"/>
  </node>
  <node id="-194" visible="true" lat="44.892215766291" lon="-72.435254427318">
    <tag k="addr:city" v="Westfield"/>
    <tag k="addr:housenumber" v="384"/>
    <tag k="addr:street" v="School Street"/>
    <tag k="addr:state" v="VT"/>
    <tag k="ref:vcgi:esiteid" v="281010"/>
  </node>
  <node id="-195" visible="true" lat="44.89214204102" lon="-72.433958262635">
    <tag k="addr:city" v="Westfield"/>
    <tag k="addr:housenumber" v="320"/>
    <tag k="addr:street" v="School Street"/>
    <tag k="addr:state" v="VT"/>
    <tag k="ref:vcgi:esiteid" v="281011"/>
  </node>
  <node id="-197" visible="true" lat="44.891880860058" lon="-72.422860815152">
    <tag k="addr:city" v="Westfield"/>
    <tag k="addr:housenumber" v="803"/>
    <tag k="addr:street" v="Vermont Route 100"/>
    <tag k="addr:state" v="VT"/>
    <tag k="ref:vcgi:esiteid" v="281013"/>
  </node>
  <node id="-198" visible="true" lat="44.892304552802" lon="-72.423745831953">
    <tag k="addr:city" v="Westfield"/>
    <tag k="addr:housenumber" v="836"/>
    <tag k="addr:street" v="Vermont Route 100"/>
    <tag k="addr:state" v="VT"/>
    <tag k="ref:vcgi:esiteid" v="281014"/>
  </node>
  <node id="-201" visible="true" lat="44.891963530297" lon="-72.430888721885">
    <tag k="addr:city" v="Westfield"/>
    <tag k="addr:housenumber" v="245"/>
    <tag k="addr:street" v="North Hill Road"/>
    <tag k="addr:state" v="VT"/>
    <tag k="ref:vcgi:esiteid" v="281017"/>
  </node>
  <node id="-202" visible="true" lat="44.891966214818" lon="-72.429222703735">
    <tag k="addr:city" v="Westfield"/>
    <tag k="addr:housenumber" v="202"/>
    <tag k="addr:street" v="North Hill Road"/>
    <tag k="addr:state" v="VT"/>
    <tag k="ref:vcgi:esiteid" v="281018"/>
  </node>
  <node id="-204" visible="true" lat="44.891587297721" lon="-72.424959663732">
    <tag k="addr:city" v="Westfield"/>
    <tag k="addr:housenumber" v="918"/>
    <tag k="addr:street" v="Vermont Route 100"/>
    <tag k="addr:state" v="VT"/>
    <tag k="ref:vcgi:esiteid" v="281020"/>
  </node>
  <node id="-208" visible="true" lat="44.89137509202" lon="-72.428882012944">
    <tag k="addr:city" v="Westfield"/>
    <tag k="addr:housenumber" v="170"/>
    <tag k="addr:street" v="North Hill Road"/>
    <tag k="addr:state" v="VT"/>
    <tag k="ref:vcgi:esiteid" v="281024"/>
  </node>
  <node id="-213" visible="true" lat="44.891501843633" lon="-72.437734810415">
    <tag k="addr:city" v="Westfield"/>
    <tag k="addr:housenumber" v="252"/>
    <tag k="addr:street" v="Ballground Road"/>
    <tag k="addr:state" v="VT"/>
    <tag k="ref:vcgi:esiteid" v="281029"/>
  </node>
  <node id="-214" visible="true" lat="44.891454249563" lon="-72.432847279056">
    <tag k="addr:city" v="Westfield"/>
    <tag k="addr:housenumber" v="200"/>
    <tag k="addr:street" v="School Street"/>
    <tag k="addr:state" v="VT"/>
    <tag k="ref:vcgi:esiteid" v="281030"/>
  </node>
  <node id="-218" visible="true" lat="44.891235942799" lon="-72.424706028554">
    <tag k="addr:city" v="Westfield"/>
    <tag k="addr:housenumber" v="903"/>
    <tag k="addr:street" v="Vermont Route 100"/>
    <tag k="addr:state" v="VT"/>
    <tag k="ref:vcgi:esiteid" v="281034"/>
  </node>
  <node id="-220" visible="true" lat="44.891255887271" lon="-72.425759568021">
    <tag k="addr:city" v="Westfield"/>
    <tag k="addr:housenumber" v="948"/>
    <tag k="addr:street" v="Vermont Route 100"/>
    <tag k="addr:state" v="VT"/>
    <tag k="ref:vcgi:esiteid" v="281036"/>
  </node>
  <node id="-223" visible="true" lat="44.891016765333" lon="-72.425083152662">
    <tag k="addr:city" v="Westfield"/>
    <tag k="addr:housenumber" v="929"/>
    <tag k="addr:street" v="Vermont Route 100"/>
    <tag k="addr:state" v="VT"/>
    <tag k="ref:vcgi:esiteid" v="281039"/>
  </node>
  <node id="-226" visible="true" lat="44.89106515078" lon="-72.42615629657">
    <tag k="addr:city" v="Westfield"/>
    <tag k="addr:housenumber" v="976"/>
    <tag k="addr:street" v="Vermont Route 100"/>
    <tag k="addr:state" v="VT"/>
    <tag k="ref:vcgi:esiteid" v="281042"/>
  </node>
  <node id="-232" visible="true" lat="44.890850174702" lon="-72.425546997872">
    <tag k="addr:city" v="Westfield"/>
    <tag k="addr:housenumber" v="953"/>
    <tag k="addr:street" v="Vermont Route 100"/>
    <tag k="addr:state" v="VT"/>
    <tag k="ref:vcgi:esiteid" v="281048"/>
  </node>
  <node id="-236" visible="true" lat="44.890672780276" lon="-72.433144999007">
    <tag k="addr:city" v="Westfield"/>
    <tag k="addr:housenumber" v="221"/>
    <tag k="addr:street" v="School Street"/>
    <tag k="addr:state" v="VT"/>
    <tag k="ref:vcgi:esiteid" v="281052"/>
  </node>
  <node id="-238" visible="true" lat="44.890841976726" lon="-72.428649872473">
    <tag k="addr:city" v="Westfield"/>
    <tag k="addr:housenumber" v="116"/>
    <tag k="addr:street" v="North Hill Road"/>
    <tag k="addr:state" v="VT"/>
    <tag k="ref:vcgi:esiteid" v="281054"/>
  </node>
  <node id="-239" visible="true" lat="44.890700307612" lon="-72.431790415852">
    <tag k="addr:city" v="Westfield"/>
    <tag k="addr:housenumber" v="170"/>
    <tag k="addr:street" v="School Street"/>
    <tag k="addr:state" v="VT"/>
    <tag k="ref:vcgi:esiteid" v="281055"/>
  </node>
  <node id="-242" visible="true" lat="44.890487745566" lon="-72.425420460938">
    <tag k="addr:city" v="Westfield"/>
    <tag k="addr:housenumber" v="979"/>
    <tag k="addr:street" v="Vermont Route 100"/>
    <tag k="addr:state" v="VT"/>
    <tag k="ref:vcgi:esiteid" v="281058"/>
  </node>
  <node id="-243" visible="true" lat="44.890573055741" lon="-72.426270737488">
    <tag k="addr:city" v="Westfield"/>
    <tag k="addr:housenumber" v="999"/>
    <tag k="addr:street" v="Vermont Route 100"/>
    <tag k="addr:state" v="VT"/>
    <tag k="ref:vcgi:esiteid" v="281059"/>
  </node>
  <node id="-244" visible="true" lat="44.89046046711" lon="-72.429047030776">
    <tag k="addr:city" v="Westfield"/>
    <tag k="addr:housenumber" v="107"/>
    <tag k="addr:street" v="North Hill Road"/>
    <tag k="addr:state" v="VT"/>
    <tag k="ref:vcgi:esiteid" v="281060"/>
  </node>
  <node id="-247" visible="true" lat="44.890496105433" lon="-72.427339953143">
    <tag k="addr:city" v="Westfield"/>
    <tag k="addr:housenumber" v="1036"/>
    <tag k="addr:street" v="Vermont Route 100"/>
    <tag k="addr:state" v="VT"/>
    <tag k="ref:vcgi:esiteid" v="281063"/>
  </node>
  <node id="-248" visible="true" lat="44.89044782674" lon="-72.429823782734">
    <tag k="addr:city" v="Westfield"/>
    <tag k="addr:housenumber" v="38"/>
    <tag k="addr:street" v="School Street"/>
    <tag k="addr:state" v="VT"/>
    <tag k="ref:vcgi:esiteid" v="281064"/>
  </node>
  <node id="-249" visible="true" lat="44.890430108862" lon="-72.41843027693">
    <tag k="addr:city" v="Westfield"/>
    <tag k="addr:housenumber" v="266"/>
    <tag k="addr:street" v="Loop Road"/>
    <tag k="addr:state" v="VT"/>
    <tag k="ref:vcgi:esiteid" v="281065"/>
  </node>
  <node id="-251" visible="true" lat="44.890447284915" lon="-72.428524881457">
    <tag k="addr:city" v="Westfield"/>
    <tag k="addr:housenumber" v="90"/>
    <tag k="addr:street" v="North Hill Road"/>
    <tag k="addr:state" v="VT"/>
    <tag k="ref:vcgi:esiteid" v="281067"/>
  </node>
  <node id="-252" visible="true" lat="44.890294582" lon="-72.427628769391">
    <tag k="addr:city" v="Westfield"/>
    <tag k="addr:housenumber" v="1060"/>
    <tag k="addr:street" v="Vermont Route 100"/>
    <tag k="addr:state" v="VT"/>
    <tag k="ref:vcgi:esiteid" v="281068"/>
  </node>
  <node id="-253" visible="true" lat="44.890360973486" lon="-72.430388085275">
    <tag k="addr:city" v="Westfield"/>
    <tag k="addr:housenumber" v="84"/>
    <tag k="addr:street" v="School Street"/>
    <tag k="addr:state" v="VT"/>
    <tag k="ref:vcgi:esiteid" v="281069"/>
  </node>
  <node id="-254" visible="true" lat="44.89004007448" lon="-72.42714313041">
    <tag k="addr:city" v="Westfield"/>
    <tag k="addr:housenumber" v="1045"/>
    <tag k="addr:street" v="Vermont Route 100"/>
    <tag k="addr:state" v="VT"/>
    <tag k="ref:vcgi:esiteid" v="281070"/>
  </node>
  <node id="-256" visible="true" lat="44.890178281505" lon="-72.428327041259">
    <tag k="addr:city" v="Westfield"/>
    <tag k="addr:housenumber" v="72"/>
    <tag k="addr:street" v="North Hill Road"/>
    <tag k="addr:state" v="VT"/>
    <tag k="ref:vcgi:esiteid" v="281072"/>
  </node>
  <node id="-257" visible="true" lat="44.889999399178" lon="-72.430317585011">
    <tag k="addr:city" v="Westfield"/>
    <tag k="addr:housenumber" v="71"/>
    <tag k="addr:street" v="School Street"/>
    <tag k="addr:state" v="VT"/>
    <tag k="ref:vcgi:esiteid" v="281073"/>
  </node>
  <node id="-258" visible="true" lat="44.890174122314" lon="-72.428003799796">
    <tag k="addr:city" v="Westfield"/>
    <tag k="addr:housenumber" v="1074"/>
    <tag k="addr:street" v="Vermont Route 100"/>
    <tag k="addr:state" v="VT"/>
    <tag k="ref:vcgi:esiteid" v="281074"/>
  </node>
  <node id="-260" visible="true" lat="44.889859354263" lon="-72.429008633092">
    <tag k="addr:city" v="Westfield"/>
    <tag k="addr:housenumber" v="59"/>
    <tag k="addr:street" v="North Hill Road"/>
    <tag k="addr:state" v="VT"/>
    <tag k="ref:vcgi:esiteid" v="281076"/>
  </node>
  <node id="-261" visible="true" lat="44.889828236056" lon="-72.427614684889">
    <tag k="addr:city" v="Westfield"/>
    <tag k="addr:housenumber" v="1079"/>
    <tag k="addr:street" v="Vermont Route 100"/>
    <tag k="addr:state" v="VT"/>
    <tag k="ref:vcgi:esiteid" v="281077"/>
  </node>
  <node id="-262" visible="true" lat="44.88973906339" lon="-72.451770865196">
    <tag k="addr:city" v="Westfield"/>
    <tag k="addr:housenumber" v="987"/>
    <tag k="addr:street" v="Ballground Road"/>
    <tag k="addr:state" v="VT"/>
    <tag k="ref:vcgi:esiteid" v="281078"/>
  </node>
  <node id="-263" visible="true" lat="44.889563600053" lon="-72.427938516985">
    <tag k="addr:city" v="Westfield"/>
    <tag k="addr:housenumber" v="1107"/>
    <tag k="addr:street" v="Vermont Route 100"/>
    <tag k="addr:state" v="VT"/>
    <tag k="ref:vcgi:esiteid" v="281079"/>
  </node>
  <node id="-264" visible="true" lat="44.88952401285" lon="-72.429009691189">
    <tag k="addr:city" v="Westfield"/>
    <tag k="addr:housenumber" v="31"/>
    <tag k="addr:street" v="North Hill Road"/>
    <tag k="addr:state" v="VT"/>
    <tag k="ref:vcgi:esiteid" v="281080"/>
  </node>
  <node id="-265" visible="true" lat="44.889184993187" lon="-72.430702420176">
    <tag k="addr:city" v="Westfield"/>
    <tag k="addr:housenumber" v="1152"/>
    <tag k="addr:street" v="Vermont Route 100"/>
    <tag k="addr:state" v="VT"/>
    <tag k="ref:vcgi:esiteid" v="281081"/>
  </node>
  <node id="-266" visible="true" lat="44.889224005845" lon="-72.428304280755">
    <tag k="addr:city" v="Westfield"/>
    <tag k="addr:housenumber" v="1133"/>
    <tag k="addr:street" v="Vermont Route 100"/>
    <tag k="addr:state" v="VT"/>
    <tag k="ref:vcgi:esiteid" v="281082"/>
  </node>
  <node id="-268" visible="true" lat="44.888944179577" lon="-72.428376450838">
    <tag k="addr:city" v="Westfield"/>
    <tag k="addr:housenumber" v="1167"/>
    <tag k="addr:street" v="Vermont Route 100"/>
    <tag k="addr:state" v="VT"/>
    <tag k="ref:vcgi:esiteid" v="281085"/>
  </node>
  <node id="-269" visible="true" lat="44.888789723673" lon="-72.429078602555">
    <tag k="addr:city" v="Westfield"/>
    <tag k="addr:housenumber" v="1184"/>
    <tag k="addr:street" v="Vermont Route 100"/>
    <tag k="addr:state" v="VT"/>
    <tag k="ref:vcgi:esiteid" v="281086"/>
  </node>
  <node id="-270" visible="true" lat="44.888611916772" lon="-72.428406465699">
    <tag k="addr:city" v="Westfield"/>
    <tag k="addr:housenumber" v="1187"/>
    <tag k="addr:street" v="Vermont Route 100"/>
    <tag k="addr:state" v="VT"/>
    <tag k="ref:vcgi:esiteid" v="281087"/>
  </node>
  <node id="-271" visible="true" lat="44.888148767169" lon="-72.428455559613">
    <tag k="addr:city" v="Westfield"/>
    <tag k="addr:housenumber" v="1219"/>
    <tag k="addr:street" v="Vermont Route 100"/>
    <tag k="addr:state" v="VT"/>
    <tag k="ref:vcgi:esiteid" v="281088"/>
  </node>
  <node id="-272" visible="true" lat="44.888045711641" lon="-72.429128037373">
    <tag k="addr:city" v="Westfield"/>
    <tag k="addr:housenumber" v="1226"/>
    <tag k="addr:street" v="Vermont Route 100"/>
    <tag k="addr:state" v="VT"/>
    <tag k="ref:vcgi:esiteid" v="281089"/>
  </node>
  <node id="-273" visible="true" lat="44.887941915673" lon="-72.428615238711">
    <tag k="addr:city" v="Westfield"/>
    <tag k="addr:housenumber" v="1237"/>
    <tag k="addr:street" v="Vermont Route 100"/>
    <tag k="addr:state" v="VT"/>
    <tag k="ref:vcgi:esiteid" v="281090"/>
  </node>
  <node id="-275" visible="true" lat="44.887740287159" lon="-72.42925317662">
    <tag k="addr:city" v="Westfield"/>
    <tag k="addr:housenumber" v="1252"/>
    <tag k="addr:street" v="Vermont Route 100"/>
    <tag k="addr:state" v="VT"/>
    <tag k="ref:vcgi:esiteid" v="281092"/>
  </node>
  <node id="-276" visible="true" lat="44.887700502254" lon="-72.428664057586">
    <tag k="addr:city" v="Westfield"/>
    <tag k="addr:housenumber" v="1257"/>
    <tag k="addr:street" v="Vermont Route 100"/>
    <tag k="addr:state" v="VT"/>
    <tag k="ref:vcgi:esiteid" v="281093"/>
  </node>
  <node id="-278" visible="true" lat="44.887286561464" lon="-72.428609118723">
    <tag k="addr:city" v="Westfield"/>
    <tag k="addr:housenumber" v="1269"/>
    <tag k="addr:street" v="Vermont Route 100"/>
    <tag k="addr:state" v="VT"/>
    <tag k="ref:vcgi:esiteid" v="281095"/>
  </node>
  <node id="-280" visible="true" lat="44.887119576367" lon="-72.429489602185">
    <tag k="addr:city" v="Westfield"/>
    <tag k="addr:housenumber" v="1290"/>
    <tag k="addr:street" v="Vermont Route 100"/>
    <tag k="addr:state" v="VT"/>
    <tag k="ref:vcgi:esiteid" v="281097"/>
  </node>
  <node id="-281" visible="true" lat="44.886924490831" lon="-72.41608569948">
    <tag k="addr:city" v="Westfield"/>
    <tag k="addr:housenumber" v="536"/>
    <tag k="addr:street" v="Loop Road"/>
    <tag k="addr:state" v="VT"/>
    <tag k="ref:vcgi:esiteid" v="281098"/>
  </node>
  <node id="-282" visible="true" lat="44.886715023048" lon="-72.428679138981">
    <tag k="addr:city" v="Westfield"/>
    <tag k="addr:housenumber" v="1317"/>
    <tag k="addr:street" v="Vermont Route 100"/>
    <tag k="addr:state" v="VT"/>
    <tag k="ref:vcgi:esiteid" v="281099"/>
  </node>
  <node id="-283" visible="true" lat="44.886607136014" lon="-72.429511023286">
    <tag k="addr:city" v="Westfield"/>
    <tag k="addr:housenumber" v="1342"/>
    <tag k="addr:street" v="Vermont Route 100"/>
    <tag k="addr:state" v="VT"/>
    <tag k="ref:vcgi:esiteid" v="281100"/>
  </node>
  <node id="-284" visible="true" lat="44.886301173066" lon="-72.428769755656">
    <tag k="addr:city" v="Westfield"/>
    <tag k="addr:housenumber" v="1351"/>
    <tag k="addr:street" v="Vermont Route 100"/>
    <tag k="addr:state" v="VT"/>
    <tag k="ref:vcgi:esiteid" v="281101"/>
  </node>
  <node id="-285" visible="true" lat="44.885862662792" lon="-72.428818814281">
    <tag k="addr:city" v="Westfield"/>
    <tag k="addr:housenumber" v="1365"/>
    <tag k="addr:street" v="Vermont Route 100"/>
    <tag k="addr:state" v="VT"/>
    <tag k="ref:vcgi:esiteid" v="281102"/>
  </node>
  <node id="-286" visible="true" lat="44.885695029765" lon="-72.414128575484">
    <tag k="addr:city" v="Westfield"/>
    <tag k="addr:housenumber" v="649"/>
    <tag k="addr:street" v="Loop Road"/>
    <tag k="addr:state" v="VT"/>
    <tag k="ref:vcgi:esiteid" v="281103"/>
  </node>
  <node id="-287" visible="true" lat="44.885468519345" lon="-72.428902474039">
    <tag k="addr:city" v="Westfield"/>
    <tag k="addr:housenumber" v="1411"/>
    <tag k="addr:street" v="Vermont Route 100"/>
    <tag k="addr:state" v="VT"/>
    <tag k="ref:vcgi:esiteid" v="281104"/>
  </node>
  <node id="-288" visible="true" lat="44.885044758653" lon="-72.415043845727">
    <tag k="addr:city" v="Westfield"/>
    <tag k="addr:housenumber" v="668"/>
    <tag k="addr:street" v="Loop Road"/>
    <tag k="addr:state" v="VT"/>
    <tag k="ref:vcgi:esiteid" v="281105"/>
  </node>
  <node id="-289" visible="true" lat="44.885103932825" lon="-72.428972233248">
    <tag k="addr:city" v="Westfield"/>
    <tag k="addr:housenumber" v="1439"/>
    <tag k="addr:street" v="Vermont Route 100"/>
    <tag k="addr:state" v="VT"/>
    <tag k="ref:vcgi:esiteid" v="281106"/>
  </node>
  <node id="-290" visible="true" lat="44.884655582285" lon="-72.429049027273">
    <tag k="addr:city" v="Westfield"/>
    <tag k="addr:housenumber" v="1465"/>
    <tag k="addr:street" v="Vermont Route 100"/>
    <tag k="addr:state" v="VT"/>
    <tag k="ref:vcgi:esiteid" v="281107"/>
  </node>
  <node id="-295" visible="true" lat="44.88047427471" lon="-72.42226169775">
    <tag k="addr:city" v="Westfield"/>
    <tag k="addr:housenumber" v="399"/>
    <tag k="addr:street" v="Cemetery Road"/>
    <tag k="addr:state" v="VT"/>
    <tag k="ref:vcgi:esiteid" v="281112"/>
  </node>
  <node id="-297" visible="true" lat="44.880013970099" lon="-72.43092466995">
    <tag k="addr:city" v="Westfield"/>
    <tag k="addr:housenumber" v="1794"/>
    <tag k="addr:street" v="Vermont Route 100"/>
    <tag k="addr:state" v="VT"/>
    <tag k="ref:vcgi:esiteid" v="281114"/>
  </node>
  <node id="-298" visible="true" lat="44.879528046371" lon="-72.429910119557">
    <tag k="addr:city" v="Westfield"/>
    <tag k="addr:housenumber" v="22"/>
    <tag k="addr:street" v="Cemetery Road"/>
    <tag k="addr:state" v="VT"/>
    <tag k="ref:vcgi:esiteid" v="281115"/>
  </node>
  <node id="-301" visible="true" lat="44.878650339742" lon="-72.420051301617">
    <tag k="addr:city" v="Westfield"/>
    <tag k="addr:housenumber" v="548"/>
    <tag k="addr:street" v="Cemetery Road"/>
    <tag k="addr:state" v="VT"/>
    <tag k="ref:vcgi:esiteid" v="281118"/>
  </node>
  <node id="-302" visible="true" lat="44.878004540498" lon="-72.414703604392">
    <tag k="addr:city" v="Westfield"/>
    <tag k="addr:housenumber" v="1195"/>
    <tag k="addr:street" v="Loop Road"/>
    <tag k="addr:state" v="VT"/>
    <tag k="ref:vcgi:esiteid" v="281119"/>
  </node>
  <node id="-303" visible="true" lat="44.876130608707" lon="-72.450776360637">
    <tag k="addr:city" v="Westfield"/>
    <tag k="addr:housenumber" v="394"/>
    <tag k="addr:street" v="Kettle Farm Road"/>
    <tag k="addr:state" v="VT"/>
    <tag k="ref:vcgi:esiteid" v="281120"/>
  </node>
  <node id="-304" visible="true" lat="44.875939872156" lon="-72.472474365333">
    <tag k="addr:city" v="Westfield"/>
    <tag k="addr:housenumber" v="1436"/>
    <tag k="addr:street" v="Corrow Basin Road"/>
    <tag k="addr:state" v="VT"/>
    <tag k="ref:vcgi:esiteid" v="281121"/>
  </node>
  <node id="-305" visible="true" lat="44.875104454521" lon="-72.4316265734">
    <tag k="addr:city" v="Westfield"/>
    <tag k="addr:housenumber" v="2134"/>
    <tag k="addr:street" v="Vermont Route 100"/>
    <tag k="addr:state" v="VT"/>
    <tag k="ref:vcgi:esiteid" v="281122"/>
  </node>
  <node id="-306" visible="true" lat="44.874940279409" lon="-72.458811902171">
    <tag k="addr:city" v="Westfield"/>
    <tag k="addr:housenumber" v="795"/>
    <tag k="addr:street" v="Kettle Farm Road"/>
    <tag k="addr:state" v="VT"/>
    <tag k="ref:vcgi:esiteid" v="281123"/>
  </node>
  <node id="-307" visible="true" lat="44.874585179498" lon="-72.41650761805">
    <tag k="addr:city" v="Westfield"/>
    <tag k="addr:housenumber" v="1334"/>
    <tag k="addr:street" v="Loop Road"/>
    <tag k="addr:state" v="VT"/>
    <tag k="ref:vcgi:esiteid" v="281124"/>
  </node>
  <node id="-308" visible="true" lat="44.874593285407" lon="-72.430749192305">
    <tag k="addr:city" v="Westfield"/>
    <tag k="addr:housenumber" v="2167"/>
    <tag k="addr:street" v="Vermont Route 100"/>
    <tag k="addr:state" v="VT"/>
    <tag k="ref:vcgi:esiteid" v="281125"/>
  </node>
  <node id="-310" visible="true" lat="44.872460867894" lon="-72.450051566282">
    <tag k="addr:city" v="Westfield"/>
    <tag k="addr:housenumber" v="268"/>
    <tag k="addr:street" v="Kettle Farm Road"/>
    <tag k="addr:state" v="VT"/>
    <tag k="ref:vcgi:esiteid" v="281127"/>
  </node>
  <node id="-312" visible="true" lat="44.870770958236" lon="-72.450608514103">
    <tag k="addr:city" v="Westfield"/>
    <tag k="addr:housenumber" v="179"/>
    <tag k="addr:street" v="Kettle Farm Road"/>
    <tag k="addr:state" v="VT"/>
    <tag k="ref:vcgi:esiteid" v="281129"/>
  </node>
  <node id="-313" visible="true" lat="44.870473409595" lon="-72.469598082497">
    <tag k="addr:city" v="Westfield"/>
    <tag k="addr:housenumber" v="1027"/>
    <tag k="addr:street" v="Corrow Basin Road"/>
    <tag k="addr:state" v="VT"/>
    <tag k="ref:vcgi:esiteid" v="281130"/>
  </node>
  <node id="-314" visible="true" lat="44.87115393365" lon="-72.463637738874">
    <tag k="addr:city" v="Westfield"/>
    <tag k="addr:housenumber" v="698"/>
    <tag k="addr:street" v="Corrow Basin Road"/>
    <tag k="addr:state" v="VT"/>
    <tag k="ref:vcgi:esiteid" v="281131"/>
  </node>
  <node id="-315" visible="true" lat="44.870121755091" lon="-72.432489298103">
    <tag k="addr:city" v="Westfield"/>
    <tag k="addr:housenumber" v="2491"/>
    <tag k="addr:street" v="Vermont Route 100"/>
    <tag k="addr:state" v="VT"/>
    <tag k="ref:vcgi:esiteid" v="281132"/>
  </node>
  <node id="-317" visible="true" lat="44.869145343249" lon="-72.416236554437">
    <tag k="addr:city" v="Westfield"/>
    <tag k="addr:housenumber" v="1784"/>
    <tag k="addr:street" v="Loop Road"/>
    <tag k="addr:state" v="VT"/>
    <tag k="ref:vcgi:esiteid" v="281134"/>
  </node>
  <node id="-318" visible="true" lat="44.869241262129" lon="-72.464707639023">
    <tag k="addr:city" v="Westfield"/>
    <tag k="addr:housenumber" v="729"/>
    <tag k="addr:street" v="Corrow Basin Road"/>
    <tag k="addr:state" v="VT"/>
    <tag k="ref:vcgi:esiteid" v="281135"/>
  </node>
  <node id="-319" visible="true" lat="44.869172599453" lon="-72.433457628316">
    <tag k="addr:city" v="Westfield"/>
    <tag k="addr:housenumber" v="2532"/>
    <tag k="addr:street" v="Vermont Route 100"/>
    <tag k="addr:state" v="VT"/>
    <tag k="ref:vcgi:esiteid" v="281136"/>
  </node>
  <node id="-320" visible="true" lat="44.868932274079" lon="-72.454530024175">
    <tag k="addr:city" v="Westfield"/>
    <tag k="addr:housenumber" v="236"/>
    <tag k="addr:street" v="Corrow Basin Road"/>
    <tag k="addr:state" v="VT"/>
    <tag k="ref:vcgi:esiteid" v="281137"/>
  </node>
  <node id="-321" visible="true" lat="44.868427456698" lon="-72.449720207858">
    <tag k="addr:city" v="Westfield"/>
    <tag k="addr:housenumber" v="27"/>
    <tag k="addr:street" v="Kettle Farm Road"/>
    <tag k="addr:state" v="VT"/>
    <tag k="ref:vcgi:esiteid" v="281138"/>
  </node>
  <node id="-323" visible="true" lat="44.868052880426" lon="-72.462488907483">
    <tag k="addr:city" v="Westfield"/>
    <tag k="addr:housenumber" v="599"/>
    <tag k="addr:street" v="Corrow Basin Road"/>
    <tag k="addr:state" v="VT"/>
    <tag k="ref:vcgi:esiteid" v="281140"/>
  </node>
  <node id="-324" visible="true" lat="44.86796026745" lon="-72.414928865304">
    <tag k="addr:city" v="Westfield"/>
    <tag k="addr:housenumber" v="1885"/>
    <tag k="addr:street" v="Loop Road"/>
    <tag k="addr:state" v="VT"/>
    <tag k="ref:vcgi:esiteid" v="281141"/>
  </node>
  <node id="-325" visible="true" lat="44.867890861983" lon="-72.4167645087">
    <tag k="addr:city" v="Westfield"/>
    <tag k="addr:housenumber" v="69"/>
    <tag k="addr:street" v="Fuller Road"/>
    <tag k="addr:state" v="VT"/>
    <tag k="ref:vcgi:esiteid" v="281142"/>
  </node>
  <node id="-326" visible="true" lat="44.867803123315" lon="-72.433892505144">
    <tag k="addr:city" v="Westfield"/>
    <tag k="addr:housenumber" v="2652"/>
    <tag k="addr:street" v="Vermont Route 100"/>
    <tag k="addr:state" v="VT"/>
    <tag k="ref:vcgi:esiteid" v="281143"/>
  </node>
  <node id="-327" visible="true" lat="44.867272878306" lon="-72.454194329264">
    <tag k="addr:city" v="Westfield"/>
    <tag k="addr:housenumber" v="179"/>
    <tag k="addr:street" v="Corrow Basin Road"/>
    <tag k="addr:state" v="VT"/>
    <tag k="ref:vcgi:esiteid" v="281144"/>
  </node>
  <node id="-328" visible="true" lat="44.866944815865" lon="-72.451134942367">
    <tag k="addr:city" v="Westfield"/>
    <tag k="addr:housenumber" v="31"/>
    <tag k="addr:street" v="Corrow Basin Road"/>
    <tag k="addr:state" v="VT"/>
    <tag k="ref:vcgi:esiteid" v="281145"/>
  </node>
  <node id="-329" visible="true" lat="44.866068908844" lon="-72.433853482701">
    <tag k="addr:city" v="Westfield"/>
    <tag k="addr:housenumber" v="2770"/>
    <tag k="addr:street" v="Vermont Route 100"/>
    <tag k="addr:state" v="VT"/>
    <tag k="ref:vcgi:esiteid" v="281146"/>
  </node>
  <node id="-330" visible="true" lat="44.865842988325" lon="-72.451000900419">
    <tag k="addr:city" v="Westfield"/>
    <tag k="addr:housenumber" v="721"/>
    <tag k="addr:street" v="Balance Rock Road"/>
    <tag k="addr:state" v="VT"/>
    <tag k="ref:vcgi:esiteid" v="281147"/>
  </node>
  <node id="-331" visible="true" lat="44.865764341367" lon="-72.451931482965">
    <tag k="addr:city" v="Westfield"/>
    <tag k="addr:housenumber" v="756"/>
    <tag k="addr:street" v="Balance Rock Road"/>
    <tag k="addr:state" v="VT"/>
    <tag k="ref:vcgi:esiteid" v="281148"/>
  </node>
  <node id="-332" visible="true" lat="44.865552451541" lon="-72.441651601829">
    <tag k="addr:city" v="Westfield"/>
    <tag k="addr:housenumber" v="716"/>
    <tag k="addr:street" v="Buck Hill Road"/>
    <tag k="addr:state" v="VT"/>
    <tag k="ref:vcgi:esiteid" v="281149"/>
  </node>
  <node id="-333" visible="true" lat="44.865455461305" lon="-72.452314735667">
    <tag k="addr:city" v="Westfield"/>
    <tag k="addr:housenumber" v="784"/>
    <tag k="addr:street" v="Balance Rock Road"/>
    <tag k="addr:state" v="VT"/>
    <tag k="ref:vcgi:esiteid" v="281150"/>
  </node>
  <node id="-334" visible="true" lat="44.864811276208" lon="-72.450942807489">
    <tag k="addr:city" v="Westfield"/>
    <tag k="addr:housenumber" v="105"/>
    <tag k="addr:street" v="Taft Brook Road"/>
    <tag k="addr:state" v="VT"/>
    <tag k="ref:vcgi:esiteid" v="281152"/>
  </node>
  <node id="-335" visible="true" lat="44.864968331195" lon="-72.452884808597">
    <tag k="addr:city" v="Westfield"/>
    <tag k="addr:housenumber" v="848"/>
    <tag k="addr:street" v="Balance Rock Road"/>
    <tag k="addr:state" v="VT"/>
    <tag k="ref:vcgi:esiteid" v="281153"/>
  </node>
  <node id="-336" visible="true" lat="44.864542888097" lon="-72.443351665637">
    <tag k="addr:city" v="Westfield"/>
    <tag k="addr:housenumber" v="851"/>
    <tag k="addr:street" v="Buck Hill Road"/>
    <tag k="addr:state" v="VT"/>
    <tag k="ref:vcgi:esiteid" v="281154"/>
  </node>
  <node id="-337" visible="true" lat="44.864182059722" lon="-72.449118988999">
    <tag k="addr:city" v="Westfield"/>
    <tag k="addr:housenumber" v="169"/>
    <tag k="addr:street" v="Taft Brook Road"/>
    <tag k="addr:state" v="VT"/>
    <tag k="ref:vcgi:esiteid" v="281155"/>
  </node>
  <node id="-338" visible="true" lat="44.864107557605" lon="-72.413019211003">
    <tag k="addr:city" v="Westfield"/>
    <tag k="addr:housenumber" v="2191"/>
    <tag k="addr:street" v="Loop Road"/>
    <tag k="addr:state" v="VT"/>
    <tag k="ref:vcgi:esiteid" v="281156"/>
  </node>
  <node id="-339" visible="true" lat="44.863894314141" lon="-72.44842350298">
    <tag k="addr:city" v="Westfield"/>
    <tag k="addr:housenumber" v="195"/>
    <tag k="addr:street" v="Taft Brook Road"/>
    <tag k="addr:state" v="VT"/>
    <tag k="ref:vcgi:esiteid" v="281158"/>
  </node>
  <node id="-340" visible="true" lat="44.863745963223" lon="-72.442076340946">
    <tag k="addr:city" v="Westfield"/>
    <tag k="addr:housenumber" v="834"/>
    <tag k="addr:street" v="Buck Hill Road"/>
    <tag k="addr:state" v="VT"/>
    <tag k="ref:vcgi:esiteid" v="281159"/>
  </node>
  <node id="-341" visible="true" lat="44.864120499774" lon="-72.446374009357">
    <tag k="addr:city" v="Westfield"/>
    <tag k="addr:housenumber" v="275"/>
    <tag k="addr:street" v="Taft Brook Road"/>
    <tag k="addr:state" v="VT"/>
    <tag k="ref:vcgi:esiteid" v="281160"/>
  </node>
  <node id="-342" visible="true" lat="44.862967480525" lon="-72.445599458157">
    <tag k="addr:city" v="Westfield"/>
    <tag k="addr:housenumber" v="981"/>
    <tag k="addr:street" v="Buck Hill Road"/>
    <tag k="addr:state" v="VT"/>
    <tag k="ref:vcgi:esiteid" v="281161"/>
  </node>
  <node id="-343" visible="true" lat="44.863075783806" lon="-72.434129902236">
    <tag k="addr:city" v="Westfield"/>
    <tag k="addr:housenumber" v="2998"/>
    <tag k="addr:street" v="Vermont Route 100"/>
    <tag k="addr:state" v="VT"/>
    <tag k="ref:vcgi:esiteid" v="281162"/>
  </node>
  <node id="-344" visible="true" lat="44.862714188131" lon="-72.433093294888">
    <tag k="addr:city" v="Westfield"/>
    <tag k="addr:housenumber" v="2987"/>
    <tag k="addr:street" v="Vermont Route 100"/>
    <tag k="addr:state" v="VT"/>
    <tag k="ref:vcgi:esiteid" v="281163"/>
  </node>
  <node id="-345" visible="true" lat="44.862313772361" lon="-72.442284839607">
    <tag k="addr:city" v="Westfield"/>
    <tag k="addr:housenumber" v="906"/>
    <tag k="addr:street" v="Buck Hill Road"/>
    <tag k="addr:state" v="VT"/>
    <tag k="ref:vcgi:esiteid" v="281164"/>
  </node>
  <node id="-347" visible="true" lat="44.861928572209" lon="-72.43504583049">
    <tag k="addr:city" v="Westfield"/>
    <tag k="addr:housenumber" v="3004"/>
    <tag k="addr:street" v="Vermont Route 100"/>
    <tag k="addr:state" v="VT"/>
    <tag k="ref:vcgi:esiteid" v="281166"/>
  </node>
  <node id="-348" visible="true" lat="44.862024629445" lon="-72.447492932573">
    <tag k="addr:city" v="Westfield"/>
    <tag k="addr:housenumber" v="1103"/>
    <tag k="addr:street" v="Buck Hill Road"/>
    <tag k="addr:state" v="VT"/>
    <tag k="ref:vcgi:esiteid" v="281167"/>
  </node>
  <node id="-350" visible="true" lat="44.861211325225" lon="-72.43549467634">
    <tag k="addr:city" v="Westfield"/>
    <tag k="addr:housenumber" v="3102"/>
    <tag k="addr:street" v="Vermont Route 100"/>
    <tag k="addr:state" v="VT"/>
    <tag k="ref:vcgi:esiteid" v="281169"/>
  </node>
  <node id="-353" visible="true" lat="44.858169623045" lon="-72.434531558332">
    <tag k="addr:city" v="Westfield"/>
    <tag k="addr:housenumber" v="3322"/>
    <tag k="addr:street" v="Vermont Route 100"/>
    <tag k="addr:state" v="VT"/>
    <tag k="ref:vcgi:esiteid" v="281172"/>
  </node>
  <node id="-354" visible="true" lat="44.856362843359" lon="-72.45224120334">
    <tag k="addr:city" v="Westfield"/>
    <tag k="addr:housenumber" v="1579"/>
    <tag k="addr:street" v="Buck Hill Road"/>
    <tag k="addr:state" v="VT"/>
    <tag k="ref:vcgi:esiteid" v="281173"/>
  </node>
  <node id="-355" visible="true" lat="44.855016106532" lon="-72.434433029402">
    <tag k="addr:city" v="Westfield"/>
    <tag k="addr:housenumber" v="3528"/>
    <tag k="addr:street" v="Vermont Route 100"/>
    <tag k="addr:state" v="VT"/>
    <tag k="ref:vcgi:esiteid" v="281174"/>
  </node>
  <node id="-356" visible="true" lat="44.854916353877" lon="-72.43374056275">
    <tag k="addr:city" v="Westfield"/>
    <tag k="addr:housenumber" v="3537"/>
    <tag k="addr:street" v="Vermont Route 100"/>
    <tag k="addr:state" v="VT"/>
    <tag k="ref:vcgi:esiteid" v="281175"/>
  </node>
  <node id="-357" visible="true" lat="44.85449653428" lon="-72.454225083298">
    <tag k="addr:city" v="Westfield"/>
    <tag k="addr:housenumber" v="1715"/>
    <tag k="addr:street" v="Buck Hill Road"/>
    <tag k="addr:state" v="VT"/>
    <tag k="ref:vcgi:esiteid" v="281176"/>
  </node>
  <node id="-358" visible="true" lat="44.854405754887" lon="-72.45217273153">
    <tag k="addr:city" v="Westfield"/>
    <tag k="addr:housenumber" v="1257"/>
    <tag k="addr:street" v="Sniderbrook Road"/>
    <tag k="addr:state" v="VT"/>
    <tag k="ref:vcgi:esiteid" v="281177"/>
  </node>
  <node id="-360" visible="true" lat="44.853288195552" lon="-72.461358331165">
    <tag k="addr:city" v="Westfield"/>
    <tag k="addr:housenumber" v="94"/>
    <tag k="addr:street" v="Circle Road"/>
    <tag k="addr:state" v="VT"/>
    <tag k="ref:vcgi:esiteid" v="281179"/>
  </node>
  <node id="-362" visible="true" lat="44.852975390943" lon="-72.460252069627">
    <tag k="addr:city" v="Westfield"/>
    <tag k="addr:housenumber" v="2024"/>
    <tag k="addr:street" v="Buck Hill Road"/>
    <tag k="addr:state" v="VT"/>
    <tag k="ref:vcgi:esiteid" v="281181"/>
  </node>
  <node id="-363" visible="true" lat="44.851484154008" lon="-72.45121422247">
    <tag k="addr:city" v="Westfield"/>
    <tag k="addr:housenumber" v="973"/>
    <tag k="addr:street" v="Sniderbrook Road"/>
    <tag k="addr:state" v="VT"/>
    <tag k="ref:vcgi:esiteid" v="281182"/>
  </node>
  <node id="-364" visible="true" lat="44.85142761756" lon="-72.434677180539">
    <tag k="addr:city" v="Westfield"/>
    <tag k="addr:housenumber" v="3786"/>
    <tag k="addr:street" v="Vermont Route 100"/>
    <tag k="addr:state" v="VT"/>
    <tag k="ref:vcgi:esiteid" v="281183"/>
  </node>
  <node id="-365" visible="true" lat="44.851270220614" lon="-72.45644500204">
    <tag k="addr:city" v="Westfield"/>
    <tag k="addr:housenumber" v="1947"/>
    <tag k="addr:street" v="Buck Hill Road"/>
    <tag k="addr:state" v="VT"/>
    <tag k="ref:vcgi:esiteid" v="281184"/>
  </node>
  <node id="-366" visible="true" lat="44.851224445716" lon="-72.433785691261">
    <tag k="addr:city" v="Westfield"/>
    <tag k="addr:housenumber" v="3809"/>
    <tag k="addr:street" v="Vermont Route 100"/>
    <tag k="addr:state" v="VT"/>
    <tag k="ref:vcgi:esiteid" v="281185"/>
  </node>
  <node id="-367" visible="true" lat="44.850497045107" lon="-72.440532171401">
    <tag k="addr:city" v="Westfield"/>
    <tag k="addr:housenumber" v="439"/>
    <tag k="addr:street" v="Sniderbrook Road"/>
    <tag k="addr:state" v="VT"/>
    <tag k="ref:vcgi:esiteid" v="281186"/>
  </node>
  <node id="-368" visible="true" lat="44.849042410618" lon="-72.464501266057">
    <tag k="addr:city" v="Westfield"/>
    <tag k="addr:housenumber" v="2366"/>
    <tag k="addr:street" v="Buck Hill Road"/>
    <tag k="addr:state" v="VT"/>
    <tag k="ref:vcgi:esiteid" v="281187"/>
  </node>
  <node id="-370" visible="true" lat="44.845746160603" lon="-72.429102372134">
    <tag k="addr:city" v="Westfield"/>
    <tag k="addr:housenumber" v="4103"/>
    <tag k="addr:street" v="Vermont Route 100"/>
    <tag k="addr:state" v="VT"/>
    <tag k="ref:vcgi:esiteid" v="281189"/>
  </node>
  <node id="-371" visible="true" lat="44.844995044134" lon="-72.456391594694">
    <tag k="addr:city" v="Westfield"/>
    <tag k="addr:housenumber" v="377"/>
    <tag k="addr:street" v="Trumpass Road"/>
    <tag k="addr:state" v="VT"/>
    <tag k="ref:vcgi:esiteid" v="281190"/>
  </node>
  <node id="-373" visible="true" lat="44.845025361555" lon="-72.433418526263">
    <tag k="addr:city" v="Westfield"/>
    <tag k="addr:housenumber" v="4251"/>
    <tag k="addr:street" v="Vermont Route 100"/>
    <tag k="addr:state" v="VT"/>
    <tag k="ref:vcgi:esiteid" v="281192"/>
  </node>
  <node id="-374" visible="true" lat="44.844554261093" lon="-72.45421607164">
    <tag k="addr:city" v="Westfield"/>
    <tag k="addr:housenumber" v="421"/>
    <tag k="addr:street" v="Trumpass Road"/>
    <tag k="addr:state" v="VT"/>
    <tag k="ref:vcgi:esiteid" v="281193"/>
  </node>
  <node id="-375" visible="true" lat="44.84418632682" lon="-72.455338737358">
    <tag k="addr:city" v="Westfield"/>
    <tag k="addr:housenumber" v="429"/>
    <tag k="addr:street" v="Trumpass Road"/>
    <tag k="addr:state" v="VT"/>
    <tag k="ref:vcgi:esiteid" v="281194"/>
  </node>
  <node id="-377" visible="true" lat="44.843560964121" lon="-72.463590334298">
    <tag k="addr:city" v="Westfield"/>
    <tag k="addr:housenumber" v="2704"/>
    <tag k="addr:street" v="Buck Hill Road"/>
    <tag k="addr:state" v="VT"/>
    <tag k="ref:vcgi:esiteid" v="281196"/>
  </node>
  <node id="-378" visible="true" lat="44.843229641966" lon="-72.463506180353">
    <tag k="addr:city" v="Westfield"/>
    <tag k="addr:housenumber" v="2728"/>
    <tag k="addr:street" v="Buck Hill Road"/>
    <tag k="addr:state" v="VT"/>
    <tag k="ref:vcgi:esiteid" v="281197"/>
  </node>
  <node id="-380" visible="true" lat="44.842820736276" lon="-72.464334278127">
    <tag k="addr:city" v="Westfield"/>
    <tag k="addr:housenumber" v="2780"/>
    <tag k="addr:street" v="Buck Hill Road"/>
    <tag k="addr:state" v="VT"/>
    <tag k="ref:vcgi:esiteid" v="281199"/>
  </node>
  <node id="-381" visible="true" lat="44.842002642639" lon="-72.458452850135">
    <tag k="addr:city" v="Westfield"/>
    <tag k="addr:housenumber" v="216"/>
    <tag k="addr:street" v="Field Side Lane"/>
    <tag k="addr:state" v="VT"/>
    <tag k="ref:vcgi:esiteid" v="281200"/>
  </node>
  <node id="-382" visible="true" lat="44.840920945965" lon="-72.452637930283">
    <tag k="addr:city" v="Westfield"/>
    <tag k="addr:housenumber" v="659"/>
    <tag k="addr:street" v="Trumpass Road"/>
    <tag k="addr:state" v="VT"/>
    <tag k="ref:vcgi:esiteid" v="281201"/>
  </node>
  <node id="-383" visible="true" lat="44.840001604214" lon="-72.458359977415">
    <tag k="addr:city" v="Westfield"/>
    <tag k="addr:housenumber" v="364"/>
    <tag k="addr:street" v="Field Side Lane"/>
    <tag k="addr:state" v="VT"/>
    <tag k="ref:vcgi:esiteid" v="281202"/>
  </node>
  <node id="-384" visible="true" lat="44.839852829501" lon="-72.487183842212">
    <tag k="addr:city" v="Westfield"/>
    <tag k="addr:housenumber" v="215"/>
    <tag k="addr:street" v="Monteith Road"/>
    <tag k="addr:state" v="VT"/>
    <tag k="ref:vcgi:esiteid" v="281203"/>
  </node>
  <node id="-386" visible="true" lat="44.839165432893" lon="-72.484603534429">
    <tag k="addr:city" v="Westfield"/>
    <tag k="addr:housenumber" v="3248"/>
    <tag k="addr:street" v="Balance Rock Road"/>
    <tag k="addr:state" v="VT"/>
    <tag k="ref:vcgi:esiteid" v="281205"/>
  </node>
  <node id="-387" visible="true" lat="44.840140790679" lon="-72.464472097574">
    <tag k="addr:city" v="Westfield"/>
    <tag k="addr:housenumber" v="3010"/>
    <tag k="addr:street" v="Buck Hill Road"/>
    <tag k="addr:state" v="VT"/>
    <tag k="ref:vcgi:esiteid" v="281206"/>
  </node>
  <node id="-389" visible="true" lat="44.839099387734" lon="-72.464430383392">
    <tag k="addr:city" v="Westfield"/>
    <tag k="addr:housenumber" v="3032"/>
    <tag k="addr:street" v="Buck Hill Road"/>
    <tag k="addr:state" v="VT"/>
    <tag k="ref:vcgi:esiteid" v="281208"/>
  </node>
  <node id="-390" visible="true" lat="44.838162917605" lon="-72.493500980703">
    <tag k="addr:city" v="Westfield"/>
    <tag k="addr:housenumber" v="560"/>
    <tag k="addr:street" v="Monteith Road"/>
    <tag k="addr:state" v="VT"/>
    <tag k="ref:vcgi:esiteid" v="281209"/>
  </node>
  <node id="-391" visible="true" lat="44.837710448304" lon="-72.454553221745">
    <tag k="addr:city" v="Westfield"/>
    <tag k="addr:housenumber" v="872"/>
    <tag k="addr:street" v="Trumpass Road"/>
    <tag k="addr:state" v="VT"/>
    <tag k="ref:vcgi:esiteid" v="281210"/>
  </node>
  <node id="-392" visible="true" lat="44.837667257209" lon="-72.48322819837">
    <tag k="addr:city" v="Westfield"/>
    <tag k="addr:housenumber" v="3355"/>
    <tag k="addr:street" v="Balance Rock Road"/>
    <tag k="addr:state" v="VT"/>
    <tag k="ref:vcgi:esiteid" v="281211"/>
  </node>
  <node id="-393" visible="true" lat="44.837227940506" lon="-72.434027105516">
    <tag k="addr:city" v="Westfield"/>
    <tag k="addr:housenumber" v="4770"/>
    <tag k="addr:street" v="Vermont Route 100"/>
    <tag k="addr:state" v="VT"/>
    <tag k="ref:vcgi:esiteid" v="281212"/>
  </node>
  <node id="-394" visible="true" lat="44.837333497647" lon="-72.503539957919">
    <tag k="addr:city" v="Westfield"/>
    <tag k="addr:housenumber" v="1006"/>
    <tag k="addr:street" v="Monteith Road"/>
    <tag k="addr:state" v="VT"/>
    <tag k="ref:vcgi:esiteid" v="281213"/>
  </node>
  <node id="-395" visible="true" lat="44.837121506108" lon="-72.491639408559">
    <tag k="addr:city" v="Westfield"/>
    <tag k="addr:housenumber" v="499"/>
    <tag k="addr:street" v="Monteith Road"/>
    <tag k="addr:state" v="VT"/>
    <tag k="ref:vcgi:esiteid" v="281214"/>
  </node>
  <node id="-396" visible="true" lat="44.837353367846" lon="-72.468510131545">
    <tag k="addr:city" v="Westfield"/>
    <tag k="addr:housenumber" v="3044"/>
    <tag k="addr:street" v="Buck Hill Road"/>
    <tag k="addr:state" v="VT"/>
    <tag k="ref:vcgi:esiteid" v="281215"/>
  </node>
  <node id="-397" visible="true" lat="44.83695924766" lon="-72.434799874397">
    <tag k="addr:city" v="Westfield"/>
    <tag k="addr:housenumber" v="4744"/>
    <tag k="addr:street" v="Vermont Route 100"/>
    <tag k="addr:state" v="VT"/>
    <tag k="ref:vcgi:esiteid" v="281216"/>
  </node>
  <node id="-398" visible="true" lat="44.836107278996" lon="-72.504634214292">
    <tag k="addr:city" v="Westfield"/>
    <tag k="addr:housenumber" v="1164"/>
    <tag k="addr:street" v="Monteith Road"/>
    <tag k="addr:state" v="VT"/>
    <tag k="ref:vcgi:esiteid" v="281217"/>
  </node>
  <node id="-399" visible="true" lat="44.835334682125" lon="-72.481864319799">
    <tag k="addr:city" v="Westfield"/>
    <tag k="addr:housenumber" v="3551"/>
    <tag k="addr:street" v="Balance Rock Road"/>
    <tag k="addr:state" v="VT"/>
    <tag k="ref:vcgi:esiteid" v="281218"/>
  </node>
  <node id="-401" visible="true" lat="44.914361528043" lon="-72.424308989659">
    <tag k="addr:city" v="Westfield"/>
    <tag k="addr:housenumber" v="945"/>
    <tag k="addr:street" v="Kennison Road"/>
    <tag k="addr:state" v="VT"/>
    <tag k="ref:vcgi:esiteid" v="281220"/>
  </node>
  <node id="-402" visible="true" lat="44.906555144107" lon="-72.412353439918">
    <tag k="addr:city" v="Westfield"/>
    <tag k="addr:housenumber" v="72"/>
    <tag k="addr:street" v="Kennison Road"/>
    <tag k="addr:state" v="VT"/>
    <tag k="ref:vcgi:esiteid" v="281221"/>
  </node>
  <node id="-404" visible="true" lat="44.874079319043" lon="-72.453566077214">
    <tag k="addr:city" v="Westfield"/>
    <tag k="addr:housenumber" v="481"/>
    <tag k="addr:street" v="Kettle Farm Road"/>
    <tag k="addr:state" v="VT"/>
    <tag k="ref:vcgi:esiteid" v="281223"/>
  </node>
  <node id="-405" visible="true" lat="44.861123098382" lon="-72.450081520334">
    <tag k="addr:city" v="Westfield"/>
    <tag k="addr:housenumber" v="1177"/>
    <tag k="addr:street" v="Buck Hill Road"/>
    <tag k="addr:state" v="VT"/>
    <tag k="ref:vcgi:esiteid" v="281224"/>
  </node>
  <node id="-406" visible="true" lat="44.835060140734" lon="-72.431231450355">
    <tag k="addr:city" v="Westfield"/>
    <tag k="addr:housenumber" v="4941"/>
    <tag k="addr:street" v="Vermont Route 100"/>
    <tag k="addr:state" v="VT"/>
    <tag k="ref:vcgi:esiteid" v="281225"/>
  </node>
  <node id="-407" visible="true" lat="44.891630375731" lon="-72.438574293342">
    <tag k="addr:city" v="Westfield"/>
    <tag k="addr:housenumber" v="282"/>
    <tag k="addr:street" v="Ballground Road"/>
    <tag k="addr:state" v="VT"/>
    <tag k="ref:vcgi:esiteid" v="281226"/>
  </node>
  <node id="-408" visible="true" lat="44.901080031145" lon="-72.431359498385">
    <tag k="addr:city" v="Westfield"/>
    <tag k="addr:housenumber" v="881"/>
    <tag k="addr:street" v="North Hill Road"/>
    <tag k="addr:state" v="VT"/>
    <tag k="ref:vcgi:esiteid" v="281227"/>
  </node>
  <node id="-410" visible="true" lat="44.876175904453" lon="-72.416444543596">
    <tag k="addr:city" v="Westfield"/>
    <tag k="addr:housenumber" v="1264"/>
    <tag k="addr:street" v="Loop Road"/>
    <tag k="addr:state" v="VT"/>
    <tag k="ref:vcgi:esiteid" v="281229"/>
  </node>
  <node id="-411" visible="true" lat="44.87902794838" lon="-72.423727838144">
    <tag k="addr:city" v="Westfield"/>
    <tag k="addr:housenumber" v="328"/>
    <tag k="addr:street" v="Cemetery Road"/>
    <tag k="addr:state" v="VT"/>
    <tag k="ref:vcgi:esiteid" v="281230"/>
  </node>
  <node id="-412" visible="true" lat="44.847793840106" lon="-72.463688810987">
    <tag k="addr:city" v="Westfield"/>
    <tag k="addr:housenumber" v="2446"/>
    <tag k="addr:street" v="Buck Hill Road"/>
    <tag k="addr:state" v="VT"/>
    <tag k="ref:vcgi:esiteid" v="281232"/>
  </node>
  <node id="-413" visible="true" lat="44.840351733887" lon="-72.483076388859">
    <tag k="addr:city" v="Westfield"/>
    <tag k="addr:housenumber" v="3149"/>
    <tag k="addr:street" v="Balance Rock Road"/>
    <tag k="addr:state" v="VT"/>
    <tag k="ref:vcgi:esiteid" v="281233"/>
  </node>
  <node id="-414" visible="true" lat="44.883039688862" lon="-72.428140861019">
    <tag k="addr:city" v="Westfield"/>
    <tag k="addr:housenumber" v="1571"/>
    <tag k="addr:street" v="Vermont Route 100"/>
    <tag k="addr:state" v="VT"/>
    <tag k="ref:vcgi:esiteid" v="281234"/>
  </node>
  <node id="-415" visible="true" lat="44.878442444102" lon="-72.433146090748">
    <tag k="addr:city" v="Westfield"/>
    <tag k="addr:housenumber" v="1880"/>
    <tag k="addr:street" v="Vermont Route 100"/>
    <tag k="addr:state" v="VT"/>
    <tag k="ref:vcgi:esiteid" v="281235"/>
  </node>
  <node id="-416" visible="true" lat="44.902712544974" lon="-72.431577296244">
    <tag k="addr:city" v="Westfield"/>
    <tag k="addr:housenumber" v="973"/>
    <tag k="addr:street" v="North Hill Road"/>
    <tag k="addr:state" v="VT"/>
    <tag k="ref:vcgi:esiteid" v="281236"/>
  </node>
  <node id="-417" visible="true" lat="44.862642517442" lon="-72.415935066313">
    <tag k="addr:city" v="Westfield"/>
    <tag k="addr:housenumber" v="2258"/>
    <tag k="addr:street" v="Loop Road"/>
    <tag k="addr:state" v="VT"/>
    <tag k="ref:vcgi:esiteid" v="281237"/>
  </node>
  <node id="-420" visible="true" lat="44.892225348952" lon="-72.443383987268">
    <tag k="addr:city" v="Westfield"/>
    <tag k="addr:housenumber" v="534"/>
    <tag k="addr:street" v="Ballground Road"/>
    <tag k="addr:state" v="VT"/>
    <tag k="ref:vcgi:esiteid" v="281240"/>
  </node>
  <node id="-421" visible="true" lat="44.841332957312" lon="-72.464233696245">
    <tag k="addr:city" v="Westfield"/>
    <tag k="addr:housenumber" v="2872"/>
    <tag k="addr:street" v="Buck Hill Road"/>
    <tag k="addr:state" v="VT"/>
    <tag k="ref:vcgi:esiteid" v="281241"/>
  </node>
  <node id="-422" visible="true" lat="44.865947865657" lon="-72.450885904815">
    <tag k="addr:city" v="Westfield"/>
    <tag k="addr:housenumber" v="719"/>
    <tag k="addr:street" v="Balance Rock Road"/>
    <tag k="addr:state" v="VT"/>
    <tag k="ref:vcgi:esiteid" v="281242"/>
  </node>
  <node id="-423" visible="true" lat="44.849517718051" lon="-72.461727713057">
    <tag k="addr:city" v="Westfield"/>
    <tag k="addr:housenumber" v="2286"/>
    <tag k="addr:street" v="Buck Hill Road"/>
    <tag k="addr:state" v="VT"/>
    <tag k="ref:vcgi:esiteid" v="281243"/>
  </node>
  <node id="-426" visible="true" lat="44.880358861585" lon="-72.416693733898">
    <tag k="addr:city" v="Westfield"/>
    <tag k="addr:housenumber" v="960"/>
    <tag k="addr:street" v="Loop Road"/>
    <tag k="addr:state" v="VT"/>
    <tag k="ref:vcgi:esiteid" v="281246"/>
  </node>
  <node id="-427" visible="true" lat="44.882866904941" lon="-72.430354659331">
    <tag k="addr:city" v="Westfield"/>
    <tag k="addr:housenumber" v="22"/>
    <tag k="addr:street" v="Freedom Drive"/>
    <tag k="addr:state" v="VT"/>
    <tag k="ref:vcgi:esiteid" v="281247"/>
  </node>
  <node id="-428" visible="true" lat="44.895396055848" lon="-72.431068064261">
    <tag k="addr:city" v="Westfield"/>
    <tag k="addr:housenumber" v="474"/>
    <tag k="addr:street" v="North Hill Road"/>
    <tag k="addr:state" v="VT"/>
    <tag k="ref:vcgi:esiteid" v="281248"/>
  </node>
  <node id="-430" visible="true" lat="44.856962154141" lon="-72.432857665627">
    <tag k="addr:city" v="Westfield"/>
    <tag k="addr:housenumber" v="3429"/>
    <tag k="addr:street" v="Vermont Route 100"/>
    <tag k="addr:state" v="VT"/>
    <tag k="ref:vcgi:esiteid" v="281251"/>
  </node>
  <node id="-431" visible="true" lat="44.901332030717" lon="-72.429731301743">
    <tag k="addr:city" v="Westfield"/>
    <tag k="addr:housenumber" v="850"/>
    <tag k="addr:street" v="North Hill Road"/>
    <tag k="addr:state" v="VT"/>
    <tag k="ref:vcgi:esiteid" v="281252"/>
  </node>
  <node id="-432" visible="true" lat="44.912114693958" lon="-72.424228986217">
    <tag k="addr:city" v="Westfield"/>
    <tag k="addr:housenumber" v="815"/>
    <tag k="addr:street" v="Kennison Road"/>
    <tag k="addr:state" v="VT"/>
    <tag k="ref:vcgi:esiteid" v="281253"/>
  </node>
  <node id="-434" visible="true" lat="44.857929768136" lon="-72.407041240246">
    <tag k="addr:city" v="Westfield"/>
    <tag k="addr:housenumber" v="2770"/>
    <tag k="addr:street" v="Loop Road"/>
    <tag k="addr:state" v="VT"/>
    <tag k="ref:vcgi:esiteid" v="311139"/>
  </node>
  <node id="-440" visible="true" lat="44.858739316196" lon="-72.432893703843">
    <tag k="addr:city" v="Westfield"/>
    <tag k="addr:housenumber" v="3281"/>
    <tag k="addr:street" v="Vermont Route 100"/>
    <tag k="addr:state" v="VT"/>
    <tag k="ref:vcgi:esiteid" v="326304"/>
  </node>
  <node id="-441" visible="true" lat="44.891425606796" lon="-72.437024641581">
    <tag k="addr:city" v="Westfield"/>
    <tag k="addr:housenumber" v="212"/>
    <tag k="addr:street" v="Ballground Road"/>
    <tag k="addr:state" v="VT"/>
    <tag k="ref:vcgi:esiteid" v="326305"/>
  </node>
  <node id="-443" visible="true" lat="44.868788574876" lon="-72.458498205181">
    <tag k="addr:city" v="Westfield"/>
    <tag k="addr:housenumber" v="421"/>
    <tag k="addr:street" v="Corrow Basin Road"/>
    <tag k="addr:state" v="VT"/>
    <tag k="ref:vcgi:esiteid" v="326574"/>
  </node>
  <node id="-445" visible="true" lat="44.891879340093" lon="-72.44150419554">
    <tag k="addr:city" v="Westfield"/>
    <tag k="addr:housenumber" v="400"/>
    <tag k="addr:street" v="Ballground Road"/>
    <tag k="addr:state" v="VT"/>
    <tag k="ref:vcgi:esiteid" v="326576"/>
  </node>
  <node id="-446" visible="true" lat="44.850451461793" lon="-72.461049985452">
    <tag k="addr:city" v="Westfield"/>
    <tag k="addr:housenumber" v="2258"/>
    <tag k="addr:street" v="Buck Hill Road"/>
    <tag k="addr:state" v="VT"/>
    <tag k="ref:vcgi:esiteid" v="332753"/>
  </node>
  <node id="-447" visible="true" lat="44.879209860194" lon="-72.428723959741">
    <tag k="addr:city" v="Westfield"/>
    <tag k="addr:housenumber" v="66"/>
    <tag k="addr:street" v="Cemetery Road"/>
    <tag k="addr:state" v="VT"/>
    <tag k="ref:vcgi:esiteid" v="335757"/>
  </node>
  <node id="-448" visible="true" lat="44.913401254293" lon="-72.433036812867">
    <tag k="addr:city" v="Westfield"/>
    <tag k="addr:housenumber" v="1593"/>
    <tag k="addr:street" v="North Hill Road"/>
    <tag k="addr:state" v="VT"/>
    <tag k="ref:vcgi:esiteid" v="339696"/>
  </node>
  <node id="-455" visible="true" lat="44.864455390784" lon="-72.452243950151">
    <tag k="addr:city" v="Westfield"/>
    <tag k="addr:housenumber" v="845"/>
    <tag k="addr:street" v="Balance Rock Road"/>
    <tag k="addr:state" v="VT"/>
    <tag k="ref:vcgi:esiteid" v="341361"/>
  </node>
  <node id="-456" visible="true" lat="44.892644698638" lon="-72.447741918754">
    <tag k="addr:city" v="Westfield"/>
    <tag k="addr:housenumber" v="748"/>
    <tag k="addr:street" v="Ballground Road"/>
    <tag k="addr:state" v="VT"/>
    <tag k="ref:vcgi:esiteid" v="342414"/>
  </node>
  <node id="-457" visible="true" lat="44.890228107558" lon="-72.426771614857">
    <tag k="addr:city" v="Westfield"/>
    <tag k="addr:housenumber" v="1027"/>
    <tag k="addr:street" v="Vermont Route 100"/>
    <tag k="addr:state" v="VT"/>
    <tag k="ref:vcgi:esiteid" v="342415"/>
  </node>
  <node id="-458" visible="true" lat="44.892873229951" lon="-72.46025604588">
    <tag k="addr:city" v="Westfield"/>
    <tag k="addr:housenumber" v="1383"/>
    <tag k="addr:street" v="Ballground Road"/>
    <tag k="addr:state" v="VT"/>
    <tag k="ref:vcgi:esiteid" v="343427"/>
  </node>
  <node id="-460" visible="true" lat="44.889502921191" lon="-72.453671906105">
    <tag k="addr:city" v="Westfield"/>
    <tag k="addr:housenumber" v="989"/>
    <tag k="addr:street" v="Ballground Road"/>
    <tag k="addr:state" v="VT"/>
    <tag k="ref:vcgi:esiteid" v="343429"/>
  </node>
  <node id="-461" visible="true" lat="44.850703444083" lon="-72.44249434563">
    <tag k="addr:city" v="Westfield"/>
    <tag k="addr:housenumber" v="560"/>
    <tag k="addr:street" v="Sniderbrook Road"/>
    <tag k="addr:state" v="VT"/>
    <tag k="ref:vcgi:esiteid" v="343430"/>
  </node>
  <node id="-462" visible="true" lat="44.850500062066" lon="-72.448774605309">
    <tag k="addr:city" v="Westfield"/>
    <tag k="addr:housenumber" v="923"/>
    <tag k="addr:street" v="Sniderbrook Road"/>
    <tag k="addr:state" v="VT"/>
    <tag k="ref:vcgi:esiteid" v="343431"/>
  </node>
  <node id="-464" visible="true" lat="44.864955346398" lon="-72.432866334562">
    <tag k="addr:city" v="Westfield"/>
    <tag k="addr:housenumber" v="2841"/>
    <tag k="addr:street" v="Vermont Route 100"/>
    <tag k="addr:state" v="VT"/>
    <tag k="ref:vcgi:esiteid" v="344362"/>
  </node>
  <node id="-467" visible="true" lat="44.8496145408" lon="-72.45898758374">
    <tag k="addr:city" v="Westfield"/>
    <tag k="addr:housenumber" v="2227"/>
    <tag k="addr:street" v="Buck Hill Road"/>
    <tag k="addr:state" v="VT"/>
    <tag k="ref:vcgi:esiteid" v="345586"/>
  </node>
  <node id="-470" visible="true" lat="44.866755317431" lon="-72.442644359251">
    <tag k="addr:city" v="Westfield"/>
    <tag k="addr:housenumber" v="709"/>
    <tag k="addr:street" v="Buck Hill Road"/>
    <tag k="addr:state" v="VT"/>
    <tag k="ref:vcgi:esiteid" v="365164"/>
  </node>
  <node id="-472" visible="true" lat="44.879139864767" lon="-72.42660869393">
    <tag k="addr:city" v="Westfield"/>
    <tag k="addr:housenumber" v="160"/>
    <tag k="addr:street" v="Cemetery Road"/>
    <tag k="addr:state" v="VT"/>
    <tag k="ref:vcgi:esiteid" v="446627"/>
  </node>
  <node id="-474" visible="true" lat="44.884676898109" lon="-72.41385569581">
    <tag k="addr:city" v="Westfield"/>
    <tag k="addr:housenumber" v="715"/>
    <tag k="addr:street" v="Loop Road"/>
    <tag k="addr:state" v="VT"/>
    <tag k="ref:vcgi:esiteid" v="447117"/>
  </node>
  <node id="-477" visible="true" lat="44.868667437484" lon="-72.442077873128">
    <tag k="addr:city" v="Westfield"/>
    <tag k="addr:housenumber" v="123"/>
    <tag k="addr:street" v="Balance Rock Road"/>
    <tag k="addr:state" v="VT"/>
    <tag k="ref:vcgi:esiteid" v="448309"/>
  </node>
  <node id="-478" visible="true" lat="44.926101270389" lon="-72.426417352147">
    <tag k="addr:city" v="Westfield"/>
    <tag k="addr:housenumber" v="1990"/>
    <tag k="addr:street" v="Kennison Road"/>
    <tag k="addr:state" v="VT"/>
    <tag k="ref:vcgi:esiteid" v="448603"/>
  </node>
  <node id="-479" visible="true" lat="44.891544905489" lon="-72.43952298956">
    <tag k="addr:city" v="Westfield"/>
    <tag k="addr:housenumber" v="318"/>
    <tag k="addr:street" v="Ballground Road"/>
    <tag k="addr:state" v="VT"/>
    <tag k="ref:vcgi:esiteid" v="448972"/>
  </node>
  <node id="-480" visible="true" lat="44.897610603484" lon="-72.428833576364">
    <tag k="addr:city" v="Westfield"/>
    <tag k="addr:housenumber" v="632"/>
    <tag k="addr:street" v="North Hill Road"/>
    <tag k="addr:state" v="VT"/>
    <tag k="ref:vcgi:esiteid" v="451450"/>
  </node>
  <node id="-481" visible="true" lat="44.884972897656" lon="-72.414050494414">
    <tag k="addr:city" v="Westfield"/>
    <tag k="addr:housenumber" v="701"/>
    <tag k="addr:street" v="Loop Road"/>
    <tag k="addr:state" v="VT"/>
    <tag k="ref:vcgi:esiteid" v="452838"/>
  </node>
  <node id="-482" visible="true" lat="44.894361805711" lon="-72.458657396944">
    <tag k="addr:city" v="Westfield"/>
    <tag k="addr:housenumber" v="1328"/>
    <tag k="addr:street" v="Ballground Road"/>
    <tag k="addr:state" v="VT"/>
    <tag k="ref:vcgi:esiteid" v="453021"/>
  </node>
  <node id="-484" visible="true" lat="44.882281514347" lon="-72.431051445581">
    <tag k="addr:city" v="Westfield"/>
    <tag k="addr:housenumber" v="55"/>
    <tag k="addr:street" v="Freedom Drive"/>
    <tag k="addr:state" v="VT"/>
    <tag k="ref:vcgi:esiteid" v="454921"/>
  </node>
  <node id="-486" visible="true" lat="44.925052150805" lon="-72.433100993853">
    <tag k="addr:city" v="Westfield"/>
    <tag k="addr:housenumber" v="2583"/>
    <tag k="addr:street" v="North Hill Road"/>
    <tag k="addr:state" v="VT"/>
    <tag k="ref:vcgi:esiteid" v="611594"/>
  </node>
  <node id="-487" visible="true" lat="44.919605493068" lon="-72.430169986773">
    <tag k="addr:city" v="Westfield"/>
    <tag k="addr:housenumber" v="2208"/>
    <tag k="addr:street" v="North Hill Road"/>
    <tag k="addr:state" v="VT"/>
    <tag k="ref:vcgi:esiteid" v="612732"/>
  </node>
  <node id="-500" visible="true" lat="44.846669334534" lon="-72.461625616995">
    <tag k="addr:city" v="Westfield"/>
    <tag k="addr:housenumber" v="92"/>
    <tag k="addr:street" v="Trumpass Road"/>
    <tag k="addr:state" v="VT"/>
    <tag k="ref:vcgi:esiteid" v="612756"/>
  </node>
  <node id="-506" visible="true" lat="44.894233372032" lon="-72.431021976902">
    <tag k="addr:city" v="Westfield"/>
    <tag k="addr:housenumber" v="392"/>
    <tag k="addr:street" v="North Hill Road"/>
    <tag k="addr:state" v="VT"/>
    <tag k="ref:vcgi:esiteid" v="618404"/>
  </node>
  <node id="-546" visible="true" lat="44.869531301446" lon="-72.439787714901">
    <tag k="addr:city" v="Westfield"/>
    <tag k="addr:housenumber" v="399"/>
    <tag k="addr:street" v="Buck Hill Road"/>
    <tag k="addr:state" v="VT"/>
    <tag k="ref:vcgi:esiteid" v="900280"/>
  </node>
</osm>
