<?xml version="1.0" encoding="UTF-8"?>
<osm version="0.6" generator="JOSM" upload="false">
  <node id="-1590" visible="true" lat="43.05738203" lon="-72.57405253">
    <!-- offset: "1026 Windmill Hill Road North, , VT" Significant offset - 1041.9m -->
    <tag k="addr:housenumber" v="1026"/>
    <tag k="addr:street" v="Windmill Hill Road North"/>
    <tag k="addr:state" v="VT"/>
    <tag k="ref:vcgi:esiteid" v="283952"/>
  </node>
  <node id="-1759" visible="true" lat="43.12573283" lon="-72.51651306">
    <!-- offset: "1619 Hartley Hill Road, , VT" Significant offset - 205.9m -->
    <tag k="addr:housenumber" v="1619"/>
    <tag k="addr:street" v="Hartley Hill Road"/>
    <tag k="addr:state" v="VT"/>
    <tag k="ref:vcgi:esiteid" v="753736"/>
  </node>
  <node id="-1795" visible="true" lat="43.08311554" lon="-72.56852102">
    <!-- offset: "1964 Old Athens Road, , VT" Significant offset - 244.7m -->
    <tag k="addr:housenumber" v="1964"/>
    <tag k="addr:street" v="Old Athens Road"/>
    <tag k="addr:state" v="VT"/>
    <tag k="ref:vcgi:esiteid" v="1050061"/>
  </node>
</osm>
