<?xml version="1.0" encoding="UTF-8"?>
<osm version="0.6" generator="JOSM" upload="false">
  <node id="-1004" visible="true" lat="43.572672556333" lon="-73.039029729337">
    <!-- offset: "1450 Clarendon Avenue, West Rutland, VT" Significant offset - 189.5m -->
    <tag k="addr:city" v="West Rutland"/>
    <tag k="addr:housenumber" v="1450"/>
    <tag k="addr:street" v="Clarendon Avenue"/>
    <tag k="addr:state" v="VT"/>
    <tag k="ref:vcgi:esiteid" v="280141"/>
  </node>
  <node id="-1065" visible="true" lat="43.571059404019" lon="-73.049915478129">
    <!-- offset: "1010 Dewey Avenue, West Rutland, VT" Significant offset - 146m -->
    <tag k="addr:city" v="West Rutland"/>
    <tag k="addr:housenumber" v="1010"/>
    <tag k="addr:street" v="Dewey Avenue"/>
    <tag k="addr:state" v="VT"/>
    <tag k="ref:vcgi:esiteid" v="332380"/>
  </node>
</osm>
