<?xml version="1.0" encoding="UTF-8"?>
<osm version="0.6" generator="JOSM" upload="false">
  <node id="-561" visible="true" lat="44.7358697758" lon="-71.974012671585">
    <!-- duplicates-in-different-towns: "927 Bald Hill Pond Road, West Burke, VT"  ignoring town mismatch for duplicate housenumber/street when matching to esiteid 756194: "927 Bald Hill Pond Road, , VT" -->
    <tag k="addr:city" v="West Burke"/>
    <tag k="addr:housenumber" v="927"/>
    <tag k="addr:street" v="Bald Hill Pond Road"/>
    <tag k="addr:state" v="VT"/>
    <tag k="ref:vcgi:esiteid" v="284468"/>
  </node>
  <node id="-740" visible="true" lat="44.741529269535" lon="-72.09682349233">
    <!-- duplicates-in-different-towns: "319 Stevens Lane, Barton, VT"  ignoring town mismatch for duplicate housenumber/street when matching to esiteid 758785: "319 Stevens Lane, , VT" -->
    <tag k="addr:city" v="Barton"/>
    <tag k="addr:housenumber" v="319"/>
    <tag k="addr:street" v="Stevens Lane"/>
    <tag k="addr:state" v="VT"/>
    <tag k="ref:vcgi:esiteid" v="758784"/>
  </node>
</osm>
