<?xml version="1.0" encoding="UTF-8"?>
<osm version="0.6" generator="JOSM" upload="false">
  <node id="-108" visible="true" lat="42.825546652249" lon="-72.862981135403">
    <tag k="addr:city" v="Whitingham"/>
    <tag k="addr:housenumber" v="101"/>
    <tag k="addr:street" v="Boyd Lane"/>
    <tag k="addr:state" v="VT"/>
    <tag k="ref:vcgi:esiteid" v="286244"/>
  </node>
  <node id="-112" visible="true" lat="42.825046800518" lon="-72.86159206923">
    <tag k="addr:city" v="Whitingham"/>
    <tag k="addr:housenumber" v="38"/>
    <tag k="addr:street" v="Boyd Lane"/>
    <tag k="addr:state" v="VT"/>
    <tag k="ref:vcgi:esiteid" v="286248"/>
  </node>
  <node id="-114" visible="true" lat="42.824923299651" lon="-72.860474176946">
    <tag k="addr:city" v="Whitingham"/>
    <tag k="addr:housenumber" v="218"/>
    <tag k="addr:street" v="Vermont Route 100"/>
    <tag k="addr:state" v="VT"/>
    <tag k="ref:vcgi:esiteid" v="286250"/>
  </node>
  <node id="-116" visible="true" lat="42.824792077346" lon="-72.862572666478">
    <tag k="addr:city" v="Whitingham"/>
    <tag k="addr:housenumber" v="65"/>
    <tag k="addr:street" v="Boyd Lane"/>
    <tag k="addr:state" v="VT"/>
    <tag k="ref:vcgi:esiteid" v="286252"/>
  </node>
  <node id="-117" visible="true" lat="42.824875024293" lon="-72.863925942889">
    <tag k="addr:city" v="Whitingham"/>
    <tag k="addr:housenumber" v="67"/>
    <tag k="addr:street" v="Boyd Lane"/>
    <tag k="addr:state" v="VT"/>
    <tag k="ref:vcgi:esiteid" v="286253"/>
  </node>
  <node id="-118" visible="true" lat="42.824593847572" lon="-72.8583974728">
    <tag k="addr:city" v="Whitingham"/>
    <tag k="addr:housenumber" v="287"/>
    <tag k="addr:street" v="Vermont Route 100"/>
    <tag k="addr:state" v="VT"/>
    <tag k="ref:vcgi:esiteid" v="286254"/>
  </node>
  <node id="-119" visible="true" lat="42.824335814333" lon="-72.862142572331">
    <tag k="addr:city" v="Whitingham"/>
    <tag k="addr:housenumber" v="41"/>
    <tag k="addr:street" v="Boyd Lane"/>
    <tag k="addr:state" v="VT"/>
    <tag k="ref:vcgi:esiteid" v="286255"/>
  </node>
  <node id="-125" visible="true" lat="42.823405040438" lon="-72.85960891485">
    <tag k="addr:city" v="Whitingham"/>
    <tag k="addr:housenumber" v="438"/>
    <tag k="addr:street" v="Vermont Route 100"/>
    <tag k="addr:state" v="VT"/>
    <tag k="ref:vcgi:esiteid" v="286261"/>
  </node>
  <node id="-131" visible="true" lat="42.82191951523" lon="-72.863638763019">
    <tag k="addr:city" v="Whitingham"/>
    <tag k="addr:housenumber" v="1663"/>
    <tag k="addr:street" v="Fuller Hill Road"/>
    <tag k="addr:state" v="VT"/>
    <tag k="ref:vcgi:esiteid" v="286267"/>
  </node>
  <node id="-140" visible="true" lat="42.820699734444" lon="-72.863779015784">
    <tag k="addr:city" v="Whitingham"/>
    <tag k="addr:housenumber" v="1591"/>
    <tag k="addr:street" v="Fuller Hill Road"/>
    <tag k="addr:state" v="VT"/>
    <tag k="ref:vcgi:esiteid" v="286276"/>
  </node>
  <node id="-147" visible="true" lat="42.81954521081" lon="-72.863752496165">
    <tag k="addr:city" v="Whitingham"/>
    <tag k="addr:housenumber" v="1527"/>
    <tag k="addr:street" v="Fuller Hill Road"/>
    <tag k="addr:state" v="VT"/>
    <tag k="ref:vcgi:esiteid" v="286283"/>
  </node>
  <node id="-150" visible="true" lat="42.818384737323" lon="-72.862437665757">
    <tag k="addr:city" v="Whitingham"/>
    <tag k="addr:housenumber" v="1474"/>
    <tag k="addr:street" v="Fuller Hill Road"/>
    <tag k="addr:state" v="VT"/>
    <tag k="ref:vcgi:esiteid" v="286286"/>
  </node>
  <node id="-158" visible="true" lat="42.817570983225" lon="-72.865122718114">
    <tag k="addr:city" v="Whitingham"/>
    <tag k="addr:housenumber" v="1381"/>
    <tag k="addr:street" v="Fuller Hill Road"/>
    <tag k="addr:state" v="VT"/>
    <tag k="ref:vcgi:esiteid" v="286294"/>
  </node>
  <node id="-161" visible="true" lat="42.817394915757" lon="-72.863979009191">
    <tag k="addr:city" v="Whitingham"/>
    <tag k="addr:housenumber" v="1384"/>
    <tag k="addr:street" v="Fuller Hill Road"/>
    <tag k="addr:state" v="VT"/>
    <tag k="ref:vcgi:esiteid" v="286297"/>
  </node>
  <node id="-195" visible="true" lat="42.81295883955" lon="-72.867237057582">
    <tag k="addr:city" v="Whitingham"/>
    <tag k="addr:housenumber" v="1005"/>
    <tag k="addr:street" v="Fuller Hill Road"/>
    <tag k="addr:state" v="VT"/>
    <tag k="ref:vcgi:esiteid" v="286331"/>
  </node>
  <node id="-200" visible="true" lat="42.812615334477" lon="-72.866215750544">
    <tag k="addr:city" v="Whitingham"/>
    <tag k="addr:housenumber" v="994"/>
    <tag k="addr:street" v="Fuller Hill Road"/>
    <tag k="addr:state" v="VT"/>
    <tag k="ref:vcgi:esiteid" v="286336"/>
  </node>
  <node id="-210" visible="true" lat="42.810658909068" lon="-72.866896350376">
    <tag k="addr:city" v="Whitingham"/>
    <tag k="addr:housenumber" v="907"/>
    <tag k="addr:street" v="Fuller Hill Road"/>
    <tag k="addr:state" v="VT"/>
    <tag k="ref:vcgi:esiteid" v="286346"/>
  </node>
  <node id="-220" visible="true" lat="42.810252368409" lon="-72.865865935331">
    <tag k="addr:city" v="Whitingham"/>
    <tag k="addr:housenumber" v="859"/>
    <tag k="addr:street" v="Fuller Hill Road"/>
    <tag k="addr:state" v="VT"/>
    <tag k="ref:vcgi:esiteid" v="286356"/>
  </node>
  <node id="-224" visible="true" lat="42.809830772853" lon="-72.857164700514">
    <tag k="addr:city" v="Whitingham"/>
    <tag k="addr:housenumber" v="64"/>
    <tag k="addr:street" v="Bear Lane"/>
    <tag k="addr:state" v="VT"/>
    <tag k="ref:vcgi:esiteid" v="286360"/>
  </node>
  <node id="-228" visible="true" lat="42.809522522796" lon="-72.858793163943">
    <tag k="addr:city" v="Whitingham"/>
    <tag k="addr:housenumber" v="65"/>
    <tag k="addr:street" v="Bear Lane"/>
    <tag k="addr:state" v="VT"/>
    <tag k="ref:vcgi:esiteid" v="286364"/>
  </node>
  <node id="-230" visible="true" lat="42.809070798728" lon="-72.864812435025">
    <tag k="addr:city" v="Whitingham"/>
    <tag k="addr:housenumber" v="755"/>
    <tag k="addr:street" v="Fuller Hill Road"/>
    <tag k="addr:state" v="VT"/>
    <tag k="ref:vcgi:esiteid" v="286366"/>
  </node>
  <node id="-232" visible="true" lat="42.80884826483" lon="-72.866251585953">
    <tag k="addr:city" v="Whitingham"/>
    <tag k="addr:housenumber" v="821"/>
    <tag k="addr:street" v="Fuller Hill Road"/>
    <tag k="addr:state" v="VT"/>
    <tag k="ref:vcgi:esiteid" v="286368"/>
  </node>
  <node id="-233" visible="true" lat="42.808687750662" lon="-72.856379529265">
    <tag k="addr:city" v="Whitingham"/>
    <tag k="addr:housenumber" v="256"/>
    <tag k="addr:street" v="Fuller Hill Road"/>
    <tag k="addr:state" v="VT"/>
    <tag k="ref:vcgi:esiteid" v="286369"/>
  </node>
  <node id="-234" visible="true" lat="42.808615003763" lon="-72.864295754767">
    <tag k="addr:city" v="Whitingham"/>
    <tag k="addr:housenumber" v="719"/>
    <tag k="addr:street" v="Fuller Hill Road"/>
    <tag k="addr:state" v="VT"/>
    <tag k="ref:vcgi:esiteid" v="286370"/>
  </node>
  <node id="-235" visible="true" lat="42.808649460579" lon="-72.853468660483">
    <tag k="addr:city" v="Whitingham"/>
    <tag k="addr:housenumber" v="100"/>
    <tag k="addr:street" v="Fuller Hill Road"/>
    <tag k="addr:state" v="VT"/>
    <tag k="ref:vcgi:esiteid" v="286371"/>
  </node>
  <node id="-236" visible="true" lat="42.808271991636" lon="-72.851762006847">
    <tag k="addr:city" v="Whitingham"/>
    <tag k="addr:housenumber" v="1471"/>
    <tag k="addr:street" v="Wilmington Cross Road"/>
    <tag k="addr:state" v="VT"/>
    <tag k="ref:vcgi:esiteid" v="286372"/>
  </node>
  <node id="-237" visible="true" lat="42.808307584522" lon="-72.858225163398">
    <tag k="addr:city" v="Whitingham"/>
    <tag k="addr:housenumber" v="25"/>
    <tag k="addr:street" v="Bear Lane"/>
    <tag k="addr:state" v="VT"/>
    <tag k="ref:vcgi:esiteid" v="286373"/>
  </node>
  <node id="-238" visible="true" lat="42.807998911839" lon="-72.854241587604">
    <tag k="addr:city" v="Whitingham"/>
    <tag k="addr:housenumber" v="151"/>
    <tag k="addr:street" v="Fuller Hill Road"/>
    <tag k="addr:state" v="VT"/>
    <tag k="ref:vcgi:esiteid" v="286374"/>
  </node>
  <node id="-242" visible="true" lat="42.807701248392" lon="-72.856512509248">
    <tag k="addr:city" v="Whitingham"/>
    <tag k="addr:housenumber" v="265"/>
    <tag k="addr:street" v="Fuller Hill Road"/>
    <tag k="addr:state" v="VT"/>
    <tag k="ref:vcgi:esiteid" v="286378"/>
  </node>
  <node id="-244" visible="true" lat="42.807559181898" lon="-72.851027714544">
    <tag k="addr:city" v="Whitingham"/>
    <tag k="addr:housenumber" v="1416"/>
    <tag k="addr:street" v="Wilmington Cross Road"/>
    <tag k="addr:state" v="VT"/>
    <tag k="ref:vcgi:esiteid" v="286380"/>
  </node>
  <node id="-248" visible="true" lat="42.807250034424" lon="-72.862998219644">
    <tag k="addr:city" v="Whitingham"/>
    <tag k="addr:housenumber" v="1337"/>
    <tag k="addr:street" v="Corse Road"/>
    <tag k="addr:state" v="VT"/>
    <tag k="ref:vcgi:esiteid" v="286384"/>
  </node>
  <node id="-252" visible="true" lat="42.806928691073" lon="-72.84998092939">
    <tag k="addr:city" v="Whitingham"/>
    <tag k="addr:housenumber" v="1358"/>
    <tag k="addr:street" v="Wilmington Cross Road"/>
    <tag k="addr:state" v="VT"/>
    <tag k="ref:vcgi:esiteid" v="286388"/>
  </node>
  <node id="-254" visible="true" lat="42.806762629958" lon="-72.851538010062">
    <tag k="addr:city" v="Whitingham"/>
    <tag k="addr:housenumber" v="1363"/>
    <tag k="addr:street" v="Wilmington Cross Road"/>
    <tag k="addr:state" v="VT"/>
    <tag k="ref:vcgi:esiteid" v="286390"/>
  </node>
  <node id="-262" visible="true" lat="42.80668413831" lon="-72.853530344566">
    <tag k="addr:city" v="Whitingham"/>
    <tag k="addr:housenumber" v="1335"/>
    <tag k="addr:street" v="Wilmington Cross Road"/>
    <tag k="addr:state" v="VT"/>
    <tag k="ref:vcgi:esiteid" v="286398"/>
  </node>
  <node id="-283" visible="true" lat="42.803930178392" lon="-72.851155488251">
    <tag k="addr:city" v="Whitingham"/>
    <tag k="addr:housenumber" v="1159"/>
    <tag k="addr:street" v="Wilmington Cross Road"/>
    <tag k="addr:state" v="VT"/>
    <tag k="ref:vcgi:esiteid" v="286419"/>
  </node>
  <node id="-285" visible="true" lat="42.802839288679" lon="-72.850775927395">
    <tag k="addr:city" v="Whitingham"/>
    <tag k="addr:housenumber" v="1098"/>
    <tag k="addr:street" v="Wilmington Cross Road"/>
    <tag k="addr:state" v="VT"/>
    <tag k="ref:vcgi:esiteid" v="286421"/>
  </node>
  <node id="-287" visible="true" lat="42.80257794277" lon="-72.851423996532">
    <tag k="addr:city" v="Whitingham"/>
    <tag k="addr:housenumber" v="1071"/>
    <tag k="addr:street" v="Wilmington Cross Road"/>
    <tag k="addr:state" v="VT"/>
    <tag k="ref:vcgi:esiteid" v="286423"/>
  </node>
  <node id="-289" visible="true" lat="42.802384149999" lon="-72.851571461465">
    <tag k="addr:city" v="Whitingham"/>
    <tag k="addr:housenumber" v="1063"/>
    <tag k="addr:street" v="Wilmington Cross Road"/>
    <tag k="addr:state" v="VT"/>
    <tag k="ref:vcgi:esiteid" v="286425"/>
  </node>
  <node id="-294" visible="true" lat="42.8019082882" lon="-72.850664959596">
    <tag k="addr:city" v="Whitingham"/>
    <tag k="addr:housenumber" v="1028"/>
    <tag k="addr:street" v="Wilmington Cross Road"/>
    <tag k="addr:state" v="VT"/>
    <tag k="ref:vcgi:esiteid" v="286430"/>
  </node>
  <node id="-295" visible="true" lat="42.801862590237" lon="-72.851456199846">
    <tag k="addr:city" v="Whitingham"/>
    <tag k="addr:housenumber" v="1019"/>
    <tag k="addr:street" v="Wilmington Cross Road"/>
    <tag k="addr:state" v="VT"/>
    <tag k="ref:vcgi:esiteid" v="286431"/>
  </node>
  <node id="-303" visible="true" lat="42.801131103371" lon="-72.851031090958">
    <tag k="addr:city" v="Whitingham"/>
    <tag k="addr:housenumber" v="968"/>
    <tag k="addr:street" v="Wilmington Cross Road"/>
    <tag k="addr:state" v="VT"/>
    <tag k="ref:vcgi:esiteid" v="286439"/>
  </node>
  <node id="-305" visible="true" lat="42.80075179345" lon="-72.850915237979">
    <tag k="addr:city" v="Whitingham"/>
    <tag k="addr:housenumber" v="942"/>
    <tag k="addr:street" v="Wilmington Cross Road"/>
    <tag k="addr:state" v="VT"/>
    <tag k="ref:vcgi:esiteid" v="286441"/>
  </node>
  <node id="-309" visible="true" lat="42.800177753337" lon="-72.850841086095">
    <tag k="addr:city" v="Whitingham"/>
    <tag k="addr:housenumber" v="906"/>
    <tag k="addr:street" v="Wilmington Cross Road"/>
    <tag k="addr:state" v="VT"/>
    <tag k="ref:vcgi:esiteid" v="286445"/>
  </node>
  <node id="-312" visible="true" lat="42.799566933231" lon="-72.851418444802">
    <tag k="addr:city" v="Whitingham"/>
    <tag k="addr:housenumber" v="853"/>
    <tag k="addr:street" v="Wilmington Cross Road"/>
    <tag k="addr:state" v="VT"/>
    <tag k="ref:vcgi:esiteid" v="286448"/>
  </node>
  <node id="-332" visible="true" lat="42.798223735312" lon="-72.851255703095">
    <tag k="addr:city" v="Whitingham"/>
    <tag k="addr:housenumber" v="763"/>
    <tag k="addr:street" v="Wilmington Cross Road"/>
    <tag k="addr:state" v="VT"/>
    <tag k="ref:vcgi:esiteid" v="286468"/>
  </node>
  <node id="-336" visible="true" lat="42.797885501225" lon="-72.850640991785">
    <tag k="addr:city" v="Whitingham"/>
    <tag k="addr:housenumber" v="738"/>
    <tag k="addr:street" v="Wilmington Cross Road"/>
    <tag k="addr:state" v="VT"/>
    <tag k="ref:vcgi:esiteid" v="286472"/>
  </node>
  <node id="-339" visible="true" lat="42.797646980986" lon="-72.85129309234">
    <tag k="addr:city" v="Whitingham"/>
    <tag k="addr:housenumber" v="727"/>
    <tag k="addr:street" v="Wilmington Cross Road"/>
    <tag k="addr:state" v="VT"/>
    <tag k="ref:vcgi:esiteid" v="286475"/>
  </node>
  <node id="-353" visible="true" lat="42.79725345526" lon="-72.850565739923">
    <tag k="addr:city" v="Whitingham"/>
    <tag k="addr:housenumber" v="696"/>
    <tag k="addr:street" v="Wilmington Cross Road"/>
    <tag k="addr:state" v="VT"/>
    <tag k="ref:vcgi:esiteid" v="286489"/>
  </node>
  <node id="-359" visible="true" lat="42.796771708041" lon="-72.850273824246">
    <tag k="addr:city" v="Whitingham"/>
    <tag k="addr:housenumber" v="664"/>
    <tag k="addr:street" v="Wilmington Cross Road"/>
    <tag k="addr:state" v="VT"/>
    <tag k="ref:vcgi:esiteid" v="286495"/>
  </node>
  <node id="-369" visible="true" lat="42.796408332423" lon="-72.851156684765">
    <tag k="addr:city" v="Whitingham"/>
    <tag k="addr:housenumber" v="639"/>
    <tag k="addr:street" v="Wilmington Cross Road"/>
    <tag k="addr:state" v="VT"/>
    <tag k="ref:vcgi:esiteid" v="286505"/>
  </node>
  <node id="-372" visible="true" lat="42.7962283597" lon="-72.85018853093">
    <tag k="addr:city" v="Whitingham"/>
    <tag k="addr:housenumber" v="624"/>
    <tag k="addr:street" v="Wilmington Cross Road"/>
    <tag k="addr:state" v="VT"/>
    <tag k="ref:vcgi:esiteid" v="286508"/>
  </node>
  <node id="-406" visible="true" lat="42.794484616184" lon="-72.82651920495">
    <tag k="addr:city" v="Whitingham"/>
    <tag k="addr:housenumber" v="3418"/>
    <tag k="addr:street" v="Vermont Route 100"/>
    <tag k="addr:state" v="VT"/>
    <tag k="ref:vcgi:esiteid" v="286543"/>
  </node>
  <node id="-412" visible="true" lat="42.794264416288" lon="-72.851418930483">
    <tag k="addr:city" v="Whitingham"/>
    <tag k="addr:housenumber" v="489"/>
    <tag k="addr:street" v="Wilmington Cross Road"/>
    <tag k="addr:state" v="VT"/>
    <tag k="ref:vcgi:esiteid" v="286549"/>
  </node>
  <node id="-422" visible="true" lat="42.79316066132" lon="-72.882556278458">
    <tag k="addr:city" v="Whitingham"/>
    <tag k="addr:housenumber" v="408"/>
    <tag k="addr:street" v="Maple Drive"/>
    <tag k="addr:state" v="VT"/>
    <tag k="ref:vcgi:esiteid" v="286559"/>
  </node>
  <node id="-423" visible="true" lat="42.793114990338" lon="-72.881057673211">
    <tag k="addr:city" v="Whitingham"/>
    <tag k="addr:housenumber" v="99"/>
    <tag k="addr:street" v="Faulkner Road"/>
    <tag k="addr:state" v="VT"/>
    <tag k="ref:vcgi:esiteid" v="286560"/>
  </node>
  <node id="-424" visible="true" lat="42.792971675644" lon="-72.883772769917">
    <tag k="addr:city" v="Whitingham"/>
    <tag k="addr:housenumber" v="439"/>
    <tag k="addr:street" v="Maple Drive"/>
    <tag k="addr:state" v="VT"/>
    <tag k="ref:vcgi:esiteid" v="286561"/>
  </node>
  <node id="-426" visible="true" lat="42.792734806512" lon="-72.88349165817">
    <tag k="addr:city" v="Whitingham"/>
    <tag k="addr:housenumber" v="437"/>
    <tag k="addr:street" v="Maple Drive"/>
    <tag k="addr:state" v="VT"/>
    <tag k="ref:vcgi:esiteid" v="286563"/>
  </node>
  <node id="-431" visible="true" lat="42.792616948811" lon="-72.883087182247">
    <tag k="addr:city" v="Whitingham"/>
    <tag k="addr:housenumber" v="245"/>
    <tag k="addr:street" v="Brook Street"/>
    <tag k="addr:state" v="VT"/>
    <tag k="ref:vcgi:esiteid" v="286568"/>
  </node>
  <node id="-433" visible="true" lat="42.792516239697" lon="-72.884068294812">
    <tag k="addr:city" v="Whitingham"/>
    <tag k="addr:housenumber" v="37"/>
    <tag k="addr:street" v="Heartwood Lane"/>
    <tag k="addr:state" v="VT"/>
    <tag k="ref:vcgi:esiteid" v="286570"/>
  </node>
  <node id="-434" visible="true" lat="42.792558847495" lon="-72.829031679878">
    <tag k="addr:city" v="Whitingham"/>
    <tag k="addr:housenumber" v="3582"/>
    <tag k="addr:street" v="Vermont Route 100"/>
    <tag k="addr:state" v="VT"/>
    <tag k="ref:vcgi:esiteid" v="286571"/>
  </node>
  <node id="-435" visible="true" lat="42.792240005236" lon="-72.882765045152">
    <tag k="addr:city" v="Whitingham"/>
    <tag k="addr:housenumber" v="217"/>
    <tag k="addr:street" v="School Street"/>
    <tag k="addr:state" v="VT"/>
    <tag k="ref:vcgi:esiteid" v="286572"/>
  </node>
  <node id="-438" visible="true" lat="42.792228665006" lon="-72.883670322342">
    <tag k="addr:city" v="Whitingham"/>
    <tag k="addr:housenumber" v="243"/>
    <tag k="addr:street" v="Brook Street"/>
    <tag k="addr:state" v="VT"/>
    <tag k="ref:vcgi:esiteid" v="286575"/>
  </node>
  <node id="-440" visible="true" lat="42.792131118311" lon="-72.828448511228">
    <tag k="addr:city" v="Whitingham"/>
    <tag k="addr:housenumber" v="3599"/>
    <tag k="addr:street" v="Vermont Route 100"/>
    <tag k="addr:state" v="VT"/>
    <tag k="ref:vcgi:esiteid" v="286577"/>
  </node>
  <node id="-444" visible="true" lat="42.791917564665" lon="-72.882058433648">
    <tag k="addr:city" v="Whitingham"/>
    <tag k="addr:housenumber" v="333"/>
    <tag k="addr:street" v="Maple Drive"/>
    <tag k="addr:state" v="VT"/>
    <tag k="ref:vcgi:esiteid" v="286581"/>
  </node>
  <node id="-445" visible="true" lat="42.791833417567" lon="-72.883189391648">
    <tag k="addr:city" v="Whitingham"/>
    <tag k="addr:housenumber" v="189"/>
    <tag k="addr:street" v="School Street"/>
    <tag k="addr:state" v="VT"/>
    <tag k="ref:vcgi:esiteid" v="286582"/>
  </node>
  <node id="-446" visible="true" lat="42.791834636953" lon="-72.881746975052">
    <tag k="addr:city" v="Whitingham"/>
    <tag k="addr:housenumber" v="315"/>
    <tag k="addr:street" v="Maple Drive"/>
    <tag k="addr:state" v="VT"/>
    <tag k="ref:vcgi:esiteid" v="286583"/>
  </node>
  <node id="-447" visible="true" lat="42.791729908336" lon="-72.880479635978">
    <tag k="addr:city" v="Whitingham"/>
    <tag k="addr:housenumber" v="248"/>
    <tag k="addr:street" v="Maple Drive"/>
    <tag k="addr:state" v="VT"/>
    <tag k="ref:vcgi:esiteid" v="286584"/>
  </node>
  <node id="-450" visible="true" lat="42.791647208035" lon="-72.881319043328">
    <tag k="addr:city" v="Whitingham"/>
    <tag k="addr:housenumber" v="295"/>
    <tag k="addr:street" v="Maple Drive"/>
    <tag k="addr:state" v="VT"/>
    <tag k="ref:vcgi:esiteid" v="286587"/>
  </node>
  <node id="-451" visible="true" lat="42.791788780169" lon="-72.828685322252">
    <tag k="addr:city" v="Whitingham"/>
    <tag k="addr:housenumber" v="31"/>
    <tag k="addr:street" v="Allard Road"/>
    <tag k="addr:state" v="VT"/>
    <tag k="ref:vcgi:esiteid" v="286588"/>
  </node>
  <node id="-453" visible="true" lat="42.791478428298" lon="-72.882991990349">
    <tag k="addr:city" v="Whitingham"/>
    <tag k="addr:housenumber" v="168"/>
    <tag k="addr:street" v="School Street"/>
    <tag k="addr:state" v="VT"/>
    <tag k="ref:vcgi:esiteid" v="286590"/>
  </node>
  <node id="-454" visible="true" lat="42.791335208668" lon="-72.884355129363">
    <tag k="addr:city" v="Whitingham"/>
    <tag k="addr:housenumber" v="145"/>
    <tag k="addr:street" v="Brook Street"/>
    <tag k="addr:state" v="VT"/>
    <tag k="ref:vcgi:esiteid" v="286591"/>
  </node>
  <node id="-455" visible="true" lat="42.791590679614" lon="-72.8292076383">
    <tag k="addr:city" v="Whitingham"/>
    <tag k="addr:housenumber" v="14"/>
    <tag k="addr:street" v="Allard Road"/>
    <tag k="addr:state" v="VT"/>
    <tag k="ref:vcgi:esiteid" v="286592"/>
  </node>
  <node id="-456" visible="true" lat="42.791252371208" lon="-72.883163207058">
    <tag k="addr:city" v="Whitingham"/>
    <tag k="addr:housenumber" v="152"/>
    <tag k="addr:street" v="School Street"/>
    <tag k="addr:state" v="VT"/>
    <tag k="ref:vcgi:esiteid" v="286593"/>
  </node>
  <node id="-458" visible="true" lat="42.791323438153" lon="-72.829562461287">
    <tag k="addr:city" v="Whitingham"/>
    <tag k="addr:housenumber" v="3669"/>
    <tag k="addr:street" v="Vermont Route 100"/>
    <tag k="addr:state" v="VT"/>
    <tag k="ref:vcgi:esiteid" v="286595"/>
  </node>
  <node id="-459" visible="true" lat="42.791066421095" lon="-72.880409724923">
    <tag k="addr:city" v="Whitingham"/>
    <tag k="addr:housenumber" v="247"/>
    <tag k="addr:street" v="Maple Drive"/>
    <tag k="addr:state" v="VT"/>
    <tag k="ref:vcgi:esiteid" v="286596"/>
  </node>
  <node id="-463" visible="true" lat="42.791238894617" lon="-72.849693624218">
    <tag k="addr:city" v="Whitingham"/>
    <tag k="addr:housenumber" v="123"/>
    <tag k="addr:street" v="Fowler Road"/>
    <tag k="addr:state" v="VT"/>
    <tag k="ref:vcgi:esiteid" v="286600"/>
  </node>
  <node id="-466" visible="true" lat="42.79080471665" lon="-72.883947878165">
    <tag k="addr:city" v="Whitingham"/>
    <tag k="addr:housenumber" v="105"/>
    <tag k="addr:street" v="School Street"/>
    <tag k="addr:state" v="VT"/>
    <tag k="ref:vcgi:esiteid" v="286603"/>
  </node>
  <node id="-468" visible="true" lat="42.790534369898" lon="-72.883230954734">
    <tag k="addr:city" v="Whitingham"/>
    <tag k="addr:housenumber" v="98"/>
    <tag k="addr:street" v="School Street"/>
    <tag k="addr:state" v="VT"/>
    <tag k="ref:vcgi:esiteid" v="286605"/>
  </node>
  <node id="-469" visible="true" lat="42.790554091656" lon="-72.878289940317">
    <tag k="addr:city" v="Whitingham"/>
    <tag k="addr:housenumber" v="116"/>
    <tag k="addr:street" v="Maple Drive"/>
    <tag k="addr:state" v="VT"/>
    <tag k="ref:vcgi:esiteid" v="286606"/>
  </node>
  <node id="-470" visible="true" lat="42.790530236989" lon="-72.884242939084">
    <tag k="addr:city" v="Whitingham"/>
    <tag k="addr:housenumber" v="86"/>
    <tag k="addr:street" v="Brook Street"/>
    <tag k="addr:state" v="VT"/>
    <tag k="ref:vcgi:esiteid" v="286607"/>
  </node>
  <node id="-471" visible="true" lat="42.790680453297" lon="-72.831942303224">
    <tag k="addr:city" v="Whitingham"/>
    <tag k="addr:housenumber" v="3806"/>
    <tag k="addr:street" v="Vermont Route 100"/>
    <tag k="addr:state" v="VT"/>
    <tag k="ref:vcgi:esiteid" v="286608"/>
  </node>
  <node id="-472" visible="true" lat="42.790404544919" lon="-72.884070086333">
    <tag k="addr:city" v="Whitingham"/>
    <tag k="addr:housenumber" v="83"/>
    <tag k="addr:street" v="School Street"/>
    <tag k="addr:state" v="VT"/>
    <tag k="ref:vcgi:esiteid" v="286609"/>
  </node>
  <node id="-474" visible="true" lat="42.790332132135" lon="-72.8841156168">
    <tag k="addr:city" v="Whitingham"/>
    <tag k="addr:housenumber" v="73"/>
    <tag k="addr:street" v="School Street"/>
    <tag k="addr:state" v="VT"/>
    <tag k="ref:vcgi:esiteid" v="286611"/>
  </node>
  <node id="-475" visible="true" lat="42.790369970601" lon="-72.885424461931">
    <tag k="addr:city" v="Whitingham"/>
    <tag k="addr:housenumber" v="31"/>
    <tag k="addr:street" v="Brook Street"/>
    <tag k="addr:state" v="VT"/>
    <tag k="ref:vcgi:esiteid" v="286612"/>
  </node>
  <node id="-477" visible="true" lat="42.79024604853" lon="-72.883803327453">
    <tag k="addr:city" v="Whitingham"/>
    <tag k="addr:housenumber" v="96"/>
    <tag k="addr:street" v="School Street"/>
    <tag k="addr:state" v="VT"/>
    <tag k="ref:vcgi:esiteid" v="286614"/>
  </node>
  <node id="-479" visible="true" lat="42.790387050868" lon="-72.82738224302">
    <tag k="addr:city" v="Whitingham"/>
    <tag k="addr:housenumber" v="133"/>
    <tag k="addr:street" v="Allard Road"/>
    <tag k="addr:state" v="VT"/>
    <tag k="ref:vcgi:esiteid" v="286616"/>
  </node>
  <node id="-480" visible="true" lat="42.790077858858" lon="-72.838172052348">
    <tag k="addr:city" v="Whitingham"/>
    <tag k="addr:housenumber" v="4196"/>
    <tag k="addr:street" v="Vermont Route 100"/>
    <tag k="addr:state" v="VT"/>
    <tag k="ref:vcgi:esiteid" v="286617"/>
  </node>
  <node id="-481" visible="true" lat="42.789855230353" lon="-72.885477811223">
    <tag k="addr:city" v="Whitingham"/>
    <tag k="addr:housenumber" v="19"/>
    <tag k="addr:street" v="Brook Street"/>
    <tag k="addr:state" v="VT"/>
    <tag k="ref:vcgi:esiteid" v="286618"/>
  </node>
  <node id="-482" visible="true" lat="42.789783686956" lon="-72.885059827105">
    <tag k="addr:city" v="Whitingham"/>
    <tag k="addr:housenumber" v="32"/>
    <tag k="addr:street" v="Brook Street"/>
    <tag k="addr:state" v="VT"/>
    <tag k="ref:vcgi:esiteid" v="286619"/>
  </node>
  <node id="-483" visible="true" lat="42.789802375969" lon="-72.884429188994">
    <tag k="addr:city" v="Whitingham"/>
    <tag k="addr:housenumber" v="35"/>
    <tag k="addr:street" v="School Street"/>
    <tag k="addr:state" v="VT"/>
    <tag k="ref:vcgi:esiteid" v="286620"/>
  </node>
  <node id="-484" visible="true" lat="42.789557522997" lon="-72.885252776158">
    <tag k="addr:city" v="Whitingham"/>
    <tag k="addr:housenumber" v="6746"/>
    <tag k="addr:street" v="Vermont Route 100"/>
    <tag k="addr:state" v="VT"/>
    <tag k="ref:vcgi:esiteid" v="286621"/>
  </node>
  <node id="-485" visible="true" lat="42.789703282653" lon="-72.877996854699">
    <tag k="addr:city" v="Whitingham"/>
    <tag k="addr:housenumber" v="56"/>
    <tag k="addr:street" v="Maple Drive"/>
    <tag k="addr:state" v="VT"/>
    <tag k="ref:vcgi:esiteid" v="286622"/>
  </node>
  <node id="-486" visible="true" lat="42.789782628314" lon="-72.840345069058">
    <tag k="addr:city" v="Whitingham"/>
    <tag k="addr:housenumber" v="4292"/>
    <tag k="addr:street" v="Vermont Route 100"/>
    <tag k="addr:state" v="VT"/>
    <tag k="ref:vcgi:esiteid" v="286623"/>
  </node>
  <node id="-487" visible="true" lat="42.789588867448" lon="-72.889941000373">
    <tag k="addr:city" v="Whitingham"/>
    <tag k="addr:housenumber" v="50"/>
    <tag k="addr:street" v="Russell Lane"/>
    <tag k="addr:state" v="VT"/>
    <tag k="ref:vcgi:esiteid" v="286624"/>
  </node>
  <node id="-488" visible="true" lat="42.789499713967" lon="-72.884717519671">
    <tag k="addr:city" v="Whitingham"/>
    <tag k="addr:housenumber" v="9"/>
    <tag k="addr:street" v="School Street"/>
    <tag k="addr:state" v="VT"/>
    <tag k="ref:vcgi:esiteid" v="286625"/>
  </node>
  <node id="-489" visible="true" lat="42.789402107646" lon="-72.880051355686">
    <tag k="addr:city" v="Whitingham"/>
    <tag k="addr:housenumber" v="6442"/>
    <tag k="addr:street" v="Vermont Route 100"/>
    <tag k="addr:state" v="VT"/>
    <tag k="ref:vcgi:esiteid" v="286626"/>
  </node>
  <node id="-490" visible="true" lat="42.789411208665" lon="-72.8842829078">
    <tag k="addr:city" v="Whitingham"/>
    <tag k="addr:housenumber" v="6692"/>
    <tag k="addr:street" v="Vermont Route 100"/>
    <tag k="addr:state" v="VT"/>
    <tag k="ref:vcgi:esiteid" v="286627"/>
  </node>
  <node id="-492" visible="true" lat="42.789331699951" lon="-72.890528284101">
    <tag k="addr:city" v="Whitingham"/>
    <tag k="addr:housenumber" v="7047"/>
    <tag k="addr:street" v="Vermont Route 100"/>
    <tag k="addr:state" v="VT"/>
    <tag k="ref:vcgi:esiteid" v="286629"/>
  </node>
  <node id="-493" visible="true" lat="42.78929789578" lon="-72.881093847212">
    <tag k="addr:city" v="Whitingham"/>
    <tag k="addr:housenumber" v="6492"/>
    <tag k="addr:street" v="Vermont Route 100"/>
    <tag k="addr:state" v="VT"/>
    <tag k="ref:vcgi:esiteid" v="286630"/>
  </node>
  <node id="-495" visible="true" lat="42.789301623365" lon="-72.888800076266">
    <tag k="addr:city" v="Whitingham"/>
    <tag k="addr:housenumber" v="27"/>
    <tag k="addr:street" v="Russell Lane"/>
    <tag k="addr:state" v="VT"/>
    <tag k="ref:vcgi:esiteid" v="286632"/>
  </node>
  <node id="-497" visible="true" lat="42.789191307519" lon="-72.884581055943">
    <tag k="addr:city" v="Whitingham"/>
    <tag k="addr:housenumber" v="6699"/>
    <tag k="addr:street" v="Vermont Route 100"/>
    <tag k="addr:state" v="VT"/>
    <tag k="ref:vcgi:esiteid" v="286634"/>
  </node>
  <node id="-499" visible="true" lat="42.788997532351" lon="-72.890804976232">
    <tag k="addr:city" v="Whitingham"/>
    <tag k="addr:housenumber" v="7073"/>
    <tag k="addr:street" v="Vermont Route 100"/>
    <tag k="addr:state" v="VT"/>
    <tag k="ref:vcgi:esiteid" v="286636"/>
  </node>
  <node id="-500" visible="true" lat="42.78896707862" lon="-72.884371999848">
    <tag k="addr:city" v="Whitingham"/>
    <tag k="addr:housenumber" v="6677"/>
    <tag k="addr:street" v="Vermont Route 100"/>
    <tag k="addr:state" v="VT"/>
    <tag k="ref:vcgi:esiteid" v="286637"/>
  </node>
  <node id="-501" visible="true" lat="42.788914899131" lon="-72.883052203842">
    <tag k="addr:city" v="Whitingham"/>
    <tag k="addr:housenumber" v="6590"/>
    <tag k="addr:street" v="Vermont Route 100"/>
    <tag k="addr:state" v="VT"/>
    <tag k="ref:vcgi:esiteid" v="286638"/>
  </node>
  <node id="-504" visible="true" lat="42.788689494973" lon="-72.878768786712">
    <tag k="addr:city" v="Whitingham"/>
    <tag k="addr:housenumber" v="6373"/>
    <tag k="addr:street" v="Vermont Route 100"/>
    <tag k="addr:state" v="VT"/>
    <tag k="ref:vcgi:esiteid" v="286642"/>
  </node>
  <node id="-505" visible="true" lat="42.788924574131" lon="-72.832981332509">
    <tag k="addr:city" v="Whitingham"/>
    <tag k="addr:housenumber" v="3855"/>
    <tag k="addr:street" v="Vermont Route 100"/>
    <tag k="addr:state" v="VT"/>
    <tag k="ref:vcgi:esiteid" v="286643"/>
  </node>
  <node id="-506" visible="true" lat="42.788661741664" lon="-72.884009234851">
    <tag k="addr:city" v="Whitingham"/>
    <tag k="addr:housenumber" v="6653"/>
    <tag k="addr:street" v="Vermont Route 100"/>
    <tag k="addr:state" v="VT"/>
    <tag k="ref:vcgi:esiteid" v="286644"/>
  </node>
  <node id="-507" visible="true" lat="42.788590311521" lon="-72.891094926334">
    <tag k="addr:city" v="Whitingham"/>
    <tag k="addr:housenumber" v="7105"/>
    <tag k="addr:street" v="Vermont Route 100"/>
    <tag k="addr:state" v="VT"/>
    <tag k="ref:vcgi:esiteid" v="286645"/>
  </node>
  <node id="-508" visible="true" lat="42.788717766988" lon="-72.838441521181">
    <tag k="addr:city" v="Whitingham"/>
    <tag k="addr:housenumber" v="4189"/>
    <tag k="addr:street" v="Vermont Route 100"/>
    <tag k="addr:state" v="VT"/>
    <tag k="ref:vcgi:esiteid" v="286646"/>
  </node>
  <node id="-511" visible="true" lat="42.788450024083" lon="-72.884312495952">
    <tag k="addr:city" v="Whitingham"/>
    <tag k="addr:housenumber" v="23"/>
    <tag k="addr:street" v="Stimpson Hill Road"/>
    <tag k="addr:state" v="VT"/>
    <tag k="ref:vcgi:esiteid" v="286649"/>
  </node>
  <node id="-512" visible="true" lat="42.788429342537" lon="-72.882435604303">
    <tag k="addr:city" v="Whitingham"/>
    <tag k="addr:housenumber" v="6573"/>
    <tag k="addr:street" v="Vermont Route 100"/>
    <tag k="addr:state" v="VT"/>
    <tag k="ref:vcgi:esiteid" v="286650"/>
  </node>
  <node id="-513" visible="true" lat="42.788195406728" lon="-72.884903845104">
    <tag k="addr:city" v="Whitingham"/>
    <tag k="addr:housenumber" v="51"/>
    <tag k="addr:street" v="Stimpson Hill Road"/>
    <tag k="addr:state" v="VT"/>
    <tag k="ref:vcgi:esiteid" v="286651"/>
  </node>
  <node id="-516" visible="true" lat="42.788206633834" lon="-72.891422617986">
    <tag k="addr:city" v="Whitingham"/>
    <tag k="addr:housenumber" v="7139"/>
    <tag k="addr:street" v="Vermont Route 100"/>
    <tag k="addr:state" v="VT"/>
    <tag k="ref:vcgi:esiteid" v="286654"/>
  </node>
  <node id="-517" visible="true" lat="42.788259565464" lon="-72.84374031229">
    <tag k="addr:city" v="Whitingham"/>
    <tag k="addr:housenumber" v="4466"/>
    <tag k="addr:street" v="Vermont Route 100"/>
    <tag k="addr:state" v="VT"/>
    <tag k="ref:vcgi:esiteid" v="286655"/>
  </node>
  <node id="-518" visible="true" lat="42.788223981276" lon="-72.845641424474">
    <tag k="addr:city" v="Whitingham"/>
    <tag k="addr:housenumber" v="4578"/>
    <tag k="addr:street" v="Vermont Route 100"/>
    <tag k="addr:state" v="VT"/>
    <tag k="ref:vcgi:esiteid" v="286656"/>
  </node>
  <node id="-519" visible="true" lat="42.788090152206" lon="-72.885362576917">
    <tag k="addr:city" v="Whitingham"/>
    <tag k="addr:housenumber" v="77"/>
    <tag k="addr:street" v="Stimpson Hill Road"/>
    <tag k="addr:state" v="VT"/>
    <tag k="ref:vcgi:esiteid" v="286657"/>
  </node>
  <node id="-520" visible="true" lat="42.788036678782" lon="-72.883942382386">
    <tag k="addr:city" v="Whitingham"/>
    <tag k="addr:housenumber" v="13"/>
    <tag k="addr:street" v="Stimpson Hill Road"/>
    <tag k="addr:state" v="VT"/>
    <tag k="ref:vcgi:esiteid" v="286658"/>
  </node>
  <node id="-522" visible="true" lat="42.787851257177" lon="-72.891718410506">
    <tag k="addr:city" v="Whitingham"/>
    <tag k="addr:housenumber" v="7171"/>
    <tag k="addr:street" v="Vermont Route 100"/>
    <tag k="addr:state" v="VT"/>
    <tag k="ref:vcgi:esiteid" v="286660"/>
  </node>
  <node id="-523" visible="true" lat="42.787845469595" lon="-72.887047483062">
    <tag k="addr:city" v="Whitingham"/>
    <tag k="addr:housenumber" v="166"/>
    <tag k="addr:street" v="Stimpson Hill Road"/>
    <tag k="addr:state" v="VT"/>
    <tag k="ref:vcgi:esiteid" v="286661"/>
  </node>
  <node id="-525" visible="true" lat="42.787631826468" lon="-72.850783210245">
    <tag k="addr:city" v="Whitingham"/>
    <tag k="addr:housenumber" v="4840"/>
    <tag k="addr:street" v="Vermont Route 100"/>
    <tag k="addr:state" v="VT"/>
    <tag k="ref:vcgi:esiteid" v="286663"/>
  </node>
  <node id="-526" visible="true" lat="42.787384949322" lon="-72.897958799242">
    <tag k="addr:city" v="Whitingham"/>
    <tag k="addr:housenumber" v="527"/>
    <tag k="addr:street" v="Pike Road"/>
    <tag k="addr:state" v="VT"/>
    <tag k="ref:vcgi:esiteid" v="286664"/>
  </node>
  <node id="-527" visible="true" lat="42.787516012255" lon="-72.891891856976">
    <tag k="addr:city" v="Whitingham"/>
    <tag k="addr:housenumber" v="7191"/>
    <tag k="addr:street" v="Vermont Route 100"/>
    <tag k="addr:state" v="VT"/>
    <tag k="ref:vcgi:esiteid" v="286665"/>
  </node>
  <node id="-528" visible="true" lat="42.787436453085" lon="-72.897119685417">
    <tag k="addr:city" v="Whitingham"/>
    <tag k="addr:housenumber" v="526"/>
    <tag k="addr:street" v="Pike Road"/>
    <tag k="addr:state" v="VT"/>
    <tag k="ref:vcgi:esiteid" v="286666"/>
  </node>
  <node id="-529" visible="true" lat="42.787292540153" lon="-72.887195176896">
    <tag k="addr:city" v="Whitingham"/>
    <tag k="addr:housenumber" v="198"/>
    <tag k="addr:street" v="Stimpson Hill Road"/>
    <tag k="addr:state" v="VT"/>
    <tag k="ref:vcgi:esiteid" v="286667"/>
  </node>
  <node id="-531" visible="true" lat="42.787137005515" lon="-72.880844628094">
    <tag k="addr:city" v="Whitingham"/>
    <tag k="addr:housenumber" v="143"/>
    <tag k="addr:street" v="Tyanoga Road"/>
    <tag k="addr:state" v="VT"/>
    <tag k="ref:vcgi:esiteid" v="286669"/>
  </node>
  <node id="-533" visible="true" lat="42.786973988172" lon="-72.886705199109">
    <tag k="addr:city" v="Whitingham"/>
    <tag k="addr:housenumber" v="195"/>
    <tag k="addr:street" v="Stimpson Hill Road"/>
    <tag k="addr:state" v="VT"/>
    <tag k="ref:vcgi:esiteid" v="286671"/>
  </node>
  <node id="-535" visible="true" lat="42.786952073251" lon="-72.891447981916">
    <tag k="addr:city" v="Whitingham"/>
    <tag k="addr:housenumber" v="59"/>
    <tag k="addr:street" v="Van Lane"/>
    <tag k="addr:state" v="VT"/>
    <tag k="ref:vcgi:esiteid" v="286673"/>
  </node>
  <node id="-536" visible="true" lat="42.78689631651" lon="-72.891997546556">
    <tag k="addr:city" v="Whitingham"/>
    <tag k="addr:housenumber" v="47"/>
    <tag k="addr:street" v="Van Lane"/>
    <tag k="addr:state" v="VT"/>
    <tag k="ref:vcgi:esiteid" v="286674"/>
  </node>
  <node id="-538" visible="true" lat="42.786801126695" lon="-72.833178665377">
    <tag k="addr:city" v="Whitingham"/>
    <tag k="addr:housenumber" v="513"/>
    <tag k="addr:street" v="Allard Road"/>
    <tag k="addr:state" v="VT"/>
    <tag k="ref:vcgi:esiteid" v="286676"/>
  </node>
  <node id="-539" visible="true" lat="42.787178310696" lon="-72.88859696741">
    <tag k="addr:city" v="Whitingham"/>
    <tag k="addr:housenumber" v="254"/>
    <tag k="addr:street" v="Stimpson Hill Road"/>
    <tag k="addr:state" v="VT"/>
    <tag k="ref:vcgi:esiteid" v="286677"/>
  </node>
  <node id="-540" visible="true" lat="42.786751488245" lon="-72.84220830561">
    <tag k="addr:city" v="Whitingham"/>
    <tag k="addr:housenumber" v="128"/>
    <tag k="addr:street" v="Ginny Morse Road"/>
    <tag k="addr:state" v="VT"/>
    <tag k="ref:vcgi:esiteid" v="286678"/>
  </node>
  <node id="-542" visible="true" lat="42.786535900476" lon="-72.892074179903">
    <tag k="addr:city" v="Whitingham"/>
    <tag k="addr:housenumber" v="56"/>
    <tag k="addr:street" v="Van Lane"/>
    <tag k="addr:state" v="VT"/>
    <tag k="ref:vcgi:esiteid" v="286680"/>
  </node>
  <node id="-543" visible="true" lat="42.786535171789" lon="-72.886937130694">
    <tag k="addr:city" v="Whitingham"/>
    <tag k="addr:housenumber" v="257"/>
    <tag k="addr:street" v="Stimpson Hill Road"/>
    <tag k="addr:state" v="VT"/>
    <tag k="ref:vcgi:esiteid" v="286681"/>
  </node>
  <node id="-544" visible="true" lat="42.786370337304" lon="-72.880649890618">
    <tag k="addr:city" v="Whitingham"/>
    <tag k="addr:housenumber" v="193"/>
    <tag k="addr:street" v="Tyanoga Road"/>
    <tag k="addr:state" v="VT"/>
    <tag k="ref:vcgi:esiteid" v="286682"/>
  </node>
  <node id="-546" visible="true" lat="42.786506951694" lon="-72.891821077151">
    <tag k="addr:city" v="Whitingham"/>
    <tag k="addr:housenumber" v="58"/>
    <tag k="addr:street" v="Van Lane"/>
    <tag k="addr:state" v="VT"/>
    <tag k="ref:vcgi:esiteid" v="286684"/>
  </node>
  <node id="-551" visible="true" lat="42.786164175243" lon="-72.842287570833">
    <tag k="addr:city" v="Whitingham"/>
    <tag k="addr:housenumber" v="166"/>
    <tag k="addr:street" v="Ginny Morse Road"/>
    <tag k="addr:state" v="VT"/>
    <tag k="ref:vcgi:esiteid" v="286689"/>
  </node>
  <node id="-552" visible="true" lat="42.785960764162" lon="-72.835750933855">
    <tag k="addr:city" v="Whitingham"/>
    <tag k="addr:housenumber" v="656"/>
    <tag k="addr:street" v="Allard Road"/>
    <tag k="addr:state" v="VT"/>
    <tag k="ref:vcgi:esiteid" v="286690"/>
  </node>
  <node id="-554" visible="true" lat="42.785642385053" lon="-72.892657905258">
    <tag k="addr:city" v="Whitingham"/>
    <tag k="addr:housenumber" v="7333"/>
    <tag k="addr:street" v="Vermont Route 100"/>
    <tag k="addr:state" v="VT"/>
    <tag k="ref:vcgi:esiteid" v="286692"/>
  </node>
  <node id="-559" visible="true" lat="42.785316031212" lon="-72.842365723582">
    <tag k="addr:city" v="Whitingham"/>
    <tag k="addr:housenumber" v="190"/>
    <tag k="addr:street" v="Ginny Morse Road"/>
    <tag k="addr:state" v="VT"/>
    <tag k="ref:vcgi:esiteid" v="286697"/>
  </node>
  <node id="-560" visible="true" lat="42.785136664051" lon="-72.855161498553">
    <tag k="addr:city" v="Whitingham"/>
    <tag k="addr:housenumber" v="243"/>
    <tag k="addr:street" v="Goodnow Road"/>
    <tag k="addr:state" v="VT"/>
    <tag k="ref:vcgi:esiteid" v="286698"/>
  </node>
  <node id="-561" visible="true" lat="42.785245445797" lon="-72.836242892371">
    <tag k="addr:city" v="Whitingham"/>
    <tag k="addr:housenumber" v="701"/>
    <tag k="addr:street" v="Allard Road"/>
    <tag k="addr:state" v="VT"/>
    <tag k="ref:vcgi:esiteid" v="286699"/>
  </node>
  <node id="-562" visible="true" lat="42.785211341968" lon="-72.837459747202">
    <tag k="addr:city" v="Whitingham"/>
    <tag k="addr:housenumber" v="754"/>
    <tag k="addr:street" v="Allard Road"/>
    <tag k="addr:state" v="VT"/>
    <tag k="ref:vcgi:esiteid" v="286700"/>
  </node>
  <node id="-564" visible="true" lat="42.784689410567" lon="-72.858662306208">
    <tag k="addr:city" v="Whitingham"/>
    <tag k="addr:housenumber" v="420"/>
    <tag k="addr:street" v="Goodnow Road"/>
    <tag k="addr:state" v="VT"/>
    <tag k="ref:vcgi:esiteid" v="286702"/>
  </node>
  <node id="-566" visible="true" lat="42.784598027575" lon="-72.838277622665">
    <tag k="addr:city" v="Whitingham"/>
    <tag k="addr:housenumber" v="814"/>
    <tag k="addr:street" v="Allard Road"/>
    <tag k="addr:state" v="VT"/>
    <tag k="ref:vcgi:esiteid" v="286704"/>
  </node>
  <node id="-567" visible="true" lat="42.784534608836" lon="-72.856441679524">
    <tag k="addr:city" v="Whitingham"/>
    <tag k="addr:housenumber" v="335"/>
    <tag k="addr:street" v="Goodnow Road"/>
    <tag k="addr:state" v="VT"/>
    <tag k="ref:vcgi:esiteid" v="286705"/>
  </node>
  <node id="-572" visible="true" lat="42.784080548251" lon="-72.898652664936">
    <tag k="addr:city" v="Whitingham"/>
    <tag k="addr:housenumber" v="300"/>
    <tag k="addr:street" v="Pike Road"/>
    <tag k="addr:state" v="VT"/>
    <tag k="ref:vcgi:esiteid" v="286710"/>
  </node>
  <node id="-575" visible="true" lat="42.784202819832" lon="-72.85981447175">
    <tag k="addr:city" v="Whitingham"/>
    <tag k="addr:housenumber" v="492"/>
    <tag k="addr:street" v="Goodnow Road"/>
    <tag k="addr:state" v="VT"/>
    <tag k="ref:vcgi:esiteid" v="286713"/>
  </node>
  <node id="-576" visible="true" lat="42.7842911873" lon="-72.838723971409">
    <tag k="addr:city" v="Whitingham"/>
    <tag k="addr:housenumber" v="844"/>
    <tag k="addr:street" v="Allard Road"/>
    <tag k="addr:state" v="VT"/>
    <tag k="ref:vcgi:esiteid" v="286714"/>
  </node>
  <node id="-578" visible="true" lat="42.784025696741" lon="-72.893247499612">
    <tag k="addr:city" v="Whitingham"/>
    <tag k="addr:housenumber" v="7451"/>
    <tag k="addr:street" v="Vermont Route 100"/>
    <tag k="addr:state" v="VT"/>
    <tag k="ref:vcgi:esiteid" v="286716"/>
  </node>
  <node id="-579" visible="true" lat="42.78402186819" lon="-72.839402997544">
    <tag k="addr:city" v="Whitingham"/>
    <tag k="addr:housenumber" v="888"/>
    <tag k="addr:street" v="Allard Road"/>
    <tag k="addr:state" v="VT"/>
    <tag k="ref:vcgi:esiteid" v="286717"/>
  </node>
  <node id="-580" visible="true" lat="42.783979687685" lon="-72.860544245794">
    <tag k="addr:city" v="Whitingham"/>
    <tag k="addr:housenumber" v="530"/>
    <tag k="addr:street" v="Goodnow Road"/>
    <tag k="addr:state" v="VT"/>
    <tag k="ref:vcgi:esiteid" v="286718"/>
  </node>
  <node id="-584" visible="true" lat="42.783527595733" lon="-72.893557298591">
    <tag k="addr:city" v="Whitingham"/>
    <tag k="addr:housenumber" v="7483"/>
    <tag k="addr:street" v="Vermont Route 100"/>
    <tag k="addr:state" v="VT"/>
    <tag k="ref:vcgi:esiteid" v="286722"/>
  </node>
  <node id="-586" visible="true" lat="42.783528917049" lon="-72.84005609312">
    <tag k="addr:city" v="Whitingham"/>
    <tag k="addr:housenumber" v="925"/>
    <tag k="addr:street" v="Allard Road"/>
    <tag k="addr:state" v="VT"/>
    <tag k="ref:vcgi:esiteid" v="286724"/>
  </node>
  <node id="-588" visible="true" lat="42.783502080881" lon="-72.838746321871">
    <tag k="addr:city" v="Whitingham"/>
    <tag k="addr:housenumber" v="859"/>
    <tag k="addr:street" v="Allard Road"/>
    <tag k="addr:state" v="VT"/>
    <tag k="ref:vcgi:esiteid" v="286726"/>
  </node>
  <node id="-593" visible="true" lat="42.782745340994" lon="-72.898923980043">
    <tag k="addr:city" v="Whitingham"/>
    <tag k="addr:housenumber" v="203"/>
    <tag k="addr:street" v="Pike Road"/>
    <tag k="addr:state" v="VT"/>
    <tag k="ref:vcgi:esiteid" v="286731"/>
  </node>
  <node id="-594" visible="true" lat="42.7826809564" lon="-72.893955259107">
    <tag k="addr:city" v="Whitingham"/>
    <tag k="addr:housenumber" v="7535"/>
    <tag k="addr:street" v="Vermont Route 100"/>
    <tag k="addr:state" v="VT"/>
    <tag k="ref:vcgi:esiteid" v="286732"/>
  </node>
  <node id="-602" visible="true" lat="42.781403497149" lon="-72.897780749587">
    <tag k="addr:city" v="Whitingham"/>
    <tag k="addr:housenumber" v="92"/>
    <tag k="addr:street" v="Pike Road"/>
    <tag k="addr:state" v="VT"/>
    <tag k="ref:vcgi:esiteid" v="286740"/>
  </node>
  <node id="-617" visible="true" lat="42.780428675259" lon="-72.897221054039">
    <tag k="addr:city" v="Whitingham"/>
    <tag k="addr:housenumber" v="7783"/>
    <tag k="addr:street" v="Vermont Route 100"/>
    <tag k="addr:state" v="VT"/>
    <tag k="ref:vcgi:esiteid" v="286755"/>
  </node>
  <node id="-619" visible="true" lat="42.780350817575" lon="-72.897914939379">
    <tag k="addr:city" v="Whitingham"/>
    <tag k="addr:housenumber" v="27"/>
    <tag k="addr:street" v="Pike Road"/>
    <tag k="addr:state" v="VT"/>
    <tag k="ref:vcgi:esiteid" v="286757"/>
  </node>
  <node id="-621" visible="true" lat="42.780240066542" lon="-72.897614148969">
    <tag k="addr:city" v="Whitingham"/>
    <tag k="addr:housenumber" v="7794"/>
    <tag k="addr:street" v="Vermont Route 100"/>
    <tag k="addr:state" v="VT"/>
    <tag k="ref:vcgi:esiteid" v="286759"/>
  </node>
  <node id="-630" visible="true" lat="42.779564863999" lon="-72.89771591074">
    <tag k="addr:city" v="Whitingham"/>
    <tag k="addr:housenumber" v="7838"/>
    <tag k="addr:street" v="Vermont Route 100"/>
    <tag k="addr:state" v="VT"/>
    <tag k="ref:vcgi:esiteid" v="286768"/>
  </node>
  <node id="-631" visible="true" lat="42.779378044448" lon="-72.897111205204">
    <tag k="addr:city" v="Whitingham"/>
    <tag k="addr:housenumber" v="7849"/>
    <tag k="addr:street" v="Vermont Route 100"/>
    <tag k="addr:state" v="VT"/>
    <tag k="ref:vcgi:esiteid" v="286769"/>
  </node>
  <node id="-686" visible="true" lat="42.772333871178" lon="-72.867649801036">
    <tag k="addr:city" v="Whitingham"/>
    <tag k="addr:housenumber" v="58"/>
    <tag k="addr:street" v="Streeter Hill Road"/>
    <tag k="addr:state" v="VT"/>
    <tag k="ref:vcgi:esiteid" v="286824"/>
  </node>
  <node id="-690" visible="true" lat="42.77132285806" lon="-72.864501798804">
    <tag k="addr:city" v="Whitingham"/>
    <tag k="addr:housenumber" v="299"/>
    <tag k="addr:street" v="Burrington Hill Road"/>
    <tag k="addr:state" v="VT"/>
    <tag k="ref:vcgi:esiteid" v="286828"/>
  </node>
  <node id="-699" visible="true" lat="42.77018244488" lon="-72.865818236615">
    <tag k="addr:city" v="Whitingham"/>
    <tag k="addr:housenumber" v="402"/>
    <tag k="addr:street" v="Burrington Hill Road"/>
    <tag k="addr:state" v="VT"/>
    <tag k="ref:vcgi:esiteid" v="286837"/>
  </node>
  <node id="-713" visible="true" lat="42.768042724766" lon="-72.870087654422">
    <tag k="addr:city" v="Whitingham"/>
    <tag k="addr:housenumber" v="352"/>
    <tag k="addr:street" v="Streeter Hill Road"/>
    <tag k="addr:state" v="VT"/>
    <tag k="ref:vcgi:esiteid" v="286851"/>
  </node>
  <node id="-723" visible="true" lat="42.766817309219" lon="-72.876682925073">
    <tag k="addr:city" v="Whitingham"/>
    <tag k="addr:housenumber" v="919"/>
    <tag k="addr:street" v="Kentfield Road"/>
    <tag k="addr:state" v="VT"/>
    <tag k="ref:vcgi:esiteid" v="286861"/>
  </node>
  <node id="-725" visible="true" lat="42.766314479375" lon="-72.880776311282">
    <tag k="addr:city" v="Whitingham"/>
    <tag k="addr:housenumber" v="126"/>
    <tag k="addr:street" v="Howe Lane"/>
    <tag k="addr:state" v="VT"/>
    <tag k="ref:vcgi:esiteid" v="286863"/>
  </node>
  <node id="-728" visible="true" lat="42.765961623887" lon="-72.87055655569">
    <tag k="addr:city" v="Whitingham"/>
    <tag k="addr:housenumber" v="502"/>
    <tag k="addr:street" v="Streeter Hill Road"/>
    <tag k="addr:state" v="VT"/>
    <tag k="ref:vcgi:esiteid" v="286866"/>
  </node>
  <node id="-729" visible="true" lat="42.765946015305" lon="-72.869416533022">
    <tag k="addr:city" v="Whitingham"/>
    <tag k="addr:housenumber" v="517"/>
    <tag k="addr:street" v="Streeter Hill Road"/>
    <tag k="addr:state" v="VT"/>
    <tag k="ref:vcgi:esiteid" v="286867"/>
  </node>
  <node id="-734" visible="true" lat="42.765702277707" lon="-72.877191353029">
    <tag k="addr:city" v="Whitingham"/>
    <tag k="addr:housenumber" v="1033"/>
    <tag k="addr:street" v="Kentfield Road"/>
    <tag k="addr:state" v="VT"/>
    <tag k="ref:vcgi:esiteid" v="286872"/>
  </node>
  <node id="-735" visible="true" lat="42.765637419966" lon="-72.877967016022">
    <tag k="addr:city" v="Whitingham"/>
    <tag k="addr:housenumber" v="1016"/>
    <tag k="addr:street" v="Kentfield Road"/>
    <tag k="addr:state" v="VT"/>
    <tag k="ref:vcgi:esiteid" v="286873"/>
  </node>
  <node id="-738" visible="true" lat="42.765567624003" lon="-72.881690806228">
    <tag k="addr:city" v="Whitingham"/>
    <tag k="addr:housenumber" v="172"/>
    <tag k="addr:street" v="Howe Lane"/>
    <tag k="addr:state" v="VT"/>
    <tag k="ref:vcgi:esiteid" v="286876"/>
  </node>
  <node id="-747" visible="true" lat="42.764530992112" lon="-72.881220537145">
    <tag k="addr:city" v="Whitingham"/>
    <tag k="addr:housenumber" v="238"/>
    <tag k="addr:street" v="Howe Lane"/>
    <tag k="addr:state" v="VT"/>
    <tag k="ref:vcgi:esiteid" v="286885"/>
  </node>
  <node id="-768" visible="true" lat="42.761399123027" lon="-72.872062713383">
    <tag k="addr:city" v="Whitingham"/>
    <tag k="addr:housenumber" v="856"/>
    <tag k="addr:street" v="Streeter Hill Road"/>
    <tag k="addr:state" v="VT"/>
    <tag k="ref:vcgi:esiteid" v="286906"/>
  </node>
  <node id="-773" visible="true" lat="42.760720174047" lon="-72.870068550589">
    <tag k="addr:city" v="Whitingham"/>
    <tag k="addr:housenumber" v="871"/>
    <tag k="addr:street" v="Streeter Hill Road"/>
    <tag k="addr:state" v="VT"/>
    <tag k="ref:vcgi:esiteid" v="286912"/>
  </node>
  <node id="-779" visible="true" lat="42.759830770787" lon="-72.871386452967">
    <tag k="addr:city" v="Whitingham"/>
    <tag k="addr:housenumber" v="960"/>
    <tag k="addr:street" v="Streeter Hill Road"/>
    <tag k="addr:state" v="VT"/>
    <tag k="ref:vcgi:esiteid" v="286918"/>
  </node>
  <node id="-782" visible="true" lat="42.759136011385" lon="-72.878682916547">
    <tag k="addr:city" v="Whitingham"/>
    <tag k="addr:housenumber" v="1463"/>
    <tag k="addr:street" v="Kentfield Road"/>
    <tag k="addr:state" v="VT"/>
    <tag k="ref:vcgi:esiteid" v="286921"/>
  </node>
  <node id="-790" visible="true" lat="42.758158687344" lon="-72.870121546933">
    <tag k="addr:city" v="Whitingham"/>
    <tag k="addr:housenumber" v="1065"/>
    <tag k="addr:street" v="Streeter Hill Road"/>
    <tag k="addr:state" v="VT"/>
    <tag k="ref:vcgi:esiteid" v="286929"/>
  </node>
  <node id="-792" visible="true" lat="42.758129860107" lon="-72.880857280028">
    <tag k="addr:city" v="Whitingham"/>
    <tag k="addr:housenumber" v="1578"/>
    <tag k="addr:street" v="Kentfield Road"/>
    <tag k="addr:state" v="VT"/>
    <tag k="ref:vcgi:esiteid" v="286931"/>
  </node>
  <node id="-805" visible="true" lat="42.755057457452" lon="-72.880173969595">
    <tag k="addr:city" v="Whitingham"/>
    <tag k="addr:housenumber" v="1761"/>
    <tag k="addr:street" v="Kentfield Road"/>
    <tag k="addr:state" v="VT"/>
    <tag k="ref:vcgi:esiteid" v="286944"/>
  </node>
  <node id="-878" visible="true" lat="42.805625640584" lon="-72.851427795219">
    <tag k="addr:city" v="Whitingham"/>
    <tag k="addr:housenumber" v="1287"/>
    <tag k="addr:street" v="Wilmington Cross Road"/>
    <tag k="addr:state" v="VT"/>
    <tag k="ref:vcgi:esiteid" v="287017"/>
  </node>
  <node id="-879" visible="true" lat="42.805854270806" lon="-72.854666710375">
    <tag k="addr:city" v="Whitingham"/>
    <tag k="addr:housenumber" v="1315"/>
    <tag k="addr:street" v="Wilmington Cross Road"/>
    <tag k="addr:state" v="VT"/>
    <tag k="ref:vcgi:esiteid" v="287018"/>
  </node>
  <node id="-891" visible="true" lat="42.78733779959" lon="-72.842196396904">
    <tag k="addr:city" v="Whitingham"/>
    <tag k="addr:housenumber" v="100"/>
    <tag k="addr:street" v="Ginny Morse Road"/>
    <tag k="addr:state" v="VT"/>
    <tag k="ref:vcgi:esiteid" v="287031"/>
  </node>
  <node id="-894" visible="true" lat="42.789867437574" lon="-72.839171086991">
    <tag k="addr:city" v="Whitingham"/>
    <tag k="addr:housenumber" v="4228"/>
    <tag k="addr:street" v="Vermont Route 100"/>
    <tag k="addr:state" v="VT"/>
    <tag k="ref:vcgi:esiteid" v="287034"/>
  </node>
  <node id="-895" visible="true" lat="42.785750336322" lon="-72.836360531966">
    <tag k="addr:city" v="Whitingham"/>
    <tag k="addr:housenumber" v="692"/>
    <tag k="addr:street" v="Allard Road"/>
    <tag k="addr:state" v="VT"/>
    <tag k="ref:vcgi:esiteid" v="287035"/>
  </node>
  <node id="-896" visible="true" lat="42.754341165557" lon="-72.881410978842">
    <tag k="addr:city" v="Whitingham"/>
    <tag k="addr:housenumber" v="1819"/>
    <tag k="addr:street" v="Kentfield Road"/>
    <tag k="addr:state" v="VT"/>
    <tag k="ref:vcgi:esiteid" v="287036"/>
  </node>
  <node id="-905" visible="true" lat="42.761100038216" lon="-72.879693013183">
    <tag k="addr:city" v="Whitingham"/>
    <tag k="addr:housenumber" v="1382"/>
    <tag k="addr:street" v="Kentfield Road"/>
    <tag k="addr:state" v="VT"/>
    <tag k="ref:vcgi:esiteid" v="287045"/>
  </node>
  <node id="-927" visible="true" lat="42.762365297035" lon="-72.869846124088">
    <tag k="addr:city" v="Whitingham"/>
    <tag k="addr:housenumber" v="737"/>
    <tag k="addr:street" v="Streeter Hill Road"/>
    <tag k="addr:state" v="VT"/>
    <tag k="ref:vcgi:esiteid" v="287069"/>
  </node>
  <node id="-931" visible="true" lat="42.812082410579" lon="-72.867021849031">
    <tag k="addr:city" v="Whitingham"/>
    <tag k="addr:housenumber" v="977"/>
    <tag k="addr:street" v="Fuller Hill Road"/>
    <tag k="addr:state" v="VT"/>
    <tag k="ref:vcgi:esiteid" v="287073"/>
  </node>
  <node id="-936" visible="true" lat="42.76893401648" lon="-72.864620719179">
    <tag k="addr:city" v="Whitingham"/>
    <tag k="addr:housenumber" v="482"/>
    <tag k="addr:street" v="Burrington Hill Road"/>
    <tag k="addr:state" v="VT"/>
    <tag k="ref:vcgi:esiteid" v="287079"/>
  </node>
  <node id="-937" visible="true" lat="42.76383205981" lon="-72.876784305327">
    <tag k="addr:city" v="Whitingham"/>
    <tag k="addr:housenumber" v="1133"/>
    <tag k="addr:street" v="Kentfield Road"/>
    <tag k="addr:state" v="VT"/>
    <tag k="ref:vcgi:esiteid" v="287080"/>
  </node>
  <node id="-949" visible="true" lat="42.79269275957" lon="-72.88109031372">
    <tag k="addr:city" v="Whitingham"/>
    <tag k="addr:housenumber" v="63"/>
    <tag k="addr:street" v="Faulkner Road"/>
    <tag k="addr:state" v="VT"/>
    <tag k="ref:vcgi:esiteid" v="287094"/>
  </node>
  <node id="-954" visible="true" lat="42.798887885251" lon="-72.850391261852">
    <tag k="addr:city" v="Whitingham"/>
    <tag k="addr:housenumber" v="800"/>
    <tag k="addr:street" v="Wilmington Cross Road"/>
    <tag k="addr:state" v="VT"/>
    <tag k="ref:vcgi:esiteid" v="287099"/>
  </node>
  <node id="-973" visible="true" lat="42.791780134093" lon="-72.882756794082">
    <tag k="addr:city" v="Whitingham"/>
    <tag k="addr:housenumber" v="200"/>
    <tag k="addr:street" v="School Street"/>
    <tag k="addr:state" v="VT"/>
    <tag k="ref:vcgi:esiteid" v="327073"/>
  </node>
  <node id="-977" visible="true" lat="42.788434828255" lon="-72.878346983375">
    <tag k="addr:city" v="Whitingham"/>
    <tag k="addr:housenumber" v="26"/>
    <tag k="addr:street" v="Sadawga Lake Road"/>
    <tag k="addr:state" v="VT"/>
    <tag k="ref:vcgi:esiteid" v="328741"/>
  </node>
  <node id="-986" visible="true" lat="42.765261816639" lon="-72.879648020983">
    <tag k="addr:city" v="Whitingham"/>
    <tag k="addr:housenumber" v="81"/>
    <tag k="addr:street" v="Howe Lane"/>
    <tag k="addr:state" v="VT"/>
    <tag k="ref:vcgi:esiteid" v="331885"/>
  </node>
  <node id="-987" visible="true" lat="42.811501775299" lon="-72.86692162778">
    <tag k="addr:city" v="Whitingham"/>
    <tag k="addr:housenumber" v="939"/>
    <tag k="addr:street" v="Fuller Hill Road"/>
    <tag k="addr:state" v="VT"/>
    <tag k="ref:vcgi:esiteid" v="332632"/>
  </node>
  <node id="-1002" visible="true" lat="42.798314663338" lon="-72.850616400506">
    <tag k="addr:city" v="Whitingham"/>
    <tag k="addr:housenumber" v="756"/>
    <tag k="addr:street" v="Wilmington Cross Road"/>
    <tag k="addr:state" v="VT"/>
    <tag k="ref:vcgi:esiteid" v="332649"/>
  </node>
  <node id="-1015" visible="true" lat="42.819894178893" lon="-72.862921920116">
    <tag k="addr:city" v="Whitingham"/>
    <tag k="addr:housenumber" v="1558"/>
    <tag k="addr:street" v="Fuller Hill Road"/>
    <tag k="addr:state" v="VT"/>
    <tag k="ref:vcgi:esiteid" v="334855"/>
  </node>
  <node id="-1019" visible="true" lat="42.790711611836" lon="-72.833570180633">
    <tag k="addr:city" v="Whitingham"/>
    <tag k="addr:housenumber" v="3852"/>
    <tag k="addr:street" v="Vermont Route 100"/>
    <tag k="addr:state" v="VT"/>
    <tag k="ref:vcgi:esiteid" v="335620"/>
  </node>
  <node id="-1022" visible="true" lat="42.787886539845" lon="-72.87794791751">
    <tag k="addr:city" v="Whitingham"/>
    <tag k="addr:housenumber" v="68"/>
    <tag k="addr:street" v="Sadawga Lake Road"/>
    <tag k="addr:state" v="VT"/>
    <tag k="ref:vcgi:esiteid" v="336164"/>
  </node>
  <node id="-1025" visible="true" lat="42.770857370384" lon="-72.870541052327">
    <tag k="addr:city" v="Whitingham"/>
    <tag k="addr:housenumber" v="172"/>
    <tag k="addr:street" v="Streeter Hill Road"/>
    <tag k="addr:state" v="VT"/>
    <tag k="ref:vcgi:esiteid" v="337388"/>
  </node>
  <node id="-1030" visible="true" lat="42.787067217128" lon="-72.850753230211">
    <tag k="addr:city" v="Whitingham"/>
    <tag k="addr:housenumber" v="4841"/>
    <tag k="addr:street" v="Vermont Route 100"/>
    <tag k="addr:state" v="VT"/>
    <tag k="ref:vcgi:esiteid" v="339244"/>
  </node>
  <node id="-1033" visible="true" lat="42.815847539216" lon="-72.865595260201">
    <tag k="addr:city" v="Whitingham"/>
    <tag k="addr:housenumber" v="1275"/>
    <tag k="addr:street" v="Fuller Hill Road"/>
    <tag k="addr:state" v="VT"/>
    <tag k="ref:vcgi:esiteid" v="340321"/>
  </node>
  <node id="-1053" visible="true" lat="42.789046599343" lon="-72.883873237288">
    <tag k="addr:city" v="Whitingham"/>
    <tag k="addr:housenumber" v="6658"/>
    <tag k="addr:street" v="Vermont Route 100"/>
    <tag k="addr:state" v="VT"/>
    <tag k="ref:vcgi:esiteid" v="448235"/>
  </node>
  <node id="-1072" visible="true" lat="42.820905858433" lon="-72.862581639066">
    <tag k="addr:city" v="Whitingham"/>
    <tag k="addr:housenumber" v="1664"/>
    <tag k="addr:street" v="Fuller Hill Road"/>
    <tag k="addr:state" v="VT"/>
    <tag k="ref:vcgi:esiteid" v="610766"/>
  </node>
  <node id="-1073" visible="true" lat="42.81039287113" lon="-72.8582240437">
    <tag k="addr:city" v="Whitingham"/>
    <tag k="addr:housenumber" v="66"/>
    <tag k="addr:street" v="Bear Lane"/>
    <tag k="addr:state" v="VT"/>
    <tag k="ref:vcgi:esiteid" v="611298"/>
  </node>
  <node id="-1382" visible="true" lat="42.788502024076" lon="-72.875141584709">
    <tag k="addr:city" v="Whitingham"/>
    <tag k="addr:housenumber" v="6157"/>
    <tag k="addr:street" v="Vermont Route 100"/>
    <tag k="addr:state" v="VT"/>
    <tag k="ref:vcgi:esiteid" v="1050966"/>
  </node>
</osm>
