<?xml version="1.0" encoding="UTF-8"?>
<osm version="0.6" generator="JOSM" upload="false">
  <node id="-238" visible="true" lat="43.862130460433" lon="-73.200776537961">
    <!-- multiple: "27 South Main Street, Whiting, VT" Multiple exact matches in OSM. -->
    <tag k="addr:city" v="Whiting"/>
    <tag k="addr:housenumber" v="27"/>
    <tag k="addr:street" v="South Main Street"/>
    <tag k="addr:state" v="VT"/>
    <tag k="ref:vcgi:esiteid" v="286206"/>
  </node>
  <node id="-239" visible="true" lat="43.862017552872" lon="-73.200855050708">
    <!-- multiple: "29 South Main Street, Whiting, VT" Multiple exact matches in OSM. -->
    <tag k="addr:city" v="Whiting"/>
    <tag k="addr:housenumber" v="29"/>
    <tag k="addr:street" v="South Main Street"/>
    <tag k="addr:state" v="VT"/>
    <tag k="ref:vcgi:esiteid" v="286207"/>
  </node>
  <node id="-279" visible="true" lat="43.851522940975" lon="-73.172867569701">
    <!-- multiple: "350 Leicester Whiting Road, Whiting, VT" Multiple exact matches in OSM. -->
    <tag k="addr:city" v="Whiting"/>
    <tag k="addr:housenumber" v="350"/>
    <tag k="addr:street" v="Leicester Whiting Road"/>
    <tag k="addr:state" v="VT"/>
    <tag k="ref:vcgi:esiteid" v="449634"/>
  </node>
</osm>
