<?xml version="1.0" encoding="UTF-8"?>
<osm version="0.6" generator="JOSM" upload="false">
  <node id="-4282" visible="true" lat="44.373465115554" lon="-73.093246821932">
    <!-- duplicates-in-different-towns: "5060 Oak Hill Road, Williston, VT"  ignoring town mismatch for duplicate housenumber/street when matching to esiteid 244135: "5060 Oak Hill Road, Saint George, VT" -->
    <tag k="addr:city" v="Williston"/>
    <tag k="addr:housenumber" v="5060"/>
    <tag k="addr:street" v="Oak Hill Road"/>
    <tag k="addr:state" v="VT"/>
    <tag k="ref:vcgi:esiteid" v="450937"/>
  </node>
</osm>
