<?xml version="1.0" encoding="UTF-8"?>
<osm version="0.6" generator="JOSM" upload="false">
  <node id="-428" visible="true" lat="44.126270059695" lon="-72.531258785649">
    <!-- duplicates-in-different-towns: "120 Vesper Road, Williamstown, VT"  ignoring town mismatch for duplicate housenumber/street when matching to esiteid 287449: "120 Vesper Road, , VT" -->
    <tag k="addr:city" v="Williamstown"/>
    <tag k="addr:housenumber" v="120"/>
    <tag k="addr:street" v="Vesper Road"/>
    <tag k="addr:state" v="VT"/>
    <tag k="ref:vcgi:esiteid" v="287445"/>
  </node>
  <node id="-1212" visible="true" lat="44.118608118627" lon="-72.537142418981">
    <!-- duplicates-in-different-towns: "241 Business Center Road, Williamstown, VT"  ignoring town mismatch for duplicate housenumber/street when matching to esiteid 287802: "241 Business Center Road, , VT" -->
    <tag k="addr:city" v="Williamstown"/>
    <tag k="addr:housenumber" v="241"/>
    <tag k="addr:street" v="Business Center Road"/>
    <tag k="addr:state" v="VT"/>
    <tag k="ref:vcgi:esiteid" v="288273"/>
  </node>
  <node id="-1467" visible="true" lat="44.137542825035" lon="-72.470432983897">
    <!-- duplicates-in-different-towns: "189 McCarthy Road, Granitville, VT"  ignoring town mismatch for duplicate housenumber/street when matching to esiteid 13876: "189 McCarthy Road, Barre Town, VT" -->
    <tag k="addr:city" v="Granitville"/>
    <tag k="addr:housenumber" v="189"/>
    <tag k="addr:street" v="McCarthy Road"/>
    <tag k="addr:state" v="VT"/>
    <tag k="ref:vcgi:esiteid" v="342504"/>
  </node>
  <node id="-1492" visible="true" lat="44.074135952119" lon="-72.54987297665">
    <!-- duplicates-in-different-towns: "882 Graham Road, Williamstown, VT"  ignoring town mismatch for duplicate housenumber/street when matching to esiteid 656478: "882 Graham Road, , VT" -->
    <tag k="addr:city" v="Williamstown"/>
    <tag k="addr:housenumber" v="882"/>
    <tag k="addr:street" v="Graham Road"/>
    <tag k="addr:state" v="VT"/>
    <tag k="ref:vcgi:esiteid" v="365700"/>
  </node>
  <node id="-1539" visible="true" lat="44.086812553731" lon="-72.622183916728">
    <!-- duplicates-in-different-towns: "934 Howe Road, Northfield, VT"  ignoring town mismatch for duplicate housenumber/street when matching to esiteid 40288: "934 Howe Road, , VT" -->
    <tag k="addr:city" v="Northfield"/>
    <tag k="addr:housenumber" v="934"/>
    <tag k="addr:street" v="Howe Road"/>
    <tag k="addr:state" v="VT"/>
    <tag k="ref:vcgi:esiteid" v="454660"/>
  </node>
  <node id="-1582" visible="true" lat="44.10124094478" lon="-72.547974283715">
    <!-- duplicates-in-different-towns: "LOT12 Vermont Route 14, Williamstown, VT"  ignoring town mismatch for duplicate housenumber/street when matching to esiteid 772213: "LOT12 Vermont Route 14, , VT" -->
    <tag k="addr:city" v="Williamstown"/>
    <tag k="addr:housenumber" v="LOT12"/>
    <tag k="addr:street" v="Vermont Route 14"/>
    <tag k="addr:state" v="VT"/>
    <tag k="ref:vcgi:esiteid" v="613183"/>
  </node>
  <node id="-1827" visible="true" lat="44.092386224196" lon="-72.516846327189">
    <!-- duplicates-in-different-towns: "183 Lilas Way, Williamstown, VT"  ignoring town mismatch for duplicate housenumber/street when matching to esiteid 772945: "183 Lilas Way, , VT" -->
    <tag k="addr:city" v="Williamstown"/>
    <tag k="addr:housenumber" v="183"/>
    <tag k="addr:street" v="Lilas Way"/>
    <tag k="addr:state" v="VT"/>
    <tag k="ref:vcgi:esiteid" v="772944"/>
  </node>
  <node id="-1830" visible="true" lat="44.086745826148" lon="-72.629034903624">
    <!-- duplicates-in-different-towns: "437 Frost Road, Northfield, VT"  ignoring town mismatch for duplicate housenumber/street when matching to esiteid 753876: "437 Frost Road, , VT" -->
    <tag k="addr:city" v="Northfield"/>
    <tag k="addr:housenumber" v="437"/>
    <tag k="addr:street" v="Frost Road"/>
    <tag k="addr:state" v="VT"/>
    <tag k="ref:vcgi:esiteid" v="773970"/>
  </node>
  <node id="-1831" visible="true" lat="44.089348820079" lon="-72.62704885688">
    <!-- duplicates-in-different-towns: "329 Frost Road, Northfield, VT"  ignoring town mismatch for duplicate housenumber/street when matching to esiteid 288406: "329 Frost Road, Williamstown, VT" -->
    <tag k="addr:city" v="Northfield"/>
    <tag k="addr:housenumber" v="329"/>
    <tag k="addr:street" v="Frost Road"/>
    <tag k="addr:state" v="VT"/>
    <tag k="ref:vcgi:esiteid" v="773972"/>
  </node>
</osm>
