<?xml version="1.0" encoding="UTF-8"?>
<osm version="0.6" generator="JOSM" upload="false">
  <node id="-196" visible="true" lat="42.916482107943" lon="-72.830300584001">
    <!-- multiple: "106 Smith Road, Wilmington, VT" Multiple exact matches in OSM. -->
    <tag k="addr:city" v="Wilmington"/>
    <tag k="addr:housenumber" v="106"/>
    <tag k="addr:street" v="Smith Road"/>
    <tag k="addr:state" v="VT"/>
    <tag k="ref:vcgi:esiteid" v="292769"/>
  </node>
  <node id="-1466" visible="true" lat="42.870856818885" lon="-72.877248304077">
    <!-- multiple: "77 West Main Street, Wilmington, VT" Multiple exact matches in OSM. -->
    <tag k="addr:city" v="Wilmington"/>
    <tag k="addr:housenumber" v="77"/>
    <tag k="addr:street" v="West Main Street"/>
    <tag k="addr:state" v="VT"/>
    <tag k="ref:vcgi:esiteid" v="294058"/>
  </node>
  <node id="-1549" visible="true" lat="42.869289989837" lon="-72.869902434147">
    <!-- multiple: "18 North Main Street, Wilmington, VT" Multiple exact matches in OSM. -->
    <tag k="addr:city" v="Wilmington"/>
    <tag k="addr:housenumber" v="18"/>
    <tag k="addr:street" v="North Main Street"/>
    <tag k="addr:state" v="VT"/>
    <tag k="ref:vcgi:esiteid" v="294154"/>
  </node>
  <node id="-1603" visible="true" lat="42.868638163685" lon="-72.870393062563">
    <!-- multiple: "7 North Main Street, Wilmington, VT" Multiple exact matches in OSM. -->
    <tag k="addr:city" v="Wilmington"/>
    <tag k="addr:housenumber" v="7"/>
    <tag k="addr:street" v="North Main Street"/>
    <tag k="addr:state" v="VT"/>
    <tag k="ref:vcgi:esiteid" v="294213"/>
  </node>
  <node id="-1611" visible="true" lat="42.86846266178" lon="-72.870681420314">
    <!-- multiple: "3 North Main Street, Wilmington, VT" Multiple exact matches in OSM. -->
    <tag k="addr:city" v="Wilmington"/>
    <tag k="addr:housenumber" v="3"/>
    <tag k="addr:street" v="North Main Street"/>
    <tag k="addr:state" v="VT"/>
    <tag k="ref:vcgi:esiteid" v="294221"/>
  </node>
  <node id="-1613" visible="true" lat="42.868340435279" lon="-72.8706866954">
    <!-- multiple: "2 East Main Street, Wilmington, VT" Multiple exact matches in OSM. -->
    <tag k="addr:city" v="Wilmington"/>
    <tag k="addr:housenumber" v="2"/>
    <tag k="addr:street" v="East Main Street"/>
    <tag k="addr:state" v="VT"/>
    <tag k="ref:vcgi:esiteid" v="294223"/>
  </node>
  <node id="-1750" visible="true" lat="42.866368418313" lon="-72.867646479143">
    <!-- multiple: "43 East Main Street, Wilmington, VT" Multiple exact matches in OSM. -->
    <tag k="addr:city" v="Wilmington"/>
    <tag k="addr:housenumber" v="43"/>
    <tag k="addr:street" v="East Main Street"/>
    <tag k="addr:state" v="VT"/>
    <tag k="ref:vcgi:esiteid" v="294375"/>
  </node>
  <node id="-1761" visible="true" lat="42.866196756609" lon="-72.867081903312">
    <!-- multiple: "53 East Main Street, Wilmington, VT" Multiple exact matches in OSM. -->
    <tag k="addr:city" v="Wilmington"/>
    <tag k="addr:housenumber" v="53"/>
    <tag k="addr:street" v="East Main Street"/>
    <tag k="addr:state" v="VT"/>
    <tag k="ref:vcgi:esiteid" v="294387"/>
  </node>
  <node id="-1788" visible="true" lat="42.865514436209" lon="-72.864376374676">
    <!-- multiple: "87 East Main Street, Wilmington, VT" Multiple exact matches in OSM. -->
    <tag k="addr:city" v="Wilmington"/>
    <tag k="addr:housenumber" v="87"/>
    <tag k="addr:street" v="East Main Street"/>
    <tag k="addr:state" v="VT"/>
    <tag k="ref:vcgi:esiteid" v="294415"/>
  </node>
  <node id="-2656" visible="true" lat="42.892742419268" lon="-72.89286227116">
    <!-- multiple: "13 Darrah Loop, Wilmington, VT" Multiple exact matches in OSM. -->
    <tag k="addr:city" v="Wilmington"/>
    <tag k="addr:housenumber" v="13"/>
    <tag k="addr:street" v="Darrah Loop"/>
    <tag k="addr:state" v="VT"/>
    <tag k="ref:vcgi:esiteid" v="767158"/>
  </node>
</osm>
