<?xml version="1.0" encoding="UTF-8"?>
<osm version="0.6" generator="JOSM" upload="false">
  <node id="-2532" visible="true" lat="42.880124452931" lon="-72.804956246321">
    <!-- duplicates-in-different-towns: "27 Old Stage Road Extension, Wilmington, VT"  ignoring town mismatch for duplicate housenumber/street when matching to esiteid 610990: "27 Old Stage Road Extension, , VT" -->
    <tag k="addr:city" v="Wilmington"/>
    <tag k="addr:housenumber" v="27"/>
    <tag k="addr:street" v="Old Stage Road Extension"/>
    <tag k="addr:state" v="VT"/>
    <tag k="ref:vcgi:esiteid" v="656439"/>
  </node>
  <node id="-2537" visible="true" lat="42.827008914139" lon="-72.806025541889">
    <!-- duplicates-in-different-towns: "424 Pike Road, Brattleboro, VT"  ignoring town mismatch for duplicate housenumber/street when matching to esiteid 752056: "424 Pike Road, , VT" -->
    <tag k="addr:city" v="Brattleboro"/>
    <tag k="addr:housenumber" v="424"/>
    <tag k="addr:street" v="Pike Road"/>
    <tag k="addr:state" v="VT"/>
    <tag k="ref:vcgi:esiteid" v="752055"/>
  </node>
</osm>
