<?xml version="1.0" encoding="UTF-8"?>
<osm version="0.6" generator="JOSM" upload="false">
  <node id="-529" visible="true" lat="43.223125239401" lon="-72.68814557235">
    <!-- duplicates-in-different-towns: "5540 Popple Dungeon Road, Chester, VT"  ignoring town mismatch for duplicate housenumber/street when matching to esiteid 3604: "5540 Popple Dungeon Road, Andover, VT" -->
    <tag k="addr:city" v="Chester"/>
    <tag k="addr:housenumber" v="5540"/>
    <tag k="addr:street" v="Popple Dungeon Road"/>
    <tag k="addr:state" v="VT"/>
    <tag k="ref:vcgi:esiteid" v="341653"/>
  </node>
  <node id="-530" visible="true" lat="43.222537822288" lon="-72.685674048734">
    <!-- duplicates-in-different-towns: "5390 Popple Dungeon Road, Chester, VT"  ignoring town mismatch for duplicate housenumber/street when matching to esiteid 3605: "5390 Popple Dungeon Road, , VT" -->
    <tag k="addr:city" v="Chester"/>
    <tag k="addr:housenumber" v="5390"/>
    <tag k="addr:street" v="Popple Dungeon Road"/>
    <tag k="addr:state" v="VT"/>
    <tag k="ref:vcgi:esiteid" v="341654"/>
  </node>
  <node id="-593" visible="true" lat="43.223588661176" lon="-72.710376193299">
    <!-- duplicates-in-different-towns: "100 Howard Hill Road, Chester, VT"  ignoring town mismatch for duplicate housenumber/street when matching to esiteid 772964: "100 Howard Hill Road, , VT" -->
    <tag k="addr:city" v="Chester"/>
    <tag k="addr:housenumber" v="100"/>
    <tag k="addr:street" v="Howard Hill Road"/>
    <tag k="addr:state" v="VT"/>
    <tag k="ref:vcgi:esiteid" v="772963"/>
  </node>
</osm>
