<?xml version="1.0" encoding="UTF-8"?>
<osm version="0.6" generator="JOSM" upload="false">
  <node id="-1199" visible="true" lat="43.1207286637" lon="-72.881303116027">
    <!-- duplicates-in-different-towns: "125 Upper Taylor Hill Road, Winhall, VT"  ignoring town mismatch for duplicate housenumber/street when matching to esiteid 307432: "125 Upper Taylor Hill Road, , VT" -->
    <tag k="addr:city" v="Winhall"/>
    <tag k="addr:housenumber" v="125"/>
    <tag k="addr:street" v="Upper Taylor Hill Road"/>
    <tag k="addr:state" v="VT"/>
    <tag k="ref:vcgi:esiteid" v="298062"/>
  </node>
  <node id="-1849" visible="true" lat="43.202279429792" lon="-72.873566288224">
    <!-- duplicates-in-different-towns: "56 South Road, Winhall, VT"  ignoring town mismatch for duplicate housenumber/street when matching to esiteid 296968: "56 South Road, Peru, VT" -->
    <tag k="addr:city" v="Winhall"/>
    <tag k="addr:housenumber" v="56"/>
    <tag k="addr:street" v="South Road"/>
    <tag k="addr:state" v="VT"/>
    <tag k="ref:vcgi:esiteid" v="449215"/>
  </node>
  <node id="-1850" visible="true" lat="43.202760574532" lon="-72.872771676538">
    <!-- duplicates-in-different-towns: "48 South Road, Winhall, VT"  ignoring town mismatch for duplicate housenumber/street when matching to esiteid 449216: "48 South Road, Landgrove, VT" -->
    <tag k="addr:city" v="Winhall"/>
    <tag k="addr:housenumber" v="48"/>
    <tag k="addr:street" v="South Road"/>
    <tag k="addr:state" v="VT"/>
    <tag k="ref:vcgi:esiteid" v="449217"/>
  </node>
  <node id="-1873" visible="true" lat="43.201796288174" lon="-72.875367525727">
    <!-- duplicates-in-different-towns: "20 Read Road, Winhall, VT"  ignoring town mismatch for duplicate housenumber/street when matching to esiteid 772961: "20 Read Road, , VT" -->
    <tag k="addr:city" v="Winhall"/>
    <tag k="addr:housenumber" v="20"/>
    <tag k="addr:street" v="Read Road"/>
    <tag k="addr:state" v="VT"/>
    <tag k="ref:vcgi:esiteid" v="656571"/>
  </node>
  <node id="-1888" visible="true" lat="43.208887011768" lon="-72.982895899287">
    <!-- duplicates-in-different-towns: "187 Vermont Route 11 30, Winhall, VT"  ignoring town mismatch for duplicate housenumber/street when matching to esiteid 750191: "187 Vermont Route 11 30, , VT" -->
    <tag k="addr:city" v="Winhall"/>
    <tag k="addr:housenumber" v="187"/>
    <tag k="addr:street" v="Vermont Route 11 30"/>
    <tag k="addr:state" v="VT"/>
    <tag k="ref:vcgi:esiteid" v="755067"/>
  </node>
</osm>
