<?xml version="1.0" encoding="UTF-8"?>
<osm version="0.6" generator="JOSM" upload="false">
  <node id="-1204" visible="true" lat="44.495235338188" lon="-73.197603123589">
    <!-- offset: "87 Elm Street, Winooski, VT" Significant offset - 160.6m -->
    <tag k="addr:city" v="Winooski"/>
    <tag k="addr:housenumber" v="87"/>
    <tag k="addr:street" v="Elm Street"/>
    <tag k="addr:state" v="VT"/>
    <tag k="ref:vcgi:esiteid" v="299731"/>
  </node>
  <node id="-1205" visible="true" lat="44.49548037821" lon="-73.197722047328">
    <!-- offset: "87 Elm Street, Winooski, VT" Significant offset - 140.4m -->
    <tag k="addr:city" v="Winooski"/>
    <tag k="addr:housenumber" v="87"/>
    <tag k="addr:street" v="Elm Street"/>
    <tag k="addr:state" v="VT"/>
    <tag k="ref:vcgi:esiteid" v="299732"/>
  </node>
  <node id="-1206" visible="true" lat="44.495617645135" lon="-73.198085612965">
    <!-- offset: "87 Elm Street, Winooski, VT" Significant offset - 108.1m -->
    <tag k="addr:city" v="Winooski"/>
    <tag k="addr:housenumber" v="87"/>
    <tag k="addr:street" v="Elm Street"/>
    <tag k="addr:state" v="VT"/>
    <tag k="ref:vcgi:esiteid" v="299733"/>
  </node>
  <node id="-1221" visible="true" lat="44.495057731735" lon="-73.198807298423">
    <!-- offset: "87 Elm Street, Winooski, VT" Significant offset - 107.9m -->
    <tag k="addr:city" v="Winooski"/>
    <tag k="addr:housenumber" v="87"/>
    <tag k="addr:street" v="Elm Street"/>
    <tag k="addr:state" v="VT"/>
    <tag k="ref:vcgi:esiteid" v="299749"/>
  </node>
  <node id="-1222" visible="true" lat="44.494920932866" lon="-73.199101153114">
    <!-- offset: "87 Elm Street, Winooski, VT" Significant offset - 115.4m -->
    <tag k="addr:city" v="Winooski"/>
    <tag k="addr:housenumber" v="87"/>
    <tag k="addr:street" v="Elm Street"/>
    <tag k="addr:state" v="VT"/>
    <tag k="ref:vcgi:esiteid" v="299750"/>
  </node>
  <node id="-1225" visible="true" lat="44.495169091787" lon="-73.200046836689">
    <!-- offset: "87 Elm Street, Winooski, VT" Significant offset - 101.2m -->
    <tag k="addr:city" v="Winooski"/>
    <tag k="addr:housenumber" v="87"/>
    <tag k="addr:street" v="Elm Street"/>
    <tag k="addr:state" v="VT"/>
    <tag k="ref:vcgi:esiteid" v="299753"/>
  </node>
  <node id="-1911" visible="true" lat="44.491845026906" lon="-73.186269949294">
    <!-- offset: "71 Main Street, Winooski, VT" Significant offset - 161.1m -->
    <tag k="addr:city" v="Winooski"/>
    <tag k="addr:housenumber" v="71"/>
    <tag k="addr:street" v="Main Street"/>
    <tag k="addr:state" v="VT"/>
    <tag k="ref:vcgi:esiteid" v="454375"/>
  </node>
</osm>
