<?xml version="1.0" encoding="UTF-8"?>
<osm version="0.6" generator="JOSM" upload="false">
  <node id="-192" visible="true" lat="44.502827308544" lon="-73.183697307018">
    <!-- multiple: "450 Weaver Street, Winooski, VT" Multiple exact matches in OSM. -->
    <tag k="addr:city" v="Winooski"/>
    <tag k="addr:housenumber" v="450"/>
    <tag k="addr:street" v="Weaver Street"/>
    <tag k="addr:state" v="VT"/>
    <tag k="ref:vcgi:esiteid" v="298669"/>
  </node>
  <node id="-233" visible="true" lat="44.499248765458" lon="-73.184155123817">
    <!-- multiple: "348 Main Street, Winooski, VT" Multiple exact matches in OSM. -->
    <tag k="addr:city" v="Winooski"/>
    <tag k="addr:housenumber" v="348"/>
    <tag k="addr:street" v="Main Street"/>
    <tag k="addr:state" v="VT"/>
    <tag k="ref:vcgi:esiteid" v="298714"/>
  </node>
  <node id="-238" visible="true" lat="44.501235742688" lon="-73.183421609506">
    <!-- multiple: "400 Main Street, Winooski, VT" Multiple exact matches in OSM. -->
    <tag k="addr:city" v="Winooski"/>
    <tag k="addr:housenumber" v="400"/>
    <tag k="addr:street" v="Main Street"/>
    <tag k="addr:state" v="VT"/>
    <tag k="ref:vcgi:esiteid" v="298720"/>
  </node>
  <node id="-245" visible="true" lat="44.499644106329" lon="-73.183307048735">
    <!-- multiple: "357 Main Street, Winooski, VT" Multiple exact matches in OSM. -->
    <tag k="addr:city" v="Winooski"/>
    <tag k="addr:housenumber" v="357"/>
    <tag k="addr:street" v="Main Street"/>
    <tag k="addr:state" v="VT"/>
    <tag k="ref:vcgi:esiteid" v="298729"/>
  </node>
  <node id="-257" visible="true" lat="44.500291172455" lon="-73.183698026357">
    <!-- multiple: "388 Main Street, Winooski, VT" Multiple exact matches in OSM. -->
    <tag k="addr:city" v="Winooski"/>
    <tag k="addr:housenumber" v="388"/>
    <tag k="addr:street" v="Main Street"/>
    <tag k="addr:state" v="VT"/>
    <tag k="ref:vcgi:esiteid" v="298741"/>
  </node>
  <node id="-281" visible="true" lat="44.499166036973" lon="-73.177352680789">
    <!-- multiple: "181 Franklin Street, Winooski, VT" Multiple exact matches in OSM. -->
    <tag k="addr:city" v="Winooski"/>
    <tag k="addr:housenumber" v="181"/>
    <tag k="addr:street" v="Franklin Street"/>
    <tag k="addr:state" v="VT"/>
    <tag k="ref:vcgi:esiteid" v="298766"/>
  </node>
  <node id="-282" visible="true" lat="44.499350064186" lon="-73.177237703845">
    <!-- multiple: "181 Franklin Street, Winooski, VT" Multiple exact matches in OSM. -->
    <tag k="addr:city" v="Winooski"/>
    <tag k="addr:housenumber" v="181"/>
    <tag k="addr:street" v="Franklin Street"/>
    <tag k="addr:state" v="VT"/>
    <tag k="ref:vcgi:esiteid" v="298767"/>
  </node>
  <node id="-283" visible="true" lat="44.499357624416" lon="-73.176846209498">
    <!-- multiple: "181 Franklin Street, Winooski, VT" Multiple exact matches in OSM. -->
    <tag k="addr:city" v="Winooski"/>
    <tag k="addr:housenumber" v="181"/>
    <tag k="addr:street" v="Franklin Street"/>
    <tag k="addr:state" v="VT"/>
    <tag k="ref:vcgi:esiteid" v="298768"/>
  </node>
  <node id="-284" visible="true" lat="44.49904340413" lon="-73.17683159692">
    <!-- multiple: "181 Franklin Street, Winooski, VT" Multiple exact matches in OSM. -->
    <tag k="addr:city" v="Winooski"/>
    <tag k="addr:housenumber" v="181"/>
    <tag k="addr:street" v="Franklin Street"/>
    <tag k="addr:state" v="VT"/>
    <tag k="ref:vcgi:esiteid" v="298769"/>
  </node>
  <node id="-532" visible="true" lat="44.492970372547" lon="-73.175234066231">
    <!-- multiple: "298 East Allen Street, Winooski, VT" Multiple exact matches in OSM. -->
    <tag k="addr:city" v="Winooski"/>
    <tag k="addr:housenumber" v="298"/>
    <tag k="addr:street" v="East Allen Street"/>
    <tag k="addr:state" v="VT"/>
    <tag k="ref:vcgi:esiteid" v="299018"/>
  </node>
  <node id="-533" visible="true" lat="44.492881068397" lon="-73.175586214495">
    <!-- multiple: "280 East Allen Street, Winooski, VT" Multiple exact matches in OSM. -->
    <tag k="addr:city" v="Winooski"/>
    <tag k="addr:housenumber" v="280"/>
    <tag k="addr:street" v="East Allen Street"/>
    <tag k="addr:state" v="VT"/>
    <tag k="ref:vcgi:esiteid" v="299019"/>
  </node>
  <node id="-540" visible="true" lat="44.489680641356" lon="-73.185215758175">
    <!-- multiple: "20 Winooski Falls Way, Winooski, VT" Multiple exact matches in OSM. -->
    <tag k="addr:city" v="Winooski"/>
    <tag k="addr:housenumber" v="20"/>
    <tag k="addr:street" v="Winooski Falls Way"/>
    <tag k="addr:state" v="VT"/>
    <tag k="ref:vcgi:esiteid" v="299026"/>
  </node>
  <node id="-747" visible="true" lat="44.493404276426" lon="-73.183388218099">
    <!-- multiple: "115 Barlow Street, Winooski, VT" Multiple exact matches in OSM. -->
    <tag k="addr:city" v="Winooski"/>
    <tag k="addr:housenumber" v="115"/>
    <tag k="addr:street" v="Barlow Street"/>
    <tag k="addr:state" v="VT"/>
    <tag k="ref:vcgi:esiteid" v="299251"/>
  </node>
  <node id="-751" visible="true" lat="44.493131023345" lon="-73.183392048803">
    <!-- multiple: "115 Barlow Street, Winooski, VT" Multiple exact matches in OSM. -->
    <tag k="addr:city" v="Winooski"/>
    <tag k="addr:housenumber" v="115"/>
    <tag k="addr:street" v="Barlow Street"/>
    <tag k="addr:state" v="VT"/>
    <tag k="ref:vcgi:esiteid" v="299255"/>
  </node>
  <node id="-839" visible="true" lat="44.490590680638" lon="-73.192729273075">
    <!-- multiple: "150 West Canal Street, Winooski, VT" Multiple exact matches in OSM. -->
    <tag k="addr:city" v="Winooski"/>
    <tag k="addr:housenumber" v="150"/>
    <tag k="addr:street" v="West Canal Street"/>
    <tag k="addr:state" v="VT"/>
    <tag k="ref:vcgi:esiteid" v="299354"/>
  </node>
  <node id="-897" visible="true" lat="44.490509432407" lon="-73.197471810474">
    <!-- multiple: "250 West Allen Street, Winooski, VT" Multiple exact matches in OSM. -->
    <tag k="addr:city" v="Winooski"/>
    <tag k="addr:housenumber" v="250"/>
    <tag k="addr:street" v="West Allen Street"/>
    <tag k="addr:state" v="VT"/>
    <tag k="ref:vcgi:esiteid" v="299413"/>
  </node>
  <node id="-1142" visible="true" lat="44.497401226956" lon="-73.186133470067">
    <!-- multiple: "281 Weaver Street, Winooski, VT" Multiple exact matches in OSM. -->
    <tag k="addr:city" v="Winooski"/>
    <tag k="addr:housenumber" v="281"/>
    <tag k="addr:street" v="Weaver Street"/>
    <tag k="addr:state" v="VT"/>
    <tag k="ref:vcgi:esiteid" v="299665"/>
  </node>
  <node id="-1161" visible="true" lat="44.497324461226" lon="-73.185916018797">
    <!-- multiple: "281 Weaver Street, Winooski, VT" Multiple exact matches in OSM. -->
    <tag k="addr:city" v="Winooski"/>
    <tag k="addr:housenumber" v="281"/>
    <tag k="addr:street" v="Weaver Street"/>
    <tag k="addr:state" v="VT"/>
    <tag k="ref:vcgi:esiteid" v="299684"/>
  </node>
  <node id="-1172" visible="true" lat="44.497705103757" lon="-73.184312730799">
    <!-- multiple: "293 Main Street, Winooski, VT" Multiple exact matches in OSM. -->
    <tag k="addr:city" v="Winooski"/>
    <tag k="addr:housenumber" v="293"/>
    <tag k="addr:street" v="Main Street"/>
    <tag k="addr:state" v="VT"/>
    <tag k="ref:vcgi:esiteid" v="299697"/>
  </node>
  <node id="-1207" visible="true" lat="44.495855900807" lon="-73.198227657898">
    <!-- multiple: "87 Elm Street, Winooski, VT" Multiple exact matches in OSM. -->
    <tag k="addr:city" v="Winooski"/>
    <tag k="addr:housenumber" v="87"/>
    <tag k="addr:street" v="Elm Street"/>
    <tag k="addr:state" v="VT"/>
    <tag k="ref:vcgi:esiteid" v="299734"/>
  </node>
  <node id="-1217" visible="true" lat="44.495962967897" lon="-73.199421674755">
    <!-- multiple: "87 Elm Street, Winooski, VT" Multiple exact matches in OSM. -->
    <tag k="addr:city" v="Winooski"/>
    <tag k="addr:housenumber" v="87"/>
    <tag k="addr:street" v="Elm Street"/>
    <tag k="addr:state" v="VT"/>
    <tag k="ref:vcgi:esiteid" v="299745"/>
  </node>
  <node id="-1218" visible="true" lat="44.495552332249" lon="-73.199532545894">
    <!-- multiple: "87 Elm Street, Winooski, VT" Multiple exact matches in OSM. -->
    <tag k="addr:city" v="Winooski"/>
    <tag k="addr:housenumber" v="87"/>
    <tag k="addr:street" v="Elm Street"/>
    <tag k="addr:state" v="VT"/>
    <tag k="ref:vcgi:esiteid" v="299746"/>
  </node>
  <node id="-1219" visible="true" lat="44.495731410074" lon="-73.199022818965">
    <!-- multiple: "87 Elm Street, Winooski, VT" Multiple exact matches in OSM. -->
    <tag k="addr:city" v="Winooski"/>
    <tag k="addr:housenumber" v="87"/>
    <tag k="addr:street" v="Elm Street"/>
    <tag k="addr:state" v="VT"/>
    <tag k="ref:vcgi:esiteid" v="299747"/>
  </node>
  <node id="-1220" visible="true" lat="44.495284023528" lon="-73.198875085802">
    <!-- multiple: "87 Elm Street, Winooski, VT" Multiple exact matches in OSM. -->
    <tag k="addr:city" v="Winooski"/>
    <tag k="addr:housenumber" v="87"/>
    <tag k="addr:street" v="Elm Street"/>
    <tag k="addr:state" v="VT"/>
    <tag k="ref:vcgi:esiteid" v="299748"/>
  </node>
  <node id="-1223" visible="true" lat="44.495064755279" lon="-73.199429274732">
    <!-- multiple: "87 Elm Street, Winooski, VT" Multiple exact matches in OSM. -->
    <tag k="addr:city" v="Winooski"/>
    <tag k="addr:housenumber" v="87"/>
    <tag k="addr:street" v="Elm Street"/>
    <tag k="addr:state" v="VT"/>
    <tag k="ref:vcgi:esiteid" v="299751"/>
  </node>
  <node id="-1224" visible="true" lat="44.495132646716" lon="-73.19973169025">
    <!-- multiple: "87 Elm Street, Winooski, VT" Multiple exact matches in OSM. -->
    <tag k="addr:city" v="Winooski"/>
    <tag k="addr:housenumber" v="87"/>
    <tag k="addr:street" v="Elm Street"/>
    <tag k="addr:state" v="VT"/>
    <tag k="ref:vcgi:esiteid" v="299752"/>
  </node>
  <node id="-1226" visible="true" lat="44.49541320092" lon="-73.199848096503">
    <!-- multiple: "87 Elm Street, Winooski, VT" Multiple exact matches in OSM. -->
    <tag k="addr:city" v="Winooski"/>
    <tag k="addr:housenumber" v="87"/>
    <tag k="addr:street" v="Elm Street"/>
    <tag k="addr:state" v="VT"/>
    <tag k="ref:vcgi:esiteid" v="299754"/>
  </node>
  <node id="-1457" visible="true" lat="44.497855423486" lon="-73.193718295252">
    <!-- multiple: "46 Shepard Street, Winooski, VT" Multiple exact matches in OSM. -->
    <tag k="addr:city" v="Winooski"/>
    <tag k="addr:housenumber" v="46"/>
    <tag k="addr:street" v="Shepard Street"/>
    <tag k="addr:state" v="VT"/>
    <tag k="ref:vcgi:esiteid" v="299989"/>
  </node>
  <node id="-1560" visible="true" lat="44.499244284862" lon="-73.193403965335">
    <!-- multiple: "75 Audet Street, Winooski, VT" Multiple exact matches in OSM. -->
    <tag k="addr:city" v="Winooski"/>
    <tag k="addr:housenumber" v="75"/>
    <tag k="addr:street" v="Audet Street"/>
    <tag k="addr:state" v="VT"/>
    <tag k="ref:vcgi:esiteid" v="300094"/>
  </node>
  <node id="-1646" visible="true" lat="44.490099996297" lon="-73.18707646146">
    <!-- multiple: "12 West Canal Street, Winooski, VT" Multiple exact matches in OSM. -->
    <tag k="addr:city" v="Winooski"/>
    <tag k="addr:housenumber" v="12"/>
    <tag k="addr:street" v="West Canal Street"/>
    <tag k="addr:state" v="VT"/>
    <tag k="ref:vcgi:esiteid" v="300186"/>
  </node>
  <node id="-1665" visible="true" lat="44.496461675802" lon="-73.188431552077">
    <!-- multiple: "5 Saint Peter Street, Winooski, VT" Multiple exact matches in OSM. -->
    <tag k="addr:city" v="Winooski"/>
    <tag k="addr:housenumber" v="5"/>
    <tag k="addr:street" v="Saint Peter Street"/>
    <tag k="addr:state" v="VT"/>
    <tag k="ref:vcgi:esiteid" v="300237"/>
  </node>
  <node id="-1676" visible="true" lat="44.4962511522" lon="-73.198899210109">
    <!-- multiple: "240 West Street, Winooski, VT" Multiple exact matches in OSM. -->
    <tag k="addr:city" v="Winooski"/>
    <tag k="addr:housenumber" v="240"/>
    <tag k="addr:street" v="West Street"/>
    <tag k="addr:state" v="VT"/>
    <tag k="ref:vcgi:esiteid" v="300270"/>
  </node>
  <node id="-1690" visible="true" lat="44.492321488006" lon="-73.191120687862">
    <!-- multiple: "32 Malletts Bay Avenue, Winooski, VT" Multiple exact matches in OSM. -->
    <tag k="addr:city" v="Winooski"/>
    <tag k="addr:housenumber" v="32"/>
    <tag k="addr:street" v="Malletts Bay Avenue"/>
    <tag k="addr:state" v="VT"/>
    <tag k="ref:vcgi:esiteid" v="300294"/>
  </node>
  <node id="-1719" visible="true" lat="44.497717870588" lon="-73.193867955743">
    <!-- multiple: "46 Shepard Street, Winooski, VT" Multiple exact matches in OSM. -->
    <tag k="addr:city" v="Winooski"/>
    <tag k="addr:housenumber" v="46"/>
    <tag k="addr:street" v="Shepard Street"/>
    <tag k="addr:state" v="VT"/>
    <tag k="ref:vcgi:esiteid" v="300343"/>
  </node>
  <node id="-1730" visible="true" lat="44.496093489575" lon="-73.189611151527">
    <!-- multiple: "83 North Street, Winooski, VT" Multiple exact matches in OSM. -->
    <tag k="addr:city" v="Winooski"/>
    <tag k="addr:housenumber" v="83"/>
    <tag k="addr:street" v="North Street"/>
    <tag k="addr:state" v="VT"/>
    <tag k="ref:vcgi:esiteid" v="300364"/>
  </node>
  <node id="-1800" visible="true" lat="44.500582159554" lon="-73.183805873452">
    <!-- multiple: "388 Main Street, Winooski, VT" Multiple exact matches in OSM. -->
    <tag k="addr:city" v="Winooski"/>
    <tag k="addr:housenumber" v="388"/>
    <tag k="addr:street" v="Main Street"/>
    <tag k="addr:state" v="VT"/>
    <tag k="ref:vcgi:esiteid" v="300509"/>
  </node>
  <node id="-1801" visible="true" lat="44.500406343669" lon="-73.184297877787">
    <!-- multiple: "388 Main Street, Winooski, VT" Multiple exact matches in OSM. -->
    <tag k="addr:city" v="Winooski"/>
    <tag k="addr:housenumber" v="388"/>
    <tag k="addr:street" v="Main Street"/>
    <tag k="addr:state" v="VT"/>
    <tag k="ref:vcgi:esiteid" v="300510"/>
  </node>
  <node id="-1802" visible="true" lat="44.500527237019" lon="-73.184229758766">
    <!-- multiple: "388 Main Street, Winooski, VT" Multiple exact matches in OSM. -->
    <tag k="addr:city" v="Winooski"/>
    <tag k="addr:housenumber" v="388"/>
    <tag k="addr:street" v="Main Street"/>
    <tag k="addr:state" v="VT"/>
    <tag k="ref:vcgi:esiteid" v="300511"/>
  </node>
  <node id="-1803" visible="true" lat="44.500634966823" lon="-73.184172463066">
    <!-- multiple: "388 Main Street, Winooski, VT" Multiple exact matches in OSM. -->
    <tag k="addr:city" v="Winooski"/>
    <tag k="addr:housenumber" v="388"/>
    <tag k="addr:street" v="Main Street"/>
    <tag k="addr:state" v="VT"/>
    <tag k="ref:vcgi:esiteid" v="300512"/>
  </node>
  <node id="-1804" visible="true" lat="44.500627571203" lon="-73.184095522426">
    <!-- multiple: "388 Main Street, Winooski, VT" Multiple exact matches in OSM. -->
    <tag k="addr:city" v="Winooski"/>
    <tag k="addr:housenumber" v="388"/>
    <tag k="addr:street" v="Main Street"/>
    <tag k="addr:state" v="VT"/>
    <tag k="ref:vcgi:esiteid" v="300513"/>
  </node>
  <node id="-1805" visible="true" lat="44.500622704718" lon="-73.184033249364">
    <!-- multiple: "388 Main Street, Winooski, VT" Multiple exact matches in OSM. -->
    <tag k="addr:city" v="Winooski"/>
    <tag k="addr:housenumber" v="388"/>
    <tag k="addr:street" v="Main Street"/>
    <tag k="addr:state" v="VT"/>
    <tag k="ref:vcgi:esiteid" v="300514"/>
  </node>
  <node id="-1811" visible="true" lat="44.490991440068" lon="-73.186735535607">
    <!-- multiple: "46 Main Street, Winooski, VT" Multiple exact matches in OSM. -->
    <tag k="addr:city" v="Winooski"/>
    <tag k="addr:housenumber" v="46"/>
    <tag k="addr:street" v="Main Street"/>
    <tag k="addr:state" v="VT"/>
    <tag k="ref:vcgi:esiteid" v="300529"/>
  </node>
  <node id="-1873" visible="true" lat="44.490445352168" lon="-73.183600540314">
    <!-- multiple: "65 Winooski Falls Way, Winooski, VT" Multiple exact matches in OSM. -->
    <tag k="addr:city" v="Winooski"/>
    <tag k="addr:housenumber" v="65"/>
    <tag k="addr:street" v="Winooski Falls Way"/>
    <tag k="addr:state" v="VT"/>
    <tag k="ref:vcgi:esiteid" v="327103"/>
  </node>
  <node id="-1891" visible="true" lat="44.490431108737" lon="-73.184983335252">
    <!-- multiple: "25 Winooski Falls Way, Winooski, VT" Multiple exact matches in OSM. -->
    <tag k="addr:city" v="Winooski"/>
    <tag k="addr:housenumber" v="25"/>
    <tag k="addr:street" v="Winooski Falls Way"/>
    <tag k="addr:state" v="VT"/>
    <tag k="ref:vcgi:esiteid" v="344798"/>
  </node>
  <node id="-1902" visible="true" lat="44.491358350675" lon="-73.181579509305">
    <!-- multiple: "1 Abenaki Way, Winooski, VT" Multiple exact matches in OSM. -->
    <tag k="addr:city" v="Winooski"/>
    <tag k="addr:housenumber" v="1"/>
    <tag k="addr:street" v="Abenaki Way"/>
    <tag k="addr:state" v="VT"/>
    <tag k="ref:vcgi:esiteid" v="450931"/>
  </node>
  <node id="-1928" visible="true" lat="44.501111560341" lon="-73.183675156815">
    <!-- multiple: "400 Main Street, Winooski, VT" Multiple exact matches in OSM. -->
    <tag k="addr:city" v="Winooski"/>
    <tag k="addr:housenumber" v="400"/>
    <tag k="addr:street" v="Main Street"/>
    <tag k="addr:state" v="VT"/>
    <tag k="ref:vcgi:esiteid" v="756263"/>
  </node>
  <node id="-1933" visible="true" lat="44.490375042324" lon="-73.197107212359">
    <!-- multiple: "250 West Allen Street, Winooski, VT" Multiple exact matches in OSM. -->
    <tag k="addr:city" v="Winooski"/>
    <tag k="addr:housenumber" v="250"/>
    <tag k="addr:street" v="West Allen Street"/>
    <tag k="addr:state" v="VT"/>
    <tag k="ref:vcgi:esiteid" v="759552"/>
  </node>
</osm>
