<?xml version="1.0" encoding="UTF-8"?>
<osm version="0.6" generator="JOSM" upload="false">
  <node id="-845" visible="true" lat="44.416893376964" lon="-72.458602043265">
    <!-- duplicates-in-different-towns: "569 Scribner Road, East Calais, VT"  ignoring town mismatch for duplicate housenumber/street when matching to esiteid 302098: "569 Scribner Road, , VT" -->
    <tag k="addr:city" v="East Calais"/>
    <tag k="addr:housenumber" v="569"/>
    <tag k="addr:street" v="Scribner Road"/>
    <tag k="addr:state" v="VT"/>
    <tag k="ref:vcgi:esiteid" v="340866"/>
  </node>
  <node id="-885" visible="true" lat="44.397117597949" lon="-72.416593617796">
    <!-- duplicates-in-different-towns: "102 Hemlock Road, East Calais, VT"  ignoring town mismatch for duplicate housenumber/street when matching to esiteid 302081: "102 Hemlock Road, , VT" -->
    <tag k="addr:city" v="East Calais"/>
    <tag k="addr:housenumber" v="102"/>
    <tag k="addr:street" v="Hemlock Road"/>
    <tag k="addr:state" v="VT"/>
    <tag k="ref:vcgi:esiteid" v="655246"/>
  </node>
  <node id="-886" visible="true" lat="44.389555933336" lon="-72.39679737942">
    <!-- duplicates-in-different-towns: "1157 Bliss Road, Marshfield, VT"  ignoring town mismatch for duplicate housenumber/street when matching to esiteid 56425: "1157 Bliss Road, Calais, VT" -->
    <tag k="addr:city" v="Marshfield"/>
    <tag k="addr:housenumber" v="1157"/>
    <tag k="addr:street" v="Bliss Road"/>
    <tag k="addr:state" v="VT"/>
    <tag k="ref:vcgi:esiteid" v="655248"/>
  </node>
</osm>
