<?xml version="1.0" encoding="UTF-8"?>
<osm version="0.6" generator="JOSM" upload="false">
  <node id="-364" visible="true" lat="43.627328197094" lon="-72.512795642835">
    <!-- multiple: "36 Pleasant Street, Woodstock, VT" Multiple exact matches in OSM. -->
    <tag k="addr:city" v="Woodstock"/>
    <tag k="addr:housenumber" v="36"/>
    <tag k="addr:street" v="Pleasant Street"/>
    <tag k="addr:state" v="VT"/>
    <tag k="ref:vcgi:esiteid" v="302806"/>
  </node>
  <node id="-395" visible="true" lat="43.626860576626" lon="-72.50721066547">
    <!-- multiple: "435 Woodstock Road, Woodstock, VT" Multiple exact matches in OSM. -->
    <tag k="addr:city" v="Woodstock"/>
    <tag k="addr:housenumber" v="435"/>
    <tag k="addr:street" v="Woodstock Road"/>
    <tag k="addr:state" v="VT"/>
    <tag k="ref:vcgi:esiteid" v="302847"/>
  </node>
  <node id="-405" visible="true" lat="43.626582576344" lon="-72.509913762431">
    <!-- multiple: "47 Pleasant Street, Woodstock, VT" Multiple exact matches in OSM. -->
    <tag k="addr:city" v="Woodstock"/>
    <tag k="addr:housenumber" v="47"/>
    <tag k="addr:street" v="Pleasant Street"/>
    <tag k="addr:state" v="VT"/>
    <tag k="ref:vcgi:esiteid" v="302859"/>
  </node>
  <node id="-430" visible="true" lat="43.626568231944" lon="-72.510024861491">
    <!-- multiple: "47 Pleasant Street, Woodstock, VT" Multiple exact matches in OSM. -->
    <tag k="addr:city" v="Woodstock"/>
    <tag k="addr:housenumber" v="47"/>
    <tag k="addr:street" v="Pleasant Street"/>
    <tag k="addr:state" v="VT"/>
    <tag k="ref:vcgi:esiteid" v="302888"/>
  </node>
  <node id="-441" visible="true" lat="43.626101891279" lon="-72.512687675927">
    <!-- multiple: "4 Ford Street, Woodstock, VT" Multiple exact matches in OSM. -->
    <tag k="addr:city" v="Woodstock"/>
    <tag k="addr:housenumber" v="4"/>
    <tag k="addr:street" v="Ford Street"/>
    <tag k="addr:state" v="VT"/>
    <tag k="ref:vcgi:esiteid" v="302900"/>
  </node>
  <node id="-446" visible="true" lat="43.626156359928" lon="-72.513241622009">
    <!-- multiple: "4 Ford Street, Woodstock, VT" Multiple exact matches in OSM. -->
    <tag k="addr:city" v="Woodstock"/>
    <tag k="addr:housenumber" v="4"/>
    <tag k="addr:street" v="Ford Street"/>
    <tag k="addr:state" v="VT"/>
    <tag k="ref:vcgi:esiteid" v="302906"/>
  </node>
  <node id="-1779" visible="true" lat="43.624928536318" lon="-72.518435587884">
    <!-- multiple: "5 Central Street, Woodstock, VT" Multiple exact matches in OSM. -->
    <tag k="addr:city" v="Woodstock"/>
    <tag k="addr:housenumber" v="5"/>
    <tag k="addr:street" v="Central Street"/>
    <tag k="addr:state" v="VT"/>
    <tag k="ref:vcgi:esiteid" v="328673"/>
  </node>
</osm>
