{
    "type": "FeatureCollection",
    "name": "FS_VCGI_OPENDATA_Emergency_SiteStructureAddressPoint_point_SP_v1 - Ferdinand",
    "crs": {
        "type": "name",
        "properties": {
            "name": "urn:ogc:def:crs:OGC:1.3:CRS84"
        }
    },
    "features": [
{"type":"Feature","id":115104,"geometry":{"type":"Point","coordinates":[-71.7213956860784,44.6634073612805]},"properties":{"OBJECTID":115104,"ESITEID":112764,"PRIMARYNAME":"PAUL STREAM RD  ","ALIAS1":"","ALIAS2":"","ALIAS3":"","ALIAS4":"","ALIAS5":"","PRIMARYADDRESS":"1738 PAUL STREAM RD","SITETYPE":"Camp","MAPYEAR":"Thu, 01 Jan 1998 00:00:00 GMT","SITETYPE_MULTI1":"","SITETYPE_MULTI2":"","SITETYPE_MULTI3":"","YearBuilt":null,"YearBuiltSrc":null,"YearBuiltNotes":"","ResUnitCnt":1,"NonResUnitCnt":0,"DateUpdate":"Tue, 28 Mar 2023 14:14:04 GMT","County":"Essex County","Inc_Muni":"Ferdinand","AddNum_Pre":null,"Add_Number":1738,"AddNum_Suf":"","St_PreMod":"","St_PreDir":"","St_PreTyp":"","St_PreSep":"","St_Name":"Paul Stream","St_PosTyp":"Road","St_PosDir":"","St_PosMod":"","ESN":"315","Post_Comm":"Guildhall","Post_Code":"05905","GlobalID":"b90258e0-a35d-4696-8a2b-7f063c2137e5","Category":"Residential"}},
{"type":"Feature","id":133705,"geometry":{"type":"Point","coordinates":[-71.7865035184501,44.7930171341447]},"properties":{"OBJECTID":133705,"ESITEID":305210,"PRIMARYNAME":"MCCONNEL POND RD","ALIAS1":"","ALIAS2":"","ALIAS3":"","ALIAS4":"","ALIAS5":"","PRIMARYADDRESS":"1106 MCCONNEL POND RD","SITETYPE":"Camp","MAPYEAR":"Thu, 01 Jan 1998 00:00:00 GMT","SITETYPE_MULTI1":"","SITETYPE_MULTI2":"","SITETYPE_MULTI3":"","YearBuilt":null,"YearBuiltSrc":null,"YearBuiltNotes":"","ResUnitCnt":1,"NonResUnitCnt":0,"DateUpdate":"Fri, 05 Jan 2024 11:21:21 GMT","County":"Essex County","Inc_Muni":"Ferdinand","AddNum_Pre":null,"Add_Number":1106,"AddNum_Suf":"","St_PreMod":"","St_PreDir":" ","St_PreTyp":"","St_PreSep":"","St_Name":"Mcconnel Pond","St_PosTyp":"Road","St_PosDir":" ","St_PosMod":"","ESN":"315","Post_Comm":"Island Pond","Post_Code":"05846","GlobalID":"2be5881a-6278-40b5-b60f-d3ed60c18bff","Category":"Residential"}},
{"type":"Feature","id":107964,"geometry":{"type":"Point","coordinates":[-71.7886291287065,44.7880574163223]},"properties":{"OBJECTID":107964,"ESITEID":305211,"PRIMARYNAME":"MCCONNEL POND RD","ALIAS1":"","ALIAS2":"","ALIAS3":"","ALIAS4":"","ALIAS5":"","PRIMARYADDRESS":"519 MCCONNEL POND RD","SITETYPE":"Camp","MAPYEAR":"Thu, 01 Jan 1998 00:00:00 GMT","SITETYPE_MULTI1":"","SITETYPE_MULTI2":"","SITETYPE_MULTI3":"","YearBuilt":null,"YearBuiltSrc":null,"YearBuiltNotes":"","ResUnitCnt":1,"NonResUnitCnt":0,"DateUpdate":"Fri, 05 Jan 2024 11:21:29 GMT","County":"Essex County","Inc_Muni":"Ferdinand","AddNum_Pre":null,"Add_Number":519,"AddNum_Suf":"","St_PreMod":"","St_PreDir":" ","St_PreTyp":"","St_PreSep":"","St_Name":"Mcconnel Pond","St_PosTyp":"Road","St_PosDir":" ","St_PosMod":"","ESN":"315","Post_Comm":"Island Pond","Post_Code":"05846","GlobalID":"c21853a3-1ff4-4a9c-88aa-05cf63a8d000","Category":"Residential"}},
{"type":"Feature","id":135431,"geometry":{"type":"Point","coordinates":[-71.8016084031013,44.7868593917614]},"properties":{"OBJECTID":135431,"ESITEID":305212,"PRIMARYNAME":"VT ROUTE 105","ALIAS1":"E BRIGHTON RD","ALIAS2":"","ALIAS3":"","ALIAS4":"","ALIAS5":"","PRIMARYADDRESS":"27 VT ROUTE 105","SITETYPE":"Single Family Dwelling","MAPYEAR":"Thu, 01 Jan 1998 00:00:00 GMT","SITETYPE_MULTI1":"","SITETYPE_MULTI2":"","SITETYPE_MULTI3":"","YearBuilt":null,"YearBuiltSrc":null,"YearBuiltNotes":"","ResUnitCnt":1,"NonResUnitCnt":0,"DateUpdate":"Wed, 02 Oct 2024 06:14:58 GMT","County":"Essex County","Inc_Muni":"Ferdinand","AddNum_Pre":null,"Add_Number":27,"AddNum_Suf":"","St_PreMod":"","St_PreDir":"","St_PreTyp":"Vermont Route","St_PreSep":"","St_Name":"105","St_PosTyp":"","St_PosDir":"","St_PosMod":"","ESN":"315","Post_Comm":"Island Pond","Post_Code":"05846","GlobalID":"72825d4f-1876-44eb-8777-8f7cc21f76bf","Category":"Residential"}},
{"type":"Feature","id":34911,"geometry":{"type":"Point","coordinates":[-71.8018243507124,44.7858033750553]},"properties":{"OBJECTID":34911,"ESITEID":305213,"PRIMARYNAME":"VT ROUTE 105","ALIAS1":"E BRIGHTON RD","ALIAS2":"","ALIAS3":"","ALIAS4":"","ALIAS5":"","PRIMARYADDRESS":"67 VT ROUTE 105","SITETYPE":"Single Family Dwelling","MAPYEAR":"Thu, 01 Jan 1998 00:00:00 GMT","SITETYPE_MULTI1":"","SITETYPE_MULTI2":"","SITETYPE_MULTI3":"","YearBuilt":null,"YearBuiltSrc":null,"YearBuiltNotes":"","ResUnitCnt":1,"NonResUnitCnt":0,"DateUpdate":"Wed, 02 Oct 2024 06:14:58 GMT","County":"Essex County","Inc_Muni":"Ferdinand","AddNum_Pre":null,"Add_Number":67,"AddNum_Suf":"","St_PreMod":"","St_PreDir":"","St_PreTyp":"Vermont Route","St_PreSep":"","St_Name":"105","St_PosTyp":"","St_PosDir":"","St_PosMod":"","ESN":"315","Post_Comm":"Island Pond","Post_Code":"05846","GlobalID":"b39a71a9-0e30-49e6-96c0-6cc708d2498f","Category":"Residential"}},
{"type":"Feature","id":201423,"geometry":{"type":"Point","coordinates":[-71.8009926089543,44.785707749294]},"properties":{"OBJECTID":201423,"ESITEID":305214,"PRIMARYNAME":"VT ROUTE 105","ALIAS1":"E BRIGHTON RD","ALIAS2":"","ALIAS3":"","ALIAS4":"","ALIAS5":"","PRIMARYADDRESS":"99 VT ROUTE 105","SITETYPE":"Mobile Home","MAPYEAR":"Thu, 01 Jan 1998 00:00:00 GMT","SITETYPE_MULTI1":"","SITETYPE_MULTI2":"","SITETYPE_MULTI3":"","YearBuilt":null,"YearBuiltSrc":null,"YearBuiltNotes":"","ResUnitCnt":1,"NonResUnitCnt":0,"DateUpdate":"Wed, 02 Oct 2024 06:14:58 GMT","County":"Essex County","Inc_Muni":"Ferdinand","AddNum_Pre":null,"Add_Number":99,"AddNum_Suf":"","St_PreMod":"","St_PreDir":"","St_PreTyp":"Vermont Route","St_PreSep":"","St_Name":"105","St_PosTyp":"","St_PosDir":"","St_PosMod":"","ESN":"315","Post_Comm":"Island Pond","Post_Code":"05846","GlobalID":"76baae79-7d70-4b83-9ca3-55872153c385","Category":"Residential"}},
{"type":"Feature","id":143266,"geometry":{"type":"Point","coordinates":[-71.8015075686564,44.7856967779985]},"properties":{"OBJECTID":143266,"ESITEID":305215,"PRIMARYNAME":"VT ROUTE 105","ALIAS1":"E BRIGHTON RD","ALIAS2":"","ALIAS3":"","ALIAS4":"","ALIAS5":"","PRIMARYADDRESS":"87 VT ROUTE 105","SITETYPE":"Single Family Dwelling","MAPYEAR":"Thu, 01 Jan 1998 00:00:00 GMT","SITETYPE_MULTI1":"","SITETYPE_MULTI2":"","SITETYPE_MULTI3":"","YearBuilt":null,"YearBuiltSrc":null,"YearBuiltNotes":"","ResUnitCnt":1,"NonResUnitCnt":0,"DateUpdate":"Wed, 02 Oct 2024 06:14:58 GMT","County":"Essex County","Inc_Muni":"Ferdinand","AddNum_Pre":null,"Add_Number":87,"AddNum_Suf":"","St_PreMod":"","St_PreDir":"","St_PreTyp":"Vermont Route","St_PreSep":"","St_Name":"105","St_PosTyp":"","St_PosDir":"","St_PosMod":"","ESN":"315","Post_Comm":"Island Pond","Post_Code":"05846","GlobalID":"dd0fc9c7-0507-4cdd-9121-ae0edf93d36e","Category":"Residential"}},
{"type":"Feature","id":235471,"geometry":{"type":"Point","coordinates":[-71.7949294925546,44.7842075277369]},"properties":{"OBJECTID":235471,"ESITEID":305216,"PRIMARYNAME":"VT ROUTE 105","ALIAS1":"E BRIGHTON RD","ALIAS2":"","ALIAS3":"","ALIAS4":"","ALIAS5":"","PRIMARYADDRESS":"419 VT ROUTE 105","SITETYPE":"Single Family Dwelling","MAPYEAR":"Thu, 01 Jan 1998 00:00:00 GMT","SITETYPE_MULTI1":"","SITETYPE_MULTI2":"","SITETYPE_MULTI3":"","YearBuilt":null,"YearBuiltSrc":null,"YearBuiltNotes":"","ResUnitCnt":1,"NonResUnitCnt":0,"DateUpdate":"Wed, 02 Oct 2024 06:14:58 GMT","County":"Essex County","Inc_Muni":"Ferdinand","AddNum_Pre":null,"Add_Number":419,"AddNum_Suf":"","St_PreMod":"","St_PreDir":"","St_PreTyp":"Vermont Route","St_PreSep":"","St_Name":"105","St_PosTyp":"","St_PosDir":"","St_PosMod":"","ESN":"315","Post_Comm":"Island Pond","Post_Code":"05846","GlobalID":"2eafd632-45b4-449b-8ad4-9cbd4afbccb9","Category":"Residential"}},
{"type":"Feature","id":85336,"geometry":{"type":"Point","coordinates":[-71.7939572695914,44.7840868534275]},"properties":{"OBJECTID":85336,"ESITEID":305217,"PRIMARYNAME":"VT ROUTE 105","ALIAS1":"E BRIGHTON RD","ALIAS2":"","ALIAS3":"","ALIAS4":"","ALIAS5":"","PRIMARYADDRESS":"463 VT ROUTE 105","SITETYPE":"Single Family Dwelling","MAPYEAR":"Thu, 01 Jan 1998 00:00:00 GMT","SITETYPE_MULTI1":"","SITETYPE_MULTI2":"","SITETYPE_MULTI3":"","YearBuilt":null,"YearBuiltSrc":null,"YearBuiltNotes":"","ResUnitCnt":1,"NonResUnitCnt":0,"DateUpdate":"Wed, 02 Oct 2024 06:14:58 GMT","County":"Essex County","Inc_Muni":"Ferdinand","AddNum_Pre":null,"Add_Number":463,"AddNum_Suf":"","St_PreMod":"","St_PreDir":"","St_PreTyp":"Vermont Route","St_PreSep":"","St_Name":"105","St_PosTyp":"","St_PosDir":"","St_PosMod":"","ESN":"315","Post_Comm":"Island Pond","Post_Code":"05846","GlobalID":"fe1c4945-8f13-46b1-bca5-fb1d85b0789c","Category":"Residential"}},
{"type":"Feature","id":153684,"geometry":{"type":"Point","coordinates":[-71.7758951466603,44.7836280217714]},"properties":{"OBJECTID":153684,"ESITEID":305218,"PRIMARYNAME":"FAY RD  ","ALIAS1":"","ALIAS2":"","ALIAS3":"","ALIAS4":"","ALIAS5":"","PRIMARYADDRESS":"280 FAY RD","SITETYPE":"Camp","MAPYEAR":"Thu, 01 Jan 1998 00:00:00 GMT","SITETYPE_MULTI1":"","SITETYPE_MULTI2":"","SITETYPE_MULTI3":"","YearBuilt":null,"YearBuiltSrc":null,"YearBuiltNotes":"","ResUnitCnt":1,"NonResUnitCnt":0,"DateUpdate":"Tue, 28 Mar 2023 14:14:05 GMT","County":"Essex County","Inc_Muni":"Ferdinand","AddNum_Pre":null,"Add_Number":280,"AddNum_Suf":"","St_PreMod":"","St_PreDir":" ","St_PreTyp":"","St_PreSep":"","St_Name":"Fay","St_PosTyp":"Road","St_PosDir":" ","St_PosMod":"","ESN":"315","Post_Comm":"Island Pond","Post_Code":"05846","GlobalID":"b449c972-d2ec-4108-b509-66bdbf482e4f","Category":"Residential"}},
{"type":"Feature","id":303118,"geometry":{"type":"Point","coordinates":[-71.7561074372903,44.7834128169934]},"properties":{"OBJECTID":303118,"ESITEID":305219,"PRIMARYNAME":"VT ROUTE 105","ALIAS1":"E BRIGHTON RD","ALIAS2":"","ALIAS3":"","ALIAS4":"","ALIAS5":"","PRIMARYADDRESS":"2435 VT ROUTE 105","SITETYPE":"Camp","MAPYEAR":"Thu, 01 Jan 1998 00:00:00 GMT","SITETYPE_MULTI1":"","SITETYPE_MULTI2":"","SITETYPE_MULTI3":"","YearBuilt":null,"YearBuiltSrc":null,"YearBuiltNotes":"","ResUnitCnt":1,"NonResUnitCnt":0,"DateUpdate":"Wed, 02 Oct 2024 06:14:58 GMT","County":"Essex County","Inc_Muni":"Ferdinand","AddNum_Pre":null,"Add_Number":2435,"AddNum_Suf":"","St_PreMod":"","St_PreDir":"","St_PreTyp":"Vermont Route","St_PreSep":"","St_Name":"105","St_PosTyp":"","St_PosDir":"","St_PosMod":"","ESN":"315","Post_Comm":"Island Pond","Post_Code":"05846","GlobalID":"71abbd1e-2dc3-4b2c-b434-1e464281eefc","Category":"Residential"}},
{"type":"Feature","id":323975,"geometry":{"type":"Point","coordinates":[-71.7734766270993,44.7835059513464]},"properties":{"OBJECTID":323975,"ESITEID":305220,"PRIMARYNAME":"FAY RD  ","ALIAS1":"","ALIAS2":"","ALIAS3":"","ALIAS4":"","ALIAS5":"","PRIMARYADDRESS":"70 FAY RD","SITETYPE":"Camp","MAPYEAR":"Thu, 01 Jan 1998 00:00:00 GMT","SITETYPE_MULTI1":"","SITETYPE_MULTI2":"","SITETYPE_MULTI3":"","YearBuilt":null,"YearBuiltSrc":null,"YearBuiltNotes":"","ResUnitCnt":1,"NonResUnitCnt":0,"DateUpdate":"Tue, 28 Mar 2023 14:14:05 GMT","County":"Essex County","Inc_Muni":"Ferdinand","AddNum_Pre":null,"Add_Number":70,"AddNum_Suf":"","St_PreMod":"","St_PreDir":" ","St_PreTyp":"","St_PreSep":"","St_Name":"Fay","St_PosTyp":"Road","St_PosDir":" ","St_PosMod":"","ESN":"315","Post_Comm":"Island Pond","Post_Code":"05846","GlobalID":"27c229bc-6544-4423-9b58-39434eee7893","Category":"Residential"}},
{"type":"Feature","id":315912,"geometry":{"type":"Point","coordinates":[-71.7931242482642,44.7834495431938]},"properties":{"OBJECTID":315912,"ESITEID":305221,"PRIMARYNAME":"VT ROUTE 105","ALIAS1":"E BRIGHTON RD","ALIAS2":"","ALIAS3":"","ALIAS4":"","ALIAS5":"","PRIMARYADDRESS":"537 VT ROUTE 105","SITETYPE":"Mobile Home","MAPYEAR":"Thu, 01 Jan 1998 00:00:00 GMT","SITETYPE_MULTI1":"","SITETYPE_MULTI2":"","SITETYPE_MULTI3":"","YearBuilt":null,"YearBuiltSrc":null,"YearBuiltNotes":"","ResUnitCnt":1,"NonResUnitCnt":0,"DateUpdate":"Wed, 02 Oct 2024 06:14:58 GMT","County":"Essex County","Inc_Muni":"Ferdinand","AddNum_Pre":null,"Add_Number":537,"AddNum_Suf":"","St_PreMod":"","St_PreDir":"","St_PreTyp":"Vermont Route","St_PreSep":"","St_Name":"105","St_PosTyp":"","St_PosDir":"","St_PosMod":"","ESN":"315","Post_Comm":"Island Pond","Post_Code":"05846","GlobalID":"4552b5b9-9fa8-4759-a4f6-b63dbfdb472b","Category":"Residential"}},
{"type":"Feature","id":231333,"geometry":{"type":"Point","coordinates":[-71.7760629921379,44.7830787052343]},"properties":{"OBJECTID":231333,"ESITEID":305222,"PRIMARYNAME":"FAY RD  ","ALIAS1":"","ALIAS2":"","ALIAS3":"","ALIAS4":"","ALIAS5":"","PRIMARYADDRESS":"245 FAY RD","SITETYPE":"Camp","MAPYEAR":"Thu, 01 Jan 1998 00:00:00 GMT","SITETYPE_MULTI1":"","SITETYPE_MULTI2":"","SITETYPE_MULTI3":"","YearBuilt":null,"YearBuiltSrc":null,"YearBuiltNotes":"","ResUnitCnt":1,"NonResUnitCnt":0,"DateUpdate":"Tue, 28 Mar 2023 14:14:05 GMT","County":"Essex County","Inc_Muni":"Ferdinand","AddNum_Pre":null,"Add_Number":245,"AddNum_Suf":"","St_PreMod":"","St_PreDir":" ","St_PreTyp":"","St_PreSep":"","St_Name":"Fay","St_PosTyp":"Road","St_PosDir":" ","St_PosMod":"","ESN":"315","Post_Comm":"Island Pond","Post_Code":"05846","GlobalID":"91944dea-3ed3-42e4-a698-778f29e79bae","Category":"Residential"}},
{"type":"Feature","id":161400,"geometry":{"type":"Point","coordinates":[-71.7773142142925,44.7829947818784]},"properties":{"OBJECTID":161400,"ESITEID":305223,"PRIMARYNAME":"FAY RD  ","ALIAS1":"","ALIAS2":"","ALIAS3":"","ALIAS4":"","ALIAS5":"","PRIMARYADDRESS":"161 FAY RD","SITETYPE":"Camp","MAPYEAR":"Thu, 01 Jan 1998 00:00:00 GMT","SITETYPE_MULTI1":"","SITETYPE_MULTI2":"","SITETYPE_MULTI3":"","YearBuilt":null,"YearBuiltSrc":null,"YearBuiltNotes":"","ResUnitCnt":1,"NonResUnitCnt":0,"DateUpdate":"Tue, 28 Mar 2023 14:14:05 GMT","County":"Essex County","Inc_Muni":"Ferdinand","AddNum_Pre":null,"Add_Number":161,"AddNum_Suf":"","St_PreMod":"","St_PreDir":" ","St_PreTyp":"","St_PreSep":"","St_Name":"Fay","St_PosTyp":"Road","St_PosDir":" ","St_PosMod":"","ESN":"315","Post_Comm":"Island Pond","Post_Code":"05846","GlobalID":"2a085e07-e495-4de2-a259-118a3b6d1069","Category":"Residential"}},
{"type":"Feature","id":318341,"geometry":{"type":"Point","coordinates":[-71.7911148544281,44.7831022176846]},"properties":{"OBJECTID":318341,"ESITEID":305224,"PRIMARYNAME":"VT ROUTE 105","ALIAS1":"E BRIGHTON RD","ALIAS2":"","ALIAS3":"","ALIAS4":"","ALIAS5":"","PRIMARYADDRESS":"641 VT ROUTE 105","SITETYPE":"Single Family Dwelling","MAPYEAR":"Thu, 01 Jan 1998 00:00:00 GMT","SITETYPE_MULTI1":"","SITETYPE_MULTI2":"","SITETYPE_MULTI3":"","YearBuilt":null,"YearBuiltSrc":null,"YearBuiltNotes":"","ResUnitCnt":1,"NonResUnitCnt":0,"DateUpdate":"Wed, 02 Oct 2024 06:14:58 GMT","County":"Essex County","Inc_Muni":"Ferdinand","AddNum_Pre":null,"Add_Number":641,"AddNum_Suf":"","St_PreMod":"","St_PreDir":"","St_PreTyp":"Vermont Route","St_PreSep":"","St_Name":"105","St_PosTyp":"","St_PosDir":"","St_PosMod":"","ESN":"315","Post_Comm":"Island Pond","Post_Code":"05846","GlobalID":"c408800b-4cc3-4f8f-b471-93c1a1d6c476","Category":"Residential"}},
{"type":"Feature","id":226307,"geometry":{"type":"Point","coordinates":[-71.7899332369055,44.7828727108335]},"properties":{"OBJECTID":226307,"ESITEID":305225,"PRIMARYNAME":"VT ROUTE 105","ALIAS1":"E BRIGHTON RD","ALIAS2":"","ALIAS3":"","ALIAS4":"","ALIAS5":"","PRIMARYADDRESS":"683 VT ROUTE 105","SITETYPE":"Mobile Home","MAPYEAR":"Thu, 01 Jan 1998 00:00:00 GMT","SITETYPE_MULTI1":"","SITETYPE_MULTI2":"","SITETYPE_MULTI3":"","YearBuilt":null,"YearBuiltSrc":null,"YearBuiltNotes":"","ResUnitCnt":1,"NonResUnitCnt":0,"DateUpdate":"Wed, 02 Oct 2024 06:14:58 GMT","County":"Essex County","Inc_Muni":"Ferdinand","AddNum_Pre":null,"Add_Number":683,"AddNum_Suf":"","St_PreMod":"","St_PreDir":"","St_PreTyp":"Vermont Route","St_PreSep":"","St_Name":"105","St_PosTyp":"","St_PosDir":"","St_PosMod":"","ESN":"315","Post_Comm":"Island Pond","Post_Code":"05846","GlobalID":"c2044703-a8aa-4084-b6f2-33d224b58b15","Category":"Residential"}},
{"type":"Feature","id":275022,"geometry":{"type":"Point","coordinates":[-71.7866417553443,44.7820557310475]},"properties":{"OBJECTID":275022,"ESITEID":305226,"PRIMARYNAME":"VT ROUTE 105","ALIAS1":"E BRIGHTON RD","ALIAS2":"","ALIAS3":"","ALIAS4":"","ALIAS5":"","PRIMARYADDRESS":"903 VT ROUTE 105","SITETYPE":"Camp","MAPYEAR":"Thu, 01 Jan 1998 00:00:00 GMT","SITETYPE_MULTI1":"","SITETYPE_MULTI2":"","SITETYPE_MULTI3":"","YearBuilt":null,"YearBuiltSrc":null,"YearBuiltNotes":"","ResUnitCnt":1,"NonResUnitCnt":0,"DateUpdate":"Wed, 02 Oct 2024 06:14:58 GMT","County":"Essex County","Inc_Muni":"Ferdinand","AddNum_Pre":null,"Add_Number":903,"AddNum_Suf":"","St_PreMod":"","St_PreDir":"","St_PreTyp":"Vermont Route","St_PreSep":"","St_Name":"105","St_PosTyp":"","St_PosDir":"","St_PosMod":"","ESN":"315","Post_Comm":"Island Pond","Post_Code":"05846","GlobalID":"6903addc-be88-468f-823f-485ca32b765c","Category":"Residential"}},
{"type":"Feature","id":322225,"geometry":{"type":"Point","coordinates":[-71.7876720761574,44.7820181734242]},"properties":{"OBJECTID":322225,"ESITEID":305227,"PRIMARYNAME":"VT ROUTE 105","ALIAS1":"E BRIGHTON RD","ALIAS2":"","ALIAS3":"","ALIAS4":"","ALIAS5":"","PRIMARYADDRESS":"805 VT ROUTE 105","SITETYPE":"Mobile Home","MAPYEAR":"Thu, 01 Jan 1998 00:00:00 GMT","SITETYPE_MULTI1":"","SITETYPE_MULTI2":"","SITETYPE_MULTI3":"","YearBuilt":null,"YearBuiltSrc":null,"YearBuiltNotes":"","ResUnitCnt":1,"NonResUnitCnt":0,"DateUpdate":"Wed, 02 Oct 2024 06:14:58 GMT","County":"Essex County","Inc_Muni":"Ferdinand","AddNum_Pre":null,"Add_Number":805,"AddNum_Suf":"","St_PreMod":"","St_PreDir":"","St_PreTyp":"Vermont Route","St_PreSep":"","St_Name":"105","St_PosTyp":"","St_PosDir":"","St_PosMod":"","ESN":"315","Post_Comm":"Island Pond","Post_Code":"05846","GlobalID":"bd2d6fe7-d276-4996-80af-a426d19581f7","Category":"Residential"}},
{"type":"Feature","id":132726,"geometry":{"type":"Point","coordinates":[-71.7854949177291,44.7817260522615]},"properties":{"OBJECTID":132726,"ESITEID":305228,"PRIMARYNAME":"VT ROUTE 105","ALIAS1":"E BRIGHTON RD","ALIAS2":"","ALIAS3":"","ALIAS4":"","ALIAS5":"","PRIMARYADDRESS":"905 VT ROUTE 105","SITETYPE":"Single Family Dwelling","MAPYEAR":"Thu, 01 Jan 1998 00:00:00 GMT","SITETYPE_MULTI1":"","SITETYPE_MULTI2":"","SITETYPE_MULTI3":"","YearBuilt":null,"YearBuiltSrc":null,"YearBuiltNotes":"","ResUnitCnt":1,"NonResUnitCnt":0,"DateUpdate":"Wed, 02 Oct 2024 06:14:58 GMT","County":"Essex County","Inc_Muni":"Ferdinand","AddNum_Pre":null,"Add_Number":905,"AddNum_Suf":"","St_PreMod":"","St_PreDir":"","St_PreTyp":"Vermont Route","St_PreSep":"","St_Name":"105","St_PosTyp":"","St_PosDir":"","St_PosMod":"","ESN":"315","Post_Comm":"Island Pond","Post_Code":"05846","GlobalID":"c5e9ab77-93fd-4b42-937b-b1375f5f5058","Category":"Residential"}},
{"type":"Feature","id":217030,"geometry":{"type":"Point","coordinates":[-71.8061457058305,44.7810607291059]},"properties":{"OBJECTID":217030,"ESITEID":305229,"PRIMARYNAME":"WALKER RD  ","ALIAS1":"","ALIAS2":"","ALIAS3":"","ALIAS4":"","ALIAS5":"","PRIMARYADDRESS":"197 WALKER RD","SITETYPE":"Camp","MAPYEAR":"Thu, 01 Jan 1998 00:00:00 GMT","SITETYPE_MULTI1":"","SITETYPE_MULTI2":"","SITETYPE_MULTI3":"","YearBuilt":null,"YearBuiltSrc":null,"YearBuiltNotes":"","ResUnitCnt":1,"NonResUnitCnt":0,"DateUpdate":"Tue, 28 Mar 2023 14:14:05 GMT","County":"Essex County","Inc_Muni":"Ferdinand","AddNum_Pre":null,"Add_Number":197,"AddNum_Suf":"","St_PreMod":"","St_PreDir":" ","St_PreTyp":"","St_PreSep":"","St_Name":"Walker","St_PosTyp":"Road","St_PosDir":" ","St_PosMod":"","ESN":"315","Post_Comm":"Island Pond","Post_Code":"05846","GlobalID":"5b2e995c-a868-4833-a9b2-978bde3e55e4","Category":"Residential"}},
{"type":"Feature","id":173487,"geometry":{"type":"Point","coordinates":[-71.7742550870585,44.780406221542]},"properties":{"OBJECTID":173487,"ESITEID":305231,"PRIMARYNAME":"VT ROUTE 105","ALIAS1":"E BRIGHTON RD","ALIAS2":"","ALIAS3":"","ALIAS4":"","ALIAS5":"","PRIMARYADDRESS":"1569 VT ROUTE 105","SITETYPE":"Single Family Dwelling","MAPYEAR":"Thu, 01 Jan 1998 00:00:00 GMT","SITETYPE_MULTI1":"","SITETYPE_MULTI2":"","SITETYPE_MULTI3":"","YearBuilt":null,"YearBuiltSrc":null,"YearBuiltNotes":"","ResUnitCnt":1,"NonResUnitCnt":0,"DateUpdate":"Wed, 02 Oct 2024 06:14:58 GMT","County":"Essex County","Inc_Muni":"Ferdinand","AddNum_Pre":null,"Add_Number":1569,"AddNum_Suf":"","St_PreMod":"","St_PreDir":"","St_PreTyp":"Vermont Route","St_PreSep":"","St_Name":"105","St_PosTyp":"","St_PosDir":"","St_PosMod":"","ESN":"315","Post_Comm":"Island Pond","Post_Code":"05846","GlobalID":"0dd0f7ce-7ffd-4a7c-9414-7f4bdbeea106","Category":"Residential"}},
{"type":"Feature","id":272209,"geometry":{"type":"Point","coordinates":[-71.7689356024432,44.7799473953391]},"properties":{"OBJECTID":272209,"ESITEID":305232,"PRIMARYNAME":"VT ROUTE 105","ALIAS1":"E BRIGHTON RD","ALIAS2":"","ALIAS3":"","ALIAS4":"","ALIAS5":"","PRIMARYADDRESS":"1798 VT ROUTE 105","SITETYPE":"Camp","MAPYEAR":"Thu, 01 Jan 1998 00:00:00 GMT","SITETYPE_MULTI1":"","SITETYPE_MULTI2":"","SITETYPE_MULTI3":"","YearBuilt":null,"YearBuiltSrc":null,"YearBuiltNotes":"","ResUnitCnt":1,"NonResUnitCnt":0,"DateUpdate":"Wed, 02 Oct 2024 06:14:58 GMT","County":"Essex County","Inc_Muni":"Ferdinand","AddNum_Pre":null,"Add_Number":1798,"AddNum_Suf":"","St_PreMod":"","St_PreDir":"","St_PreTyp":"Vermont Route","St_PreSep":"","St_Name":"105","St_PosTyp":"","St_PosDir":"","St_PosMod":"","ESN":"315","Post_Comm":"Island Pond","Post_Code":"05846","GlobalID":"f052308c-c0c9-47cc-800d-349dfb686c0f","Category":"Residential"}},
{"type":"Feature","id":280680,"geometry":{"type":"Point","coordinates":[-71.7735885109852,44.7797966340428]},"properties":{"OBJECTID":280680,"ESITEID":305233,"PRIMARYNAME":"VT ROUTE 105","ALIAS1":"E BRIGHTON RD","ALIAS2":"","ALIAS3":"","ALIAS4":"","ALIAS5":"","PRIMARYADDRESS":"1568 VT ROUTE 105","SITETYPE":"Residential Other","MAPYEAR":"Thu, 01 Jan 1998 00:00:00 GMT","SITETYPE_MULTI1":"","SITETYPE_MULTI2":"","SITETYPE_MULTI3":"","YearBuilt":null,"YearBuiltSrc":null,"YearBuiltNotes":"","ResUnitCnt":1,"NonResUnitCnt":0,"DateUpdate":"Wed, 02 Oct 2024 06:14:58 GMT","County":"Essex County","Inc_Muni":"Ferdinand","AddNum_Pre":null,"Add_Number":1568,"AddNum_Suf":"","St_PreMod":"","St_PreDir":"","St_PreTyp":"Vermont Route","St_PreSep":"","St_Name":"105","St_PosTyp":"","St_PosDir":"","St_PosMod":"","ESN":"315","Post_Comm":"Island Pond","Post_Code":"05846","GlobalID":"d5c55cf5-4df0-46ca-9ac0-1628ffc2e742","Category":"Residential"}},
{"type":"Feature","id":9160,"geometry":{"type":"Point","coordinates":[-71.8013418323278,44.7792010816097]},"properties":{"OBJECTID":9160,"ESITEID":305234,"PRIMARYNAME":"WALKER RD  ","ALIAS1":"","ALIAS2":"","ALIAS3":"","ALIAS4":"","ALIAS5":"","PRIMARYADDRESS":"433 WALKER RD","SITETYPE":"Single Family Dwelling","MAPYEAR":"Thu, 01 Jan 1998 00:00:00 GMT","SITETYPE_MULTI1":"","SITETYPE_MULTI2":"","SITETYPE_MULTI3":"","YearBuilt":null,"YearBuiltSrc":null,"YearBuiltNotes":"","ResUnitCnt":1,"NonResUnitCnt":0,"DateUpdate":"Tue, 28 Mar 2023 14:14:05 GMT","County":"Essex County","Inc_Muni":"Ferdinand","AddNum_Pre":null,"Add_Number":433,"AddNum_Suf":"","St_PreMod":"","St_PreDir":" ","St_PreTyp":"","St_PreSep":"","St_Name":"Walker","St_PosTyp":"Road","St_PosDir":" ","St_PosMod":"","ESN":"315","Post_Comm":"Island Pond","Post_Code":"05846","GlobalID":"42c15381-bd90-4620-b6c1-bcca0ce3a765","Category":"Residential"}},
{"type":"Feature","id":120776,"geometry":{"type":"Point","coordinates":[-71.7458504696142,44.7802078028122]},"properties":{"OBJECTID":120776,"ESITEID":305235,"PRIMARYNAME":"LEWIS POND RD","ALIAS1":"","ALIAS2":"","ALIAS3":"","ALIAS4":"","ALIAS5":"","PRIMARYADDRESS":"267 LEWIS POND RD","SITETYPE":"Camp","MAPYEAR":"Thu, 01 Jan 1998 00:00:00 GMT","SITETYPE_MULTI1":"","SITETYPE_MULTI2":"","SITETYPE_MULTI3":"","YearBuilt":null,"YearBuiltSrc":null,"YearBuiltNotes":"","ResUnitCnt":1,"NonResUnitCnt":0,"DateUpdate":"Fri, 05 Jan 2024 11:14:41 GMT","County":"Essex County","Inc_Muni":"Ferdinand","AddNum_Pre":null,"Add_Number":267,"AddNum_Suf":"","St_PreMod":"","St_PreDir":" ","St_PreTyp":"","St_PreSep":"","St_Name":"Lewis Pond","St_PosTyp":"Road","St_PosDir":" ","St_PosMod":"","ESN":"315","Post_Comm":"Island Pond","Post_Code":"05846","GlobalID":"220021a1-064e-40db-95af-96f47bf4c8b1","Category":"Residential"}},
{"type":"Feature","id":285276,"geometry":{"type":"Point","coordinates":[-71.7709599493006,44.7784349667057]},"properties":{"OBJECTID":285276,"ESITEID":305236,"PRIMARYNAME":"VT ROUTE 105","ALIAS1":"E BRIGHTON RD","ALIAS2":"","ALIAS3":"","ALIAS4":"","ALIAS5":"","PRIMARYADDRESS":"1518 VT ROUTE 105","SITETYPE":"Camp","MAPYEAR":"Thu, 01 Jan 1998 00:00:00 GMT","SITETYPE_MULTI1":"","SITETYPE_MULTI2":"","SITETYPE_MULTI3":"","YearBuilt":null,"YearBuiltSrc":null,"YearBuiltNotes":"","ResUnitCnt":1,"NonResUnitCnt":0,"DateUpdate":"Wed, 02 Oct 2024 06:14:58 GMT","County":"Essex County","Inc_Muni":"Ferdinand","AddNum_Pre":null,"Add_Number":1518,"AddNum_Suf":"","St_PreMod":"","St_PreDir":"","St_PreTyp":"Vermont Route","St_PreSep":"","St_Name":"105","St_PosTyp":"","St_PosDir":"","St_PosMod":"","ESN":"315","Post_Comm":"Island Pond","Post_Code":"05846","GlobalID":"f38cdf38-7faa-4359-b05d-a2d347179a4a","Category":"Residential"}},
{"type":"Feature","id":273366,"geometry":{"type":"Point","coordinates":[-71.7508622394084,44.7772324673712]},"properties":{"OBJECTID":273366,"ESITEID":305237,"PRIMARYNAME":"VT ROUTE 105","ALIAS1":"E BRIGHTON RD","ALIAS2":"","ALIAS3":"","ALIAS4":"","ALIAS5":"","PRIMARYADDRESS":"2706 VT ROUTE 105","SITETYPE":"Camp","MAPYEAR":"Thu, 01 Jan 1998 00:00:00 GMT","SITETYPE_MULTI1":"","SITETYPE_MULTI2":"","SITETYPE_MULTI3":"","YearBuilt":null,"YearBuiltSrc":null,"YearBuiltNotes":"","ResUnitCnt":1,"NonResUnitCnt":0,"DateUpdate":"Wed, 02 Oct 2024 06:14:58 GMT","County":"Essex County","Inc_Muni":"Ferdinand","AddNum_Pre":null,"Add_Number":2706,"AddNum_Suf":"","St_PreMod":"","St_PreDir":"","St_PreTyp":"Vermont Route","St_PreSep":"","St_Name":"105","St_PosTyp":"","St_PosDir":"","St_PosMod":"","ESN":"315","Post_Comm":"Island Pond","Post_Code":"05846","GlobalID":"639edb70-b239-45dc-8365-6fb8814f5617","Category":"Residential"}},
{"type":"Feature","id":5399,"geometry":{"type":"Point","coordinates":[-71.7546071875659,44.7770027244141]},"properties":{"OBJECTID":5399,"ESITEID":305239,"PRIMARYNAME":"PAUL MENARD DR","ALIAS1":"E BRIGHTON RD","ALIAS2":"","ALIAS3":"","ALIAS4":"","ALIAS5":"","PRIMARYADDRESS":"331 PAUL MENARD DR","SITETYPE":"General Business Service","MAPYEAR":"Thu, 01 Jan 1998 00:00:00 GMT","SITETYPE_MULTI1":"","SITETYPE_MULTI2":"","SITETYPE_MULTI3":"","YearBuilt":null,"YearBuiltSrc":null,"YearBuiltNotes":"","ResUnitCnt":1,"NonResUnitCnt":0,"DateUpdate":"Sat, 28 Jan 2023 00:33:43 GMT","County":"Essex County","Inc_Muni":"Ferdinand","AddNum_Pre":null,"Add_Number":331,"AddNum_Suf":"","St_PreMod":"","St_PreDir":"","St_PreTyp":"","St_PreSep":"","St_Name":"Paul Menard","St_PosTyp":"Drive","St_PosDir":"","St_PosMod":"","ESN":"315","Post_Comm":"Island Pond","Post_Code":"05846","GlobalID":"98332dda-e929-4dbd-a59b-426b2fd1ce54","Category":"Commercial"}},
{"type":"Feature","id":344529,"geometry":{"type":"Point","coordinates":[-71.8007593523694,44.776589902333]},"properties":{"OBJECTID":344529,"ESITEID":305241,"PRIMARYNAME":"WALKER RD  ","ALIAS1":"","ALIAS2":"","ALIAS3":"","ALIAS4":"","ALIAS5":"","PRIMARYADDRESS":"368 WALKER RD","SITETYPE":"Camp","MAPYEAR":"Thu, 01 Jan 1998 00:00:00 GMT","SITETYPE_MULTI1":"","SITETYPE_MULTI2":"","SITETYPE_MULTI3":"","YearBuilt":null,"YearBuiltSrc":null,"YearBuiltNotes":"","ResUnitCnt":1,"NonResUnitCnt":0,"DateUpdate":"Tue, 28 Mar 2023 14:14:05 GMT","County":"Essex County","Inc_Muni":"Ferdinand","AddNum_Pre":null,"Add_Number":368,"AddNum_Suf":"","St_PreMod":"","St_PreDir":" ","St_PreTyp":"","St_PreSep":"","St_Name":"Walker","St_PosTyp":"Road","St_PosDir":" ","St_PosMod":"","ESN":"315","Post_Comm":"Island Pond","Post_Code":"05846","GlobalID":"d5d343c9-d96f-431a-8ac7-729bd3a4c9ef","Category":"Residential"}},
{"type":"Feature","id":92170,"geometry":{"type":"Point","coordinates":[-71.7599429002906,44.775091626096]},"properties":{"OBJECTID":92170,"ESITEID":305243,"PRIMARYNAME":"S AMERICA POND RD","ALIAS1":"","ALIAS2":"","ALIAS3":"","ALIAS4":"","ALIAS5":"","PRIMARYADDRESS":"1438 S AMERICA POND RD","SITETYPE":"Camp","MAPYEAR":"Thu, 01 Jan 1998 00:00:00 GMT","SITETYPE_MULTI1":"","SITETYPE_MULTI2":"","SITETYPE_MULTI3":"","YearBuilt":null,"YearBuiltSrc":null,"YearBuiltNotes":"","ResUnitCnt":1,"NonResUnitCnt":0,"DateUpdate":"Tue, 28 Mar 2023 14:13:57 GMT","County":"Essex County","Inc_Muni":"Ferdinand","AddNum_Pre":null,"Add_Number":1438,"AddNum_Suf":"","St_PreMod":"","St_PreDir":"South","St_PreTyp":"","St_PreSep":"","St_Name":"America Pond","St_PosTyp":"Road","St_PosDir":" ","St_PosMod":"","ESN":"315","Post_Comm":"Island Pond","Post_Code":"05846","GlobalID":"7b79b808-ae89-46db-8d00-e550f27fb8b9","Category":"Residential"}},
{"type":"Feature","id":314034,"geometry":{"type":"Point","coordinates":[-71.8013078195615,44.7735695874771]},"properties":{"OBJECTID":314034,"ESITEID":305245,"PRIMARYNAME":"WALKER RD  ","ALIAS1":"","ALIAS2":"","ALIAS3":"","ALIAS4":"","ALIAS5":"","PRIMARYADDRESS":"78 WALKER RD","SITETYPE":"Camp","MAPYEAR":"Thu, 01 Jan 1998 00:00:00 GMT","SITETYPE_MULTI1":"","SITETYPE_MULTI2":"","SITETYPE_MULTI3":"","YearBuilt":null,"YearBuiltSrc":null,"YearBuiltNotes":"","ResUnitCnt":1,"NonResUnitCnt":0,"DateUpdate":"Tue, 28 Mar 2023 14:14:05 GMT","County":"Essex County","Inc_Muni":"Ferdinand","AddNum_Pre":null,"Add_Number":78,"AddNum_Suf":"","St_PreMod":"","St_PreDir":" ","St_PreTyp":"","St_PreSep":"","St_Name":"Walker","St_PosTyp":"Road","St_PosDir":" ","St_PosMod":"","ESN":"315","Post_Comm":"Island Pond","Post_Code":"05846","GlobalID":"229ca106-31d3-4420-8d42-2498e6ac02c4","Category":"Residential"}},
{"type":"Feature","id":131164,"geometry":{"type":"Point","coordinates":[-71.7418830861382,44.7725342679622]},"properties":{"OBJECTID":131164,"ESITEID":305247,"PRIMARYNAME":"VT ROUTE 105","ALIAS1":"E BRIGHTON RD","ALIAS2":"","ALIAS3":"","ALIAS4":"","ALIAS5":"","PRIMARYADDRESS":"3253 VT ROUTE 105","SITETYPE":"Camp","MAPYEAR":"Thu, 01 Jan 1998 00:00:00 GMT","SITETYPE_MULTI1":"","SITETYPE_MULTI2":"","SITETYPE_MULTI3":"","YearBuilt":null,"YearBuiltSrc":null,"YearBuiltNotes":"","ResUnitCnt":1,"NonResUnitCnt":0,"DateUpdate":"Wed, 02 Oct 2024 06:14:58 GMT","County":"Essex County","Inc_Muni":"Ferdinand","AddNum_Pre":null,"Add_Number":3253,"AddNum_Suf":"","St_PreMod":"","St_PreDir":"","St_PreTyp":"Vermont Route","St_PreSep":"","St_Name":"105","St_PosTyp":"","St_PosDir":"","St_PosMod":"","ESN":"315","Post_Comm":"Island Pond","Post_Code":"05846","GlobalID":"49d0b983-4a3e-45d5-a7cc-4cf4e6347db6","Category":"Residential"}},
{"type":"Feature","id":44766,"geometry":{"type":"Point","coordinates":[-71.7641458739466,44.7703643164915]},"properties":{"OBJECTID":44766,"ESITEID":305248,"PRIMARYNAME":"S AMERICA POND RD  ","ALIAS1":"","ALIAS2":"","ALIAS3":"","ALIAS4":"","ALIAS5":"","PRIMARYADDRESS":"1436 S AMERICA POND RD","SITETYPE":"Camp","MAPYEAR":"Thu, 01 Jan 1998 00:00:00 GMT","SITETYPE_MULTI1":"","SITETYPE_MULTI2":"","SITETYPE_MULTI3":"","YearBuilt":null,"YearBuiltSrc":null,"YearBuiltNotes":"","ResUnitCnt":1,"NonResUnitCnt":0,"DateUpdate":"Tue, 28 Mar 2023 14:13:57 GMT","County":"Essex County","Inc_Muni":"Ferdinand","AddNum_Pre":null,"Add_Number":1436,"AddNum_Suf":"","St_PreMod":"","St_PreDir":"South","St_PreTyp":"","St_PreSep":"","St_Name":"America Pond","St_PosTyp":"Road","St_PosDir":" ","St_PosMod":"","ESN":"315","Post_Comm":"Island Pond","Post_Code":"05846","GlobalID":"3a05e33f-03df-4723-9824-b4ec3e927654","Category":"Residential"}},
{"type":"Feature","id":285189,"geometry":{"type":"Point","coordinates":[-71.7241602025955,44.7611937840513]},"properties":{"OBJECTID":285189,"ESITEID":305249,"PRIMARYNAME":"VT ROUTE 105","ALIAS1":"E BRIGHTON RD","ALIAS2":"","ALIAS3":"","ALIAS4":"","ALIAS5":"","PRIMARYADDRESS":"4507 VT ROUTE 105","SITETYPE":"Camp","MAPYEAR":"Thu, 01 Jan 1998 00:00:00 GMT","SITETYPE_MULTI1":"","SITETYPE_MULTI2":"","SITETYPE_MULTI3":"","YearBuilt":null,"YearBuiltSrc":null,"YearBuiltNotes":"","ResUnitCnt":1,"NonResUnitCnt":0,"DateUpdate":"Wed, 02 Oct 2024 06:14:58 GMT","County":"Essex County","Inc_Muni":"Ferdinand","AddNum_Pre":null,"Add_Number":4507,"AddNum_Suf":"","St_PreMod":"","St_PreDir":"","St_PreTyp":"Vermont Route","St_PreSep":"","St_Name":"105","St_PosTyp":"","St_PosDir":"","St_PosMod":"","ESN":"315","Post_Comm":"Island Pond","Post_Code":"05846","GlobalID":"ab6a3844-ea8b-41d9-afd4-cd5652f2b85f","Category":"Residential"}},
{"type":"Feature","id":35499,"geometry":{"type":"Point","coordinates":[-71.727917998035,44.7587482056693]},"properties":{"OBJECTID":35499,"ESITEID":305250,"PRIMARYNAME":"S AMERICA POND RD  ","ALIAS1":"","ALIAS2":"","ALIAS3":"","ALIAS4":"","ALIAS5":"","PRIMARYADDRESS":"123 S AMERICA POND RD","SITETYPE":"Camp","MAPYEAR":"Thu, 01 Jan 1998 00:00:00 GMT","SITETYPE_MULTI1":"","SITETYPE_MULTI2":"","SITETYPE_MULTI3":"","YearBuilt":null,"YearBuiltSrc":null,"YearBuiltNotes":"","ResUnitCnt":1,"NonResUnitCnt":0,"DateUpdate":"Tue, 28 Mar 2023 14:13:57 GMT","County":"Essex County","Inc_Muni":"Ferdinand","AddNum_Pre":null,"Add_Number":123,"AddNum_Suf":"","St_PreMod":"","St_PreDir":"South","St_PreTyp":"","St_PreSep":"","St_Name":"America Pond","St_PosTyp":"Road","St_PosDir":" ","St_PosMod":"","ESN":"315","Post_Comm":"Island Pond","Post_Code":"05846","GlobalID":"12e0d676-c1b4-46cb-aea7-a500fe96bb4c","Category":"Residential"}},
{"type":"Feature","id":32841,"geometry":{"type":"Point","coordinates":[-71.7192340746138,44.7578540348638]},"properties":{"OBJECTID":32841,"ESITEID":305251,"PRIMARYNAME":"MR B RD  ","ALIAS1":"","ALIAS2":"","ALIAS3":"","ALIAS4":"","ALIAS5":"","PRIMARYADDRESS":"141 MR B RD","SITETYPE":"Camp","MAPYEAR":"Thu, 01 Jan 1998 00:00:00 GMT","SITETYPE_MULTI1":"","SITETYPE_MULTI2":"","SITETYPE_MULTI3":"","YearBuilt":null,"YearBuiltSrc":null,"YearBuiltNotes":"","ResUnitCnt":1,"NonResUnitCnt":0,"DateUpdate":"Tue, 28 Mar 2023 14:14:05 GMT","County":"Essex County","Inc_Muni":"Ferdinand","AddNum_Pre":null,"Add_Number":141,"AddNum_Suf":"","St_PreMod":"","St_PreDir":" ","St_PreTyp":"","St_PreSep":"","St_Name":"Mr B","St_PosTyp":"Road","St_PosDir":" ","St_PosMod":"","ESN":"315","Post_Comm":"Island Pond","Post_Code":"05846","GlobalID":"22ea3215-f067-4527-9e41-9d0556164a00","Category":"Residential"}},
{"type":"Feature","id":237185,"geometry":{"type":"Point","coordinates":[-71.7227487643627,44.7562728249737]},"properties":{"OBJECTID":237185,"ESITEID":305252,"PRIMARYNAME":"MR B RD  ","ALIAS1":"","ALIAS2":"","ALIAS3":"","ALIAS4":"","ALIAS5":"","PRIMARYADDRESS":"294 MR B RD","SITETYPE":"Camp","MAPYEAR":"Thu, 01 Jan 1998 00:00:00 GMT","SITETYPE_MULTI1":"","SITETYPE_MULTI2":"","SITETYPE_MULTI3":"","YearBuilt":null,"YearBuiltSrc":null,"YearBuiltNotes":"","ResUnitCnt":1,"NonResUnitCnt":0,"DateUpdate":"Tue, 28 Mar 2023 14:14:05 GMT","County":"Essex County","Inc_Muni":"Ferdinand","AddNum_Pre":null,"Add_Number":294,"AddNum_Suf":"","St_PreMod":"","St_PreDir":" ","St_PreTyp":"","St_PreSep":"","St_Name":"Mr B","St_PosTyp":"Road","St_PosDir":" ","St_PosMod":"","ESN":"315","Post_Comm":"Island Pond","Post_Code":"05846","GlobalID":"c9906155-8c4f-408a-8ad2-000ce3c48fe3","Category":"Residential"}},
{"type":"Feature","id":16552,"geometry":{"type":"Point","coordinates":[-71.7212449377468,44.7563895320029]},"properties":{"OBJECTID":16552,"ESITEID":305253,"PRIMARYNAME":"MR B RD  ","ALIAS1":"","ALIAS2":"","ALIAS3":"","ALIAS4":"","ALIAS5":"","PRIMARYADDRESS":"275 MR B RD","SITETYPE":"Camp","MAPYEAR":"Thu, 01 Jan 1998 00:00:00 GMT","SITETYPE_MULTI1":"","SITETYPE_MULTI2":"","SITETYPE_MULTI3":"","YearBuilt":null,"YearBuiltSrc":null,"YearBuiltNotes":"","ResUnitCnt":1,"NonResUnitCnt":0,"DateUpdate":"Tue, 28 Mar 2023 14:14:05 GMT","County":"Essex County","Inc_Muni":"Ferdinand","AddNum_Pre":null,"Add_Number":275,"AddNum_Suf":"","St_PreMod":"","St_PreDir":" ","St_PreTyp":"","St_PreSep":"","St_Name":"Mr B","St_PosTyp":"Road","St_PosDir":" ","St_PosMod":"","ESN":"315","Post_Comm":"Island Pond","Post_Code":"05846","GlobalID":"fd901466-1c84-4003-a0a0-8e9546e4b2ee","Category":"Residential"}},
{"type":"Feature","id":112515,"geometry":{"type":"Point","coordinates":[-71.7278299417794,44.7554030739143]},"properties":{"OBJECTID":112515,"ESITEID":305254,"PRIMARYNAME":"MR B RD  ","ALIAS1":"","ALIAS2":"","ALIAS3":"","ALIAS4":"","ALIAS5":"","PRIMARYADDRESS":"378 MR B RD","SITETYPE":"Camp","MAPYEAR":"Thu, 01 Jan 1998 00:00:00 GMT","SITETYPE_MULTI1":"","SITETYPE_MULTI2":"","SITETYPE_MULTI3":"","YearBuilt":null,"YearBuiltSrc":null,"YearBuiltNotes":"","ResUnitCnt":1,"NonResUnitCnt":0,"DateUpdate":"Tue, 28 Mar 2023 14:14:05 GMT","County":"Essex County","Inc_Muni":"Ferdinand","AddNum_Pre":null,"Add_Number":378,"AddNum_Suf":"","St_PreMod":"","St_PreDir":" ","St_PreTyp":"","St_PreSep":"","St_Name":"Mr B","St_PosTyp":"Road","St_PosDir":" ","St_PosMod":"","ESN":"315","Post_Comm":"Island Pond","Post_Code":"05846","GlobalID":"68152312-622c-4f61-bd5e-b4b70aee8ad4","Category":"Residential"}},
{"type":"Feature","id":165166,"geometry":{"type":"Point","coordinates":[-71.7252618084062,44.7526887738864]},"properties":{"OBJECTID":165166,"ESITEID":305255,"PRIMARYNAME":"MR B RD  ","ALIAS1":"","ALIAS2":"","ALIAS3":"","ALIAS4":"","ALIAS5":"","PRIMARYADDRESS":"591 MR B RD","SITETYPE":"Camp","MAPYEAR":"Thu, 01 Jan 1998 00:00:00 GMT","SITETYPE_MULTI1":"","SITETYPE_MULTI2":"","SITETYPE_MULTI3":"","YearBuilt":null,"YearBuiltSrc":null,"YearBuiltNotes":"","ResUnitCnt":1,"NonResUnitCnt":0,"DateUpdate":"Tue, 28 Mar 2023 14:14:05 GMT","County":"Essex County","Inc_Muni":"Ferdinand","AddNum_Pre":null,"Add_Number":591,"AddNum_Suf":"","St_PreMod":"","St_PreDir":" ","St_PreTyp":"","St_PreSep":"","St_Name":"Mr B","St_PosTyp":"Road","St_PosDir":" ","St_PosMod":"","ESN":"315","Post_Comm":"Island Pond","Post_Code":"05846","GlobalID":"e1ec3776-932c-423f-bca3-b5b975055791","Category":"Residential"}},
{"type":"Feature","id":315670,"geometry":{"type":"Point","coordinates":[-71.7516320620731,44.7467381372601]},"properties":{"OBJECTID":315670,"ESITEID":305256,"PRIMARYNAME":"S AMERICA POND RD  ","ALIAS1":"","ALIAS2":"","ALIAS3":"","ALIAS4":"","ALIAS5":"","PRIMARYADDRESS":"1784 S AMERICA POND RD","SITETYPE":"Camp","MAPYEAR":"Thu, 01 Jan 1998 00:00:00 GMT","SITETYPE_MULTI1":"","SITETYPE_MULTI2":"","SITETYPE_MULTI3":"","YearBuilt":null,"YearBuiltSrc":null,"YearBuiltNotes":"","ResUnitCnt":1,"NonResUnitCnt":0,"DateUpdate":"Tue, 28 Mar 2023 14:13:57 GMT","County":"Essex County","Inc_Muni":"Ferdinand","AddNum_Pre":null,"Add_Number":1784,"AddNum_Suf":"","St_PreMod":"","St_PreDir":"South","St_PreTyp":"","St_PreSep":"","St_Name":"America Pond","St_PosTyp":"Road","St_PosDir":" ","St_PosMod":"","ESN":"315","Post_Comm":"Island Pond","Post_Code":"05846","GlobalID":"8830dcbf-dac2-421a-ae99-d5f82a5ca7bb","Category":"Residential"}},
{"type":"Feature","id":48491,"geometry":{"type":"Point","coordinates":[-71.7163477000963,44.7416205701669]},"properties":{"OBJECTID":48491,"ESITEID":305257,"PRIMARYNAME":"NOTCH POND RD","ALIAS1":"","ALIAS2":"","ALIAS3":"","ALIAS4":"","ALIAS5":"","PRIMARYADDRESS":"4 NOTCH POND RD","SITETYPE":"Camp","MAPYEAR":"Thu, 01 Jan 1998 00:00:00 GMT","SITETYPE_MULTI1":"","SITETYPE_MULTI2":"","SITETYPE_MULTI3":"","YearBuilt":null,"YearBuiltSrc":null,"YearBuiltNotes":"","ResUnitCnt":1,"NonResUnitCnt":0,"DateUpdate":"Sat, 28 Jan 2023 00:33:43 GMT","County":"Essex County","Inc_Muni":"Ferdinand","AddNum_Pre":null,"Add_Number":4,"AddNum_Suf":"","St_PreMod":"","St_PreDir":"","St_PreTyp":"","St_PreSep":"","St_Name":"Notch Pond","St_PosTyp":"Road","St_PosDir":"","St_PosMod":"","ESN":"315","Post_Comm":"Guildhall","Post_Code":"05905","GlobalID":"ce9efd7a-d5f9-460e-b22a-111d4eee2f99","Category":"Residential"}},
{"type":"Feature","id":86869,"geometry":{"type":"Point","coordinates":[-71.7198801095978,44.7413192081233]},"properties":{"OBJECTID":86869,"ESITEID":305258,"PRIMARYNAME":"NOTCH POND RD","ALIAS1":"","ALIAS2":"","ALIAS3":"","ALIAS4":"","ALIAS5":"","PRIMARYADDRESS":"6 NOTCH POND RD","SITETYPE":"Camp","MAPYEAR":"Thu, 01 Jan 1998 00:00:00 GMT","SITETYPE_MULTI1":"","SITETYPE_MULTI2":"","SITETYPE_MULTI3":"","YearBuilt":null,"YearBuiltSrc":null,"YearBuiltNotes":"","ResUnitCnt":1,"NonResUnitCnt":0,"DateUpdate":"Sat, 28 Jan 2023 00:33:43 GMT","County":"Essex County","Inc_Muni":"Ferdinand","AddNum_Pre":null,"Add_Number":6,"AddNum_Suf":"","St_PreMod":"","St_PreDir":"","St_PreTyp":"","St_PreSep":"","St_Name":"Notch Pond","St_PosTyp":"Road","St_PosDir":"","St_PosMod":"","ESN":"315","Post_Comm":"Guildhall","Post_Code":"05905","GlobalID":"dc4fdc63-e036-4e8b-aba6-3b674fa8db60","Category":"Residential"}},
{"type":"Feature","id":122494,"geometry":{"type":"Point","coordinates":[-71.715249065705,44.740869074574]},"properties":{"OBJECTID":122494,"ESITEID":305259,"PRIMARYNAME":"NOTCH POND RD","ALIAS1":"","ALIAS2":"","ALIAS3":"","ALIAS4":"","ALIAS5":"","PRIMARYADDRESS":"2 NOTCH POND RD","SITETYPE":"Camp","MAPYEAR":"Thu, 01 Jan 1998 00:00:00 GMT","SITETYPE_MULTI1":"","SITETYPE_MULTI2":"","SITETYPE_MULTI3":"","YearBuilt":null,"YearBuiltSrc":null,"YearBuiltNotes":"","ResUnitCnt":1,"NonResUnitCnt":0,"DateUpdate":"Sat, 28 Jan 2023 00:33:43 GMT","County":"Essex County","Inc_Muni":"Ferdinand","AddNum_Pre":null,"Add_Number":2,"AddNum_Suf":"","St_PreMod":"","St_PreDir":"","St_PreTyp":"","St_PreSep":"","St_Name":"Notch Pond","St_PosTyp":"Road","St_PosDir":"","St_PosMod":"","ESN":"315","Post_Comm":"Guildhall","Post_Code":"05905","GlobalID":"6a1eefe5-7897-4902-898f-c5d8c95c48b2","Category":"Residential"}},
{"type":"Feature","id":319192,"geometry":{"type":"Point","coordinates":[-71.7226877285587,44.7408271121837]},"properties":{"OBJECTID":319192,"ESITEID":305260,"PRIMARYNAME":"NOTCH POND RD","ALIAS1":"","ALIAS2":"","ALIAS3":"","ALIAS4":"","ALIAS5":"","PRIMARYADDRESS":"8 NOTCH POND RD","SITETYPE":"Camp","MAPYEAR":"Thu, 01 Jan 1998 00:00:00 GMT","SITETYPE_MULTI1":"","SITETYPE_MULTI2":"","SITETYPE_MULTI3":"","YearBuilt":null,"YearBuiltSrc":null,"YearBuiltNotes":"","ResUnitCnt":1,"NonResUnitCnt":0,"DateUpdate":"Sat, 28 Jan 2023 00:33:43 GMT","County":"Essex County","Inc_Muni":"Ferdinand","AddNum_Pre":null,"Add_Number":8,"AddNum_Suf":"","St_PreMod":"","St_PreDir":"","St_PreTyp":"","St_PreSep":"","St_Name":"Notch Pond","St_PosTyp":"Road","St_PosDir":"","St_PosMod":"","ESN":"315","Post_Comm":"Guildhall","Post_Code":"05905","GlobalID":"c2c866b9-1d7e-412c-8cbd-0cc138d798c2","Category":"Residential"}},
{"type":"Feature","id":349735,"geometry":{"type":"Point","coordinates":[-71.7484445721573,44.7314124367143]},"properties":{"OBJECTID":349735,"ESITEID":305261,"PRIMARYNAME":"S AMERICA POND RD  ","ALIAS1":"","ALIAS2":"","ALIAS3":"","ALIAS4":"","ALIAS5":"","PRIMARYADDRESS":"2719 S AMERICA POND RD","SITETYPE":"Camp","MAPYEAR":"Thu, 01 Jan 1998 00:00:00 GMT","SITETYPE_MULTI1":"","SITETYPE_MULTI2":"","SITETYPE_MULTI3":"","YearBuilt":null,"YearBuiltSrc":null,"YearBuiltNotes":"","ResUnitCnt":1,"NonResUnitCnt":0,"DateUpdate":"Tue, 28 Mar 2023 14:13:57 GMT","County":"Essex County","Inc_Muni":"Ferdinand","AddNum_Pre":null,"Add_Number":2719,"AddNum_Suf":"","St_PreMod":"","St_PreDir":"South","St_PreTyp":"","St_PreSep":"","St_Name":"America Pond","St_PosTyp":"Road","St_PosDir":" ","St_PosMod":"","ESN":"315","Post_Comm":"Island Pond","Post_Code":"05846","GlobalID":"7c9fe2c9-4c6a-4c9b-98ca-68f7b2aecfd1","Category":"Residential"}},
{"type":"Feature","id":62967,"geometry":{"type":"Point","coordinates":[-71.7149362604112,44.7249465253783]},"properties":{"OBJECTID":62967,"ESITEID":305262,"PRIMARYNAME":"NOTCH POND RD  ","ALIAS1":"","ALIAS2":"","ALIAS3":"","ALIAS4":"","ALIAS5":"","PRIMARYADDRESS":"1452 NOTCH POND RD","SITETYPE":"Camp","MAPYEAR":"Thu, 01 Jan 1998 00:00:00 GMT","SITETYPE_MULTI1":"","SITETYPE_MULTI2":"","SITETYPE_MULTI3":"","YearBuilt":null,"YearBuiltSrc":null,"YearBuiltNotes":"","ResUnitCnt":1,"NonResUnitCnt":0,"DateUpdate":"Tue, 28 Mar 2023 14:13:57 GMT","County":"Essex County","Inc_Muni":"Ferdinand","AddNum_Pre":null,"Add_Number":1452,"AddNum_Suf":"","St_PreMod":"","St_PreDir":" ","St_PreTyp":"","St_PreSep":"","St_Name":"Notch Pond","St_PosTyp":"Road","St_PosDir":" ","St_PosMod":"","ESN":"315","Post_Comm":"Guildhall","Post_Code":"05905","GlobalID":"2c79035b-85e3-403b-94b4-42a0b80490e3","Category":"Residential"}},
{"type":"Feature","id":221505,"geometry":{"type":"Point","coordinates":[-71.7517099525944,44.7236533420156]},"properties":{"OBJECTID":221505,"ESITEID":305263,"PRIMARYNAME":"S AMERICA POND RD  ","ALIAS1":"","ALIAS2":"","ALIAS3":"","ALIAS4":"","ALIAS5":"","PRIMARYADDRESS":"3668 S AMERICA POND RD","SITETYPE":"Camp","MAPYEAR":"Thu, 01 Jan 1998 00:00:00 GMT","SITETYPE_MULTI1":"","SITETYPE_MULTI2":"","SITETYPE_MULTI3":"","YearBuilt":null,"YearBuiltSrc":null,"YearBuiltNotes":"","ResUnitCnt":1,"NonResUnitCnt":0,"DateUpdate":"Tue, 28 Mar 2023 14:13:57 GMT","County":"Essex County","Inc_Muni":"Ferdinand","AddNum_Pre":null,"Add_Number":3668,"AddNum_Suf":"","St_PreMod":"","St_PreDir":"South","St_PreTyp":"","St_PreSep":"","St_Name":"America Pond","St_PosTyp":"Road","St_PosDir":" ","St_PosMod":"","ESN":"315","Post_Comm":"Island Pond","Post_Code":"05846","GlobalID":"90eb41e9-3b8f-4a5f-b928-47d3e45a14f5","Category":"Residential"}},
{"type":"Feature","id":127367,"geometry":{"type":"Point","coordinates":[-71.7501459262036,44.7194381006382]},"properties":{"OBJECTID":127367,"ESITEID":305265,"PRIMARYNAME":"S AMERICA POND RD  ","ALIAS1":"","ALIAS2":"","ALIAS3":"","ALIAS4":"","ALIAS5":"","PRIMARYADDRESS":"3962 S AMERICA POND RD","SITETYPE":"Camp","MAPYEAR":"Thu, 01 Jan 1998 00:00:00 GMT","SITETYPE_MULTI1":"","SITETYPE_MULTI2":"","SITETYPE_MULTI3":"","YearBuilt":null,"YearBuiltSrc":null,"YearBuiltNotes":"","ResUnitCnt":1,"NonResUnitCnt":0,"DateUpdate":"Tue, 28 Mar 2023 14:13:57 GMT","County":"Essex County","Inc_Muni":"Ferdinand","AddNum_Pre":null,"Add_Number":3962,"AddNum_Suf":"","St_PreMod":"","St_PreDir":"South","St_PreTyp":"","St_PreSep":"","St_Name":"America Pond","St_PosTyp":"Road","St_PosDir":" ","St_PosMod":"","ESN":"315","Post_Comm":"Island Pond","Post_Code":"05846","GlobalID":"81bea368-1466-4581-9576-70301060265f","Category":"Residential"}},
{"type":"Feature","id":4443,"geometry":{"type":"Point","coordinates":[-71.7453283912931,44.7108979820574]},"properties":{"OBJECTID":4443,"ESITEID":305266,"PRIMARYNAME":"S AMERICA POND RD  ","ALIAS1":"","ALIAS2":"","ALIAS3":"","ALIAS4":"","ALIAS5":"","PRIMARYADDRESS":"4705 S AMERICA POND RD","SITETYPE":"Camp","MAPYEAR":"Thu, 01 Jan 1998 00:00:00 GMT","SITETYPE_MULTI1":"","SITETYPE_MULTI2":"","SITETYPE_MULTI3":"","YearBuilt":null,"YearBuiltSrc":null,"YearBuiltNotes":"","ResUnitCnt":1,"NonResUnitCnt":0,"DateUpdate":"Tue, 28 Mar 2023 14:13:57 GMT","County":"Essex County","Inc_Muni":"Ferdinand","AddNum_Pre":null,"Add_Number":4705,"AddNum_Suf":"","St_PreMod":"","St_PreDir":"South","St_PreTyp":"","St_PreSep":"","St_Name":"America Pond","St_PosTyp":"Road","St_PosDir":" ","St_PosMod":"","ESN":"315","Post_Comm":"Island Pond","Post_Code":"05846","GlobalID":"fc8a562d-0018-4561-bfc5-005357730218","Category":"Residential"}},
{"type":"Feature","id":205933,"geometry":{"type":"Point","coordinates":[-71.7770421955246,44.7089688720517]},"properties":{"OBJECTID":205933,"ESITEID":305267,"PRIMARYNAME":"S AMERICA POND RD","ALIAS1":"","ALIAS2":"","ALIAS3":"","ALIAS4":"","ALIAS5":"","PRIMARYADDRESS":"3810 S AMERICA POND RD","SITETYPE":"Camp","MAPYEAR":"Thu, 01 Jan 1998 00:00:00 GMT","SITETYPE_MULTI1":"","SITETYPE_MULTI2":"","SITETYPE_MULTI3":"","YearBuilt":null,"YearBuiltSrc":null,"YearBuiltNotes":"","ResUnitCnt":1,"NonResUnitCnt":0,"DateUpdate":"Tue, 28 Mar 2023 14:13:57 GMT","County":"Essex County","Inc_Muni":"Ferdinand","AddNum_Pre":null,"Add_Number":3810,"AddNum_Suf":"","St_PreMod":"","St_PreDir":"South","St_PreTyp":"","St_PreSep":"","St_Name":"America Pond","St_PosTyp":"Road","St_PosDir":" ","St_PosMod":"","ESN":"315","Post_Comm":"Island Pond","Post_Code":"05846","GlobalID":"17030d75-0b24-419d-b0d4-00adccd1ec8b","Category":"Residential"}},
{"type":"Feature","id":199756,"geometry":{"type":"Point","coordinates":[-71.7447670890476,44.7070772840815]},"properties":{"OBJECTID":199756,"ESITEID":305268,"PRIMARYNAME":"S AMERICA CAMP TRL  ","ALIAS1":"","ALIAS2":"","ALIAS3":"","ALIAS4":"","ALIAS5":"","PRIMARYADDRESS":"110 S AMERICA CAMP TRL","SITETYPE":"Camp","MAPYEAR":"Thu, 01 Jan 1998 00:00:00 GMT","SITETYPE_MULTI1":"","SITETYPE_MULTI2":"","SITETYPE_MULTI3":"","YearBuilt":null,"YearBuiltSrc":null,"YearBuiltNotes":"","ResUnitCnt":1,"NonResUnitCnt":0,"DateUpdate":"Tue, 28 Mar 2023 14:14:05 GMT","County":"Essex County","Inc_Muni":"Ferdinand","AddNum_Pre":null,"Add_Number":110,"AddNum_Suf":"","St_PreMod":"","St_PreDir":"South","St_PreTyp":"","St_PreSep":"","St_Name":"America Camp","St_PosTyp":"Trail","St_PosDir":" ","St_PosMod":"","ESN":"315","Post_Comm":"Island Pond","Post_Code":"05846","GlobalID":"96167329-1c5d-4513-9ef0-883a19690624","Category":"Residential"}},
{"type":"Feature","id":43033,"geometry":{"type":"Point","coordinates":[-71.741608299005,44.7058999489888]},"properties":{"OBJECTID":43033,"ESITEID":305269,"PRIMARYNAME":"S AMERICA CAMP TRL  ","ALIAS1":"","ALIAS2":"","ALIAS3":"","ALIAS4":"","ALIAS5":"","PRIMARYADDRESS":"378 S AMERICA CAMP TRL","SITETYPE":"Camp","MAPYEAR":"Thu, 01 Jan 1998 00:00:00 GMT","SITETYPE_MULTI1":"","SITETYPE_MULTI2":"","SITETYPE_MULTI3":"","YearBuilt":null,"YearBuiltSrc":null,"YearBuiltNotes":"","ResUnitCnt":1,"NonResUnitCnt":0,"DateUpdate":"Tue, 28 Mar 2023 14:14:05 GMT","County":"Essex County","Inc_Muni":"Ferdinand","AddNum_Pre":null,"Add_Number":378,"AddNum_Suf":"","St_PreMod":"","St_PreDir":"South","St_PreTyp":"","St_PreSep":"","St_Name":"America Camp","St_PosTyp":"Trail","St_PosDir":" ","St_PosMod":"","ESN":"315","Post_Comm":"Guildhall","Post_Code":"05905","GlobalID":"e64a239b-7b2d-4fa0-af92-968645027d39","Category":"Residential"}},
{"type":"Feature","id":313966,"geometry":{"type":"Point","coordinates":[-71.7542276526017,44.6844229873112]},"properties":{"OBJECTID":313966,"ESITEID":305270,"PRIMARYNAME":"MADISON BROOK RD","ALIAS1":"","ALIAS2":"","ALIAS3":"","ALIAS4":"","ALIAS5":"","PRIMARYADDRESS":"1848 MADISON BROOK RD","SITETYPE":"Camp","MAPYEAR":"Thu, 01 Jan 1998 00:00:00 GMT","SITETYPE_MULTI1":"","SITETYPE_MULTI2":"","SITETYPE_MULTI3":"","YearBuilt":null,"YearBuiltSrc":null,"YearBuiltNotes":"","ResUnitCnt":1,"NonResUnitCnt":0,"DateUpdate":"Tue, 28 Mar 2023 14:14:05 GMT","County":"Essex County","Inc_Muni":"Ferdinand","AddNum_Pre":null,"Add_Number":1848,"AddNum_Suf":"","St_PreMod":"","St_PreDir":" ","St_PreTyp":"","St_PreSep":"","St_Name":"Madison Brook","St_PosTyp":"Road","St_PosDir":" ","St_PosMod":"","ESN":"315","Post_Comm":"Guildhall","Post_Code":"05905","GlobalID":"dea9db2e-181b-45bc-9b7c-4bcedafce8b0","Category":"Residential"}},
{"type":"Feature","id":248515,"geometry":{"type":"Point","coordinates":[-71.7648477728253,44.6842818447657]},"properties":{"OBJECTID":248515,"ESITEID":305271,"PRIMARYNAME":"MADISON BROOK RD","ALIAS1":"","ALIAS2":"","ALIAS3":"","ALIAS4":"","ALIAS5":"","PRIMARYADDRESS":"2394 MADISON BROOK RD","SITETYPE":"Camp","MAPYEAR":"Thu, 01 Jan 1998 00:00:00 GMT","SITETYPE_MULTI1":"","SITETYPE_MULTI2":"","SITETYPE_MULTI3":"","YearBuilt":null,"YearBuiltSrc":null,"YearBuiltNotes":"","ResUnitCnt":1,"NonResUnitCnt":0,"DateUpdate":"Tue, 28 Mar 2023 14:14:05 GMT","County":"Essex County","Inc_Muni":"Ferdinand","AddNum_Pre":null,"Add_Number":2394,"AddNum_Suf":"","St_PreMod":"","St_PreDir":" ","St_PreTyp":"","St_PreSep":"","St_Name":"Madison Brook","St_PosTyp":"Road","St_PosDir":" ","St_PosMod":"","ESN":"315","Post_Comm":"Guildhall","Post_Code":"05905","GlobalID":"ee674406-a2af-4ed6-a342-c04ca863f474","Category":"Residential"}},
{"type":"Feature","id":71079,"geometry":{"type":"Point","coordinates":[-71.7001504839689,44.6594176444215]},"properties":{"OBJECTID":71079,"ESITEID":305272,"PRIMARYNAME":"PAUL STREAM RD  ","ALIAS1":"","ALIAS2":"","ALIAS3":"","ALIAS4":"","ALIAS5":"","PRIMARYADDRESS":"2169 PAUL STREAM RD","SITETYPE":"Camp","MAPYEAR":"Thu, 01 Jan 1998 00:00:00 GMT","SITETYPE_MULTI1":"","SITETYPE_MULTI2":"","SITETYPE_MULTI3":"","YearBuilt":null,"YearBuiltSrc":null,"YearBuiltNotes":"","ResUnitCnt":1,"NonResUnitCnt":0,"DateUpdate":"Tue, 28 Mar 2023 14:14:04 GMT","County":"Essex County","Inc_Muni":"Ferdinand","AddNum_Pre":null,"Add_Number":2169,"AddNum_Suf":"","St_PreMod":"","St_PreDir":"","St_PreTyp":"","St_PreSep":"","St_Name":"Paul Stream","St_PosTyp":"Road","St_PosDir":"","St_PosMod":"","ESN":"315","Post_Comm":"Guildhall","Post_Code":"05905","GlobalID":"b59256f3-3883-4f66-875c-0a61b150d3f5","Category":"Residential"}},
{"type":"Feature","id":83406,"geometry":{"type":"Point","coordinates":[-71.6812479452664,44.6513965301312]},"properties":{"OBJECTID":83406,"ESITEID":305273,"PRIMARYNAME":"PAUL STREAM RD","ALIAS1":"","ALIAS2":"","ALIAS3":"","ALIAS4":"","ALIAS5":"","PRIMARYADDRESS":"3660 PAUL STREAM RD","SITETYPE":"Camp","MAPYEAR":"Thu, 01 Jan 1998 00:00:00 GMT","SITETYPE_MULTI1":"","SITETYPE_MULTI2":"","SITETYPE_MULTI3":"","YearBuilt":null,"YearBuiltSrc":null,"YearBuiltNotes":"","ResUnitCnt":1,"NonResUnitCnt":0,"DateUpdate":"Fri, 05 Jun 2026 15:33:17 GMT","County":"Essex County","Inc_Muni":"Ferdinand","AddNum_Pre":null,"Add_Number":3660,"AddNum_Suf":"","St_PreMod":"","St_PreDir":"","St_PreTyp":"","St_PreSep":"","St_Name":"Paul Stream","St_PosTyp":"Road","St_PosDir":"","St_PosMod":"","ESN":"315","Post_Comm":"Guildhall","Post_Code":"05905","GlobalID":"a28f0f26-400b-4da8-94a1-0880ef021842","Category":"Residential"}},
{"type":"Feature","id":268922,"geometry":{"type":"Point","coordinates":[-71.6836083233053,44.6496820936105]},"properties":{"OBJECTID":268922,"ESITEID":305274,"PRIMARYNAME":"PAUL STREAM RD","ALIAS1":"","ALIAS2":"","ALIAS3":"","ALIAS4":"","ALIAS5":"","PRIMARYADDRESS":"3518 PAUL STREAM RD","SITETYPE":"Camp","MAPYEAR":"Thu, 01 Jan 1998 00:00:00 GMT","SITETYPE_MULTI1":"","SITETYPE_MULTI2":"","SITETYPE_MULTI3":"","YearBuilt":null,"YearBuiltSrc":null,"YearBuiltNotes":"","ResUnitCnt":1,"NonResUnitCnt":0,"DateUpdate":"Fri, 05 Jun 2026 15:33:17 GMT","County":"Essex County","Inc_Muni":"Ferdinand","AddNum_Pre":null,"Add_Number":3518,"AddNum_Suf":"","St_PreMod":"","St_PreDir":"","St_PreTyp":"","St_PreSep":"","St_Name":"Paul Stream","St_PosTyp":"Road","St_PosDir":"","St_PosMod":"","ESN":"315","Post_Comm":"Guildhall","Post_Code":"05905","GlobalID":"4bc69fac-1381-4062-91dd-342d8185376a","Category":"Residential"}},
{"type":"Feature","id":13875,"geometry":{"type":"Point","coordinates":[-71.6854104869111,44.6493010659088]},"properties":{"OBJECTID":13875,"ESITEID":305275,"PRIMARYNAME":"PAUL STREAM RD","ALIAS1":"","ALIAS2":"","ALIAS3":"","ALIAS4":"","ALIAS5":"","PRIMARYADDRESS":"3419 PAUL STREAM RD","SITETYPE":"Camp","MAPYEAR":"Thu, 01 Jan 1998 00:00:00 GMT","SITETYPE_MULTI1":"","SITETYPE_MULTI2":"","SITETYPE_MULTI3":"","YearBuilt":null,"YearBuiltSrc":null,"YearBuiltNotes":"","ResUnitCnt":1,"NonResUnitCnt":0,"DateUpdate":"Fri, 05 Jun 2026 15:33:17 GMT","County":"Essex County","Inc_Muni":"Ferdinand","AddNum_Pre":null,"Add_Number":3419,"AddNum_Suf":"","St_PreMod":"","St_PreDir":"","St_PreTyp":"","St_PreSep":"","St_Name":"Paul Stream","St_PosTyp":"Road","St_PosDir":"","St_PosMod":"","ESN":"315","Post_Comm":"Guildhall","Post_Code":"05905","GlobalID":"0a92db0a-240d-42ca-b133-cc29f31f2d5d","Category":"Residential"}},
{"type":"Feature","id":233447,"geometry":{"type":"Point","coordinates":[-71.6906557724704,44.649258350812]},"properties":{"OBJECTID":233447,"ESITEID":305276,"PRIMARYNAME":"PAUL STREAM RD","ALIAS1":"","ALIAS2":"","ALIAS3":"","ALIAS4":"","ALIAS5":"","PRIMARYADDRESS":"3107 PAUL STREAM RD","SITETYPE":"Camp","MAPYEAR":"Thu, 01 Jan 1998 00:00:00 GMT","SITETYPE_MULTI1":"","SITETYPE_MULTI2":"","SITETYPE_MULTI3":"","YearBuilt":null,"YearBuiltSrc":null,"YearBuiltNotes":"","ResUnitCnt":1,"NonResUnitCnt":0,"DateUpdate":"Fri, 05 Jun 2026 15:33:17 GMT","County":"Essex County","Inc_Muni":"Ferdinand","AddNum_Pre":null,"Add_Number":3107,"AddNum_Suf":"","St_PreMod":"","St_PreDir":"","St_PreTyp":"","St_PreSep":"","St_Name":"Paul Stream","St_PosTyp":"Road","St_PosDir":"","St_PosMod":"","ESN":"315","Post_Comm":"Guildhall","Post_Code":"05905","GlobalID":"e5e22926-96be-41ea-b1de-f1b012b45eb6","Category":"Residential"}},
{"type":"Feature","id":270477,"geometry":{"type":"Point","coordinates":[-71.6862542873102,44.6488868074904]},"properties":{"OBJECTID":270477,"ESITEID":305277,"PRIMARYNAME":"PAUL STREAM RD","ALIAS1":"","ALIAS2":"","ALIAS3":"","ALIAS4":"","ALIAS5":"","PRIMARYADDRESS":"3372 PAUL STREAM RD","SITETYPE":"Camp","MAPYEAR":"Thu, 01 Jan 1998 00:00:00 GMT","SITETYPE_MULTI1":"","SITETYPE_MULTI2":"","SITETYPE_MULTI3":"","YearBuilt":null,"YearBuiltSrc":null,"YearBuiltNotes":"","ResUnitCnt":1,"NonResUnitCnt":0,"DateUpdate":"Fri, 05 Jun 2026 15:33:17 GMT","County":"Essex County","Inc_Muni":"Ferdinand","AddNum_Pre":null,"Add_Number":3372,"AddNum_Suf":"","St_PreMod":"","St_PreDir":"","St_PreTyp":"","St_PreSep":"","St_Name":"Paul Stream","St_PosTyp":"Road","St_PosDir":"","St_PosMod":"","ESN":"315","Post_Comm":"Guildhall","Post_Code":"05905","GlobalID":"1826ff6d-9bbd-496a-a3b5-ff981c51e415","Category":"Residential"}},
{"type":"Feature","id":298661,"geometry":{"type":"Point","coordinates":[-71.6903392996787,44.6487644034093]},"properties":{"OBJECTID":298661,"ESITEID":305278,"PRIMARYNAME":"PAUL STREAM RD","ALIAS1":"","ALIAS2":"","ALIAS3":"","ALIAS4":"","ALIAS5":"","PRIMARYADDRESS":"3145 PAUL STREAM RD","SITETYPE":"Camp","MAPYEAR":"Thu, 01 Jan 1998 00:00:00 GMT","SITETYPE_MULTI1":"","SITETYPE_MULTI2":"","SITETYPE_MULTI3":"","YearBuilt":null,"YearBuiltSrc":null,"YearBuiltNotes":"","ResUnitCnt":1,"NonResUnitCnt":0,"DateUpdate":"Fri, 05 Jun 2026 15:33:17 GMT","County":"Essex County","Inc_Muni":"Ferdinand","AddNum_Pre":null,"Add_Number":3145,"AddNum_Suf":"","St_PreMod":"","St_PreDir":"","St_PreTyp":"","St_PreSep":"","St_Name":"Paul Stream","St_PosTyp":"Road","St_PosDir":"","St_PosMod":"","ESN":"315","Post_Comm":"Guildhall","Post_Code":"05905","GlobalID":"5ae6a109-0a01-458e-9c4f-bdce9229ded3","Category":"Residential"}},
{"type":"Feature","id":200770,"geometry":{"type":"Point","coordinates":[-71.6899674111187,44.64873923407]},"properties":{"OBJECTID":200770,"ESITEID":305279,"PRIMARYNAME":"PAUL STREAM RD","ALIAS1":"","ALIAS2":"","ALIAS3":"","ALIAS4":"","ALIAS5":"","PRIMARYADDRESS":"3167 PAUL STREAM RD","SITETYPE":"Camp","MAPYEAR":"Thu, 01 Jan 1998 00:00:00 GMT","SITETYPE_MULTI1":"","SITETYPE_MULTI2":"","SITETYPE_MULTI3":"","YearBuilt":null,"YearBuiltSrc":null,"YearBuiltNotes":"","ResUnitCnt":1,"NonResUnitCnt":0,"DateUpdate":"Fri, 05 Jun 2026 15:33:17 GMT","County":"Essex County","Inc_Muni":"Ferdinand","AddNum_Pre":null,"Add_Number":3167,"AddNum_Suf":"","St_PreMod":"","St_PreDir":"","St_PreTyp":"","St_PreSep":"","St_Name":"Paul Stream","St_PosTyp":"Road","St_PosDir":"","St_PosMod":"","ESN":"315","Post_Comm":"Guildhall","Post_Code":"05905","GlobalID":"fbb86a44-c912-43c2-9d9a-969e77f64e2e","Category":"Residential"}},
{"type":"Feature","id":320371,"geometry":{"type":"Point","coordinates":[-71.6902721876566,44.6484323487295]},"properties":{"OBJECTID":320371,"ESITEID":305280,"PRIMARYNAME":"PAUL STREAM RD","ALIAS1":"","ALIAS2":"","ALIAS3":"","ALIAS4":"","ALIAS5":"","PRIMARYADDRESS":"3156 PAUL STREAM RD","SITETYPE":"Camp","MAPYEAR":"Thu, 01 Jan 1998 00:00:00 GMT","SITETYPE_MULTI1":"","SITETYPE_MULTI2":"","SITETYPE_MULTI3":"","YearBuilt":null,"YearBuiltSrc":null,"YearBuiltNotes":"","ResUnitCnt":1,"NonResUnitCnt":0,"DateUpdate":"Fri, 05 Jun 2026 15:33:17 GMT","County":"Essex County","Inc_Muni":"Ferdinand","AddNum_Pre":null,"Add_Number":3156,"AddNum_Suf":"","St_PreMod":"","St_PreDir":"","St_PreTyp":"","St_PreSep":"","St_Name":"Paul Stream","St_PosTyp":"Road","St_PosDir":"","St_PosMod":"","ESN":"315","Post_Comm":"Guildhall","Post_Code":"05905","GlobalID":"73cd30ef-feb2-4110-90c5-bf9c30498063","Category":"Residential"}},
{"type":"Feature","id":297946,"geometry":{"type":"Point","coordinates":[-71.7191306809679,44.6798189588002]},"properties":{"OBJECTID":297946,"ESITEID":305281,"PRIMARYNAME":"PAUL STREAM RD  ","ALIAS1":"","ALIAS2":"","ALIAS3":"","ALIAS4":"","ALIAS5":"","PRIMARYADDRESS":"313 PAUL STREAM RD","SITETYPE":"Camp","MAPYEAR":"Thu, 01 Jan 1998 00:00:00 GMT","SITETYPE_MULTI1":"","SITETYPE_MULTI2":"","SITETYPE_MULTI3":"","YearBuilt":null,"YearBuiltSrc":null,"YearBuiltNotes":"","ResUnitCnt":1,"NonResUnitCnt":0,"DateUpdate":"Tue, 28 Mar 2023 14:14:04 GMT","County":"Essex County","Inc_Muni":"Ferdinand","AddNum_Pre":null,"Add_Number":313,"AddNum_Suf":"","St_PreMod":"","St_PreDir":"","St_PreTyp":"","St_PreSep":"","St_Name":"Paul Stream","St_PosTyp":"Road","St_PosDir":"","St_PosMod":"","ESN":"315","Post_Comm":"Guildhall","Post_Code":"05905","GlobalID":"995909f6-850c-479f-8a4c-96518a955c0c","Category":"Residential"}},
{"type":"Feature","id":14449,"geometry":{"type":"Point","coordinates":[-71.7099788235376,44.6730956914766]},"properties":{"OBJECTID":14449,"ESITEID":305282,"PRIMARYNAME":"PAUL STREAM RD  ","ALIAS1":"","ALIAS2":"","ALIAS3":"","ALIAS4":"","ALIAS5":"","PRIMARYADDRESS":"1029 PAUL STREAM RD","SITETYPE":"Camp","MAPYEAR":"Thu, 01 Jan 1998 00:00:00 GMT","SITETYPE_MULTI1":"","SITETYPE_MULTI2":"","SITETYPE_MULTI3":"","YearBuilt":null,"YearBuiltSrc":null,"YearBuiltNotes":"","ResUnitCnt":1,"NonResUnitCnt":0,"DateUpdate":"Tue, 28 Mar 2023 14:14:04 GMT","County":"Essex County","Inc_Muni":"Ferdinand","AddNum_Pre":null,"Add_Number":1029,"AddNum_Suf":"","St_PreMod":"","St_PreDir":"","St_PreTyp":"","St_PreSep":"","St_Name":"Paul Stream","St_PosTyp":"Road","St_PosDir":"","St_PosMod":"","ESN":"315","Post_Comm":"Guildhall","Post_Code":"05905","GlobalID":"b1e36468-195b-48e1-a968-df5c2c372082","Category":"Residential"}},
{"type":"Feature","id":104493,"geometry":{"type":"Point","coordinates":[-71.7098474484436,44.6625952874723]},"properties":{"OBJECTID":104493,"ESITEID":305283,"PRIMARYNAME":"PAUL STREAM RD  ","ALIAS1":"","ALIAS2":"","ALIAS3":"","ALIAS4":"","ALIAS5":"","PRIMARYADDRESS":"1736 PAUL STREAM RD","SITETYPE":"Camp","MAPYEAR":"Thu, 01 Jan 1998 00:00:00 GMT","SITETYPE_MULTI1":"","SITETYPE_MULTI2":"","SITETYPE_MULTI3":"","YearBuilt":null,"YearBuiltSrc":null,"YearBuiltNotes":"","ResUnitCnt":1,"NonResUnitCnt":0,"DateUpdate":"Tue, 28 Mar 2023 14:14:04 GMT","County":"Essex County","Inc_Muni":"Ferdinand","AddNum_Pre":null,"Add_Number":1736,"AddNum_Suf":"","St_PreMod":"","St_PreDir":"","St_PreTyp":"","St_PreSep":"","St_Name":"Paul Stream","St_PosTyp":"Road","St_PosDir":"","St_PosMod":"","ESN":"315","Post_Comm":"Guildhall","Post_Code":"05905","GlobalID":"f7994530-27b6-4b6b-a303-3e955ae90dd4","Category":"Residential"}},
{"type":"Feature","id":253067,"geometry":{"type":"Point","coordinates":[-71.677305754236,44.6599306354208]},"properties":{"OBJECTID":253067,"ESITEID":305284,"PRIMARYNAME":"WEST MOUNTAIN POND RD","ALIAS1":"W MOUNTAIN POND RD","ALIAS2":"","ALIAS3":"","ALIAS4":"","ALIAS5":"","PRIMARYADDRESS":"2541 WEST MOUNTAIN POND RD","SITETYPE":"Camp","MAPYEAR":"Thu, 01 Jan 1998 00:00:00 GMT","SITETYPE_MULTI1":"","SITETYPE_MULTI2":"","SITETYPE_MULTI3":"","YearBuilt":null,"YearBuiltSrc":null,"YearBuiltNotes":"","ResUnitCnt":1,"NonResUnitCnt":0,"DateUpdate":"Wed, 28 May 2025 11:19:27 GMT","County":"Essex County","Inc_Muni":"Ferdinand","AddNum_Pre":null,"Add_Number":2541,"AddNum_Suf":"","St_PreMod":"","St_PreDir":"","St_PreTyp":"","St_PreSep":"","St_Name":"West Mountain Pond","St_PosTyp":"Road","St_PosDir":"","St_PosMod":"","ESN":"315","Post_Comm":"Guildhall","Post_Code":"05905","GlobalID":"0831aab8-039e-4779-8bd6-7fd077e99582","Category":"Residential"}},
{"type":"Feature","id":330979,"geometry":{"type":"Point","coordinates":[-71.6760112252406,44.6556842069074]},"properties":{"OBJECTID":330979,"ESITEID":305285,"PRIMARYNAME":"PAUL STREAM RD","ALIAS1":"","ALIAS2":"","ALIAS3":"","ALIAS4":"","ALIAS5":"","PRIMARYADDRESS":"3997 PAUL STREAM RD","SITETYPE":"Camp","MAPYEAR":"Thu, 01 Jan 1998 00:00:00 GMT","SITETYPE_MULTI1":"","SITETYPE_MULTI2":"","SITETYPE_MULTI3":"","YearBuilt":null,"YearBuiltSrc":null,"YearBuiltNotes":"","ResUnitCnt":1,"NonResUnitCnt":0,"DateUpdate":"Fri, 05 Jun 2026 15:33:17 GMT","County":"Essex County","Inc_Muni":"Ferdinand","AddNum_Pre":null,"Add_Number":3997,"AddNum_Suf":"","St_PreMod":"","St_PreDir":"","St_PreTyp":"","St_PreSep":"","St_Name":"Paul Stream","St_PosTyp":"Road","St_PosDir":"","St_PosMod":"","ESN":"315","Post_Comm":"Guildhall","Post_Code":"05905","GlobalID":"bc1f2e19-158a-40a5-b062-a5b0c46829ec","Category":"Residential"}},
{"type":"Feature","id":249555,"geometry":{"type":"Point","coordinates":[-71.8032869867311,44.7860978056479]},"properties":{"OBJECTID":249555,"ESITEID":307628,"PRIMARYNAME":"VT ROUTE 105","ALIAS1":"E BRIGHTON RD","ALIAS2":"","ALIAS3":"","ALIAS4":"","ALIAS5":"","PRIMARYADDRESS":"25 VT ROUTE 105","SITETYPE":"Single Family Dwelling","MAPYEAR":"Thu, 01 Jan 1998 00:00:00 GMT","SITETYPE_MULTI1":"","SITETYPE_MULTI2":"","SITETYPE_MULTI3":"","YearBuilt":null,"YearBuiltSrc":null,"YearBuiltNotes":"","ResUnitCnt":1,"NonResUnitCnt":0,"DateUpdate":"Thu, 12 Dec 2024 15:00:11 GMT","County":"Essex County","Inc_Muni":"Ferdinand","AddNum_Pre":null,"Add_Number":25,"AddNum_Suf":"","St_PreMod":"","St_PreDir":"","St_PreTyp":"Vermont Route","St_PreSep":"","St_Name":"105","St_PosTyp":"","St_PosDir":"","St_PosMod":"","ESN":"315","Post_Comm":"Island Pond","Post_Code":"05846","GlobalID":"c7183112-f71a-4494-9412-032bc6c250b2","Category":"Residential"}},
{"type":"Feature","id":268666,"geometry":{"type":"Point","coordinates":[-71.8094877615535,44.7678237639487]},"properties":{"OBJECTID":268666,"ESITEID":307629,"PRIMARYNAME":"OUIMETTE WAY","ALIAS1":"","ALIAS2":"","ALIAS3":"","ALIAS4":"","ALIAS5":"","PRIMARYADDRESS":"76 OUIMETTE WAY","SITETYPE":"Camp","MAPYEAR":"Thu, 01 Jan 1998 00:00:00 GMT","SITETYPE_MULTI1":"","SITETYPE_MULTI2":"","SITETYPE_MULTI3":"","YearBuilt":null,"YearBuiltSrc":null,"YearBuiltNotes":"","ResUnitCnt":1,"NonResUnitCnt":0,"DateUpdate":"Fri, 27 Feb 2026 04:04:59 GMT","County":"Essex County","Inc_Muni":"Ferdinand","AddNum_Pre":null,"Add_Number":76,"AddNum_Suf":"","St_PreMod":"","St_PreDir":"","St_PreTyp":"","St_PreSep":"","St_Name":"Ouimette","St_PosTyp":"Way","St_PosDir":null,"St_PosMod":"","ESN":"315","Post_Comm":"Island Pond","Post_Code":"05846","GlobalID":"64dbc2bc-94f0-482a-86a3-b683f7e52903","Category":"Residential"}},
{"type":"Feature","id":116311,"geometry":{"type":"Point","coordinates":[-71.8160825051462,44.7575045302044]},"properties":{"OBJECTID":116311,"ESITEID":307630,"PRIMARYNAME":"OUIMETTE WAY","ALIAS1":"","ALIAS2":"","ALIAS3":"","ALIAS4":"","ALIAS5":"","PRIMARYADDRESS":"78 OUIMETTE WAY","SITETYPE":"Camp","MAPYEAR":"Thu, 01 Jan 1998 00:00:00 GMT","SITETYPE_MULTI1":"","SITETYPE_MULTI2":"","SITETYPE_MULTI3":"","YearBuilt":null,"YearBuiltSrc":null,"YearBuiltNotes":"","ResUnitCnt":1,"NonResUnitCnt":0,"DateUpdate":"Tue, 28 Mar 2023 14:06:42 GMT","County":"Essex County","Inc_Muni":"Ferdinand","AddNum_Pre":null,"Add_Number":78,"AddNum_Suf":"","St_PreMod":"","St_PreDir":" ","St_PreTyp":"","St_PreSep":"","St_Name":"Ouimette","St_PosTyp":"Way","St_PosDir":" ","St_PosMod":"","ESN":"315","Post_Comm":"Island Pond","Post_Code":"05846","GlobalID":"5fd1040c-1ede-4afd-b3ab-45044b04c184","Category":"Residential"}},
{"type":"Feature","id":323070,"geometry":{"type":"Point","coordinates":[-71.7967355870261,44.7859030235911]},"properties":{"OBJECTID":323070,"ESITEID":337504,"PRIMARYNAME":"VT ROUTE 105","ALIAS1":"E BRIGHTON RD","ALIAS2":"","ALIAS3":"","ALIAS4":"","ALIAS5":"","PRIMARYADDRESS":"233 VT ROUTE 105","SITETYPE":"City \/ Town Office","MAPYEAR":"Mon, 10 Aug 2009 12:26:59 GMT","SITETYPE_MULTI1":"","SITETYPE_MULTI2":"","SITETYPE_MULTI3":"","YearBuilt":null,"YearBuiltSrc":null,"YearBuiltNotes":"","ResUnitCnt":1,"NonResUnitCnt":0,"DateUpdate":"Wed, 02 Oct 2024 06:14:58 GMT","County":"Essex County","Inc_Muni":"Ferdinand","AddNum_Pre":null,"Add_Number":233,"AddNum_Suf":"","St_PreMod":"","St_PreDir":"","St_PreTyp":"Vermont Route","St_PreSep":"","St_Name":"105","St_PosTyp":"","St_PosDir":"","St_PosMod":"","ESN":"315","Post_Comm":"Island Pond","Post_Code":"05846","GlobalID":"8faf87c2-a42b-44b4-9ac2-baf4e654bcfd","Category":"Government"}},
{"type":"Feature","id":29499,"geometry":{"type":"Point","coordinates":[-71.824476163248,44.7581012168852]},"properties":{"OBJECTID":29499,"ESITEID":340835,"PRIMARYNAME":"OZZIE WOODS DR","ALIAS1":"","ALIAS2":"","ALIAS3":"","ALIAS4":"","ALIAS5":"","PRIMARYADDRESS":"49 OZZIE WOODS DR","SITETYPE":"Camp","MAPYEAR":"Fri, 22 Oct 2010 14:02:14 GMT","SITETYPE_MULTI1":"","SITETYPE_MULTI2":"","SITETYPE_MULTI3":"","YearBuilt":null,"YearBuiltSrc":null,"YearBuiltNotes":"","ResUnitCnt":1,"NonResUnitCnt":0,"DateUpdate":"Thu, 12 Dec 2024 14:38:16 GMT","County":"Essex County","Inc_Muni":"Ferdinand","AddNum_Pre":null,"Add_Number":49,"AddNum_Suf":"","St_PreMod":"","St_PreDir":" ","St_PreTyp":"","St_PreSep":"","St_Name":"Ozzie Woods","St_PosTyp":"Drive","St_PosDir":"","St_PosMod":"","ESN":"315","Post_Comm":"Island Pond","Post_Code":"05846","GlobalID":"ec778183-8784-454b-be03-3fd98cd53b70","Category":"Residential"}},
{"type":"Feature","id":75706,"geometry":{"type":"Point","coordinates":[-71.8245472186504,44.7584779125173]},"properties":{"OBJECTID":75706,"ESITEID":340836,"PRIMARYNAME":"OZZIE WOODS DR","ALIAS1":"","ALIAS2":"","ALIAS3":"","ALIAS4":"","ALIAS5":"","PRIMARYADDRESS":"47 OZZIE WOODS DR","SITETYPE":"Maple Production Facility","MAPYEAR":"Fri, 22 Oct 2010 14:04:35 GMT","SITETYPE_MULTI1":"","SITETYPE_MULTI2":"","SITETYPE_MULTI3":"","YearBuilt":null,"YearBuiltSrc":null,"YearBuiltNotes":"","ResUnitCnt":1,"NonResUnitCnt":0,"DateUpdate":"Thu, 12 Dec 2024 14:38:17 GMT","County":"Essex County","Inc_Muni":"Ferdinand","AddNum_Pre":null,"Add_Number":47,"AddNum_Suf":"","St_PreMod":"","St_PreDir":" ","St_PreTyp":"","St_PreSep":"","St_Name":"Ozzie Woods","St_PosTyp":"Drive","St_PosDir":"","St_PosMod":"","ESN":"315","Post_Comm":"Island Pond","Post_Code":"05846","GlobalID":"074976e2-4f1a-4dab-9bbb-3ff70ab44f39","Category":"Commercial"}},
{"type":"Feature","id":66239,"geometry":{"type":"Point","coordinates":[-71.7905254730642,44.7835531486602]},"properties":{"OBJECTID":66239,"ESITEID":454896,"PRIMARYNAME":"VT ROUTE 105","ALIAS1":"","ALIAS2":"","ALIAS3":"","ALIAS4":"","ALIAS5":"","PRIMARYADDRESS":"0 VT ROUTE 105","SITETYPE":"Accessory Building","MAPYEAR":"Fri, 01 May 2015 10:38:30 GMT","SITETYPE_MULTI1":"","SITETYPE_MULTI2":"","SITETYPE_MULTI3":"","YearBuilt":null,"YearBuiltSrc":null,"YearBuiltNotes":"","ResUnitCnt":0,"NonResUnitCnt":0,"DateUpdate":"Wed, 02 Oct 2024 06:14:58 GMT","County":"Essex County","Inc_Muni":"Ferdinand","AddNum_Pre":"","Add_Number":0,"AddNum_Suf":"","St_PreMod":"","St_PreDir":"","St_PreTyp":"Vermont Route","St_PreSep":"","St_Name":"105","St_PosTyp":"","St_PosDir":"","St_PosMod":"","ESN":"315","Post_Comm":"Island Pond","Post_Code":"05846","GlobalID":"e34a9ba6-9402-47e6-80a4-ca4998d57056","Category":"Residential"}},
{"type":"Feature","id":301556,"geometry":{"type":"Point","coordinates":[-71.777459996631,44.7837320454103]},"properties":{"OBJECTID":301556,"ESITEID":454897,"PRIMARYNAME":"FAY RD","ALIAS1":"","ALIAS2":"","ALIAS3":"","ALIAS4":"","ALIAS5":"","PRIMARYADDRESS":"163 FAY RD","SITETYPE":"Maple Production Facility","MAPYEAR":"Fri, 01 May 2015 10:39:53 GMT","SITETYPE_MULTI1":"","SITETYPE_MULTI2":"","SITETYPE_MULTI3":"","YearBuilt":null,"YearBuiltSrc":null,"YearBuiltNotes":"","ResUnitCnt":1,"NonResUnitCnt":0,"DateUpdate":"Sat, 23 Feb 2019 12:02:45 GMT","County":"Essex County","Inc_Muni":"Ferdinand","AddNum_Pre":"","Add_Number":163,"AddNum_Suf":"","St_PreMod":"","St_PreDir":" ","St_PreTyp":"","St_PreSep":"","St_Name":"Fay","St_PosTyp":"Road","St_PosDir":" ","St_PosMod":"","ESN":"315","Post_Comm":"Island Pond","Post_Code":"05846","GlobalID":"4c739e05-ab7a-434a-8261-9176afe052bb","Category":"Commercial"}},
{"type":"Feature","id":241205,"geometry":{"type":"Point","coordinates":[-71.8087767079925,44.7580580935896]},"properties":{"OBJECTID":241205,"ESITEID":617775,"PRIMARYNAME":"PIT AND RO RD","ALIAS1":"","ALIAS2":"","ALIAS3":"","ALIAS4":"","ALIAS5":"","PRIMARYADDRESS":"340 PIT AND RO RD","SITETYPE":"Maple Production Facility","MAPYEAR":"Wed, 20 Dec 2017 09:18:02 GMT","SITETYPE_MULTI1":"","SITETYPE_MULTI2":"","SITETYPE_MULTI3":"","YearBuilt":null,"YearBuiltSrc":null,"YearBuiltNotes":"","ResUnitCnt":1,"NonResUnitCnt":0,"DateUpdate":"Sat, 28 Jan 2023 00:35:41 GMT","County":"Essex County","Inc_Muni":"Ferdinand","AddNum_Pre":"","Add_Number":340,"AddNum_Suf":"","St_PreMod":"","St_PreDir":"","St_PreTyp":"","St_PreSep":"","St_Name":"Pit And Ro","St_PosTyp":"Road","St_PosDir":"","St_PosMod":"","ESN":"315","Post_Comm":"Island Pond","Post_Code":"05846","GlobalID":"6e6799d0-7759-457c-a83b-4f311b979936","Category":"Commercial"}},
{"type":"Feature","id":59299,"geometry":{"type":"Point","coordinates":[-71.7417477901655,44.7714832869235]},"properties":{"OBJECTID":59299,"ESITEID":754843,"PRIMARYNAME":"VT ROUTE 105","ALIAS1":"","ALIAS2":"","ALIAS3":"","ALIAS4":"","ALIAS5":"","PRIMARYADDRESS":"3321 VT ROUTE 105","SITETYPE":"Boat Ramp \/ Dock","MAPYEAR":"Wed, 05 Sep 2018 15:46:09 GMT","SITETYPE_MULTI1":"","SITETYPE_MULTI2":"","SITETYPE_MULTI3":"","YearBuilt":null,"YearBuiltSrc":null,"YearBuiltNotes":"","ResUnitCnt":0,"NonResUnitCnt":0,"DateUpdate":"Wed, 02 Oct 2024 06:14:58 GMT","County":"Essex County","Inc_Muni":"Ferdinand","AddNum_Pre":"","Add_Number":3321,"AddNum_Suf":"","St_PreMod":"","St_PreDir":"","St_PreTyp":"Vermont Route","St_PreSep":"","St_Name":"105","St_PosTyp":"","St_PosDir":"","St_PosMod":"","ESN":"315","Post_Comm":"Island Pond","Post_Code":"05846","GlobalID":"195d128d-045f-460b-a958-0ca48075fe71","Category":"Recreation"}},
{"type":"Feature","id":273451,"geometry":{"type":"Point","coordinates":[-71.7547969875817,44.7776685640233]},"properties":{"OBJECTID":273451,"ESITEID":755974,"PRIMARYNAME":"PAUL MENARD DR","ALIAS1":"","ALIAS2":"","ALIAS3":"","ALIAS4":"","ALIAS5":"","PRIMARYADDRESS":"350 PAUL MENARD DR","SITETYPE":"Communication Tower","MAPYEAR":"Fri, 08 Feb 2019 14:39:54 GMT","SITETYPE_MULTI1":"","SITETYPE_MULTI2":"","SITETYPE_MULTI3":"","YearBuilt":null,"YearBuiltSrc":null,"YearBuiltNotes":"","ResUnitCnt":1,"NonResUnitCnt":0,"DateUpdate":"Sat, 28 Jan 2023 00:35:49 GMT","County":"Essex County","Inc_Muni":"Ferdinand","AddNum_Pre":"","Add_Number":350,"AddNum_Suf":"","St_PreMod":"","St_PreDir":"","St_PreTyp":"","St_PreSep":"","St_Name":"Paul Menard","St_PosTyp":"Drive","St_PosDir":"","St_PosMod":"","ESN":"315","Post_Comm":"Island Pond","Post_Code":"05846","GlobalID":"5c7ac618-d591-4449-9565-9b5b1aeb59bd","Category":"Utility"}},
{"type":"Feature","id":212695,"geometry":{"type":"Point","coordinates":[-71.7039653927113,44.709487578413]},"properties":{"OBJECTID":212695,"ESITEID":756612,"PRIMARYNAME":"MORROW TRL","ALIAS1":"","ALIAS2":"","ALIAS3":"","ALIAS4":"","ALIAS5":"","PRIMARYADDRESS":"0 MORROW TRL","SITETYPE":"Lookout Tower","MAPYEAR":"Thu, 01 Aug 2019 09:35:16 GMT","SITETYPE_MULTI1":"","SITETYPE_MULTI2":"","SITETYPE_MULTI3":"","YearBuilt":null,"YearBuiltSrc":null,"YearBuiltNotes":"","ResUnitCnt":1,"NonResUnitCnt":0,"DateUpdate":"Tue, 28 Mar 2023 14:19:24 GMT","County":"Essex County","Inc_Muni":"Ferdinand","AddNum_Pre":null,"Add_Number":0,"AddNum_Suf":"","St_PreMod":"","St_PreDir":" ","St_PreTyp":"","St_PreSep":"","St_Name":"Morrow","St_PosTyp":"Trail","St_PosDir":" ","St_PosMod":"","ESN":"315","Post_Comm":"Guildhall","Post_Code":"05905","GlobalID":"e7ad8431-e7d4-4d07-832b-f474c41fd449","Category":"Recreation"}},
{"type":"Feature","id":84883,"geometry":{"type":"Point","coordinates":[-71.7543614147055,44.7773986901722]},"properties":{"OBJECTID":84883,"ESITEID":758270,"PRIMARYNAME":"PAUL MENARD DR","ALIAS1":"","ALIAS2":"","ALIAS3":"","ALIAS4":"","ALIAS5":"","PRIMARYADDRESS":"336 PAUL MENARD DR","SITETYPE":"Accessory Building","MAPYEAR":"Thu, 28 May 2020 16:18:47 GMT","SITETYPE_MULTI1":"","SITETYPE_MULTI2":"","SITETYPE_MULTI3":"","YearBuilt":null,"YearBuiltSrc":null,"YearBuiltNotes":"","ResUnitCnt":0,"NonResUnitCnt":0,"DateUpdate":"Thu, 22 Apr 2021 10:43:26 GMT","County":"Essex County","Inc_Muni":"Ferdinand","AddNum_Pre":null,"Add_Number":336,"AddNum_Suf":"","St_PreMod":"","St_PreDir":"","St_PreTyp":"","St_PreSep":"","St_Name":"Paul Menard","St_PosTyp":"Drive","St_PosDir":"","St_PosMod":"","ESN":"315","Post_Comm":"Island Pond","Post_Code":"05846","GlobalID":"8a27920d-50f5-4ff6-ae09-50322f0f1947","Category":"Residential"}},
{"type":"Feature","id":192437,"geometry":{"type":"Point","coordinates":[-71.7543003222015,44.7766911376531]},"properties":{"OBJECTID":192437,"ESITEID":758271,"PRIMARYNAME":"PAUL MENARD DR","ALIAS1":"","ALIAS2":"","ALIAS3":"","ALIAS4":"","ALIAS5":"","PRIMARYADDRESS":"311 PAUL MENARD DR","SITETYPE":"Accessory Building","MAPYEAR":"Thu, 28 May 2020 16:19:00 GMT","SITETYPE_MULTI1":"","SITETYPE_MULTI2":"","SITETYPE_MULTI3":"","YearBuilt":null,"YearBuiltSrc":null,"YearBuiltNotes":"","ResUnitCnt":0,"NonResUnitCnt":0,"DateUpdate":"Thu, 22 Apr 2021 10:43:06 GMT","County":"Essex County","Inc_Muni":"Ferdinand","AddNum_Pre":null,"Add_Number":311,"AddNum_Suf":"","St_PreMod":"","St_PreDir":"","St_PreTyp":"","St_PreSep":"","St_Name":"Paul Menard","St_PosTyp":"Drive","St_PosDir":"","St_PosMod":"","ESN":"315","Post_Comm":"Island Pond","Post_Code":"05846","GlobalID":"e044c109-2eaf-4bbc-bd90-3617d1e4d36a","Category":"Residential"}},
{"type":"Feature","id":307398,"geometry":{"type":"Point","coordinates":[-71.7517022149325,44.7775241558815]},"properties":{"OBJECTID":307398,"ESITEID":758272,"PRIMARYNAME":"PAUL MENARD DR","ALIAS1":"","ALIAS2":"","ALIAS3":"","ALIAS4":"","ALIAS5":"","PRIMARYADDRESS":"184 PAUL MENARD DR","SITETYPE":"Accessory Building","MAPYEAR":"Thu, 28 May 2020 16:19:25 GMT","SITETYPE_MULTI1":"","SITETYPE_MULTI2":"","SITETYPE_MULTI3":"","YearBuilt":null,"YearBuiltSrc":null,"YearBuiltNotes":"","ResUnitCnt":0,"NonResUnitCnt":0,"DateUpdate":"Thu, 22 Apr 2021 10:43:30 GMT","County":"Essex County","Inc_Muni":"Ferdinand","AddNum_Pre":null,"Add_Number":184,"AddNum_Suf":"","St_PreMod":"","St_PreDir":"","St_PreTyp":"","St_PreSep":"","St_Name":"Paul Menard","St_PosTyp":"Drive","St_PosDir":"","St_PosMod":"","ESN":"315","Post_Comm":"Island Pond","Post_Code":"05846","GlobalID":"e8e0243c-a3b4-485a-802f-fe8f2909386f","Category":"Residential"}},
{"type":"Feature","id":119118,"geometry":{"type":"Point","coordinates":[-71.783988433008,44.7806729151234]},"properties":{"OBJECTID":119118,"ESITEID":767593,"PRIMARYNAME":"MCCONNEL POND RD","ALIAS1":"","ALIAS2":"","ALIAS3":"","ALIAS4":"","ALIAS5":"","PRIMARYADDRESS":"0 MCCONNEL POND RD","SITETYPE":"Gated Access","MAPYEAR":"Mon, 11 Sep 2023 17:14:08 GMT","SITETYPE_MULTI1":"","SITETYPE_MULTI2":"","SITETYPE_MULTI3":"","YearBuilt":null,"YearBuiltSrc":null,"YearBuiltNotes":"","ResUnitCnt":1,"NonResUnitCnt":0,"DateUpdate":"Fri, 18 Apr 2025 09:33:39 GMT","County":"Essex County","Inc_Muni":"Ferdinand","AddNum_Pre":"","Add_Number":0,"AddNum_Suf":"","St_PreMod":"","St_PreDir":" ","St_PreTyp":"","St_PreSep":"","St_Name":"Mcconnel Pond","St_PosTyp":"Road","St_PosDir":" ","St_PosMod":"","ESN":"315","Post_Comm":"Island Pond","Post_Code":"05846","GlobalID":"748a803c-591b-422c-a8e8-da19f7716a3a","Category":"Other"}},
{"type":"Feature","id":345697,"geometry":{"type":"Point","coordinates":[-71.7859996460713,44.7812983365178]},"properties":{"OBJECTID":345697,"ESITEID":767594,"PRIMARYNAME":"VT ROUTE 105","ALIAS1":"","ALIAS2":"","ALIAS3":"","ALIAS4":"","ALIAS5":"","PRIMARYADDRESS":"0 VT ROUTE 105","SITETYPE":"Gated Access","MAPYEAR":"Mon, 11 Sep 2023 17:14:09 GMT","SITETYPE_MULTI1":"","SITETYPE_MULTI2":"","SITETYPE_MULTI3":"","YearBuilt":null,"YearBuiltSrc":null,"YearBuiltNotes":"","ResUnitCnt":1,"NonResUnitCnt":0,"DateUpdate":"Fri, 18 Apr 2025 09:29:49 GMT","County":"Essex County","Inc_Muni":"Ferdinand","AddNum_Pre":"","Add_Number":0,"AddNum_Suf":"","St_PreMod":"","St_PreDir":"","St_PreTyp":"Vermont Route","St_PreSep":"","St_Name":"105","St_PosTyp":"","St_PosDir":"","St_PosMod":"","ESN":"315","Post_Comm":"Island Pond","Post_Code":"05846","GlobalID":"3fdb8aeb-a265-449c-93d0-bdc2032b798d","Category":"Other"}},
{"type":"Feature","id":183980,"geometry":{"type":"Point","coordinates":[-71.7837794642576,44.787307663023]},"properties":{"OBJECTID":183980,"ESITEID":767595,"PRIMARYNAME":"MCCONNEL POND RD","ALIAS1":"","ALIAS2":"","ALIAS3":"","ALIAS4":"","ALIAS5":"","PRIMARYADDRESS":"0 MCCONNEL POND RD","SITETYPE":"Gated Access","MAPYEAR":"Mon, 11 Sep 2023 17:14:09 GMT","SITETYPE_MULTI1":"","SITETYPE_MULTI2":"","SITETYPE_MULTI3":"","YearBuilt":null,"YearBuiltSrc":null,"YearBuiltNotes":"","ResUnitCnt":1,"NonResUnitCnt":0,"DateUpdate":"Fri, 18 Apr 2025 09:30:56 GMT","County":"Essex County","Inc_Muni":"Ferdinand","AddNum_Pre":"","Add_Number":0,"AddNum_Suf":"","St_PreMod":"","St_PreDir":" ","St_PreTyp":"","St_PreSep":"","St_Name":"Mcconnel Pond","St_PosTyp":"Road","St_PosDir":" ","St_PosMod":"","ESN":"315","Post_Comm":"Island Pond","Post_Code":"05846","GlobalID":"9f4273c7-5594-4e16-90e5-19869a204ba3","Category":"Other"}},
{"type":"Feature","id":28117,"geometry":{"type":"Point","coordinates":[-71.7463231899732,44.7777362026028]},"properties":{"OBJECTID":28117,"ESITEID":767598,"PRIMARYNAME":"LEWIS POND RD","ALIAS1":"","ALIAS2":"","ALIAS3":"","ALIAS4":"","ALIAS5":"","PRIMARYADDRESS":"0 LEWIS POND RD","SITETYPE":"Gated Access","MAPYEAR":"Mon, 11 Sep 2023 17:14:11 GMT","SITETYPE_MULTI1":"","SITETYPE_MULTI2":"","SITETYPE_MULTI3":"","YearBuilt":null,"YearBuiltSrc":null,"YearBuiltNotes":"","ResUnitCnt":1,"NonResUnitCnt":0,"DateUpdate":"Fri, 18 Apr 2025 09:36:20 GMT","County":"Essex County","Inc_Muni":"Ferdinand","AddNum_Pre":"","Add_Number":0,"AddNum_Suf":"","St_PreMod":"","St_PreDir":" ","St_PreTyp":"","St_PreSep":"","St_Name":"Lewis Pond","St_PosTyp":"Road","St_PosDir":" ","St_PosMod":"","ESN":"315","Post_Comm":"Island Pond","Post_Code":"05846","GlobalID":"3f478588-7b93-46b8-8c77-80c865f2711a","Category":"Other"}},
{"type":"Feature","id":14410,"geometry":{"type":"Point","coordinates":[-71.7419728542303,44.7785615038439]},"properties":{"OBJECTID":14410,"ESITEID":767599,"PRIMARYNAME":"LEWIS POND RD","ALIAS1":"","ALIAS2":"","ALIAS3":"","ALIAS4":"","ALIAS5":"","PRIMARYADDRESS":"0 LEWIS POND RD","SITETYPE":"Gated Access","MAPYEAR":"Mon, 11 Sep 2023 17:14:11 GMT","SITETYPE_MULTI1":"","SITETYPE_MULTI2":"","SITETYPE_MULTI3":"","YearBuilt":null,"YearBuiltSrc":null,"YearBuiltNotes":"","ResUnitCnt":1,"NonResUnitCnt":0,"DateUpdate":"Fri, 18 Apr 2025 09:31:03 GMT","County":"Essex County","Inc_Muni":"Ferdinand","AddNum_Pre":"","Add_Number":0,"AddNum_Suf":"","St_PreMod":"","St_PreDir":" ","St_PreTyp":"","St_PreSep":"","St_Name":"Lewis Pond","St_PosTyp":"Road","St_PosDir":" ","St_PosMod":"","ESN":"315","Post_Comm":"Island Pond","Post_Code":"05846","GlobalID":"327f5448-aabc-45ff-936f-a58e2f7d559a","Category":"Other"}},
{"type":"Feature","id":282111,"geometry":{"type":"Point","coordinates":[-71.7559729450378,44.7795333094986]},"properties":{"OBJECTID":282111,"ESITEID":767600,"PRIMARYNAME":"VT ROUTE 105","ALIAS1":"","ALIAS2":"","ALIAS3":"","ALIAS4":"","ALIAS5":"","PRIMARYADDRESS":"0 VT ROUTE 105","SITETYPE":"Gated Access","MAPYEAR":"Mon, 11 Sep 2023 17:14:12 GMT","SITETYPE_MULTI1":"","SITETYPE_MULTI2":"","SITETYPE_MULTI3":"","YearBuilt":null,"YearBuiltSrc":null,"YearBuiltNotes":"","ResUnitCnt":1,"NonResUnitCnt":0,"DateUpdate":"Fri, 18 Apr 2025 09:35:45 GMT","County":"Essex County","Inc_Muni":"Ferdinand","AddNum_Pre":"","Add_Number":0,"AddNum_Suf":"","St_PreMod":"","St_PreDir":"","St_PreTyp":"Vermont Route","St_PreSep":"","St_Name":"105","St_PosTyp":"","St_PosDir":"","St_PosMod":"","ESN":"315","Post_Comm":"Island Pond","Post_Code":"05846","GlobalID":"04a3e426-2b57-4fac-9719-c540322b8e9b","Category":"Other"}},
{"type":"Feature","id":236472,"geometry":{"type":"Point","coordinates":[-71.7559592578148,44.7797389021612]},"properties":{"OBJECTID":236472,"ESITEID":767601,"PRIMARYNAME":"VT ROUTE 105","ALIAS1":"","ALIAS2":"","ALIAS3":"","ALIAS4":"","ALIAS5":"","PRIMARYADDRESS":"0 VT ROUTE 105","SITETYPE":"Gated Access","MAPYEAR":"Mon, 11 Sep 2023 17:14:13 GMT","SITETYPE_MULTI1":"","SITETYPE_MULTI2":"","SITETYPE_MULTI3":"","YearBuilt":null,"YearBuiltSrc":null,"YearBuiltNotes":"","ResUnitCnt":1,"NonResUnitCnt":0,"DateUpdate":"Fri, 18 Apr 2025 09:37:38 GMT","County":"Essex County","Inc_Muni":"Ferdinand","AddNum_Pre":"","Add_Number":0,"AddNum_Suf":"","St_PreMod":"","St_PreDir":"","St_PreTyp":"Vermont Route","St_PreSep":"","St_Name":"105","St_PosTyp":"","St_PosDir":"","St_PosMod":"","ESN":"315","Post_Comm":"Island Pond","Post_Code":"05846","GlobalID":"d6263813-e1c1-4d86-80ba-f3dff1e6f938","Category":"Other"}},
{"type":"Feature","id":47337,"geometry":{"type":"Point","coordinates":[-71.7353822817003,44.7817328356086]},"properties":{"OBJECTID":47337,"ESITEID":767602,"PRIMARYNAME":"LEWIS POND RD","ALIAS1":"","ALIAS2":"","ALIAS3":"","ALIAS4":"","ALIAS5":"","PRIMARYADDRESS":"0 LEWIS POND RD","SITETYPE":"Gated Access","MAPYEAR":"Mon, 11 Sep 2023 17:14:13 GMT","SITETYPE_MULTI1":"","SITETYPE_MULTI2":"","SITETYPE_MULTI3":"","YearBuilt":null,"YearBuiltSrc":null,"YearBuiltNotes":"","ResUnitCnt":1,"NonResUnitCnt":0,"DateUpdate":"Fri, 18 Apr 2025 09:19:04 GMT","County":"Essex County","Inc_Muni":"Ferdinand","AddNum_Pre":"","Add_Number":0,"AddNum_Suf":"","St_PreMod":"","St_PreDir":" ","St_PreTyp":"","St_PreSep":"","St_Name":"Lewis Pond","St_PosTyp":"Road","St_PosDir":" ","St_PosMod":"","ESN":"315","Post_Comm":"Island Pond","Post_Code":"05846","GlobalID":"c29cfac2-0d55-4bfb-9dae-2945b155e674","Category":"Other"}},
{"type":"Feature","id":60394,"geometry":{"type":"Point","coordinates":[-71.734813698249,44.7815158062012]},"properties":{"OBJECTID":60394,"ESITEID":767603,"PRIMARYNAME":"LEWIS POND RD","ALIAS1":"","ALIAS2":"","ALIAS3":"","ALIAS4":"","ALIAS5":"","PRIMARYADDRESS":"0 LEWIS POND RD","SITETYPE":"Gated Access","MAPYEAR":"Mon, 11 Sep 2023 17:14:14 GMT","SITETYPE_MULTI1":"","SITETYPE_MULTI2":"","SITETYPE_MULTI3":"","YearBuilt":null,"YearBuiltSrc":null,"YearBuiltNotes":"","ResUnitCnt":1,"NonResUnitCnt":0,"DateUpdate":"Fri, 18 Apr 2025 09:10:07 GMT","County":"Essex County","Inc_Muni":"Ferdinand","AddNum_Pre":"","Add_Number":0,"AddNum_Suf":"","St_PreMod":"","St_PreDir":" ","St_PreTyp":"","St_PreSep":"","St_Name":"Lewis Pond","St_PosTyp":"Road","St_PosDir":" ","St_PosMod":"","ESN":"315","Post_Comm":"Island Pond","Post_Code":"05846","GlobalID":"3a82a287-00bc-4a96-94d7-ac511158a7d2","Category":"Other"}},
{"type":"Feature","id":8173,"geometry":{"type":"Point","coordinates":[-71.7496022235821,44.7350595484022]},"properties":{"OBJECTID":8173,"ESITEID":800068,"PRIMARYNAME":"S AMERICA POND RD","ALIAS1":"","ALIAS2":"","ALIAS3":"","ALIAS4":"","ALIAS5":"","PRIMARYADDRESS":"2600 S AMERICA POND RD","SITETYPE":"Sports Arena \/ Stadium","MAPYEAR":"Tue, 20 Oct 2020 16:56:35 GMT","SITETYPE_MULTI1":"","SITETYPE_MULTI2":"","SITETYPE_MULTI3":"","YearBuilt":null,"YearBuiltSrc":null,"YearBuiltNotes":"","ResUnitCnt":1,"NonResUnitCnt":0,"DateUpdate":"Tue, 28 Mar 2023 14:20:33 GMT","County":"Essex County","Inc_Muni":"Ferdinand","AddNum_Pre":null,"Add_Number":2600,"AddNum_Suf":"","St_PreMod":"","St_PreDir":"South","St_PreTyp":"","St_PreSep":"","St_Name":"America Pond","St_PosTyp":"Road","St_PosDir":" ","St_PosMod":"","ESN":"315","Post_Comm":"Island Pond","Post_Code":"05846","GlobalID":"a20af80c-c065-4062-8849-a0de6fe80cde","Category":"Public Gathering"}},
{"type":"Feature","id":325371,"geometry":{"type":"Point","coordinates":[-71.7539282546001,44.7768296228247]},"properties":{"OBJECTID":325371,"ESITEID":1050758,"PRIMARYNAME":"PAUL MENARD DR","ALIAS1":"","ALIAS2":"","ALIAS3":"","ALIAS4":"","ALIAS5":"","PRIMARYADDRESS":"299 PAUL MENARD DR","SITETYPE":"Landing Zone","MAPYEAR":"Tue, 03 May 2016 15:01:13 GMT","SITETYPE_MULTI1":"","SITETYPE_MULTI2":"","SITETYPE_MULTI3":"","YearBuilt":null,"YearBuiltSrc":null,"YearBuiltNotes":"","ResUnitCnt":1,"NonResUnitCnt":0,"DateUpdate":"Sat, 28 Jan 2023 00:35:30 GMT","County":"Essex County","Inc_Muni":"Ferdinand","AddNum_Pre":"","Add_Number":299,"AddNum_Suf":"","St_PreMod":"","St_PreDir":"","St_PreTyp":"","St_PreSep":"","St_Name":"Paul Menard","St_PosTyp":"Drive","St_PosDir":"","St_PosMod":"","ESN":"315","Post_Comm":"Island Pond","Post_Code":"05846","GlobalID":"61659b61-1e24-42ce-9b09-837418b33df2","Category":"Public Safety"}}
]
}
