{
    "type": "FeatureCollection",
    "name": "FS_VCGI_OPENDATA_Emergency_SiteStructureAddressPoint_point_SP_v1 - Warners Grant",
    "crs": {
        "type": "name",
        "properties": {
            "name": "urn:ogc:def:crs:OGC:1.3:CRS84"
        }
    },
    "features": [
{"type":"Feature","id":327965,"geometry":{"type":"Point","coordinates":[-71.8972058645876,44.9335289145126]},"properties":{"OBJECTID":327965,"ESITEID":305331,"PRIMARYNAME":"HURRICANE BROOK RD  ","ALIAS1":"","ALIAS2":"","ALIAS3":"","ALIAS4":"","ALIAS5":"","PRIMARYADDRESS":"2231 HURRICANE BROOK RD","SITETYPE":"Camp","MAPYEAR":"Thu, 01 Jan 1998 00:00:00 GMT","SITETYPE_MULTI1":"","SITETYPE_MULTI2":"","SITETYPE_MULTI3":"","YearBuilt":null,"YearBuiltSrc":null,"YearBuiltNotes":"","ResUnitCnt":1,"NonResUnitCnt":0,"DateUpdate":"Fri, 05 Dec 2025 12:02:04 GMT","County":"Essex County","Inc_Muni":"Warners Grant","AddNum_Pre":null,"Add_Number":2231,"AddNum_Suf":"","St_PreMod":"","St_PreDir":"","St_PreTyp":"","St_PreSep":"","St_Name":"Hurricane Brook","St_PosTyp":"Road","St_PosDir":null,"St_PosMod":"","ESN":"318","Post_Comm":"Norton","Post_Code":"05907","GlobalID":"33012f15-e287-4e29-8b28-ba72be7afb7c","Category":"Residential"}}
]
}
