{
    "type": "FeatureCollection",
    "name": "FS_VCGI_OPENDATA_Emergency_SiteStructureAddressPoint_point_SP_v1 - MIddlebury",
    "crs": {
        "type": "name",
        "properties": {
            "name": "urn:ogc:def:crs:OGC:1.3:CRS84"
        }
    },
    "features": [
{"type":"Feature","id":257342,"geometry":{"type":"Point","coordinates":[-73.1773029402136,44.0128582096478]},"properties":{"OBJECTID":257342,"ESITEID":155049,"PRIMARYNAME":"CHATEAU RD","ALIAS1":null,"ALIAS2":null,"ALIAS3":null,"ALIAS4":null,"ALIAS5":"8\/25\/2015 11:45:34 AM","PRIMARYADDRESS":"148 CHATEAU RD","SITETYPE":"College \/ University \/ Trade","MAPYEAR":"Tue, 28 Oct 2025 20:08:47 GMT","SITETYPE_MULTI1":null,"SITETYPE_MULTI2":null,"SITETYPE_MULTI3":null,"YearBuilt":null,"YearBuiltSrc":null,"YearBuiltNotes":null,"ResUnitCnt":1,"NonResUnitCnt":1,"DateUpdate":"Tue, 28 Oct 2025 20:16:28 GMT","County":"Addison County","Inc_Muni":"MIddlebury","AddNum_Pre":null,"Add_Number":148,"AddNum_Suf":null,"St_PreMod":null,"St_PreDir":null,"St_PreTyp":null,"St_PreSep":null,"St_Name":"Chateau","St_PosTyp":"Road","St_PosDir":null,"St_PosMod":null,"ESN":"283","Post_Comm":"Middlebury","Post_Code":"05753","GlobalID":"79f62c2e-7844-4d88-98dd-33283ab4ecba","Category":"Educational"}}
]
}
