{
    "type": "FeatureCollection",
    "name": "FS_VCGI_OPENDATA_Emergency_ESITE_point_SP_v1 - BUELS GORE",
    "crs": {
        "type": "name",
        "properties": {
            "name": "urn:ogc:def:crs:OGC:1.3:CRS84"
        }
    },
    "features": [
{"type":"Feature","id":86271,"geometry":{"type":"Point","coordinates":[-72.9638024921594,44.2260147531337]},"properties":{"OBJECTID":86271,"SEGMENTID":33654,"ESITEID":41804,"GEONAMEID":3629,"PD":" ","PT":" ","SN":"GORE","ST":"RD","SD":" ","PRIMARYNAME":"GORE RD  ","ALIAS1":null,"ALIAS2":null,"ALIAS3":null,"ALIAS4":null,"ALIAS5":"","PRIMARYADDRESS":"930 GORE RD","SITETYPE":"ACCESSORY BUILDING","TOWNNAME":"BUELS GORE","MCODE":533,"ESN":466,"ZIP":"05487","PARCELNUM":"14.000","GPSX":-72.96380115,"GPSY":44.2260058,"MAPYEAR":"Thu, 01 Jan 1998 00:00:00 GMT","UPDATEDATE":"Tue, 12 Aug 2025 18:55:02 GMT","STATE":"VT","FIPS8":5007,"SPAN":"108-252-10007","SUBTYPE":null,"GlobalID_1":"c48f187a-7b8c-487b-b703-dc3e3f556740","UNITCOUNT":1,"PRIMARYADD1":"930 GORE RD BUELS GORE","PRIMARYADD2":"930 GORE RD BUELS GORE VT 05487","SITETYPE_MULTI1":null,"SITETYPE_MULTI2":null,"SITETYPE_MULTI3":null,"SITETYPE_MULTI4":null,"SITETYPE_MULTI5":null,"COUNTY":"CHITTENDEN","COUNTRY":"US","SOURCEOFDATA":"Vermont Enhanced 911 Board","DRIVEWAYID":null,"ESZ":"00466","HOUSE_NUMBER":930,"HOUSE_NUMBERSUFFIX":null,"HOUSE_NUMBERPREFIX":null,"FIPS":"5007"}},
{"type":"Feature","id":41086,"geometry":{"type":"Point","coordinates":[-72.9505439225026,44.2232167453961]},"properties":{"OBJECTID":41086,"SEGMENTID":33197,"ESITEID":41805,"GEONAMEID":28174,"PD":" ","PT":" ","SN":"OLD COUNTY","ST":"RD","SD":" ","PRIMARYNAME":"OLD COUNTY RD","ALIAS1":null,"ALIAS2":null,"ALIAS3":null,"ALIAS4":null,"ALIAS5":"1\/11\/2016 11:42:53 AM","PRIMARYADDRESS":"352 OLD COUNTY RD","SITETYPE":"SINGLE FAMILY DWELLING","TOWNNAME":"BUELS GORE","MCODE":533,"ESN":466,"ZIP":"05487","PARCELNUM":"06.000","GPSX":-72.95054258,"GPSY":44.22320779,"MAPYEAR":"Thu, 01 Jan 1998 00:00:00 GMT","UPDATEDATE":"Fri, 27 Jan 2023 23:22:23 GMT","STATE":"VT","FIPS8":5007,"SPAN":"108-252-10021","SUBTYPE":null,"GlobalID_1":"fa9a5229-b743-41d5-8e2c-3f2b25e8cc6f","UNITCOUNT":1,"PRIMARYADD1":"352 OLD COUNTY RD BUELS GORE","PRIMARYADD2":"352 OLD COUNTY RD BUELS GORE VT 05487","SITETYPE_MULTI1":null,"SITETYPE_MULTI2":null,"SITETYPE_MULTI3":null,"SITETYPE_MULTI4":null,"SITETYPE_MULTI5":null,"COUNTY":"CHITTENDEN","COUNTRY":"US","SOURCEOFDATA":"Vermont Enhanced 911 Board","DRIVEWAYID":null,"ESZ":"00466","HOUSE_NUMBER":352,"HOUSE_NUMBERSUFFIX":null,"HOUSE_NUMBERPREFIX":null,"FIPS":"5007"}},
{"type":"Feature","id":19134,"geometry":{"type":"Point","coordinates":[-72.9511583473599,44.2230771687255]},"properties":{"OBJECTID":19134,"SEGMENTID":33197,"ESITEID":41806,"GEONAMEID":28174,"PD":" ","PT":" ","SN":"OLD COUNTY","ST":"RD","SD":" ","PRIMARYNAME":"OLD COUNTY RD","ALIAS1":null,"ALIAS2":null,"ALIAS3":null,"ALIAS4":null,"ALIAS5":"5\/10\/2019 3:04:48 PM","PRIMARYADDRESS":"350 OLD COUNTY RD","SITETYPE":"CAMP","TOWNNAME":"BUELS GORE","MCODE":533,"ESN":466,"ZIP":"05487","PARCELNUM":"06.000","GPSX":-72.95115701,"GPSY":44.22306822,"MAPYEAR":"Thu, 01 Jan 1998 00:00:00 GMT","UPDATEDATE":"Mon, 27 Feb 2023 23:13:20 GMT","STATE":"VT","FIPS8":5007,"SPAN":"108-252-10021","SUBTYPE":null,"GlobalID_1":"48abbbd8-4342-47a5-a6c7-a669a81d90f7","UNITCOUNT":1,"PRIMARYADD1":"350 OLD COUNTY RD BUELS GORE","PRIMARYADD2":"350 OLD COUNTY RD BUELS GORE VT 05487","SITETYPE_MULTI1":null,"SITETYPE_MULTI2":null,"SITETYPE_MULTI3":null,"SITETYPE_MULTI4":null,"SITETYPE_MULTI5":null,"COUNTY":"CHITTENDEN","COUNTRY":"US","SOURCEOFDATA":"Vermont Enhanced 911 Board","DRIVEWAYID":null,"ESZ":"00466","HOUSE_NUMBER":350,"HOUSE_NUMBERSUFFIX":null,"HOUSE_NUMBERPREFIX":null,"FIPS":"5007"}},
{"type":"Feature","id":291544,"geometry":{"type":"Point","coordinates":[-72.9518668890898,44.2214121935962]},"properties":{"OBJECTID":291544,"SEGMENTID":29562,"ESITEID":41807,"GEONAMEID":3628,"PD":" ","PT":"","SN":"VT ROUTE 17","ST":" ","SD":" ","PRIMARYNAME":"VT ROUTE 17","ALIAS1":"ROUTE 17","ALIAS2":null,"ALIAS3":null,"ALIAS4":null,"ALIAS5":"1\/11\/2016 11:43:15 AM","PRIMARYADDRESS":"6339 VT ROUTE 17","SITETYPE":"SINGLE FAMILY DWELLING","TOWNNAME":"BUELS GORE","MCODE":533,"ESN":466,"ZIP":"05487","PARCELNUM":"05.000","GPSX":-72.95186555,"GPSY":44.22140324,"MAPYEAR":"Thu, 01 Jan 1998 00:00:00 GMT","UPDATEDATE":"Mon, 31 Jul 2023 10:27:58 GMT","STATE":"VT","FIPS8":5007,"SPAN":"108-252-10019","SUBTYPE":null,"GlobalID_1":"40842a04-8b13-4b72-8af2-d51e310a2fa1","UNITCOUNT":1,"PRIMARYADD1":"6339 VT ROUTE 17 BUELS GORE","PRIMARYADD2":"6339 VT ROUTE 17 BUELS GORE VT 05487","SITETYPE_MULTI1":null,"SITETYPE_MULTI2":null,"SITETYPE_MULTI3":null,"SITETYPE_MULTI4":null,"SITETYPE_MULTI5":null,"COUNTY":"CHITTENDEN","COUNTRY":"US","SOURCEOFDATA":"Vermont Enhanced 911 Board","DRIVEWAYID":null,"ESZ":"00466","HOUSE_NUMBER":6339,"HOUSE_NUMBERSUFFIX":null,"HOUSE_NUMBERPREFIX":null,"FIPS":"5007"}},
{"type":"Feature","id":280232,"geometry":{"type":"Point","coordinates":[-72.9633726153267,44.2211774695313]},"properties":{"OBJECTID":280232,"SEGMENTID":33654,"ESITEID":41808,"GEONAMEID":3629,"PD":" ","PT":" ","SN":"GORE","ST":"RD","SD":" ","PRIMARYNAME":"GORE RD  ","ALIAS1":null,"ALIAS2":null,"ALIAS3":null,"ALIAS4":null,"ALIAS5":"","PRIMARYADDRESS":"578 GORE RD","SITETYPE":"SINGLE FAMILY DWELLING","TOWNNAME":"BUELS GORE","MCODE":533,"ESN":466,"ZIP":"05487","PARCELNUM":"16.000","GPSX":-72.96337127,"GPSY":44.22116851,"MAPYEAR":"Thu, 01 Jan 1998 00:00:00 GMT","UPDATEDATE":"Tue, 28 Mar 2023 14:06:06 GMT","STATE":"VT","FIPS8":5007,"SPAN":"108-252-10008","SUBTYPE":null,"GlobalID_1":"425f7b4c-df2f-4e28-accc-0b509a9a3ccb","UNITCOUNT":1,"PRIMARYADD1":"578 GORE RD BUELS GORE","PRIMARYADD2":"578 GORE RD BUELS GORE VT 05487","SITETYPE_MULTI1":null,"SITETYPE_MULTI2":null,"SITETYPE_MULTI3":null,"SITETYPE_MULTI4":null,"SITETYPE_MULTI5":null,"COUNTY":"CHITTENDEN","COUNTRY":"US","SOURCEOFDATA":"Vermont Enhanced 911 Board","DRIVEWAYID":null,"ESZ":"00466","HOUSE_NUMBER":578,"HOUSE_NUMBERSUFFIX":null,"HOUSE_NUMBERPREFIX":null,"FIPS":"5007"}},
{"type":"Feature","id":293077,"geometry":{"type":"Point","coordinates":[-72.9548449565499,44.2206709080442]},"properties":{"OBJECTID":293077,"SEGMENTID":33197,"ESITEID":41809,"GEONAMEID":28174,"PD":" ","PT":" ","SN":"OLD COUNTY","ST":"RD","SD":" ","PRIMARYNAME":"OLD COUNTY RD","ALIAS1":null,"ALIAS2":null,"ALIAS3":null,"ALIAS4":null,"ALIAS5":"1\/11\/2016 11:43:00 AM","PRIMARYADDRESS":"129 OLD COUNTY RD","SITETYPE":"SINGLE FAMILY DWELLING","TOWNNAME":"BUELS GORE","MCODE":533,"ESN":466,"ZIP":"05487","PARCELNUM":"08.000","GPSX":-72.95484362,"GPSY":44.22066196,"MAPYEAR":"Thu, 01 Jan 1998 00:00:00 GMT","UPDATEDATE":"Mon, 27 Feb 2023 23:12:06 GMT","STATE":"VT","FIPS8":5007,"SPAN":"108-252-10020","SUBTYPE":null,"GlobalID_1":"a40d0175-134a-431a-99fd-a643663ba8fc","UNITCOUNT":1,"PRIMARYADD1":"129 OLD COUNTY RD BUELS GORE","PRIMARYADD2":"129 OLD COUNTY RD BUELS GORE VT 05487","SITETYPE_MULTI1":null,"SITETYPE_MULTI2":null,"SITETYPE_MULTI3":null,"SITETYPE_MULTI4":null,"SITETYPE_MULTI5":null,"COUNTY":"CHITTENDEN","COUNTRY":"US","SOURCEOFDATA":"Vermont Enhanced 911 Board","DRIVEWAYID":null,"ESZ":"00466","HOUSE_NUMBER":129,"HOUSE_NUMBERSUFFIX":null,"HOUSE_NUMBERPREFIX":null,"FIPS":"5007"}},
{"type":"Feature","id":107229,"geometry":{"type":"Point","coordinates":[-72.9533047772456,44.2165489311952]},"properties":{"OBJECTID":107229,"SEGMENTID":29562,"ESITEID":41810,"GEONAMEID":3628,"PD":" ","PT":"","SN":"VT ROUTE 17","ST":" ","SD":" ","PRIMARYNAME":"VT ROUTE 17","ALIAS1":"ROUTE 17","ALIAS2":null,"ALIAS3":null,"ALIAS4":null,"ALIAS5":"6\/26\/2019 3:18:20 PM","PRIMARYADDRESS":"6164 VT ROUTE 17","SITETYPE":"CAMP","TOWNNAME":"BUELS GORE","MCODE":533,"ESN":466,"ZIP":"05487","PARCELNUM":"22.100","GPSX":-72.95330344,"GPSY":44.21653997,"MAPYEAR":"Thu, 01 Jan 1998 00:00:00 GMT","UPDATEDATE":"Fri, 27 Jan 2023 23:59:18 GMT","STATE":"VT","FIPS8":5007,"SPAN":"108-252-10015","SUBTYPE":null,"GlobalID_1":"ecb8f77e-5aff-4a6f-b1d2-059192966d89","UNITCOUNT":1,"PRIMARYADD1":"6164 VT ROUTE 17 BUELS GORE","PRIMARYADD2":"6164 VT ROUTE 17 BUELS GORE VT 05487","SITETYPE_MULTI1":null,"SITETYPE_MULTI2":null,"SITETYPE_MULTI3":null,"SITETYPE_MULTI4":null,"SITETYPE_MULTI5":null,"COUNTY":"CHITTENDEN","COUNTRY":"US","SOURCEOFDATA":"Vermont Enhanced 911 Board","DRIVEWAYID":null,"ESZ":"00466","HOUSE_NUMBER":6164,"HOUSE_NUMBERSUFFIX":null,"HOUSE_NUMBERPREFIX":null,"FIPS":"5007"}},
{"type":"Feature","id":120517,"geometry":{"type":"Point","coordinates":[-72.9580419906915,44.2154522587009]},"properties":{"OBJECTID":120517,"SEGMENTID":59246,"ESITEID":41811,"GEONAMEID":3628,"PD":" ","PT":"","SN":"VT ROUTE 17","ST":" ","SD":" ","PRIMARYNAME":"VT ROUTE 17","ALIAS1":"ROUTE 17","ALIAS2":null,"ALIAS3":null,"ALIAS4":null,"ALIAS5":"1\/11\/2016 11:43:12 AM","PRIMARYADDRESS":"5904 VT ROUTE 17","SITETYPE":"SINGLE FAMILY DWELLING","TOWNNAME":"BUELS GORE","MCODE":533,"ESN":466,"ZIP":"05487","PARCELNUM":"21.000","GPSX":-72.95804065,"GPSY":44.21544331,"MAPYEAR":"Thu, 01 Jan 1998 00:00:00 GMT","UPDATEDATE":"Mon, 27 Feb 2023 22:59:58 GMT","STATE":"VT","FIPS8":5007,"SPAN":"108-252-10030","SUBTYPE":null,"GlobalID_1":"702bf8b3-75d4-4231-aff2-e9cfd8dd565b","UNITCOUNT":1,"PRIMARYADD1":"5904 VT ROUTE 17 BUELS GORE","PRIMARYADD2":"5904 VT ROUTE 17 BUELS GORE VT 05487","SITETYPE_MULTI1":null,"SITETYPE_MULTI2":null,"SITETYPE_MULTI3":null,"SITETYPE_MULTI4":null,"SITETYPE_MULTI5":null,"COUNTY":"CHITTENDEN","COUNTRY":"US","SOURCEOFDATA":"Vermont Enhanced 911 Board","DRIVEWAYID":null,"ESZ":"00466","HOUSE_NUMBER":5904,"HOUSE_NUMBERSUFFIX":null,"HOUSE_NUMBERPREFIX":null,"FIPS":"5007"}},
{"type":"Feature","id":52621,"geometry":{"type":"Point","coordinates":[-72.9603739311514,44.2149104984582]},"properties":{"OBJECTID":52621,"SEGMENTID":59246,"ESITEID":41812,"GEONAMEID":3628,"PD":" ","PT":"","SN":"VT ROUTE 17","ST":" ","SD":" ","PRIMARYNAME":"VT ROUTE 17","ALIAS1":"ROUTE 17","ALIAS2":null,"ALIAS3":null,"ALIAS4":null,"ALIAS5":"1\/11\/2016 11:43:19 AM","PRIMARYADDRESS":"5720 VT ROUTE 17","SITETYPE":"SINGLE FAMILY DWELLING","TOWNNAME":"BUELS GORE","MCODE":533,"ESN":466,"ZIP":"05487","PARCELNUM":"20.000","GPSX":-72.96037259,"GPSY":44.21490155,"MAPYEAR":"Thu, 01 Jan 1998 00:00:00 GMT","UPDATEDATE":"Mon, 27 Feb 2023 23:00:02 GMT","STATE":"VT","FIPS8":5007,"SPAN":"108-252-10017","SUBTYPE":null,"GlobalID_1":"3902f71f-5a28-4bc3-a0e0-78b037b0b39f","UNITCOUNT":1,"PRIMARYADD1":"5720 VT ROUTE 17 BUELS GORE","PRIMARYADD2":"5720 VT ROUTE 17 BUELS GORE VT 05487","SITETYPE_MULTI1":null,"SITETYPE_MULTI2":null,"SITETYPE_MULTI3":null,"SITETYPE_MULTI4":null,"SITETYPE_MULTI5":null,"COUNTY":"CHITTENDEN","COUNTRY":"US","SOURCEOFDATA":"Vermont Enhanced 911 Board","DRIVEWAYID":null,"ESZ":"00466","HOUSE_NUMBER":5720,"HOUSE_NUMBERSUFFIX":null,"HOUSE_NUMBERPREFIX":null,"FIPS":"5007"}},
{"type":"Feature","id":118365,"geometry":{"type":"Point","coordinates":[-72.9314776539018,44.2112265645296]},"properties":{"OBJECTID":118365,"SEGMENTID":83207,"ESITEID":41813,"GEONAMEID":3628,"PD":" ","PT":"","SN":"VT ROUTE 17","ST":" ","SD":" ","PRIMARYNAME":"VT ROUTE 17","ALIAS1":"ROUTE 17","ALIAS2":null,"ALIAS3":null,"ALIAS4":null,"ALIAS5":"1\/11\/2016 11:43:04 AM","PRIMARYADDRESS":"7903 VT ROUTE 17","SITETYPE":"PUBLIC GATHERING","TOWNNAME":"BUELS GORE","MCODE":533,"ESN":467,"ZIP":"05487","PARCELNUM":"02.000","GPSX":-72.93147633,"GPSY":44.21121761,"MAPYEAR":"Thu, 01 Jan 1998 00:00:00 GMT","UPDATEDATE":"Mon, 27 Feb 2023 23:02:19 GMT","STATE":"VT","FIPS8":5007,"SPAN":"108-252-10027","SUBTYPE":null,"GlobalID_1":"cbbf3844-fd16-438f-b3a7-98a12c85acbb","UNITCOUNT":1,"PRIMARYADD1":"7903 VT ROUTE 17 BUELS GORE","PRIMARYADD2":"7903 VT ROUTE 17 BUELS GORE VT 05487","SITETYPE_MULTI1":null,"SITETYPE_MULTI2":null,"SITETYPE_MULTI3":null,"SITETYPE_MULTI4":null,"SITETYPE_MULTI5":null,"COUNTY":"CHITTENDEN","COUNTRY":"US","SOURCEOFDATA":"Vermont Enhanced 911 Board","DRIVEWAYID":null,"ESZ":"00467","HOUSE_NUMBER":7903,"HOUSE_NUMBERSUFFIX":null,"HOUSE_NUMBERPREFIX":null,"FIPS":"5007"}},
{"type":"Feature","id":295875,"geometry":{"type":"Point","coordinates":[-72.9605824377256,44.2108116362623]},"properties":{"OBJECTID":295875,"SEGMENTID":55467,"ESITEID":41815,"GEONAMEID":28176,"PD":" ","PT":" ","SN":"STAVE BROOK","ST":"DR","SD":" ","PRIMARYNAME":"STAVE BROOK DR","ALIAS1":null,"ALIAS2":null,"ALIAS3":null,"ALIAS4":null,"ALIAS5":"1\/11\/2016 11:42:48 AM","PRIMARYADDRESS":"253 STAVE BROOK DR","SITETYPE":"SINGLE FAMILY DWELLING","TOWNNAME":"BUELS GORE","MCODE":533,"ESN":466,"ZIP":"05487","PARCELNUM":"23.000","GPSX":-72.9605811,"GPSY":44.21080268,"MAPYEAR":"Thu, 01 Jan 1998 00:00:00 GMT","UPDATEDATE":"Fri, 27 Jan 2023 23:22:23 GMT","STATE":"VT","FIPS8":5007,"SPAN":"108-252-10014","SUBTYPE":null,"GlobalID_1":"0bb1649b-1cf5-438a-847d-18a9ce324452","UNITCOUNT":1,"PRIMARYADD1":"253 STAVE BROOK DR BUELS GORE","PRIMARYADD2":"253 STAVE BROOK DR BUELS GORE VT 05487","SITETYPE_MULTI1":null,"SITETYPE_MULTI2":null,"SITETYPE_MULTI3":null,"SITETYPE_MULTI4":null,"SITETYPE_MULTI5":null,"COUNTY":"CHITTENDEN","COUNTRY":"US","SOURCEOFDATA":"Vermont Enhanced 911 Board","DRIVEWAYID":null,"ESZ":"00466","HOUSE_NUMBER":253,"HOUSE_NUMBERSUFFIX":null,"HOUSE_NUMBERPREFIX":null,"FIPS":"5007"}},
{"type":"Feature","id":233882,"geometry":{"type":"Point","coordinates":[-72.9605222591312,44.2114165103214]},"properties":{"OBJECTID":233882,"SEGMENTID":55467,"ESITEID":41816,"GEONAMEID":28176,"PD":" ","PT":" ","SN":"STAVE BROOK","ST":"DR","SD":" ","PRIMARYNAME":"STAVE BROOK DR","ALIAS1":null,"ALIAS2":null,"ALIAS3":null,"ALIAS4":null,"ALIAS5":"1\/11\/2016 11:42:50 AM","PRIMARYADDRESS":"245 STAVE BROOK DR","SITETYPE":"SINGLE FAMILY DWELLING","TOWNNAME":"BUELS GORE","MCODE":533,"ESN":466,"ZIP":"05487","PARCELNUM":"23.000","GPSX":-72.96052092,"GPSY":44.21140755,"MAPYEAR":"Tue, 19 Nov 2002 00:00:00 GMT","UPDATEDATE":"Fri, 27 Jan 2023 23:22:23 GMT","STATE":"VT","FIPS8":5007,"SPAN":"108-252-10014","SUBTYPE":null,"GlobalID_1":"257d5c81-c20a-4c86-9037-d80c034dfa82","UNITCOUNT":1,"PRIMARYADD1":"245 STAVE BROOK DR BUELS GORE","PRIMARYADD2":"245 STAVE BROOK DR BUELS GORE VT 05487","SITETYPE_MULTI1":null,"SITETYPE_MULTI2":null,"SITETYPE_MULTI3":null,"SITETYPE_MULTI4":null,"SITETYPE_MULTI5":null,"COUNTY":"CHITTENDEN","COUNTRY":"US","SOURCEOFDATA":"Vermont Enhanced 911 Board","DRIVEWAYID":null,"ESZ":"00466","HOUSE_NUMBER":245,"HOUSE_NUMBERSUFFIX":null,"HOUSE_NUMBERPREFIX":null,"FIPS":"5007"}},
{"type":"Feature","id":228645,"geometry":{"type":"Point","coordinates":[-72.9486615548662,44.2207283165377]},"properties":{"OBJECTID":228645,"SEGMENTID":29562,"ESITEID":41817,"GEONAMEID":3628,"PD":" ","PT":"","SN":"VT ROUTE 17","ST":" ","SD":" ","PRIMARYNAME":"VT ROUTE 17","ALIAS1":"ROUTE 17","ALIAS2":null,"ALIAS3":null,"ALIAS4":null,"ALIAS5":"1\/11\/2016 11:43:09 AM","PRIMARYADDRESS":"6469 VT ROUTE 17","SITETYPE":"SINGLE FAMILY DWELLING","TOWNNAME":"BUELS GORE","MCODE":533,"ESN":466,"ZIP":"05487","PARCELNUM":"04.000","GPSX":-72.94866022,"GPSY":44.22071936,"MAPYEAR":"Wed, 29 Jan 2003 00:00:00 GMT","UPDATEDATE":"Mon, 27 Feb 2023 23:13:54 GMT","STATE":"VT","FIPS8":5007,"SPAN":"108-252-10009","SUBTYPE":null,"GlobalID_1":"fc6b8b66-1b1d-4861-8a95-f73d9e9c5d35","UNITCOUNT":1,"PRIMARYADD1":"6469 VT ROUTE 17 BUELS GORE","PRIMARYADD2":"6469 VT ROUTE 17 BUELS GORE VT 05487","SITETYPE_MULTI1":null,"SITETYPE_MULTI2":null,"SITETYPE_MULTI3":null,"SITETYPE_MULTI4":null,"SITETYPE_MULTI5":null,"COUNTY":"CHITTENDEN","COUNTRY":"US","SOURCEOFDATA":"Vermont Enhanced 911 Board","DRIVEWAYID":null,"ESZ":"00466","HOUSE_NUMBER":6469,"HOUSE_NUMBERSUFFIX":null,"HOUSE_NUMBERPREFIX":null,"FIPS":"5007"}},
{"type":"Feature","id":230103,"geometry":{"type":"Point","coordinates":[-72.9633180562274,44.2239541204073]},"properties":{"OBJECTID":230103,"SEGMENTID":33654,"ESITEID":41818,"GEONAMEID":3629,"PD":" ","PT":" ","SN":"GORE","ST":"RD","SD":" ","PRIMARYNAME":"GORE RD  ","ALIAS1":null,"ALIAS2":null,"ALIAS3":null,"ALIAS4":null,"ALIAS5":"","PRIMARYADDRESS":"840 GORE RD","SITETYPE":"SINGLE FAMILY DWELLING","TOWNNAME":"BUELS GORE","MCODE":533,"ESN":466,"ZIP":"05487","PARCELNUM":"14.000","GPSX":-72.96331672,"GPSY":44.22394517,"MAPYEAR":"Thu, 16 Jun 2005 00:00:00 GMT","UPDATEDATE":"Tue, 28 Mar 2023 14:06:06 GMT","STATE":"VT","FIPS8":5007,"SPAN":"108-252-10007","SUBTYPE":null,"GlobalID_1":"fa176e29-6884-466e-97bd-5b46f1ef3176","UNITCOUNT":1,"PRIMARYADD1":"840 GORE RD BUELS GORE","PRIMARYADD2":"840 GORE RD BUELS GORE VT 05487","SITETYPE_MULTI1":null,"SITETYPE_MULTI2":null,"SITETYPE_MULTI3":null,"SITETYPE_MULTI4":null,"SITETYPE_MULTI5":null,"COUNTY":"CHITTENDEN","COUNTRY":"US","SOURCEOFDATA":"Vermont Enhanced 911 Board","DRIVEWAYID":null,"ESZ":"00466","HOUSE_NUMBER":840,"HOUSE_NUMBERSUFFIX":null,"HOUSE_NUMBERPREFIX":null,"FIPS":"5007"}},
{"type":"Feature","id":271249,"geometry":{"type":"Point","coordinates":[-72.9642512039527,44.226070662784]},"properties":{"OBJECTID":271249,"SEGMENTID":33654,"ESITEID":248644,"GEONAMEID":3629,"PD":" ","PT":" ","SN":"GORE","ST":"RD","SD":" ","PRIMARYNAME":"GORE RD  ","ALIAS1":null,"ALIAS2":null,"ALIAS3":null,"ALIAS4":null,"ALIAS5":"","PRIMARYADDRESS":"928 GORE RD","SITETYPE":"SINGLE FAMILY DWELLING","TOWNNAME":"BUELS GORE","MCODE":533,"ESN":466,"ZIP":"05487","PARCELNUM":"14.000","GPSX":-72.96424986,"GPSY":44.22606171,"MAPYEAR":"Thu, 01 Jan 1998 00:00:00 GMT","UPDATEDATE":"Tue, 12 Aug 2025 18:54:42 GMT","STATE":"VT","FIPS8":5007,"SPAN":"108-252-10007","SUBTYPE":null,"GlobalID_1":"93e5f0da-85db-4f99-85e8-6f98982d0cdf","UNITCOUNT":1,"PRIMARYADD1":"928 GORE RD BUELS GORE","PRIMARYADD2":"928 GORE RD BUELS GORE VT 05487","SITETYPE_MULTI1":null,"SITETYPE_MULTI2":null,"SITETYPE_MULTI3":null,"SITETYPE_MULTI4":null,"SITETYPE_MULTI5":null,"COUNTY":"CHITTENDEN","COUNTRY":"US","SOURCEOFDATA":"Vermont Enhanced 911 Board","DRIVEWAYID":null,"ESZ":"00466","HOUSE_NUMBER":928,"HOUSE_NUMBERSUFFIX":null,"HOUSE_NUMBERPREFIX":null,"FIPS":"5007"}},
{"type":"Feature","id":69816,"geometry":{"type":"Point","coordinates":[-72.9527162889547,44.2177889787564]},"properties":{"OBJECTID":69816,"SEGMENTID":29562,"ESITEID":344297,"GEONAMEID":3628,"PD":" ","PT":"","SN":"VT ROUTE 17","ST":" ","SD":" ","PRIMARYNAME":"VT ROUTE 17","ALIAS1":"ROUTE 17","ALIAS2":null,"ALIAS3":null,"ALIAS4":null,"ALIAS5":"12\/4\/2020 11:58:06 AM","PRIMARYADDRESS":"6174 VT ROUTE 17","SITETYPE":"SEASONAL HOME","TOWNNAME":"BUELS GORE","MCODE":533,"ESN":466,"ZIP":"05487","PARCELNUM":"05.100","GPSX":-72.95271495,"GPSY":44.21778003,"MAPYEAR":"Mon, 31 Oct 2011 11:17:58 GMT","UPDATEDATE":"Mon, 27 Feb 2023 23:09:03 GMT","STATE":"VT","FIPS8":5007,"SPAN":"108-252-10032","SUBTYPE":null,"GlobalID_1":"f26c96ef-7649-44c8-a361-17e06a646566","UNITCOUNT":1,"PRIMARYADD1":"6174 VT ROUTE 17 BUELS GORE","PRIMARYADD2":"6174 VT ROUTE 17 BUELS GORE VT 05487","SITETYPE_MULTI1":null,"SITETYPE_MULTI2":null,"SITETYPE_MULTI3":null,"SITETYPE_MULTI4":null,"SITETYPE_MULTI5":null,"COUNTY":"CHITTENDEN","COUNTRY":"US","SOURCEOFDATA":"Vermont Enhanced 911 Board","DRIVEWAYID":null,"ESZ":"00466","HOUSE_NUMBER":6174,"HOUSE_NUMBERSUFFIX":null,"HOUSE_NUMBERPREFIX":null,"FIPS":"5007"}},
{"type":"Feature","id":227475,"geometry":{"type":"Point","coordinates":[-72.9643661813747,44.2299660144582]},"properties":{"OBJECTID":227475,"SEGMENTID":2208,"ESITEID":759068,"GEONAMEID":3629,"PD":"","PT":"","SN":"GORE","ST":"RD","SD":"","PRIMARYNAME":"GORE RD","ALIAS1":null,"ALIAS2":null,"ALIAS3":null,"ALIAS4":null,"ALIAS5":"","PRIMARYADDRESS":"1190 GORE RD","SITETYPE":"SINGLE FAMILY DWELLING","TOWNNAME":"BUELS GORE","MCODE":533,"ESN":466,"ZIP":"05487","PARCELNUM":"13.100","GPSX":-72.96436484,"GPSY":44.22995706,"MAPYEAR":"Tue, 01 Sep 2020 14:56:40 GMT","UPDATEDATE":"Tue, 28 Mar 2023 14:20:28 GMT","STATE":"VT","FIPS8":5007,"SPAN":"108-252-10004","SUBTYPE":null,"GlobalID_1":"cf33bed1-1bf9-4551-8981-f32040e0fb4e","UNITCOUNT":1,"PRIMARYADD1":"1190 GORE RD BUELS GORE","PRIMARYADD2":"1190 GORE RD BUELS GORE VT 05487","SITETYPE_MULTI1":null,"SITETYPE_MULTI2":null,"SITETYPE_MULTI3":null,"SITETYPE_MULTI4":null,"SITETYPE_MULTI5":null,"COUNTY":"CHITTENDEN","COUNTRY":"US","SOURCEOFDATA":"Vermont Enhanced 911 Board","DRIVEWAYID":null,"ESZ":"00466","HOUSE_NUMBER":1190,"HOUSE_NUMBERSUFFIX":null,"HOUSE_NUMBERPREFIX":null,"FIPS":null}},
{"type":"Feature","id":70045,"geometry":{"type":"Point","coordinates":[-72.9645540194414,44.2308579692063]},"properties":{"OBJECTID":70045,"SEGMENTID":2208,"ESITEID":759069,"GEONAMEID":3629,"PD":"","PT":"","SN":"GORE","ST":"RD","SD":"","PRIMARYNAME":"GORE RD","ALIAS1":null,"ALIAS2":null,"ALIAS3":null,"ALIAS4":null,"ALIAS5":"","PRIMARYADDRESS":"1250 GORE RD","SITETYPE":"LUMBER MILL \/ SAW MILL","TOWNNAME":"BUELS GORE","MCODE":533,"ESN":466,"ZIP":"05487","PARCELNUM":"13.100","GPSX":-72.96455268,"GPSY":44.23084902,"MAPYEAR":"Tue, 01 Sep 2020 14:57:09 GMT","UPDATEDATE":"Thu, 26 Jun 2025 22:20:33 GMT","STATE":"VT","FIPS8":5007,"SPAN":"108-252-10004","SUBTYPE":null,"GlobalID_1":"26c1018b-1d76-43f8-95d7-c9e8cf96fdb9","UNITCOUNT":1,"PRIMARYADD1":"1250 GORE RD BUELS GORE","PRIMARYADD2":"1250 GORE RD BUELS GORE VT 05487","SITETYPE_MULTI1":null,"SITETYPE_MULTI2":null,"SITETYPE_MULTI3":null,"SITETYPE_MULTI4":null,"SITETYPE_MULTI5":null,"COUNTY":"CHITTENDEN","COUNTRY":"US","SOURCEOFDATA":"Vermont Enhanced 911 Board","DRIVEWAYID":null,"ESZ":"00466","HOUSE_NUMBER":1250,"HOUSE_NUMBERSUFFIX":null,"HOUSE_NUMBERPREFIX":null,"FIPS":null}},
{"type":"Feature","id":98500,"geometry":{"type":"Point","coordinates":[-72.9552065680596,44.2158220370674]},"properties":{"OBJECTID":98500,"SEGMENTID":59246,"ESITEID":759384,"GEONAMEID":3628,"PD":"","PT":"","SN":"VT ROUTE 17","ST":"","SD":"","PRIMARYNAME":"VT ROUTE 17","ALIAS1":null,"ALIAS2":null,"ALIAS3":null,"ALIAS4":null,"ALIAS5":"11\/19\/2022 1:25:19 PM","PRIMARYADDRESS":"6162 VT ROUTE 17","SITETYPE":"SINGLE FAMILY DWELLING","TOWNNAME":"BUELS GORE","MCODE":533,"ESN":466,"ZIP":"05487","PARCELNUM":" ","GPSX":-72.95520738,"GPSY":44.21581481,"MAPYEAR":"Fri, 04 Dec 2020 11:57:20 GMT","UPDATEDATE":"Fri, 18 Apr 2025 09:28:59 GMT","STATE":"VT","FIPS8":5007,"SPAN":"108-252-10013","SUBTYPE":null,"GlobalID_1":"84077f1c-a3b7-4a74-8231-388cabe9ff17","UNITCOUNT":1,"PRIMARYADD1":"6162 VT ROUTE 17 BUELS GORE","PRIMARYADD2":"6162 VT ROUTE 17 BUELS GORE VT 05487","SITETYPE_MULTI1":null,"SITETYPE_MULTI2":null,"SITETYPE_MULTI3":null,"SITETYPE_MULTI4":null,"SITETYPE_MULTI5":null,"COUNTY":"CHITTENDEN","COUNTRY":"US","SOURCEOFDATA":"Vermont Enhanced 911 Board","DRIVEWAYID":null,"ESZ":"00466","HOUSE_NUMBER":6162,"HOUSE_NUMBERSUFFIX":null,"HOUSE_NUMBERPREFIX":"","FIPS":null}},
{"type":"Feature","id":266364,"geometry":{"type":"Point","coordinates":[-72.9356558737963,44.1985658035576]},"properties":{"OBJECTID":266364,"SEGMENTID":83207,"ESITEID":1050801,"GEONAMEID":3628,"PD":"","PT":"","SN":"VT ROUTE 17","ST":"","SD":"","PRIMARYNAME":"VT ROUTE 17","ALIAS1":"","ALIAS2":"","ALIAS3":"","ALIAS4":"","ALIAS5":"","PRIMARYADDRESS":"7884 VT ROUTE 17","SITETYPE":"CAMP","TOWNNAME":"BUELS GORE","MCODE":533,"ESN":467,"ZIP":"05673","PARCELNUM":"02.000","GPSX":-72.93565455,"GPSY":44.19855685,"MAPYEAR":"Tue, 24 May 2016 08:48:26 GMT","UPDATEDATE":"Tue, 12 Aug 2025 19:00:07 GMT","STATE":"VT","FIPS8":5007,"SPAN":"108-252-10027","SUBTYPE":0,"GlobalID_1":"ce26feb5-0a9a-45bf-94de-337e6cb9ff7b","UNITCOUNT":1,"PRIMARYADD1":"7884 VT ROUTE 17 BUELS GORE","PRIMARYADD2":"7884 VT ROUTE 17 BUELS GORE VT 05673","SITETYPE_MULTI1":"","SITETYPE_MULTI2":"","SITETYPE_MULTI3":"","SITETYPE_MULTI4":"","SITETYPE_MULTI5":"","COUNTY":"CHITTENDEN","COUNTRY":"US","SOURCEOFDATA":"Vermont Enhanced 911 Board","DRIVEWAYID":0,"ESZ":"00467","HOUSE_NUMBER":7884,"HOUSE_NUMBERSUFFIX":"","HOUSE_NUMBERPREFIX":"","FIPS":"5007"}}
]
}
