<?xml version="1.0" encoding="UTF-8"?>
<osm version="0.6" generator="JOSM" upload="false">
  <node id="-100" visible="true" lat="44.776769389441" lon="-71.693001531652">
    <tag k="addr:city" v="Guildhall" />
    <tag k="addr:housenumber" v="4495" />
    <tag k="addr:street" v="Vermont Route 105" />
    <tag k="addr:state" v="VT" />
    <tag k="ref:vcgi:esiteid" v="41742" />
  </node>
  <node id="-101" visible="true" lat="44.776002689695" lon="-71.694697946247">
    <tag k="addr:city" v="Guildhall" />
    <tag k="addr:housenumber" v="4587" />
    <tag k="addr:street" v="Vermont Route 105" />
    <tag k="addr:state" v="VT" />
    <tag k="ref:vcgi:esiteid" v="41743" />
  </node>
  <node id="-102" visible="true" lat="44.775680264907" lon="-71.697592512007">
    <tag k="addr:city" v="Guildhall" />
    <tag k="addr:housenumber" v="4726" />
    <tag k="addr:street" v="Vermont Route 105" />
    <tag k="addr:state" v="VT" />
    <tag k="ref:vcgi:esiteid" v="41744" />
  </node>
  <node id="-103" visible="true" lat="44.775556123596" lon="-71.697281838363">
    <tag k="addr:city" v="Guildhall" />
    <tag k="addr:housenumber" v="4723" />
    <tag k="addr:street" v="Vermont Route 105" />
    <tag k="addr:state" v="VT" />
    <tag k="ref:vcgi:esiteid" v="41745" />
  </node>
  <node id="-104" visible="true" lat="44.772753960866" lon="-71.698913814902">
    <tag k="addr:city" v="Guildhall" />
    <tag k="addr:housenumber" v="4981" />
    <tag k="addr:street" v="Vermont Route 105" />
    <tag k="addr:state" v="VT" />
    <tag k="ref:vcgi:esiteid" v="41746" />
  </node>
  <node id="-105" visible="true" lat="44.769471679783" lon="-71.698937417402">
    <tag k="addr:city" v="Guildhall" />
    <tag k="addr:housenumber" v="5209" />
    <tag k="addr:street" v="Vermont Route 105" />
    <tag k="addr:state" v="VT" />
    <tag k="ref:vcgi:esiteid" v="41747" />
  </node>
  <node id="-106" visible="true" lat="44.768231788157" lon="-71.70189144201">
    <tag k="addr:city" v="Guildhall" />
    <tag k="addr:housenumber" v="5360" />
    <tag k="addr:street" v="Vermont Route 105" />
    <tag k="addr:state" v="VT" />
    <tag k="ref:vcgi:esiteid" v="41748" />
  </node>
  <node id="-107" visible="true" lat="44.7678282629" lon="-71.700450717699">
    <tag k="addr:city" v="Guildhall" />
    <tag k="addr:housenumber" v="5305" />
    <tag k="addr:street" v="Vermont Route 105" />
    <tag k="addr:state" v="VT" />
    <tag k="ref:vcgi:esiteid" v="41749" />
  </node>
  <node id="-108" visible="true" lat="44.767909604826" lon="-71.70245229169">
    <tag k="addr:city" v="Guildhall" />
    <tag k="addr:housenumber" v="5396" />
    <tag k="addr:street" v="Vermont Route 105" />
    <tag k="addr:state" v="VT" />
    <tag k="ref:vcgi:esiteid" v="41750" />
  </node>
  <node id="-109" visible="true" lat="44.765759978154" lon="-71.702469827837">
    <tag k="addr:city" v="Guildhall" />
    <tag k="addr:housenumber" v="5455" />
    <tag k="addr:street" v="Vermont Route 105" />
    <tag k="addr:state" v="VT" />
    <tag k="ref:vcgi:esiteid" v="41751" />
  </node>
  <node id="-110" visible="true" lat="44.764833008399" lon="-71.707451823792">
    <tag k="addr:city" v="Guildhall" />
    <tag k="addr:housenumber" v="5695" />
    <tag k="addr:street" v="Vermont Route 105" />
    <tag k="addr:state" v="VT" />
    <tag k="ref:vcgi:esiteid" v="41752" />
  </node>
  <node id="-111" visible="true" lat="44.764730009747" lon="-71.705681804197">
    <tag k="addr:city" v="Guildhall" />
    <tag k="addr:housenumber" v="5619" />
    <tag k="addr:street" v="Vermont Route 105" />
    <tag k="addr:state" v="VT" />
    <tag k="ref:vcgi:esiteid" v="41753" />
  </node>
  <node id="-112" visible="true" lat="44.764237914037" lon="-71.710160260068">
    <tag k="addr:city" v="Guildhall" />
    <tag k="addr:housenumber" v="5847" />
    <tag k="addr:street" v="Vermont Route 105" />
    <tag k="addr:state" v="VT" />
    <tag k="ref:vcgi:esiteid" v="41754" />
  </node>
  <node id="-113" visible="true" lat="44.763693059233" lon="-71.710137811238">
    <tag k="addr:city" v="Guildhall" />
    <tag k="addr:housenumber" v="5879" />
    <tag k="addr:street" v="Vermont Route 105" />
    <tag k="addr:state" v="VT" />
    <tag k="ref:vcgi:esiteid" v="41755" />
  </node>
  <node id="-114" visible="true" lat="44.762083320393" lon="-71.710521824137">
    <tag k="addr:city" v="Guildhall" />
    <tag k="addr:housenumber" v="5999" />
    <tag k="addr:street" v="Vermont Route 105" />
    <tag k="addr:state" v="VT" />
    <tag k="ref:vcgi:esiteid" v="41756" />
  </node>
  <node id="-115" visible="true" lat="44.76060494212" lon="-71.708554264632">
    <tag k="addr:city" v="Guildhall" />
    <tag k="addr:housenumber" v="6061" />
    <tag k="addr:street" v="Vermont Route 105" />
    <tag k="addr:state" v="VT" />
    <tag k="ref:vcgi:esiteid" v="41757" />
  </node>
  <node id="-116" visible="true" lat="44.751800372379" lon="-71.63846796394">
    <tag k="addr:city" v="Guildhall" />
    <tag k="addr:housenumber" v="455" />
    <tag k="addr:street" v="Graham Road" />
    <tag k="addr:state" v="VT" />
    <tag k="ref:vcgi:esiteid" v="41758" />
  </node>
  <node id="-117" visible="true" lat="44.750675133855" lon="-71.64009268237">
    <tag k="addr:city" v="Guildhall" />
    <tag k="addr:housenumber" v="423" />
    <tag k="addr:street" v="Graham Road" />
    <tag k="addr:state" v="VT" />
    <tag k="ref:vcgi:esiteid" v="41759" />
  </node>
  <node id="-118" visible="true" lat="44.749322234816" lon="-71.633699364586">
    <tag k="addr:city" v="Guildhall" />
    <tag k="addr:housenumber" v="19" />
    <tag k="addr:street" v="Graham Road" />
    <tag k="addr:state" v="VT" />
    <tag k="ref:vcgi:esiteid" v="41760" />
  </node>
  <node id="-119" visible="true" lat="44.76539376689" lon="-71.709107402595">
    <tag k="addr:city" v="Guildhall" />
    <tag k="addr:housenumber" v="5752" />
    <tag k="addr:street" v="Vermont Route 105" />
    <tag k="addr:state" v="VT" />
    <tag k="ref:vcgi:esiteid" v="41761" />
  </node>
  <node id="-120" visible="true" lat="44.774068391055" lon="-71.700501444795">
    <tag k="addr:city" v="Guildhall" />
    <tag k="addr:housenumber" v="4884" />
    <tag k="addr:street" v="Vermont Route 105" />
    <tag k="addr:state" v="VT" />
    <tag k="ref:vcgi:esiteid" v="41762" />
  </node>
  <node id="-121" visible="true" lat="44.74575951926" lon="-71.631073927716">
    <tag k="addr:city" v="Guildhall" />
    <tag k="addr:housenumber" v="337" />
    <tag k="addr:street" v="Vermont Route 102" />
    <tag k="addr:state" v="VT" />
    <tag k="ref:vcgi:esiteid" v="41763" />
  </node>
  <node id="-122" visible="true" lat="44.745187315687" lon="-71.630532240481">
    <tag k="addr:city" v="Guildhall" />
    <tag k="addr:housenumber" v="355" />
    <tag k="addr:street" v="Vermont Route 102" />
    <tag k="addr:state" v="VT" />
    <tag k="ref:vcgi:esiteid" v="41764" />
  </node>
  <node id="-123" visible="true" lat="44.744420561817" lon="-71.630867935297">
    <tag k="addr:city" v="Guildhall" />
    <tag k="addr:housenumber" v="405" />
    <tag k="addr:street" v="Vermont Route 102" />
    <tag k="addr:state" v="VT" />
    <tag k="ref:vcgi:esiteid" v="41765" />
  </node>
  <node id="-124" visible="true" lat="44.736316436825" lon="-71.632539390106">
    <tag k="addr:city" v="Guildhall" />
    <tag k="addr:housenumber" v="953" />
    <tag k="addr:street" v="Vermont Route 102" />
    <tag k="addr:state" v="VT" />
    <tag k="ref:vcgi:esiteid" v="41766" />
  </node>
  <node id="-125" visible="true" lat="44.716570637782" lon="-71.614507806622">
    <tag k="addr:city" v="Guildhall" />
    <tag k="addr:housenumber" v="3017" />
    <tag k="addr:street" v="Vermont Route 102" />
    <tag k="addr:state" v="VT" />
    <tag k="ref:vcgi:esiteid" v="41767" />
  </node>
  <node id="-126" visible="true" lat="44.715296795331" lon="-71.612519024412">
    <tag k="addr:city" v="Guildhall" />
    <tag k="addr:housenumber" v="3127" />
    <tag k="addr:street" v="Vermont Route 102" />
    <tag k="addr:state" v="VT" />
    <tag k="ref:vcgi:esiteid" v="41768" />
  </node>
  <node id="-127" visible="true" lat="44.714555194996" lon="-71.611606778603">
    <tag k="addr:city" v="Guildhall" />
    <tag k="addr:housenumber" v="3177" />
    <tag k="addr:street" v="Vermont Route 102" />
    <tag k="addr:state" v="VT" />
    <tag k="ref:vcgi:esiteid" v="41769" />
  </node>
  <node id="-128" visible="true" lat="44.713825083764" lon="-71.610994483712">
    <tag k="addr:city" v="Guildhall" />
    <tag k="addr:housenumber" v="3249" />
    <tag k="addr:street" v="Vermont Route 102" />
    <tag k="addr:state" v="VT" />
    <tag k="ref:vcgi:esiteid" v="41770" />
  </node>
  <node id="-129" visible="true" lat="44.712815413493" lon="-71.610241866591">
    <tag k="addr:city" v="Guildhall" />
    <tag k="addr:housenumber" v="3293" />
    <tag k="addr:street" v="Vermont Route 102" />
    <tag k="addr:state" v="VT" />
    <tag k="ref:vcgi:esiteid" v="41771" />
  </node>
  <node id="-130" visible="true" lat="44.708405997679" lon="-71.606118167291">
    <tag k="addr:city" v="Guildhall" />
    <tag k="addr:housenumber" v="3697" />
    <tag k="addr:street" v="Vermont Route 102" />
    <tag k="addr:state" v="VT" />
    <tag k="ref:vcgi:esiteid" v="41772" />
  </node>
  <node id="-131" visible="true" lat="44.697468792521" lon="-71.602707278123">
    <tag k="addr:city" v="Guildhall" />
    <tag k="addr:housenumber" v="4495" />
    <tag k="addr:street" v="Vermont Route 102" />
    <tag k="addr:state" v="VT" />
    <tag k="ref:vcgi:esiteid" v="41773" />
  </node>
  <node id="-132" visible="true" lat="44.667836290873" lon="-71.594838915152">
    <tag k="addr:city" v="Guildhall" />
    <tag k="addr:housenumber" v="6731" />
    <tag k="addr:street" v="Vermont Route 102" />
    <tag k="addr:state" v="VT" />
    <tag k="ref:vcgi:esiteid" v="41774" />
  </node>
  <node id="-133" visible="true" lat="44.664246447694" lon="-71.591043569617">
    <tag k="addr:city" v="Guildhall" />
    <tag k="addr:housenumber" v="7063" />
    <tag k="addr:street" v="Vermont Route 102" />
    <tag k="addr:state" v="VT" />
    <tag k="ref:vcgi:esiteid" v="41775" />
  </node>
  <node id="-134" visible="true" lat="44.727826625616" lon="-71.634736038924">
    <tag k="addr:city" v="Guildhall" />
    <tag k="addr:housenumber" v="1597" />
    <tag k="addr:street" v="Vermont Route 102" />
    <tag k="addr:state" v="VT" />
    <tag k="ref:vcgi:esiteid" v="41776" />
  </node>
  <node id="-135" visible="true" lat="44.736096888903" lon="-71.632782913231">
    <tag k="addr:city" v="Guildhall" />
    <tag k="addr:housenumber" v="987" />
    <tag k="addr:street" v="Vermont Route 102" />
    <tag k="addr:state" v="VT" />
    <tag k="ref:vcgi:esiteid" v="41777" />
  </node>
  <node id="-136" visible="true" lat="44.744679961043" lon="-71.631722425804">
    <tag k="addr:city" v="Guildhall" />
    <tag k="addr:housenumber" v="396" />
    <tag k="addr:street" v="Vermont Route 102" />
    <tag k="addr:state" v="VT" />
    <tag k="ref:vcgi:esiteid" v="41778" />
  </node>
  <node id="-137" visible="true" lat="44.738992245011" lon="-71.63211915465">
    <tag k="addr:city" v="Guildhall" />
    <tag k="addr:housenumber" v="786" />
    <tag k="addr:street" v="Vermont Route 102" />
    <tag k="addr:state" v="VT" />
    <tag k="ref:vcgi:esiteid" v="41779" />
  </node>
  <node id="-138" visible="true" lat="44.736886073883" lon="-71.633034447838">
    <tag k="addr:city" v="Guildhall" />
    <tag k="addr:housenumber" v="950" />
    <tag k="addr:street" v="Vermont Route 102" />
    <tag k="addr:state" v="VT" />
    <tag k="ref:vcgi:esiteid" v="41780" />
  </node>
  <node id="-139" visible="true" lat="44.735615007412" lon="-71.634107375935">
    <tag k="addr:city" v="Guildhall" />
    <tag k="addr:housenumber" v="1038" />
    <tag k="addr:street" v="Vermont Route 102" />
    <tag k="addr:state" v="VT" />
    <tag k="ref:vcgi:esiteid" v="41781" />
  </node>
  <node id="-140" visible="true" lat="44.724843531406" lon="-71.633896803753">
    <tag k="addr:city" v="Guildhall" />
    <tag k="addr:housenumber" v="1788" />
    <tag k="addr:street" v="Vermont Route 102" />
    <tag k="addr:state" v="VT" />
    <tag k="ref:vcgi:esiteid" v="41782" />
  </node>
  <node id="-141" visible="true" lat="44.722255105955" lon="-71.623724977832">
    <tag k="addr:city" v="Guildhall" />
    <tag k="addr:housenumber" v="2308" />
    <tag k="addr:street" v="Vermont Route 102" />
    <tag k="addr:state" v="VT" />
    <tag k="ref:vcgi:esiteid" v="41783" />
  </node>
  <node id="-142" visible="true" lat="44.719623792523" lon="-71.61771496275">
    <tag k="addr:city" v="Guildhall" />
    <tag k="addr:housenumber" v="2718" />
    <tag k="addr:street" v="Vermont Route 102" />
    <tag k="addr:state" v="VT" />
    <tag k="ref:vcgi:esiteid" v="41784" />
  </node>
  <node id="-143" visible="true" lat="44.717217209287" lon="-71.616267249322">
    <tag k="addr:city" v="Guildhall" />
    <tag k="addr:housenumber" v="2890" />
    <tag k="addr:street" v="Vermont Route 102" />
    <tag k="addr:state" v="VT" />
    <tag k="ref:vcgi:esiteid" v="41785" />
  </node>
  <node id="-144" visible="true" lat="44.715671607552" lon="-71.614902039801">
    <tag k="addr:city" v="Guildhall" />
    <tag k="addr:housenumber" v="2984" />
    <tag k="addr:street" v="Vermont Route 102" />
    <tag k="addr:state" v="VT" />
    <tag k="ref:vcgi:esiteid" v="41786" />
  </node>
  <node id="-145" visible="true" lat="44.714845698009" lon="-71.613364057525">
    <tag k="addr:city" v="Guildhall" />
    <tag k="addr:housenumber" v="3112" />
    <tag k="addr:street" v="Vermont Route 102" />
    <tag k="addr:state" v="VT" />
    <tag k="ref:vcgi:esiteid" v="41787" />
  </node>
  <node id="-146" visible="true" lat="44.713844230642" lon="-71.61216252179">
    <tag k="addr:city" v="Guildhall" />
    <tag k="addr:housenumber" v="3216" />
    <tag k="addr:street" v="Vermont Route 102" />
    <tag k="addr:state" v="VT" />
    <tag k="ref:vcgi:esiteid" v="41788" />
  </node>
  <node id="-147" visible="true" lat="44.709741143739" lon="-71.608033147546">
    <tag k="addr:city" v="Guildhall" />
    <tag k="addr:housenumber" v="3544" />
    <tag k="addr:street" v="Vermont Route 102" />
    <tag k="addr:state" v="VT" />
    <tag k="ref:vcgi:esiteid" v="41789" />
  </node>
  <node id="-148" visible="true" lat="44.704996806029" lon="-71.605934189504">
    <tag k="addr:city" v="Guildhall" />
    <tag k="addr:housenumber" v="3940" />
    <tag k="addr:street" v="Vermont Route 102" />
    <tag k="addr:state" v="VT" />
    <tag k="ref:vcgi:esiteid" v="41790" />
  </node>
  <node id="-149" visible="true" lat="44.694758921626" lon="-71.601984037071">
    <tag k="addr:city" v="Guildhall" />
    <tag k="addr:housenumber" v="4708" />
    <tag k="addr:street" v="Vermont Route 102" />
    <tag k="addr:state" v="VT" />
    <tag k="ref:vcgi:esiteid" v="41792" />
  </node>
  <node id="-150" visible="true" lat="44.687371754072" lon="-71.60001464922">
    <tag k="addr:city" v="Guildhall" />
    <tag k="addr:housenumber" v="5234" />
    <tag k="addr:street" v="Vermont Route 102" />
    <tag k="addr:state" v="VT" />
    <tag k="ref:vcgi:esiteid" v="41793" />
  </node>
  <node id="-151" visible="true" lat="44.681516193349" lon="-71.599900207314">
    <tag k="addr:city" v="Guildhall" />
    <tag k="addr:housenumber" v="5614" />
    <tag k="addr:street" v="Vermont Route 102" />
    <tag k="addr:state" v="VT" />
    <tag k="ref:vcgi:esiteid" v="41794" />
  </node>
  <node id="-152" visible="true" lat="44.748781182342" lon="-71.633493824568">
    <tag k="addr:city" v="Guildhall" />
    <tag k="addr:housenumber" v="110" />
    <tag k="addr:street" v="Vermont Route 102" />
    <tag k="addr:state" v="VT" />
    <tag k="ref:vcgi:esiteid" v="41795" />
  </node>
  <node id="-153" visible="true" lat="44.690807052207" lon="-71.5999438578">
    <tag k="addr:city" v="Guildhall" />
    <tag k="addr:housenumber" v="4996" />
    <tag k="addr:street" v="Vermont Route 102" />
    <tag k="addr:state" v="VT" />
    <tag k="ref:vcgi:esiteid" v="41796" />
  </node>
  <node id="-154" visible="true" lat="44.696935090119" lon="-71.605154989554">
    <tag k="addr:city" v="Guildhall" />
    <tag k="addr:housenumber" v="4522" />
    <tag k="addr:street" v="Vermont Route 102" />
    <tag k="addr:state" v="VT" />
    <tag k="ref:vcgi:esiteid" v="41797" />
  </node>
  <node id="-155" visible="true" lat="44.736300311726" lon="-71.633343510588">
    <tag k="addr:city" v="Guildhall" />
    <tag k="addr:housenumber" v="994" />
    <tag k="addr:street" v="Vermont Route 102" />
    <tag k="addr:state" v="VT" />
    <tag k="ref:vcgi:esiteid" v="41798" />
  </node>
  <node id="-156" visible="true" lat="44.734763579431" lon="-71.636288097572">
    <tag k="addr:city" v="Guildhall" />
    <tag k="addr:housenumber" v="1082" />
    <tag k="addr:street" v="Vermont Route 102" />
    <tag k="addr:state" v="VT" />
    <tag k="ref:vcgi:esiteid" v="41799" />
  </node>
  <node id="-157" visible="true" lat="44.669814890069" lon="-71.593248963585">
    <tag k="addr:city" v="Guildhall" />
    <tag k="addr:housenumber" v="6581" />
    <tag k="addr:street" v="Vermont Route 102" />
    <tag k="addr:state" v="VT" />
    <tag k="ref:vcgi:esiteid" v="41800" />
  </node>
  <node id="-158" visible="true" lat="44.669782261471" lon="-71.59578277121">
    <tag k="addr:city" v="Guildhall" />
    <tag k="addr:housenumber" v="6626" />
    <tag k="addr:street" v="Vermont Route 102" />
    <tag k="addr:state" v="VT" />
    <tag k="ref:vcgi:esiteid" v="41801" />
  </node>
  <node id="-159" visible="true" lat="44.722005925348" lon="-71.623715978246">
    <tag k="addr:city" v="Guildhall" />
    <tag k="addr:housenumber" v="2310" />
    <tag k="addr:street" v="Vermont Route 102" />
    <tag k="addr:state" v="VT" />
    <tag k="ref:vcgi:esiteid" v="41802" />
  </node>
  <node id="-160" visible="true" lat="44.700918994735" lon="-71.609365210835">
    <tag k="addr:city" v="Guildhall" />
    <tag k="addr:housenumber" v="4214" />
    <tag k="addr:street" v="Vermont Route 102" />
    <tag k="addr:state" v="VT" />
    <tag k="ref:vcgi:esiteid" v="41803" />
  </node>
  <node id="-161" visible="true" lat="44.736701194123" lon="-71.707277301602">
    <tag k="addr:city" v="Guildhall" />
    <tag k="addr:housenumber" v="480" />
    <tag k="addr:street" v="Notch Pond Road" />
    <tag k="addr:state" v="VT" />
    <tag k="ref:vcgi:esiteid" v="112763" />
  </node>
  <node id="-162" visible="true" lat="44.665873861263" lon="-71.592655523596">
    <tag k="addr:city" v="Guildhall" />
    <tag k="addr:housenumber" v="6923" />
    <tag k="addr:street" v="Vermont Route 102" />
    <tag k="addr:state" v="VT" />
    <tag k="ref:vcgi:esiteid" v="327131" />
  </node>
  <node id="-163" visible="true" lat="44.67422177452" lon="-71.602597108033">
    <tag k="addr:city" v="Guildhall" />
    <tag k="addr:housenumber" v="6670" />
    <tag k="addr:street" v="Vermont Route 102" />
    <tag k="addr:state" v="VT" />
    <tag k="ref:vcgi:esiteid" v="341562" />
  </node>
  <node id="-164" visible="true" lat="44.668376959217" lon="-71.595133790344">
    <tag k="addr:city" v="Guildhall" />
    <tag k="addr:housenumber" v="6670" />
    <tag k="addr:street" v="Vermont Route 102" />
    <tag k="addr:state" v="VT" />
    <tag k="ref:vcgi:esiteid" v="345182" />
  </node>
  <node id="-175" visible="true" lat="44.776676554628" lon="-71.694055080675">
    <tag k="addr:city" v="Guildhall" />
    <tag k="addr:housenumber" v="4534" />
    <tag k="addr:street" v="Vermont Route 105" />
    <tag k="addr:state" v="VT" />
    <tag k="ref:vcgi:esiteid" v="617345" />
  </node>
  <node id="-176" visible="true" lat="44.747709912808" lon="-71.632352820076">
    <tag k="addr:city" v="Guildhall" />
    <tag k="addr:housenumber" v="160" />
    <tag k="addr:street" v="Vermont Route 102" />
    <tag k="addr:state" v="VT" />
    <tag k="ref:vcgi:esiteid" v="617347" />
  </node>
  <node id="-177" visible="true" lat="44.71114840049" lon="-71.609443583192">
    <tag k="addr:city" v="Guildhall" />
    <tag k="addr:housenumber" v="3356" />
    <tag k="addr:street" v="Vermont Route 102" />
    <tag k="addr:state" v="VT" />
    <tag k="ref:vcgi:esiteid" v="620416" />
  </node>
  <node id="-178" visible="true" lat="44.720427234014" lon="-71.61847463007">
    <tag k="addr:city" v="Guildhall" />
    <tag k="addr:housenumber" v="2542" />
    <tag k="addr:street" v="Vermont Route 102" />
    <tag k="addr:state" v="VT" />
    <tag k="ref:vcgi:esiteid" v="756403" />
  </node>
  <node id="-194" visible="true" lat="44.766753059628" lon="-71.698989100563">
    <tag k="addr:city" v="Guildhall" />
    <tag k="addr:housenumber" v="5307" />
    <tag k="addr:street" v="Vermont Route 105" />
    <tag k="addr:state" v="VT" />
    <tag k="ref:vcgi:esiteid" v="770667" />
  </node>
  <node id="-195" visible="true" lat="44.766047994192" lon="-71.698683653549">
    <tag k="addr:city" v="Guildhall" />
    <tag k="addr:housenumber" v="5309" />
    <tag k="addr:street" v="Vermont Route 105" />
    <tag k="addr:state" v="VT" />
    <tag k="ref:vcgi:esiteid" v="770668" />
  </node>
</osm>
