<?xml version="1.0" encoding="UTF-8"?>
<osm version="0.6" generator="JOSM" upload="false">
  <node id="-100" visible="true" lat="44.579013100797" lon="-71.763697726519">
    <tag k="addr:city" v="North Concord" />
    <tag k="addr:housenumber" v="711" />
    <tag k="addr:street" v="Porrell Road" />
    <tag k="addr:state" v="VT" />
    <tag k="ref:vcgi:esiteid" v="2761" />
  </node>
  <node id="-101" visible="true" lat="44.616724595501" lon="-71.784729911365">
    <tag k="addr:city" v="North Concord" />
    <tag k="addr:housenumber" v="1681" />
    <tag k="addr:street" v="Line Brook Road" />
    <tag k="addr:state" v="VT" />
    <tag k="ref:vcgi:esiteid" v="90762" />
  </node>
  <node id="-102" visible="true" lat="44.593743804127" lon="-71.753144272892">
    <tag k="addr:city" v="North Concord" />
    <tag k="addr:housenumber" v="1841" />
    <tag k="addr:street" v="Porrell Road" />
    <tag k="addr:state" v="VT" />
    <tag k="ref:vcgi:esiteid" v="113311" />
  </node>
  <node id="-103" visible="true" lat="44.586620018984" lon="-71.787733830305">
    <tag k="addr:city" v="North Concord" />
    <tag k="addr:housenumber" v="451" />
    <tag k="addr:street" v="Moccasin Mill" />
    <tag k="addr:state" v="VT" />
    <tag k="ref:vcgi:esiteid" v="113312" />
  </node>
  <node id="-104" visible="true" lat="44.585137844241" lon="-71.751084334381">
    <tag k="addr:city" v="North Concord" />
    <tag k="addr:housenumber" v="1594" />
    <tag k="addr:street" v="Porrell Road" />
    <tag k="addr:state" v="VT" />
    <tag k="ref:vcgi:esiteid" v="113313" />
  </node>
  <node id="-105" visible="true" lat="44.583581669259" lon="-71.778745803662">
    <tag k="addr:city" v="North Concord" />
    <tag k="addr:housenumber" v="367" />
    <tag k="addr:street" v="Lund Lane" />
    <tag k="addr:state" v="VT" />
    <tag k="ref:vcgi:esiteid" v="113314" />
  </node>
  <node id="-106" visible="true" lat="44.58346697821" lon="-71.752884661114">
    <tag k="addr:city" v="North Concord" />
    <tag k="addr:housenumber" v="1446" />
    <tag k="addr:street" v="Porrell Road" />
    <tag k="addr:state" v="VT" />
    <tag k="ref:vcgi:esiteid" v="113315" />
  </node>
  <node id="-107" visible="true" lat="44.583142756159" lon="-71.776436819204">
    <tag k="addr:city" v="North Concord" />
    <tag k="addr:housenumber" v="382" />
    <tag k="addr:street" v="Lund Lane" />
    <tag k="addr:state" v="VT" />
    <tag k="ref:vcgi:esiteid" v="113316" />
  </node>
  <node id="-108" visible="true" lat="44.58126411842" lon="-71.757882135575">
    <tag k="addr:city" v="North Concord" />
    <tag k="addr:housenumber" v="1034" />
    <tag k="addr:street" v="Porrell Road" />
    <tag k="addr:state" v="VT" />
    <tag k="ref:vcgi:esiteid" v="113317" />
  </node>
  <node id="-109" visible="true" lat="44.581647790991" lon="-71.781216688014">
    <tag k="addr:city" v="North Concord" />
    <tag k="addr:housenumber" v="171" />
    <tag k="addr:street" v="Lund Lane" />
    <tag k="addr:state" v="VT" />
    <tag k="ref:vcgi:esiteid" v="113318" />
  </node>
  <node id="-110" visible="true" lat="44.58112832029" lon="-71.782888393586">
    <tag k="addr:city" v="North Concord" />
    <tag k="addr:housenumber" v="79" />
    <tag k="addr:street" v="Lund Lane" />
    <tag k="addr:state" v="VT" />
    <tag k="ref:vcgi:esiteid" v="113319" />
  </node>
  <node id="-111" visible="true" lat="44.579727167504" lon="-71.782107098953">
    <tag k="addr:city" v="North Concord" />
    <tag k="addr:housenumber" v="4" />
    <tag k="addr:street" v="Lund Lane" />
    <tag k="addr:state" v="VT" />
    <tag k="ref:vcgi:esiteid" v="113320" />
  </node>
  <node id="-112" visible="true" lat="44.579286096995" lon="-71.762215622836">
    <tag k="addr:city" v="North Concord" />
    <tag k="addr:housenumber" v="784" />
    <tag k="addr:street" v="Porrell Road" />
    <tag k="addr:state" v="VT" />
    <tag k="ref:vcgi:esiteid" v="113321" />
  </node>
  <node id="-113" visible="true" lat="44.578874892714" lon="-71.76769795625">
    <tag k="addr:city" v="North Concord" />
    <tag k="addr:housenumber" v="131" />
    <tag k="addr:street" v="Buzzell Gap" />
    <tag k="addr:state" v="VT" />
    <tag k="ref:vcgi:esiteid" v="113322" />
  </node>
  <node id="-114" visible="true" lat="44.578658745261" lon="-71.736403246399">
    <tag k="addr:city" v="North Concord" />
    <tag k="addr:housenumber" v="317" />
    <tag k="addr:street" v="Mud Pond Pass" />
    <tag k="addr:state" v="VT" />
    <tag k="ref:vcgi:esiteid" v="113323" />
  </node>
  <node id="-115" visible="true" lat="44.578479117226" lon="-71.766576915116">
    <tag k="addr:city" v="North Concord" />
    <tag k="addr:housenumber" v="132" />
    <tag k="addr:street" v="Buzzell Gap" />
    <tag k="addr:state" v="VT" />
    <tag k="ref:vcgi:esiteid" v="113324" />
  </node>
  <node id="-116" visible="true" lat="44.578075104964" lon="-71.720219858751">
    <tag k="addr:city" v="North Concord" />
    <tag k="addr:housenumber" v="6811" />
    <tag k="addr:street" v="Granby Road" />
    <tag k="addr:state" v="VT" />
    <tag k="ref:vcgi:esiteid" v="113325" />
  </node>
  <node id="-117" visible="true" lat="44.578332423233" lon="-71.76357365578">
    <tag k="addr:city" v="North Concord" />
    <tag k="addr:housenumber" v="686" />
    <tag k="addr:street" v="Porrell Road" />
    <tag k="addr:state" v="VT" />
    <tag k="ref:vcgi:esiteid" v="113326" />
  </node>
  <node id="-118" visible="true" lat="44.577289438867" lon="-71.710888237202">
    <tag k="addr:city" v="Guildhall" />
    <tag k="addr:housenumber" v="6328" />
    <tag k="addr:street" v="Granby Road" />
    <tag k="addr:state" v="VT" />
    <tag k="ref:vcgi:esiteid" v="113327" />
  </node>
  <node id="-119" visible="true" lat="44.578415186945" lon="-71.725995170616">
    <tag k="addr:city" v="North Concord" />
    <tag k="addr:housenumber" v="7138" />
    <tag k="addr:street" v="Granby Road" />
    <tag k="addr:state" v="VT" />
    <tag k="ref:vcgi:esiteid" v="113328" />
  </node>
  <node id="-120" visible="true" lat="44.578426809635" lon="-71.727598928153">
    <tag k="addr:city" v="North Concord" />
    <tag k="addr:housenumber" v="7172" />
    <tag k="addr:street" v="Granby Road" />
    <tag k="addr:state" v="VT" />
    <tag k="ref:vcgi:esiteid" v="113329" />
  </node>
  <node id="-121" visible="true" lat="44.577485559136" lon="-71.765892993452">
    <tag k="addr:city" v="North Concord" />
    <tag k="addr:housenumber" v="73" />
    <tag k="addr:street" v="Buzzell Gap" />
    <tag k="addr:state" v="VT" />
    <tag k="ref:vcgi:esiteid" v="113330" />
  </node>
  <node id="-122" visible="true" lat="44.576439566915" lon="-71.710229456238">
    <tag k="addr:city" v="Guildhall" />
    <tag k="addr:housenumber" v="6294" />
    <tag k="addr:street" v="Granby Road" />
    <tag k="addr:state" v="VT" />
    <tag k="ref:vcgi:esiteid" v="113331" />
  </node>
  <node id="-123" visible="true" lat="44.577006485393" lon="-71.731627676103">
    <tag k="addr:city" v="North Concord" />
    <tag k="addr:housenumber" v="7362" />
    <tag k="addr:street" v="Granby Road" />
    <tag k="addr:state" v="VT" />
    <tag k="ref:vcgi:esiteid" v="113332" />
  </node>
  <node id="-124" visible="true" lat="44.576146602118" lon="-71.710923187123">
    <tag k="addr:city" v="North Concord" />
    <tag k="addr:housenumber" v="6313" />
    <tag k="addr:street" v="Granby Road" />
    <tag k="addr:state" v="VT" />
    <tag k="ref:vcgi:esiteid" v="113333" />
  </node>
  <node id="-125" visible="true" lat="44.575421809873" lon="-71.731965063063">
    <tag k="addr:city" v="North Concord" />
    <tag k="addr:housenumber" v="7460" />
    <tag k="addr:street" v="Granby Road" />
    <tag k="addr:state" v="VT" />
    <tag k="ref:vcgi:esiteid" v="113334" />
  </node>
  <node id="-126" visible="true" lat="44.57526159142" lon="-71.764657029212">
    <tag k="addr:city" v="North Concord" />
    <tag k="addr:housenumber" v="467" />
    <tag k="addr:street" v="Porrell Road" />
    <tag k="addr:state" v="VT" />
    <tag k="ref:vcgi:esiteid" v="113335" />
  </node>
  <node id="-127" visible="true" lat="44.574319360679" lon="-71.761872300925">
    <tag k="addr:city" v="North Concord" />
    <tag k="addr:housenumber" v="354" />
    <tag k="addr:street" v="Porrell Road" />
    <tag k="addr:state" v="VT" />
    <tag k="ref:vcgi:esiteid" v="113336" />
  </node>
  <node id="-128" visible="true" lat="44.573334235235" lon="-71.762016906444">
    <tag k="addr:city" v="North Concord" />
    <tag k="addr:housenumber" v="273" />
    <tag k="addr:street" v="Porrell Road" />
    <tag k="addr:state" v="VT" />
    <tag k="ref:vcgi:esiteid" v="113337" />
  </node>
  <node id="-129" visible="true" lat="44.572521605126" lon="-71.707476863233">
    <tag k="addr:city" v="North Concord" />
    <tag k="addr:housenumber" v="6001" />
    <tag k="addr:street" v="Granby Road" />
    <tag k="addr:state" v="VT" />
    <tag k="ref:vcgi:esiteid" v="113338" />
  </node>
  <node id="-130" visible="true" lat="44.572568415668" lon="-71.727242467172">
    <tag k="addr:city" v="North Concord" />
    <tag k="addr:housenumber" v="323" />
    <tag k="addr:street" v="Austin Place" />
    <tag k="addr:state" v="VT" />
    <tag k="ref:vcgi:esiteid" v="113339" />
  </node>
  <node id="-131" visible="true" lat="44.572328087923" lon="-71.756730085733">
    <tag k="addr:city" v="North Concord" />
    <tag k="addr:housenumber" v="79" />
    <tag k="addr:street" v="Matthews Knoll" />
    <tag k="addr:state" v="VT" />
    <tag k="ref:vcgi:esiteid" v="113340" />
  </node>
  <node id="-132" visible="true" lat="44.572110650096" lon="-71.760804185535">
    <tag k="addr:city" v="North Concord" />
    <tag k="addr:housenumber" v="194" />
    <tag k="addr:street" v="Porrell Road" />
    <tag k="addr:state" v="VT" />
    <tag k="ref:vcgi:esiteid" v="113341" />
  </node>
  <node id="-133" visible="true" lat="44.571469020908" lon="-71.759277603339">
    <tag k="addr:city" v="North Concord" />
    <tag k="addr:housenumber" v="100" />
    <tag k="addr:street" v="Porrell Road" />
    <tag k="addr:state" v="VT" />
    <tag k="ref:vcgi:esiteid" v="113343" />
  </node>
  <node id="-134" visible="true" lat="44.571529297124" lon="-71.757680955573">
    <tag k="addr:city" v="North Concord" />
    <tag k="addr:housenumber" v="8912" />
    <tag k="addr:street" v="Granby Road" />
    <tag k="addr:state" v="VT" />
    <tag k="ref:vcgi:esiteid" v="113344" />
  </node>
  <node id="-135" visible="true" lat="44.571061611151" lon="-71.702317226871">
    <tag k="addr:city" v="North Concord" />
    <tag k="addr:housenumber" v="59" />
    <tag k="addr:street" v="Cow Mountain Pond Forest" />
    <tag k="addr:state" v="VT" />
    <tag k="ref:vcgi:esiteid" v="113345" />
  </node>
  <node id="-136" visible="true" lat="44.571649465032" lon="-71.754121465562">
    <tag k="addr:city" v="North Concord" />
    <tag k="addr:housenumber" v="8792" />
    <tag k="addr:street" v="Granby Road" />
    <tag k="addr:state" v="VT" />
    <tag k="ref:vcgi:esiteid" v="113346" />
  </node>
  <node id="-137" visible="true" lat="44.57133123663" lon="-71.75685704459">
    <tag k="addr:city" v="North Concord" />
    <tag k="addr:housenumber" v="8892" />
    <tag k="addr:street" v="Granby Road" />
    <tag k="addr:state" v="VT" />
    <tag k="ref:vcgi:esiteid" v="113347" />
  </node>
  <node id="-138" visible="true" lat="44.570911411022" lon="-71.75590441471">
    <tag k="addr:city" v="North Concord" />
    <tag k="addr:housenumber" v="8841" />
    <tag k="addr:street" v="Granby Road" />
    <tag k="addr:state" v="VT" />
    <tag k="ref:vcgi:esiteid" v="113348" />
  </node>
  <node id="-139" visible="true" lat="44.570928094021" lon="-71.758645065141">
    <tag k="addr:city" v="North Concord" />
    <tag k="addr:housenumber" v="56" />
    <tag k="addr:street" v="Porrell Road" />
    <tag k="addr:state" v="VT" />
    <tag k="ref:vcgi:esiteid" v="113349" />
  </node>
  <node id="-140" visible="true" lat="44.570641990724" lon="-71.757996566772">
    <tag k="addr:city" v="North Concord" />
    <tag k="addr:housenumber" v="8960" />
    <tag k="addr:street" v="Granby Road" />
    <tag k="addr:state" v="VT" />
    <tag k="ref:vcgi:esiteid" v="113350" />
  </node>
  <node id="-141" visible="true" lat="44.570359704018" lon="-71.757477767522">
    <tag k="addr:city" v="North Concord" />
    <tag k="addr:housenumber" v="8955" />
    <tag k="addr:street" v="Granby Road" />
    <tag k="addr:state" v="VT" />
    <tag k="ref:vcgi:esiteid" v="113351" />
  </node>
  <node id="-142" visible="true" lat="44.57019948727" lon="-71.754639630962">
    <tag k="addr:city" v="North Concord" />
    <tag k="addr:housenumber" v="8747" />
    <tag k="addr:street" v="Granby Road" />
    <tag k="addr:state" v="VT" />
    <tag k="ref:vcgi:esiteid" v="113352" />
  </node>
  <node id="-143" visible="true" lat="44.570137135837" lon="-71.760389899048">
    <tag k="addr:city" v="North Concord" />
    <tag k="addr:housenumber" v="75" />
    <tag k="addr:street" v="Porrell Road" />
    <tag k="addr:state" v="VT" />
    <tag k="ref:vcgi:esiteid" v="113353" />
  </node>
  <node id="-144" visible="true" lat="44.570035454171" lon="-71.758835799613">
    <tag k="addr:city" v="North Concord" />
    <tag k="addr:housenumber" v="9018" />
    <tag k="addr:street" v="Granby Road" />
    <tag k="addr:state" v="VT" />
    <tag k="ref:vcgi:esiteid" v="113354" />
  </node>
  <node id="-145" visible="true" lat="44.569904305638" lon="-71.757796808133">
    <tag k="addr:city" v="North Concord" />
    <tag k="addr:housenumber" v="8987" />
    <tag k="addr:street" v="Granby Road" />
    <tag k="addr:state" v="VT" />
    <tag k="ref:vcgi:esiteid" v="113355" />
  </node>
  <node id="-146" visible="true" lat="44.569936272157" lon="-71.758301741435">
    <tag k="addr:city" v="North Concord" />
    <tag k="addr:housenumber" v="9005" />
    <tag k="addr:street" v="Granby Road" />
    <tag k="addr:state" v="VT" />
    <tag k="ref:vcgi:esiteid" v="113356" />
  </node>
  <node id="-147" visible="true" lat="44.569766348792" lon="-71.7585326315">
    <tag k="addr:city" v="North Concord" />
    <tag k="addr:housenumber" v="9023" />
    <tag k="addr:street" v="Granby Road" />
    <tag k="addr:state" v="VT" />
    <tag k="ref:vcgi:esiteid" v="113357" />
  </node>
  <node id="-148" visible="true" lat="44.569562247044" lon="-71.758733941307">
    <tag k="addr:city" v="North Concord" />
    <tag k="addr:housenumber" v="9033" />
    <tag k="addr:street" v="Granby Road" />
    <tag k="addr:state" v="VT" />
    <tag k="ref:vcgi:esiteid" v="113358" />
  </node>
  <node id="-149" visible="true" lat="44.569329813702" lon="-71.751118016536">
    <tag k="addr:city" v="North Concord" />
    <tag k="addr:housenumber" v="8534" />
    <tag k="addr:street" v="Granby Road" />
    <tag k="addr:state" v="VT" />
    <tag k="ref:vcgi:esiteid" v="113360" />
  </node>
  <node id="-150" visible="true" lat="44.568909978215" lon="-71.749797907216">
    <tag k="addr:city" v="North Concord" />
    <tag k="addr:housenumber" v="4" />
    <tag k="addr:street" v="Felker Road" />
    <tag k="addr:state" v="VT" />
    <tag k="ref:vcgi:esiteid" v="113361" />
  </node>
  <node id="-151" visible="true" lat="44.56901311468" lon="-71.760437973911">
    <tag k="addr:city" v="North Concord" />
    <tag k="addr:housenumber" v="9130" />
    <tag k="addr:street" v="Granby Road" />
    <tag k="addr:state" v="VT" />
    <tag k="ref:vcgi:esiteid" v="113362" />
  </node>
  <node id="-152" visible="true" lat="44.568124384474" lon="-71.751062684869">
    <tag k="addr:city" v="North Concord" />
    <tag k="addr:housenumber" v="72" />
    <tag k="addr:street" v="Shores Hill" />
    <tag k="addr:state" v="VT" />
    <tag k="ref:vcgi:esiteid" v="113364" />
  </node>
  <node id="-153" visible="true" lat="44.567411745132" lon="-71.749363562908">
    <tag k="addr:city" v="North Concord" />
    <tag k="addr:housenumber" v="157" />
    <tag k="addr:street" v="Shores Hill" />
    <tag k="addr:state" v="VT" />
    <tag k="ref:vcgi:esiteid" v="113365" />
  </node>
  <node id="-154" visible="true" lat="44.565877434458" lon="-71.739815712699">
    <tag k="addr:city" v="North Concord" />
    <tag k="addr:housenumber" v="576" />
    <tag k="addr:street" v="Felker Road" />
    <tag k="addr:state" v="VT" />
    <tag k="ref:vcgi:esiteid" v="113366" />
  </node>
  <node id="-155" visible="true" lat="44.564982257436" lon="-71.748234123912">
    <tag k="addr:city" v="North Concord" />
    <tag k="addr:housenumber" v="324" />
    <tag k="addr:street" v="Shores Hill" />
    <tag k="addr:state" v="VT" />
    <tag k="ref:vcgi:esiteid" v="113367" />
  </node>
  <node id="-156" visible="true" lat="44.563105201459" lon="-71.746522873453">
    <tag k="addr:city" v="North Concord" />
    <tag k="addr:housenumber" v="472" />
    <tag k="addr:street" v="Shores Hill" />
    <tag k="addr:state" v="VT" />
    <tag k="ref:vcgi:esiteid" v="113368" />
  </node>
  <node id="-157" visible="true" lat="44.561329691588" lon="-71.743368261247">
    <tag k="addr:city" v="North Concord" />
    <tag k="addr:housenumber" v="675" />
    <tag k="addr:street" v="Shores Hill" />
    <tag k="addr:state" v="VT" />
    <tag k="ref:vcgi:esiteid" v="113369" />
  </node>
  <node id="-158" visible="true" lat="44.560773369581" lon="-71.742661478612">
    <tag k="addr:city" v="North Concord" />
    <tag k="addr:housenumber" v="719" />
    <tag k="addr:street" v="Shores Hill" />
    <tag k="addr:state" v="VT" />
    <tag k="ref:vcgi:esiteid" v="113370" />
  </node>
  <node id="-159" visible="true" lat="44.560285719645" lon="-71.738220511361">
    <tag k="addr:city" v="North Concord" />
    <tag k="addr:housenumber" v="1033" />
    <tag k="addr:street" v="Shores Hill" />
    <tag k="addr:state" v="VT" />
    <tag k="ref:vcgi:esiteid" v="113371" />
  </node>
  <node id="-160" visible="true" lat="44.559998514553" lon="-71.734502348876">
    <tag k="addr:city" v="North Concord" />
    <tag k="addr:housenumber" v="1171" />
    <tag k="addr:street" v="Shores Hill" />
    <tag k="addr:state" v="VT" />
    <tag k="ref:vcgi:esiteid" v="113372" />
  </node>
  <node id="-161" visible="true" lat="44.559702097578" lon="-71.736580821774">
    <tag k="addr:city" v="North Concord" />
    <tag k="addr:housenumber" v="1087" />
    <tag k="addr:street" v="Shores Hill" />
    <tag k="addr:state" v="VT" />
    <tag k="ref:vcgi:esiteid" v="113373" />
  </node>
  <node id="-162" visible="true" lat="44.559317267172" lon="-71.738916055062">
    <tag k="addr:city" v="North Concord" />
    <tag k="addr:housenumber" v="973" />
    <tag k="addr:street" v="Shores Hill" />
    <tag k="addr:state" v="VT" />
    <tag k="ref:vcgi:esiteid" v="113374" />
  </node>
  <node id="-163" visible="true" lat="44.559499545262" lon="-71.741495741365">
    <tag k="addr:city" v="North Concord" />
    <tag k="addr:housenumber" v="832" />
    <tag k="addr:street" v="Shores Hill" />
    <tag k="addr:state" v="VT" />
    <tag k="ref:vcgi:esiteid" v="113375" />
  </node>
  <node id="-164" visible="true" lat="44.573618823783" lon="-71.709046467104">
    <tag k="addr:city" v="North Concord" />
    <tag k="addr:housenumber" v="6173" />
    <tag k="addr:street" v="Granby Road" />
    <tag k="addr:state" v="VT" />
    <tag k="ref:vcgi:esiteid" v="113376" />
  </node>
  <node id="-165" visible="true" lat="44.567936506573" lon="-71.749990149937">
    <tag k="addr:city" v="North Concord" />
    <tag k="addr:housenumber" v="155" />
    <tag k="addr:street" v="Shores Hill" />
    <tag k="addr:state" v="VT" />
    <tag k="ref:vcgi:esiteid" v="113377" />
  </node>
  <node id="-166" visible="true" lat="44.565096130616" lon="-71.746067985637">
    <tag k="addr:city" v="North Concord" />
    <tag k="addr:housenumber" v="367" />
    <tag k="addr:street" v="Shores Hill" />
    <tag k="addr:state" v="VT" />
    <tag k="ref:vcgi:esiteid" v="113378" />
  </node>
  <node id="-167" visible="true" lat="44.574036900715" lon="-71.756722757538">
    <tag k="addr:city" v="North Concord" />
    <tag k="addr:housenumber" v="95" />
    <tag k="addr:street" v="Matthews Knoll" />
    <tag k="addr:state" v="VT" />
    <tag k="ref:vcgi:esiteid" v="113380" />
  </node>
  <node id="-168" visible="true" lat="44.576954513887" lon="-71.717423840528">
    <tag k="addr:city" v="North Concord" />
    <tag k="addr:housenumber" v="6669" />
    <tag k="addr:street" v="Granby Road" />
    <tag k="addr:state" v="VT" />
    <tag k="ref:vcgi:esiteid" v="113381" />
  </node>
  <node id="-169" visible="true" lat="44.576682405083" lon="-71.714130570365">
    <tag k="addr:city" v="North Concord" />
    <tag k="addr:housenumber" v="6366" />
    <tag k="addr:street" v="Granby Road" />
    <tag k="addr:state" v="VT" />
    <tag k="ref:vcgi:esiteid" v="113382" />
  </node>
  <node id="-170" visible="true" lat="44.577447025269" lon="-71.708563209069">
    <tag k="addr:city" v="Guildhall" />
    <tag k="addr:housenumber" v="6270" />
    <tag k="addr:street" v="Granby Road" />
    <tag k="addr:state" v="VT" />
    <tag k="ref:vcgi:esiteid" v="113383" />
  </node>
  <node id="-171" visible="true" lat="44.575160046816" lon="-71.708978978202">
    <tag k="addr:city" v="Guildhall" />
    <tag k="addr:housenumber" v="6170" />
    <tag k="addr:street" v="Granby Road" />
    <tag k="addr:state" v="VT" />
    <tag k="ref:vcgi:esiteid" v="113384" />
  </node>
  <node id="-172" visible="true" lat="44.573741102925" lon="-71.708235022198">
    <tag k="addr:city" v="Guildhall" />
    <tag k="addr:housenumber" v="6082" />
    <tag k="addr:street" v="Granby Road" />
    <tag k="addr:state" v="VT" />
    <tag k="ref:vcgi:esiteid" v="113385" />
  </node>
  <node id="-173" visible="true" lat="44.574785979761" lon="-71.691103414133">
    <tag k="addr:city" v="North Concord" />
    <tag k="addr:housenumber" v="5191" />
    <tag k="addr:street" v="Granby Road" />
    <tag k="addr:state" v="VT" />
    <tag k="ref:vcgi:esiteid" v="113386" />
  </node>
  <node id="-174" visible="true" lat="44.576246128064" lon="-71.716748409253">
    <tag k="addr:city" v="North Concord" />
    <tag k="addr:housenumber" v="6451" />
    <tag k="addr:street" v="Granby Road" />
    <tag k="addr:state" v="VT" />
    <tag k="ref:vcgi:esiteid" v="113387" />
  </node>
  <node id="-175" visible="true" lat="44.572852160858" lon="-71.756409997088">
    <tag k="addr:city" v="North Concord" />
    <tag k="addr:housenumber" v="90" />
    <tag k="addr:street" v="Matthews Knoll" />
    <tag k="addr:state" v="VT" />
    <tag k="ref:vcgi:esiteid" v="113388" />
  </node>
  <node id="-176" visible="true" lat="44.585224355061" lon="-71.756253426962">
    <tag k="addr:city" v="North Concord" />
    <tag k="addr:housenumber" v="1279" />
    <tag k="addr:street" v="Porrell Road" />
    <tag k="addr:state" v="VT" />
    <tag k="ref:vcgi:esiteid" v="113389" />
  </node>
  <node id="-177" visible="true" lat="44.573552778621" lon="-71.73860289515">
    <tag k="addr:city" v="North Concord" />
    <tag k="addr:housenumber" v="7773" />
    <tag k="addr:street" v="Granby Road" />
    <tag k="addr:state" v="VT" />
    <tag k="ref:vcgi:esiteid" v="113390" />
  </node>
  <node id="-178" visible="true" lat="44.571185684804" lon="-71.757475025619">
    <tag k="addr:city" v="North Concord" />
    <tag k="addr:housenumber" v="8910" />
    <tag k="addr:street" v="Granby Road" />
    <tag k="addr:state" v="VT" />
    <tag k="ref:vcgi:esiteid" v="113391" />
  </node>
  <node id="-179" visible="true" lat="44.583530967591" lon="-71.753739699386">
    <tag k="addr:city" v="North Concord" />
    <tag k="addr:housenumber" v="1318" />
    <tag k="addr:street" v="Porrell Road" />
    <tag k="addr:state" v="VT" />
    <tag k="ref:vcgi:esiteid" v="113392" />
  </node>
  <node id="-180" visible="true" lat="44.576960594235" lon="-71.717935874342">
    <tag k="addr:city" v="North Concord" />
    <tag k="addr:housenumber" v="6671" />
    <tag k="addr:street" v="Granby Road" />
    <tag k="addr:state" v="VT" />
    <tag k="ref:vcgi:esiteid" v="313348" />
  </node>
  <node id="-181" visible="true" lat="44.588686603199" lon="-71.754442248247">
    <tag k="addr:city" v="North Concord" />
    <tag k="addr:housenumber" v="1591" />
    <tag k="addr:street" v="Porrell Road" />
    <tag k="addr:state" v="VT" />
    <tag k="ref:vcgi:esiteid" v="313349" />
  </node>
  <node id="-182" visible="true" lat="44.583359664881" lon="-71.761014071344">
    <tag k="addr:city" v="North Concord" />
    <tag k="addr:housenumber" v="1071" />
    <tag k="addr:street" v="Porrell Road" />
    <tag k="addr:state" v="VT" />
    <tag k="ref:vcgi:esiteid" v="313350" />
  </node>
  <node id="-183" visible="true" lat="44.585331353815" lon="-71.778153130486">
    <tag k="addr:city" v="North Concord" />
    <tag k="addr:housenumber" v="521" />
    <tag k="addr:street" v="Lund Lane" />
    <tag k="addr:state" v="VT" />
    <tag k="ref:vcgi:esiteid" v="326325" />
  </node>
  <node id="-184" visible="true" lat="44.590819264801" lon="-71.772407113568">
    <tag k="addr:city" v="North Concord" />
    <tag k="addr:housenumber" v="522" />
    <tag k="addr:street" v="Lund Lane" />
    <tag k="addr:state" v="VT" />
    <tag k="ref:vcgi:esiteid" v="326326" />
  </node>
  <node id="-185" visible="true" lat="44.627986758549" lon="-71.708745413141">
    <tag k="addr:city" v="Guildhall" />
    <tag k="addr:housenumber" v="267" />
    <tag k="addr:street" v="Fitch Brook Road" />
    <tag k="addr:state" v="VT" />
    <tag k="ref:vcgi:esiteid" v="337593" />
  </node>
  <node id="-186" visible="true" lat="44.625713562566" lon="-71.708826569156">
    <tag k="addr:city" v="Guildhall" />
    <tag k="addr:housenumber" v="47" />
    <tag k="addr:street" v="Fitch Brook Road" />
    <tag k="addr:state" v="VT" />
    <tag k="ref:vcgi:esiteid" v="337594" />
  </node>
  <node id="-187" visible="true" lat="44.623997919719" lon="-71.710793676409">
    <tag k="addr:city" v="Guildhall" />
    <tag k="addr:housenumber" v="400" />
    <tag k="addr:street" v="Stony Brook Road" />
    <tag k="addr:state" v="VT" />
    <tag k="ref:vcgi:esiteid" v="337595" />
  </node>
  <node id="-188" visible="true" lat="44.62769254347" lon="-71.708113136125">
    <tag k="addr:city" v="Guildhall" />
    <tag k="addr:housenumber" v="263" />
    <tag k="addr:street" v="Fitch Brook Road" />
    <tag k="addr:state" v="VT" />
    <tag k="ref:vcgi:esiteid" v="337596" />
  </node>
  <node id="-189" visible="true" lat="44.626860526263" lon="-71.707438925977">
    <tag k="addr:city" v="Guildhall" />
    <tag k="addr:housenumber" v="129" />
    <tag k="addr:street" v="Fitch Brook Road" />
    <tag k="addr:state" v="VT" />
    <tag k="ref:vcgi:esiteid" v="337597" />
  </node>
  <node id="-190" visible="true" lat="44.640032458279" lon="-71.693451580102">
    <tag k="addr:city" v="Guildhall" />
    <tag k="addr:housenumber" v="44" />
    <tag k="addr:street" v="Depot Camp Road" />
    <tag k="addr:state" v="VT" />
    <tag k="ref:vcgi:esiteid" v="338324" />
  </node>
  <node id="-191" visible="true" lat="44.639917074737" lon="-71.697689623185">
    <tag k="addr:city" v="Guildhall" />
    <tag k="addr:housenumber" v="291" />
    <tag k="addr:street" v="Depot Camp Road" />
    <tag k="addr:state" v="VT" />
    <tag k="ref:vcgi:esiteid" v="338325" />
  </node>
  <node id="-192" visible="true" lat="44.638846662964" lon="-71.697226788355">
    <tag k="addr:city" v="Guildhall" />
    <tag k="addr:housenumber" v="287" />
    <tag k="addr:street" v="Depot Camp Road" />
    <tag k="addr:state" v="VT" />
    <tag k="ref:vcgi:esiteid" v="338326" />
  </node>
  <node id="-193" visible="true" lat="44.621933421941" lon="-71.704038072964">
    <tag k="addr:city" v="North Concord" />
    <tag k="addr:housenumber" v="23" />
    <tag k="addr:street" v="Wilke Brook Road" />
    <tag k="addr:state" v="VT" />
    <tag k="ref:vcgi:esiteid" v="338327" />
  </node>
  <node id="-194" visible="true" lat="44.623544100493" lon="-71.704104480932">
    <tag k="addr:city" v="North Concord" />
    <tag k="addr:housenumber" v="21" />
    <tag k="addr:street" v="Stony Brook Road" />
    <tag k="addr:state" v="VT" />
    <tag k="ref:vcgi:esiteid" v="338328" />
  </node>
  <node id="-195" visible="true" lat="44.591010968787" lon="-71.685502684874">
    <tag k="addr:city" v="North Concord" />
    <tag k="addr:housenumber" v="12" />
    <tag k="addr:street" v="Guildhall Road" />
    <tag k="addr:state" v="VT" />
    <tag k="ref:vcgi:esiteid" v="338329" />
  </node>
  <node id="-196" visible="true" lat="44.610753403395" lon="-71.721954041863">
    <tag k="addr:city" v="North Concord" />
    <tag k="addr:housenumber" v="1007" />
    <tag k="addr:street" v="Tolman Brook Road" />
    <tag k="addr:state" v="VT" />
    <tag k="ref:vcgi:esiteid" v="338330" />
  </node>
  <node id="-197" visible="true" lat="44.640493083846" lon="-71.750163740355">
    <tag k="addr:city" v="North Concord" />
    <tag k="addr:housenumber" v="828" />
    <tag k="addr:street" v="Olsen Road" />
    <tag k="addr:state" v="VT" />
    <tag k="ref:vcgi:esiteid" v="338331" />
  </node>
  <node id="-198" visible="true" lat="44.627863349977" lon="-71.732630882326">
    <tag k="addr:city" v="North Concord" />
    <tag k="addr:housenumber" v="1691" />
    <tag k="addr:street" v="Stony Brook Road" />
    <tag k="addr:state" v="VT" />
    <tag k="ref:vcgi:esiteid" v="338332" />
  </node>
  <node id="-199" visible="true" lat="44.582550301537" lon="-71.735480840695">
    <tag k="addr:city" v="North Concord" />
    <tag k="addr:housenumber" v="623" />
    <tag k="addr:street" v="Mud Pond Pass" />
    <tag k="addr:state" v="VT" />
    <tag k="ref:vcgi:esiteid" v="338334" />
  </node>
  <node id="-200" visible="true" lat="44.607124135038" lon="-71.746459765261">
    <tag k="addr:city" v="North Concord" />
    <tag k="addr:housenumber" v="2917" />
    <tag k="addr:street" v="Porrell Road" />
    <tag k="addr:state" v="VT" />
    <tag k="ref:vcgi:esiteid" v="338335" />
  </node>
  <node id="-201" visible="true" lat="44.609331231732" lon="-71.745510672233">
    <tag k="addr:city" v="North Concord" />
    <tag k="addr:housenumber" v="2921" />
    <tag k="addr:street" v="Porrell Road" />
    <tag k="addr:state" v="VT" />
    <tag k="ref:vcgi:esiteid" v="338336" />
  </node>
  <node id="-202" visible="true" lat="44.559988798339" lon="-71.741615786128">
    <tag k="addr:city" v="North Concord" />
    <tag k="addr:housenumber" v="817" />
    <tag k="addr:street" v="Shores Hill" />
    <tag k="addr:state" v="VT" />
    <tag k="ref:vcgi:esiteid" v="338337" />
  </node>
  <node id="-203" visible="true" lat="44.558133991244" lon="-71.738307746301">
    <tag k="addr:city" v="North Concord" />
    <tag k="addr:housenumber" v="31" />
    <tag k="addr:street" v="Mount Tug Road" />
    <tag k="addr:state" v="VT" />
    <tag k="ref:vcgi:esiteid" v="338339" />
  </node>
  <node id="-204" visible="true" lat="44.578897034598" lon="-71.72036695482">
    <tag k="addr:city" v="North Concord" />
    <tag k="addr:housenumber" v="6868" />
    <tag k="addr:street" v="Granby Road" />
    <tag k="addr:state" v="VT" />
    <tag k="ref:vcgi:esiteid" v="338342" />
  </node>
  <node id="-205" visible="true" lat="44.57793244684" lon="-71.718147976744">
    <tag k="addr:city" v="North Concord" />
    <tag k="addr:housenumber" v="6722" />
    <tag k="addr:street" v="Granby Road" />
    <tag k="addr:state" v="VT" />
    <tag k="ref:vcgi:esiteid" v="338343" />
  </node>
  <node id="-206" visible="true" lat="44.577750239848" lon="-71.715910548117">
    <tag k="addr:city" v="North Concord" />
    <tag k="addr:housenumber" v="6634" />
    <tag k="addr:street" v="Granby Road" />
    <tag k="addr:state" v="VT" />
    <tag k="ref:vcgi:esiteid" v="338344" />
  </node>
  <node id="-207" visible="true" lat="44.577254362463" lon="-71.716184751225">
    <tag k="addr:city" v="North Concord" />
    <tag k="addr:housenumber" v="6624" />
    <tag k="addr:street" v="Granby Road" />
    <tag k="addr:state" v="VT" />
    <tag k="ref:vcgi:esiteid" v="338345" />
  </node>
  <node id="-208" visible="true" lat="44.577196877744" lon="-71.71155085899">
    <tag k="addr:city" v="North Concord" />
    <tag k="addr:housenumber" v="6340" />
    <tag k="addr:street" v="Granby Road" />
    <tag k="addr:state" v="VT" />
    <tag k="ref:vcgi:esiteid" v="338346" />
  </node>
  <node id="-209" visible="true" lat="44.572932814452" lon="-71.705251771021">
    <tag k="addr:city" v="Guildhall" />
    <tag k="addr:housenumber" v="5862" />
    <tag k="addr:street" v="Granby Road" />
    <tag k="addr:state" v="VT" />
    <tag k="ref:vcgi:esiteid" v="338347" />
  </node>
  <node id="-210" visible="true" lat="44.576317171798" lon="-71.716424044248">
    <tag k="addr:city" v="North Concord" />
    <tag k="addr:housenumber" v="6449" />
    <tag k="addr:street" v="Granby Road" />
    <tag k="addr:state" v="VT" />
    <tag k="ref:vcgi:esiteid" v="446418" />
  </node>
  <node id="-211" visible="true" lat="44.569896042267" lon="-71.758873676646">
    <tag k="addr:city" v="North Concord" />
    <tag k="addr:housenumber" v="9020" />
    <tag k="addr:street" v="Granby Road" />
    <tag k="addr:state" v="VT" />
    <tag k="ref:vcgi:esiteid" v="446419" />
  </node>
  <node id="-212" visible="true" lat="44.573358270322" lon="-71.742410429604">
    <tag k="addr:city" v="North Concord" />
    <tag k="addr:housenumber" v="8016" />
    <tag k="addr:street" v="Granby Road" />
    <tag k="addr:state" v="VT" />
    <tag k="ref:vcgi:esiteid" v="617470" />
  </node>
  <node id="-213" visible="true" lat="44.574014033911" lon="-71.734254307692">
    <tag k="addr:city" v="North Concord" />
    <tag k="addr:housenumber" v="7545" />
    <tag k="addr:street" v="Granby Road" />
    <tag k="addr:state" v="VT" />
    <tag k="ref:vcgi:esiteid" v="654906" />
  </node>
  <node id="-215" visible="true" lat="44.584803845828" lon="-71.77700246159">
    <tag k="addr:city" v="North Concord" />
    <tag k="addr:housenumber" v="498" />
    <tag k="addr:street" v="Lund Lane" />
    <tag k="addr:state" v="VT" />
    <tag k="ref:vcgi:esiteid" v="757707" />
  </node>
  <node id="-216" visible="true" lat="44.572610749313" lon="-71.747082046594">
    <tag k="addr:city" v="North Concord" />
    <tag k="addr:housenumber" v="8200" />
    <tag k="addr:street" v="Granby Road" />
    <tag k="addr:state" v="VT" />
    <tag k="ref:vcgi:esiteid" v="759039" />
  </node>
  <node id="-218" visible="true" lat="44.570378214096" lon="-71.759605315948">
    <tag k="addr:city" v="North Concord" />
    <tag k="addr:housenumber" v="53" />
    <tag k="addr:street" v="Porrell Road" />
    <tag k="addr:state" v="VT" />
    <tag k="ref:vcgi:esiteid" v="771191" />
  </node>
  <node id="-219" visible="true" lat="44.569290194998" lon="-71.755682634886">
    <tag k="addr:city" v="North Concord" />
    <tag k="addr:housenumber" v="8799" />
    <tag k="addr:street" v="Granby Road" />
    <tag k="addr:state" v="VT" />
    <tag k="ref:vcgi:esiteid" v="772402" />
  </node>
  <node id="-220" visible="true" lat="44.568655660638" lon="-71.725820188649">
    <tag k="addr:city" v="North Concord" />
    <tag k="addr:housenumber" v="655" />
    <tag k="addr:street" v="Austin Place" />
    <tag k="addr:state" v="VT" />
    <tag k="ref:vcgi:esiteid" v="773200" />
  </node>
  <node id="-221" visible="true" lat="44.571063457" lon="-71.755902318609">
    <tag k="addr:city" v="North Concord" />
    <tag k="addr:housenumber" v="8845" />
    <tag k="addr:street" v="Granby Road" />
    <tag k="addr:state" v="VT" />
    <tag k="ref:vcgi:esiteid" v="1050781" />
  </node>
</osm>
