<?xml version="1.0" encoding="UTF-8"?>
<osm version="0.6" generator="JOSM" upload="false">
  <node id="-100" visible="true" lat="43.947201054999" lon="-72.893097122012">
    <tag k="addr:city" v="Hancock" />
    <tag k="addr:housenumber" v="100" />
    <tag k="addr:street" v="Mountain Farm Drive" />
    <tag k="addr:state" v="VT" />
    <tag k="ref:vcgi:esiteid" v="118395" />
  </node>
  <node id="-101" visible="true" lat="43.946851099201" lon="-72.895463332942">
    <tag k="addr:city" v="Hancock" />
    <tag k="addr:housenumber" v="1620" />
    <tag k="addr:street" v="Fassett Hill Road" />
    <tag k="addr:state" v="VT" />
    <tag k="ref:vcgi:esiteid" v="118396" />
  </node>
  <node id="-102" visible="true" lat="43.946148207117" lon="-72.889144498418">
    <tag k="addr:city" v="Hancock" />
    <tag k="addr:housenumber" v="260" />
    <tag k="addr:street" v="Mountain Farm Drive" />
    <tag k="addr:state" v="VT" />
    <tag k="ref:vcgi:esiteid" v="118397" />
  </node>
  <node id="-103" visible="true" lat="43.945973708744" lon="-72.893340992706">
    <tag k="addr:city" v="Hancock" />
    <tag k="addr:housenumber" v="11" />
    <tag k="addr:street" v="Mountain Farm Drive" />
    <tag k="addr:state" v="VT" />
    <tag k="ref:vcgi:esiteid" v="118398" />
  </node>
  <node id="-104" visible="true" lat="43.945847710432" lon="-72.890186161161">
    <tag k="addr:city" v="Hancock" />
    <tag k="addr:housenumber" v="258" />
    <tag k="addr:street" v="Mountain Farm Drive" />
    <tag k="addr:state" v="VT" />
    <tag k="ref:vcgi:esiteid" v="118399" />
  </node>
  <node id="-105" visible="true" lat="43.944666116894" lon="-72.889578270778">
    <tag k="addr:city" v="Hancock" />
    <tag k="addr:housenumber" v="259" />
    <tag k="addr:street" v="Mountain Farm Drive" />
    <tag k="addr:state" v="VT" />
    <tag k="ref:vcgi:esiteid" v="118400" />
  </node>
  <node id="-106" visible="true" lat="43.942673740376" lon="-72.841452262113">
    <tag k="addr:city" v="Hancock" />
    <tag k="addr:housenumber" v="2362" />
    <tag k="addr:street" v="Vermont Route 100" />
    <tag k="addr:state" v="VT" />
    <tag k="ref:vcgi:esiteid" v="118401" />
  </node>
  <node id="-107" visible="true" lat="43.9422349463" lon="-72.840966335768">
    <tag k="addr:city" v="Hancock" />
    <tag k="addr:housenumber" v="2333" />
    <tag k="addr:street" v="Vermont Route 100" />
    <tag k="addr:state" v="VT" />
    <tag k="ref:vcgi:esiteid" v="118402" />
  </node>
  <node id="-108" visible="true" lat="43.94092818436" lon="-72.893732845131">
    <tag k="addr:city" v="Hancock" />
    <tag k="addr:housenumber" v="1181" />
    <tag k="addr:street" v="Fassett Hill Road" />
    <tag k="addr:state" v="VT" />
    <tag k="ref:vcgi:esiteid" v="118403" />
  </node>
  <node id="-109" visible="true" lat="43.940896297137" lon="-72.8936717189">
    <tag k="addr:city" v="Hancock" />
    <tag k="addr:housenumber" v="1125" />
    <tag k="addr:street" v="Fassett Hill Road" />
    <tag k="addr:state" v="VT" />
    <tag k="ref:vcgi:esiteid" v="118404" />
  </node>
  <node id="-110" visible="true" lat="43.940180867577" lon="-72.893329263097">
    <tag k="addr:city" v="Hancock" />
    <tag k="addr:housenumber" v="1119" />
    <tag k="addr:street" v="Fassett Hill Road" />
    <tag k="addr:state" v="VT" />
    <tag k="ref:vcgi:esiteid" v="118405" />
  </node>
  <node id="-111" visible="true" lat="43.940348346861" lon="-72.867603435928">
    <tag k="addr:city" v="Hancock" />
    <tag k="addr:housenumber" v="1095" />
    <tag k="addr:street" v="Tucker Brook Road" />
    <tag k="addr:state" v="VT" />
    <tag k="ref:vcgi:esiteid" v="118406" />
  </node>
  <node id="-112" visible="true" lat="43.940020900085" lon="-72.842769626796">
    <tag k="addr:city" v="Hancock" />
    <tag k="addr:housenumber" v="2156" />
    <tag k="addr:street" v="Vermont Route 100" />
    <tag k="addr:state" v="VT" />
    <tag k="ref:vcgi:esiteid" v="118407" />
  </node>
  <node id="-113" visible="true" lat="43.939709859584" lon="-72.842635258898">
    <tag k="addr:city" v="Hancock" />
    <tag k="addr:housenumber" v="2150" />
    <tag k="addr:street" v="Vermont Route 100" />
    <tag k="addr:state" v="VT" />
    <tag k="ref:vcgi:esiteid" v="118408" />
  </node>
  <node id="-114" visible="true" lat="43.939128325859" lon="-72.957589012435">
    <tag k="addr:city" v="Hancock" />
    <tag k="addr:housenumber" v="6886" />
    <tag k="addr:street" v="Vermont Route 125" />
    <tag k="addr:state" v="VT" />
    <tag k="ref:vcgi:esiteid" v="118409" />
  </node>
  <node id="-115" visible="true" lat="43.939453396184" lon="-72.892593823032">
    <tag k="addr:city" v="Hancock" />
    <tag k="addr:housenumber" v="1067" />
    <tag k="addr:street" v="Fassett Hill Road" />
    <tag k="addr:state" v="VT" />
    <tag k="ref:vcgi:esiteid" v="118410" />
  </node>
  <node id="-116" visible="true" lat="43.938907993049" lon="-72.842738503961">
    <tag k="addr:city" v="Hancock" />
    <tag k="addr:housenumber" v="2086" />
    <tag k="addr:street" v="Vermont Route 100" />
    <tag k="addr:state" v="VT" />
    <tag k="ref:vcgi:esiteid" v="118412" />
  </node>
  <node id="-117" visible="true" lat="43.937507090109" lon="-72.892343642362">
    <tag k="addr:city" v="Hancock" />
    <tag k="addr:housenumber" v="939" />
    <tag k="addr:street" v="Fassett Hill Road" />
    <tag k="addr:state" v="VT" />
    <tag k="ref:vcgi:esiteid" v="118413" />
  </node>
  <node id="-118" visible="true" lat="43.936799683775" lon="-72.892162431317">
    <tag k="addr:city" v="Hancock" />
    <tag k="addr:housenumber" v="889" />
    <tag k="addr:street" v="Fassett Hill Road" />
    <tag k="addr:state" v="VT" />
    <tag k="ref:vcgi:esiteid" v="118414" />
  </node>
  <node id="-119" visible="true" lat="43.936453896977" lon="-72.892168658029">
    <tag k="addr:city" v="Hancock" />
    <tag k="addr:housenumber" v="871" />
    <tag k="addr:street" v="Fassett Hill Road" />
    <tag k="addr:state" v="VT" />
    <tag k="ref:vcgi:esiteid" v="118415" />
  </node>
  <node id="-120" visible="true" lat="43.936165691738" lon="-72.862841443377">
    <tag k="addr:city" v="Hancock" />
    <tag k="addr:housenumber" v="173" />
    <tag k="addr:street" v="Windigo Road" />
    <tag k="addr:state" v="VT" />
    <tag k="ref:vcgi:esiteid" v="118416" />
  </node>
  <node id="-121" visible="true" lat="43.933797205001" lon="-72.820000964354">
    <tag k="addr:city" v="Rochester" />
    <tag k="addr:housenumber" v="819" />
    <tag k="addr:street" v="Buttles Road" />
    <tag k="addr:state" v="VT" />
    <tag k="ref:vcgi:esiteid" v="118417" />
  </node>
  <node id="-122" visible="true" lat="43.933690908815" lon="-72.819402140218">
    <tag k="addr:city" v="Rochester" />
    <tag k="addr:housenumber" v="765" />
    <tag k="addr:street" v="Buttles Road" />
    <tag k="addr:state" v="VT" />
    <tag k="ref:vcgi:esiteid" v="118418" />
  </node>
  <node id="-123" visible="true" lat="43.93252823724" lon="-72.870573594487">
    <tag k="addr:city" v="Hancock" />
    <tag k="addr:housenumber" v="419" />
    <tag k="addr:street" v="Shampeny Hill Road" />
    <tag k="addr:state" v="VT" />
    <tag k="ref:vcgi:esiteid" v="118419" />
  </node>
  <node id="-124" visible="true" lat="43.931824206529" lon="-72.871907939891">
    <tag k="addr:city" v="Hancock" />
    <tag k="addr:housenumber" v="382" />
    <tag k="addr:street" v="Shampeny Hill Road" />
    <tag k="addr:state" v="VT" />
    <tag k="ref:vcgi:esiteid" v="118420" />
  </node>
  <node id="-125" visible="true" lat="43.931465909718" lon="-72.863010077374">
    <tag k="addr:city" v="Hancock" />
    <tag k="addr:housenumber" v="89" />
    <tag k="addr:street" v="Tucker Brook Road Extension" />
    <tag k="addr:state" v="VT" />
    <tag k="ref:vcgi:esiteid" v="118421" />
  </node>
  <node id="-126" visible="true" lat="43.931463507702" lon="-72.8455605364">
    <tag k="addr:city" v="Hancock" />
    <tag k="addr:housenumber" v="357" />
    <tag k="addr:street" v="Blair Hill" />
    <tag k="addr:state" v="VT" />
    <tag k="ref:vcgi:esiteid" v="118422" />
  </node>
  <node id="-127" visible="true" lat="43.931132476547" lon="-72.899041770195">
    <tag k="addr:city" v="Hancock" />
    <tag k="addr:housenumber" v="121" />
    <tag k="addr:street" v="Texas Falls Road" />
    <tag k="addr:state" v="VT" />
    <tag k="ref:vcgi:esiteid" v="118423" />
  </node>
  <node id="-128" visible="true" lat="43.931523701318" lon="-72.89808567943">
    <tag k="addr:city" v="Hancock" />
    <tag k="addr:housenumber" v="119" />
    <tag k="addr:street" v="Texas Falls Road" />
    <tag k="addr:state" v="VT" />
    <tag k="ref:vcgi:esiteid" v="118424" />
  </node>
  <node id="-129" visible="true" lat="43.931348799858" lon="-72.821357145745">
    <tag k="addr:city" v="Rochester" />
    <tag k="addr:housenumber" v="614" />
    <tag k="addr:street" v="Buttles Road" />
    <tag k="addr:state" v="VT" />
    <tag k="ref:vcgi:esiteid" v="118425" />
  </node>
  <node id="-130" visible="true" lat="43.930956086021" lon="-72.871651695476">
    <tag k="addr:city" v="Hancock" />
    <tag k="addr:housenumber" v="336" />
    <tag k="addr:street" v="Shampeny Hill Road" />
    <tag k="addr:state" v="VT" />
    <tag k="ref:vcgi:esiteid" v="118426" />
  </node>
  <node id="-131" visible="true" lat="43.930317746141" lon="-72.899556019652">
    <tag k="addr:city" v="Hancock" />
    <tag k="addr:housenumber" v="96" />
    <tag k="addr:street" v="Texas Falls Road" />
    <tag k="addr:state" v="VT" />
    <tag k="ref:vcgi:esiteid" v="118428" />
  </node>
  <node id="-132" visible="true" lat="43.929923931464" lon="-72.898593375982">
    <tag k="addr:city" v="Hancock" />
    <tag k="addr:housenumber" v="81" />
    <tag k="addr:street" v="Texas Falls Road" />
    <tag k="addr:state" v="VT" />
    <tag k="ref:vcgi:esiteid" v="118429" />
  </node>
  <node id="-133" visible="true" lat="43.930282449504" lon="-72.864207106161">
    <tag k="addr:city" v="Hancock" />
    <tag k="addr:housenumber" v="367" />
    <tag k="addr:street" v="Tucker Brook Road" />
    <tag k="addr:state" v="VT" />
    <tag k="ref:vcgi:esiteid" v="118430" />
  </node>
  <node id="-134" visible="true" lat="43.929801668112" lon="-72.896301768313">
    <tag k="addr:city" v="Hancock" />
    <tag k="addr:housenumber" v="2889" />
    <tag k="addr:street" v="Vermont Route 125" />
    <tag k="addr:state" v="VT" />
    <tag k="ref:vcgi:esiteid" v="118431" />
  </node>
  <node id="-135" visible="true" lat="43.929735268625" lon="-72.846415205755">
    <tag k="addr:city" v="Hancock" />
    <tag k="addr:housenumber" v="320" />
    <tag k="addr:street" v="Blair Hill" />
    <tag k="addr:state" v="VT" />
    <tag k="ref:vcgi:esiteid" v="118432" />
  </node>
  <node id="-136" visible="true" lat="43.929472312273" lon="-72.896984830974">
    <tag k="addr:city" v="Hancock" />
    <tag k="addr:housenumber" v="2927" />
    <tag k="addr:street" v="Vermont Route 125" />
    <tag k="addr:state" v="VT" />
    <tag k="ref:vcgi:esiteid" v="118433" />
  </node>
  <node id="-137" visible="true" lat="43.929334264337" lon="-72.866816545503">
    <tag k="addr:city" v="Hancock" />
    <tag k="addr:housenumber" v="84" />
    <tag k="addr:street" v="Shampeny Hill Road" />
    <tag k="addr:state" v="VT" />
    <tag k="ref:vcgi:esiteid" v="118434" />
  </node>
  <node id="-138" visible="true" lat="43.929127377382" lon="-72.865763569463">
    <tag k="addr:city" v="Hancock" />
    <tag k="addr:housenumber" v="44" />
    <tag k="addr:street" v="Shampeny Hill Road" />
    <tag k="addr:state" v="VT" />
    <tag k="ref:vcgi:esiteid" v="118435" />
  </node>
  <node id="-139" visible="true" lat="43.929285702846" lon="-72.893630248008">
    <tag k="addr:city" v="Hancock" />
    <tag k="addr:housenumber" v="2751" />
    <tag k="addr:street" v="Vermont Route 125" />
    <tag k="addr:state" v="VT" />
    <tag k="ref:vcgi:esiteid" v="118436" />
  </node>
  <node id="-140" visible="true" lat="43.929072782102" lon="-72.894446100587">
    <tag k="addr:city" v="Hancock" />
    <tag k="addr:housenumber" v="2796" />
    <tag k="addr:street" v="Vermont Route 125" />
    <tag k="addr:state" v="VT" />
    <tag k="ref:vcgi:esiteid" v="118437" />
  </node>
  <node id="-141" visible="true" lat="43.929178256182" lon="-72.8660025289">
    <tag k="addr:city" v="Hancock" />
    <tag k="addr:housenumber" v="66" />
    <tag k="addr:street" v="Shampeny Hill Road" />
    <tag k="addr:state" v="VT" />
    <tag k="ref:vcgi:esiteid" v="118438" />
  </node>
  <node id="-142" visible="true" lat="43.929025469551" lon="-72.891474647623">
    <tag k="addr:city" v="Hancock" />
    <tag k="addr:housenumber" v="2659" />
    <tag k="addr:street" v="Vermont Route 125" />
    <tag k="addr:state" v="VT" />
    <tag k="ref:vcgi:esiteid" v="118439" />
  </node>
  <node id="-143" visible="true" lat="43.928711259807" lon="-72.89250809815">
    <tag k="addr:city" v="Hancock" />
    <tag k="addr:housenumber" v="2698" />
    <tag k="addr:street" v="Vermont Route 125" />
    <tag k="addr:state" v="VT" />
    <tag k="ref:vcgi:esiteid" v="118440" />
  </node>
  <node id="-144" visible="true" lat="43.928687599789" lon="-72.918746115592">
    <tag k="addr:city" v="Hancock" />
    <tag k="addr:housenumber" v="4081" />
    <tag k="addr:street" v="Vermont Route 125" />
    <tag k="addr:state" v="VT" />
    <tag k="ref:vcgi:esiteid" v="118441" />
  </node>
  <node id="-145" visible="true" lat="43.928614629646" lon="-72.899972367004">
    <tag k="addr:city" v="Hancock" />
    <tag k="addr:housenumber" v="3084" />
    <tag k="addr:street" v="Vermont Route 125" />
    <tag k="addr:state" v="VT" />
    <tag k="ref:vcgi:esiteid" v="118442" />
  </node>
  <node id="-146" visible="true" lat="43.928522984154" lon="-72.90028813795">
    <tag k="addr:city" v="Hancock" />
    <tag k="addr:housenumber" v="3106" />
    <tag k="addr:street" v="Vermont Route 125" />
    <tag k="addr:state" v="VT" />
    <tag k="ref:vcgi:esiteid" v="118443" />
  </node>
  <node id="-147" visible="true" lat="43.928461200795" lon="-72.891394480608">
    <tag k="addr:city" v="Hancock" />
    <tag k="addr:housenumber" v="2640" />
    <tag k="addr:street" v="Vermont Route 125" />
    <tag k="addr:state" v="VT" />
    <tag k="ref:vcgi:esiteid" v="118444" />
  </node>
  <node id="-148" visible="true" lat="43.928679513176" lon="-72.844546203329">
    <tag k="addr:city" v="Hancock" />
    <tag k="addr:housenumber" v="214" />
    <tag k="addr:street" v="Blair Hill" />
    <tag k="addr:state" v="VT" />
    <tag k="ref:vcgi:esiteid" v="118445" />
  </node>
  <node id="-149" visible="true" lat="43.928451183428" lon="-72.902704886796">
    <tag k="addr:city" v="Hancock" />
    <tag k="addr:housenumber" v="3223" />
    <tag k="addr:street" v="Vermont Route 125" />
    <tag k="addr:state" v="VT" />
    <tag k="ref:vcgi:esiteid" v="118446" />
  </node>
  <node id="-150" visible="true" lat="43.92842282966" lon="-72.865845243491">
    <tag k="addr:city" v="Hancock" />
    <tag k="addr:housenumber" v="10" />
    <tag k="addr:street" v="Shampeny Hill Road" />
    <tag k="addr:state" v="VT" />
    <tag k="ref:vcgi:esiteid" v="118447" />
  </node>
  <node id="-151" visible="true" lat="43.928085832465" lon="-72.901020737367">
    <tag k="addr:city" v="Hancock" />
    <tag k="addr:housenumber" v="3140" />
    <tag k="addr:street" v="Vermont Route 125" />
    <tag k="addr:state" v="VT" />
    <tag k="ref:vcgi:esiteid" v="118448" />
  </node>
  <node id="-152" visible="true" lat="43.928350020193" lon="-72.850149903646">
    <tag k="addr:city" v="Hancock" />
    <tag k="addr:housenumber" v="489" />
    <tag k="addr:street" v="Vermont Route 125" />
    <tag k="addr:state" v="VT" />
    <tag k="ref:vcgi:esiteid" v="118449" />
  </node>
  <node id="-153" visible="true" lat="43.928279737234" lon="-72.847817393192">
    <tag k="addr:city" v="Hancock" />
    <tag k="addr:housenumber" v="389" />
    <tag k="addr:street" v="Vermont Route 125" />
    <tag k="addr:state" v="VT" />
    <tag k="ref:vcgi:esiteid" v="118450" />
  </node>
  <node id="-154" visible="true" lat="43.928239547334" lon="-72.849196064753">
    <tag k="addr:city" v="Hancock" />
    <tag k="addr:housenumber" v="429" />
    <tag k="addr:street" v="Vermont Route 125" />
    <tag k="addr:state" v="VT" />
    <tag k="ref:vcgi:esiteid" v="118451" />
  </node>
  <node id="-155" visible="true" lat="43.928140399366" lon="-72.890185370127">
    <tag k="addr:city" v="Hancock" />
    <tag k="addr:housenumber" v="2548" />
    <tag k="addr:street" v="Vermont Route 125" />
    <tag k="addr:state" v="VT" />
    <tag k="ref:vcgi:esiteid" v="118452" />
  </node>
  <node id="-156" visible="true" lat="43.928150943694" lon="-72.86582589707">
    <tag k="addr:city" v="Hancock" />
    <tag k="addr:housenumber" v="190" />
    <tag k="addr:street" v="Tucker Brook Road" />
    <tag k="addr:state" v="VT" />
    <tag k="ref:vcgi:esiteid" v="118454" />
  </node>
  <node id="-157" visible="true" lat="43.928061756173" lon="-72.884231189331">
    <tag k="addr:city" v="Hancock" />
    <tag k="addr:housenumber" v="2277" />
    <tag k="addr:street" v="Vermont Route 125" />
    <tag k="addr:state" v="VT" />
    <tag k="ref:vcgi:esiteid" v="118455" />
  </node>
  <node id="-158" visible="true" lat="43.927716463852" lon="-72.903461804792">
    <tag k="addr:city" v="Hancock" />
    <tag k="addr:housenumber" v="3270" />
    <tag k="addr:street" v="Vermont Route 125" />
    <tag k="addr:state" v="VT" />
    <tag k="ref:vcgi:esiteid" v="118457" />
  </node>
  <node id="-159" visible="true" lat="43.927939732082" lon="-72.883810247712">
    <tag k="addr:city" v="Hancock" />
    <tag k="addr:housenumber" v="2255" />
    <tag k="addr:street" v="Vermont Route 125" />
    <tag k="addr:state" v="VT" />
    <tag k="ref:vcgi:esiteid" v="118458" />
  </node>
  <node id="-160" visible="true" lat="43.927939678157" lon="-72.882511088077">
    <tag k="addr:city" v="Hancock" />
    <tag k="addr:housenumber" v="2189" />
    <tag k="addr:street" v="Vermont Route 125" />
    <tag k="addr:state" v="VT" />
    <tag k="ref:vcgi:esiteid" v="118459" />
  </node>
  <node id="-161" visible="true" lat="43.928021411438" lon="-72.880338788848">
    <tag k="addr:city" v="Hancock" />
    <tag k="addr:housenumber" v="2091" />
    <tag k="addr:street" v="Vermont Route 125" />
    <tag k="addr:state" v="VT" />
    <tag k="ref:vcgi:esiteid" v="118460" />
  </node>
  <node id="-162" visible="true" lat="43.927760329784" lon="-72.888181124328">
    <tag k="addr:city" v="Hancock" />
    <tag k="addr:housenumber" v="2436" />
    <tag k="addr:street" v="Vermont Route 125" />
    <tag k="addr:state" v="VT" />
    <tag k="ref:vcgi:esiteid" v="118461" />
  </node>
  <node id="-163" visible="true" lat="43.927690807908" lon="-72.884972526933">
    <tag k="addr:city" v="Hancock" />
    <tag k="addr:housenumber" v="2316" />
    <tag k="addr:street" v="Vermont Route 125" />
    <tag k="addr:state" v="VT" />
    <tag k="ref:vcgi:esiteid" v="118462" />
  </node>
  <node id="-164" visible="true" lat="43.927633376277" lon="-72.886643824688">
    <tag k="addr:city" v="Hancock" />
    <tag k="addr:housenumber" v="2394" />
    <tag k="addr:street" v="Vermont Route 125" />
    <tag k="addr:state" v="VT" />
    <tag k="ref:vcgi:esiteid" v="118463" />
  </node>
  <node id="-165" visible="true" lat="43.927695535954" lon="-72.878448339452">
    <tag k="addr:city" v="Hancock" />
    <tag k="addr:housenumber" v="8" />
    <tag k="addr:street" v="Taylor Brook Road" />
    <tag k="addr:state" v="VT" />
    <tag k="ref:vcgi:esiteid" v="118464" />
  </node>
  <node id="-166" visible="true" lat="43.927807686528" lon="-72.910810541568">
    <tag k="addr:city" v="Hancock" />
    <tag k="addr:housenumber" v="3631" />
    <tag k="addr:street" v="Vermont Route 125" />
    <tag k="addr:state" v="VT" />
    <tag k="ref:vcgi:esiteid" v="118465" />
  </node>
  <node id="-167" visible="true" lat="43.927389721978" lon="-72.884088396967">
    <tag k="addr:city" v="Hancock" />
    <tag k="addr:housenumber" v="2280" />
    <tag k="addr:street" v="Vermont Route 125" />
    <tag k="addr:state" v="VT" />
    <tag k="ref:vcgi:esiteid" v="118466" />
  </node>
  <node id="-168" visible="true" lat="43.927767798002" lon="-72.840580421312">
    <tag k="addr:city" v="Hancock" />
    <tag k="addr:housenumber" v="1313" />
    <tag k="addr:street" v="Vermont Route 100" />
    <tag k="addr:state" v="VT" />
    <tag k="ref:vcgi:esiteid" v="118467" />
  </node>
  <node id="-169" visible="true" lat="43.927534557434" lon="-72.882651477749">
    <tag k="addr:city" v="Hancock" />
    <tag k="addr:housenumber" v="2198" />
    <tag k="addr:street" v="Vermont Route 125" />
    <tag k="addr:state" v="VT" />
    <tag k="ref:vcgi:esiteid" v="118468" />
  </node>
  <node id="-170" visible="true" lat="43.927571616243" lon="-72.865441654436">
    <tag k="addr:city" v="Hancock" />
    <tag k="addr:housenumber" v="162" />
    <tag k="addr:street" v="Tucker Brook Road" />
    <tag k="addr:state" v="VT" />
    <tag k="ref:vcgi:esiteid" v="118469" />
  </node>
  <node id="-171" visible="true" lat="43.92766101907" lon="-72.843006243842">
    <tag k="addr:city" v="Hancock" />
    <tag k="addr:housenumber" v="92" />
    <tag k="addr:street" v="Blair Hill" />
    <tag k="addr:state" v="VT" />
    <tag k="ref:vcgi:esiteid" v="118470" />
  </node>
  <node id="-172" visible="true" lat="43.927570774783" lon="-72.874514649086">
    <tag k="addr:city" v="Hancock" />
    <tag k="addr:housenumber" v="1773" />
    <tag k="addr:street" v="Vermont Route 125" />
    <tag k="addr:state" v="VT" />
    <tag k="ref:vcgi:esiteid" v="118471" />
  </node>
  <node id="-173" visible="true" lat="43.927492909677" lon="-72.876352120425">
    <tag k="addr:city" v="Hancock" />
    <tag k="addr:housenumber" v="57" />
    <tag k="addr:street" v="Taylor Brook Road" />
    <tag k="addr:state" v="VT" />
    <tag k="ref:vcgi:esiteid" v="118472" />
  </node>
  <node id="-174" visible="true" lat="43.927310962635" lon="-72.885878566158">
    <tag k="addr:city" v="Hancock" />
    <tag k="addr:housenumber" v="28" />
    <tag k="addr:street" v="Silver Street" />
    <tag k="addr:state" v="VT" />
    <tag k="ref:vcgi:esiteid" v="118473" />
  </node>
  <node id="-175" visible="true" lat="43.927490771206" lon="-72.840499764365">
    <tag k="addr:city" v="Hancock" />
    <tag k="addr:housenumber" v="1295" />
    <tag k="addr:street" v="Vermont Route 100" />
    <tag k="addr:state" v="VT" />
    <tag k="ref:vcgi:esiteid" v="118474" />
  </node>
  <node id="-176" visible="true" lat="43.927511619529" lon="-72.84637110246">
    <tag k="addr:city" v="Hancock" />
    <tag k="addr:housenumber" v="275" />
    <tag k="addr:street" v="Vermont Route 125" />
    <tag k="addr:state" v="VT" />
    <tag k="ref:vcgi:esiteid" v="118475" />
  </node>
  <node id="-177" visible="true" lat="43.927332284285" lon="-72.865200776785">
    <tag k="addr:city" v="Hancock" />
    <tag k="addr:housenumber" v="158" />
    <tag k="addr:street" v="Tucker Brook Road" />
    <tag k="addr:state" v="VT" />
    <tag k="ref:vcgi:esiteid" v="118476" />
  </node>
  <node id="-178" visible="true" lat="43.927123459127" lon="-72.911316736877">
    <tag k="addr:city" v="Hancock" />
    <tag k="addr:housenumber" v="3664" />
    <tag k="addr:street" v="Vermont Route 125" />
    <tag k="addr:state" v="VT" />
    <tag k="ref:vcgi:esiteid" v="118477" />
  </node>
  <node id="-179" visible="true" lat="43.927013675185" lon="-72.910537511907">
    <tag k="addr:city" v="Hancock" />
    <tag k="addr:housenumber" v="3630" />
    <tag k="addr:street" v="Vermont Route 125" />
    <tag k="addr:state" v="VT" />
    <tag k="ref:vcgi:esiteid" v="118478" />
  </node>
  <node id="-180" visible="true" lat="43.927201590799" lon="-72.871468876923">
    <tag k="addr:city" v="Hancock" />
    <tag k="addr:housenumber" v="1625" />
    <tag k="addr:street" v="Vermont Route 125" />
    <tag k="addr:state" v="VT" />
    <tag k="ref:vcgi:esiteid" v="118480" />
  </node>
  <node id="-181" visible="true" lat="43.926802880069" lon="-72.917279186185">
    <tag k="addr:city" v="Hancock" />
    <tag k="addr:housenumber" v="3956" />
    <tag k="addr:street" v="Vermont Route 125" />
    <tag k="addr:state" v="VT" />
    <tag k="ref:vcgi:esiteid" v="118481" />
  </node>
  <node id="-182" visible="true" lat="43.926786908364" lon="-72.916488421309">
    <tag k="addr:city" v="Hancock" />
    <tag k="addr:housenumber" v="3918" />
    <tag k="addr:street" v="Vermont Route 125" />
    <tag k="addr:state" v="VT" />
    <tag k="ref:vcgi:esiteid" v="118482" />
  </node>
  <node id="-183" visible="true" lat="43.927151967083" lon="-72.872982016526">
    <tag k="addr:city" v="Hancock" />
    <tag k="addr:housenumber" v="1675" />
    <tag k="addr:street" v="Vermont Route 125" />
    <tag k="addr:state" v="VT" />
    <tag k="ref:vcgi:esiteid" v="118483" />
  </node>
  <node id="-184" visible="true" lat="43.927017084039" lon="-72.87054293174">
    <tag k="addr:city" v="Hancock" />
    <tag k="addr:housenumber" v="1577" />
    <tag k="addr:street" v="Vermont Route 125" />
    <tag k="addr:state" v="VT" />
    <tag k="ref:vcgi:esiteid" v="118484" />
  </node>
  <node id="-185" visible="true" lat="43.927025079077" lon="-72.869523437776">
    <tag k="addr:city" v="Hancock" />
    <tag k="addr:housenumber" v="1513" />
    <tag k="addr:street" v="Vermont Route 125" />
    <tag k="addr:state" v="VT" />
    <tag k="ref:vcgi:esiteid" v="118485" />
  </node>
  <node id="-186" visible="true" lat="43.927183277955" lon="-72.845293418821">
    <tag k="addr:city" v="Hancock" />
    <tag k="addr:housenumber" v="221" />
    <tag k="addr:street" v="Vermont Route 125" />
    <tag k="addr:state" v="VT" />
    <tag k="ref:vcgi:esiteid" v="118486" />
  </node>
  <node id="-187" visible="true" lat="43.926687486685" lon="-72.91407163976">
    <tag k="addr:city" v="Hancock" />
    <tag k="addr:housenumber" v="3798" />
    <tag k="addr:street" v="Vermont Route 125" />
    <tag k="addr:state" v="VT" />
    <tag k="ref:vcgi:esiteid" v="118487" />
  </node>
  <node id="-188" visible="true" lat="43.926751506656" lon="-72.912477548279">
    <tag k="addr:city" v="Hancock" />
    <tag k="addr:housenumber" v="3686" />
    <tag k="addr:street" v="Vermont Route 125" />
    <tag k="addr:state" v="VT" />
    <tag k="ref:vcgi:esiteid" v="118488" />
  </node>
  <node id="-189" visible="true" lat="43.926889560225" lon="-72.886282216318">
    <tag k="addr:city" v="Hancock" />
    <tag k="addr:housenumber" v="72" />
    <tag k="addr:street" v="Silver Street" />
    <tag k="addr:state" v="VT" />
    <tag k="ref:vcgi:esiteid" v="118489" />
  </node>
  <node id="-190" visible="true" lat="43.927146747635" lon="-72.844704866906">
    <tag k="addr:city" v="Hancock" />
    <tag k="addr:housenumber" v="191" />
    <tag k="addr:street" v="Vermont Route 125" />
    <tag k="addr:state" v="VT" />
    <tag k="ref:vcgi:esiteid" v="118490" />
  </node>
  <node id="-191" visible="true" lat="43.926864170738" lon="-72.876791971631">
    <tag k="addr:city" v="Hancock" />
    <tag k="addr:housenumber" v="1897" />
    <tag k="addr:street" v="Vermont Route 125" />
    <tag k="addr:state" v="VT" />
    <tag k="ref:vcgi:esiteid" v="118491" />
  </node>
  <node id="-192" visible="true" lat="43.926928340732" lon="-72.844470619382">
    <tag k="addr:city" v="Hancock" />
    <tag k="addr:housenumber" v="173" />
    <tag k="addr:street" v="Vermont Route 125" />
    <tag k="addr:state" v="VT" />
    <tag k="ref:vcgi:esiteid" v="118492" />
  </node>
  <node id="-193" visible="true" lat="43.926829555027" lon="-72.866913497635">
    <tag k="addr:city" v="Hancock" />
    <tag k="addr:housenumber" v="1399" />
    <tag k="addr:street" v="Vermont Route 125" />
    <tag k="addr:state" v="VT" />
    <tag k="ref:vcgi:esiteid" v="118493" />
  </node>
  <node id="-194" visible="true" lat="43.926880991702" lon="-72.866227037269">
    <tag k="addr:city" v="Hancock" />
    <tag k="addr:housenumber" v="1359" />
    <tag k="addr:street" v="Vermont Route 125" />
    <tag k="addr:state" v="VT" />
    <tag k="ref:vcgi:esiteid" v="118494" />
  </node>
  <node id="-195" visible="true" lat="43.926977328786" lon="-72.841423684121">
    <tag k="addr:city" v="Hancock" />
    <tag k="addr:housenumber" v="1246" />
    <tag k="addr:street" v="Vermont Route 100" />
    <tag k="addr:state" v="VT" />
    <tag k="ref:vcgi:esiteid" v="118495" />
  </node>
  <node id="-196" visible="true" lat="43.926728246272" lon="-72.864397569408">
    <tag k="addr:city" v="Hancock" />
    <tag k="addr:housenumber" v="102" />
    <tag k="addr:street" v="Tucker Brook Road" />
    <tag k="addr:state" v="VT" />
    <tag k="ref:vcgi:esiteid" v="118496" />
  </node>
  <node id="-197" visible="true" lat="43.926785890078" lon="-72.843882394239">
    <tag k="addr:city" v="Hancock" />
    <tag k="addr:housenumber" v="143" />
    <tag k="addr:street" v="Vermont Route 125" />
    <tag k="addr:state" v="VT" />
    <tag k="ref:vcgi:esiteid" v="118497" />
  </node>
  <node id="-198" visible="true" lat="43.926606313605" lon="-72.88821184875">
    <tag k="addr:city" v="Hancock" />
    <tag k="addr:housenumber" v="2372" />
    <tag k="addr:street" v="Piper Brook" />
    <tag k="addr:state" v="VT" />
    <tag k="ref:vcgi:esiteid" v="118498" />
  </node>
  <node id="-199" visible="true" lat="43.926632511954" lon="-72.843362409855">
    <tag k="addr:city" v="Hancock" />
    <tag k="addr:housenumber" v="123" />
    <tag k="addr:street" v="Vermont Route 125" />
    <tag k="addr:state" v="VT" />
    <tag k="ref:vcgi:esiteid" v="118499" />
  </node>
  <node id="-200" visible="true" lat="43.926640239548" lon="-72.852219995446">
    <tag k="addr:city" v="Hancock" />
    <tag k="addr:housenumber" v="350" />
    <tag k="addr:street" v="Killooleet Road Extension" />
    <tag k="addr:state" v="VT" />
    <tag k="ref:vcgi:esiteid" v="118501" />
  </node>
  <node id="-201" visible="true" lat="43.926633201181" lon="-72.842530574174">
    <tag k="addr:city" v="Hancock" />
    <tag k="addr:housenumber" v="71" />
    <tag k="addr:street" v="Vermont Route 125" />
    <tag k="addr:state" v="VT" />
    <tag k="ref:vcgi:esiteid" v="118502" />
  </node>
  <node id="-202" visible="true" lat="43.926463770122" lon="-72.876587685468">
    <tag k="addr:city" v="Hancock" />
    <tag k="addr:housenumber" v="1882" />
    <tag k="addr:street" v="Vermont Route 125" />
    <tag k="addr:state" v="VT" />
    <tag k="ref:vcgi:esiteid" v="118503" />
  </node>
  <node id="-203" visible="true" lat="43.9265222817" lon="-72.840088042005">
    <tag k="addr:city" v="Hancock" />
    <tag k="addr:housenumber" v="1239" />
    <tag k="addr:street" v="Vermont Route 100" />
    <tag k="addr:state" v="VT" />
    <tag k="ref:vcgi:esiteid" v="118504" />
  </node>
  <node id="-204" visible="true" lat="43.926548394091" lon="-72.842761551765">
    <tag k="addr:city" v="Hancock" />
    <tag k="addr:housenumber" v="83" />
    <tag k="addr:street" v="Vermont Route 125" />
    <tag k="addr:state" v="VT" />
    <tag k="ref:vcgi:esiteid" v="118505" />
  </node>
  <node id="-205" visible="true" lat="43.926459131539" lon="-72.842295806348">
    <tag k="addr:city" v="Hancock" />
    <tag k="addr:housenumber" v="57" />
    <tag k="addr:street" v="Vermont Route 125" />
    <tag k="addr:state" v="VT" />
    <tag k="ref:vcgi:esiteid" v="118506" />
  </node>
  <node id="-206" visible="true" lat="43.926409451095" lon="-72.864239330364">
    <tag k="addr:city" v="Hancock" />
    <tag k="addr:housenumber" v="1269" />
    <tag k="addr:street" v="Vermont Route 125" />
    <tag k="addr:state" v="VT" />
    <tag k="ref:vcgi:esiteid" v="118507" />
  </node>
  <node id="-207" visible="true" lat="43.926458790577" lon="-72.842033952843">
    <tag k="addr:city" v="Hancock" />
    <tag k="addr:housenumber" v="47" />
    <tag k="addr:street" v="Vermont Route 125" />
    <tag k="addr:state" v="VT" />
    <tag k="ref:vcgi:esiteid" v="118508" />
  </node>
  <node id="-208" visible="true" lat="43.926323949581" lon="-72.843109236913">
    <tag k="addr:city" v="Hancock" />
    <tag k="addr:housenumber" v="96" />
    <tag k="addr:street" v="Vermont Route 125" />
    <tag k="addr:state" v="VT" />
    <tag k="ref:vcgi:esiteid" v="118509" />
  </node>
  <node id="-209" visible="true" lat="43.926269436946" lon="-72.842862541836">
    <tag k="addr:city" v="Hancock" />
    <tag k="addr:housenumber" v="88" />
    <tag k="addr:street" v="Vermont Route 125" />
    <tag k="addr:state" v="VT" />
    <tag k="ref:vcgi:esiteid" v="118510" />
  </node>
  <node id="-210" visible="true" lat="43.926217829387" lon="-72.842619049333">
    <tag k="addr:city" v="Hancock" />
    <tag k="addr:housenumber" v="82" />
    <tag k="addr:street" v="Vermont Route 125" />
    <tag k="addr:state" v="VT" />
    <tag k="ref:vcgi:esiteid" v="118511" />
  </node>
  <node id="-211" visible="true" lat="43.926395760656" lon="-72.841263186833">
    <tag k="addr:city" v="Hancock" />
    <tag k="addr:housenumber" v="3" />
    <tag k="addr:street" v="Vermont Route 125" />
    <tag k="addr:state" v="VT" />
    <tag k="ref:vcgi:esiteid" v="118512" />
  </node>
  <node id="-212" visible="true" lat="43.92629124127" lon="-72.840781327125">
    <tag k="addr:city" v="Hancock" />
    <tag k="addr:housenumber" v="1217" />
    <tag k="addr:street" v="Vermont Route 100" />
    <tag k="addr:state" v="VT" />
    <tag k="ref:vcgi:esiteid" v="118513" />
  </node>
  <node id="-213" visible="true" lat="43.926195714014" lon="-72.842101961101">
    <tag k="addr:city" v="Hancock" />
    <tag k="addr:housenumber" v="48" />
    <tag k="addr:street" v="Vermont Route 125" />
    <tag k="addr:state" v="VT" />
    <tag k="ref:vcgi:esiteid" v="118514" />
  </node>
  <node id="-214" visible="true" lat="43.926120172665" lon="-72.841902776749">
    <tag k="addr:city" v="Hancock" />
    <tag k="addr:housenumber" v="38" />
    <tag k="addr:street" v="Vermont Route 125" />
    <tag k="addr:state" v="VT" />
    <tag k="ref:vcgi:esiteid" v="118515" />
  </node>
  <node id="-215" visible="true" lat="43.926111850646" lon="-72.84139232619">
    <tag k="addr:city" v="Hancock" />
    <tag k="addr:housenumber" v="10" />
    <tag k="addr:street" v="Vermont Route 125" />
    <tag k="addr:state" v="VT" />
    <tag k="ref:vcgi:esiteid" v="118516" />
  </node>
  <node id="-216" visible="true" lat="43.925931335611" lon="-72.863346905372">
    <tag k="addr:city" v="Hancock" />
    <tag k="addr:housenumber" v="1210" />
    <tag k="addr:street" v="Vermont Route 125" />
    <tag k="addr:state" v="VT" />
    <tag k="ref:vcgi:esiteid" v="118517" />
  </node>
  <node id="-217" visible="true" lat="43.925982373957" lon="-72.86198480523">
    <tag k="addr:city" v="Hancock" />
    <tag k="addr:housenumber" v="42" />
    <tag k="addr:street" v="Comes Road" />
    <tag k="addr:state" v="VT" />
    <tag k="ref:vcgi:esiteid" v="118518" />
  </node>
  <node id="-218" visible="true" lat="43.925862808754" lon="-72.867138473838">
    <tag k="addr:city" v="Hancock" />
    <tag k="addr:housenumber" v="1400" />
    <tag k="addr:street" v="Vermont Route 125" />
    <tag k="addr:state" v="VT" />
    <tag k="ref:vcgi:esiteid" v="118519" />
  </node>
  <node id="-219" visible="true" lat="43.925839295039" lon="-72.861047570268">
    <tag k="addr:city" v="Hancock" />
    <tag k="addr:housenumber" v="96" />
    <tag k="addr:street" v="Comes Road" />
    <tag k="addr:state" v="VT" />
    <tag k="ref:vcgi:esiteid" v="118520" />
  </node>
  <node id="-220" visible="true" lat="43.925640090945" lon="-72.84260709851">
    <tag k="addr:city" v="Hancock" />
    <tag k="addr:housenumber" v="76" />
    <tag k="addr:street" v="Killooleet Road" />
    <tag k="addr:state" v="VT" />
    <tag k="ref:vcgi:esiteid" v="118521" />
  </node>
  <node id="-221" visible="true" lat="43.925458165079" lon="-72.867457408534">
    <tag k="addr:city" v="Hancock" />
    <tag k="addr:housenumber" v="1402" />
    <tag k="addr:street" v="Vermont Route 125" />
    <tag k="addr:state" v="VT" />
    <tag k="ref:vcgi:esiteid" v="118522" />
  </node>
  <node id="-222" visible="true" lat="43.925354293252" lon="-72.840652052597">
    <tag k="addr:city" v="Hancock" />
    <tag k="addr:housenumber" v="1143" />
    <tag k="addr:street" v="Vermont Route 100" />
    <tag k="addr:state" v="VT" />
    <tag k="ref:vcgi:esiteid" v="118523" />
  </node>
  <node id="-223" visible="true" lat="43.925244684492" lon="-72.841275796965">
    <tag k="addr:city" v="Hancock" />
    <tag k="addr:housenumber" v="1144" />
    <tag k="addr:street" v="Vermont Route 100" />
    <tag k="addr:state" v="VT" />
    <tag k="ref:vcgi:esiteid" v="118524" />
  </node>
  <node id="-224" visible="true" lat="43.925007949261" lon="-72.841227003985">
    <tag k="addr:city" v="Hancock" />
    <tag k="addr:housenumber" v="1126" />
    <tag k="addr:street" v="Vermont Route 100" />
    <tag k="addr:state" v="VT" />
    <tag k="ref:vcgi:esiteid" v="118525" />
  </node>
  <node id="-225" visible="true" lat="43.924793409801" lon="-72.842913435398">
    <tag k="addr:city" v="Hancock" />
    <tag k="addr:housenumber" v="80" />
    <tag k="addr:street" v="Killooleet Road" />
    <tag k="addr:state" v="VT" />
    <tag k="ref:vcgi:esiteid" v="118526" />
  </node>
  <node id="-226" visible="true" lat="43.924769549345" lon="-72.84061601396">
    <tag k="addr:city" v="Hancock" />
    <tag k="addr:housenumber" v="1097" />
    <tag k="addr:street" v="Vermont Route 100" />
    <tag k="addr:state" v="VT" />
    <tag k="ref:vcgi:esiteid" v="118527" />
  </node>
  <node id="-227" visible="true" lat="43.924603781806" lon="-72.841134394041">
    <tag k="addr:city" v="Hancock" />
    <tag k="addr:housenumber" v="1090" />
    <tag k="addr:street" v="Vermont Route 100" />
    <tag k="addr:state" v="VT" />
    <tag k="ref:vcgi:esiteid" v="118529" />
  </node>
  <node id="-228" visible="true" lat="43.924328225022" lon="-72.840596564146">
    <tag k="addr:city" v="Hancock" />
    <tag k="addr:housenumber" v="1071" />
    <tag k="addr:street" v="Vermont Route 100" />
    <tag k="addr:state" v="VT" />
    <tag k="ref:vcgi:esiteid" v="118530" />
  </node>
  <node id="-229" visible="true" lat="43.924103855082" lon="-72.840519366439">
    <tag k="addr:city" v="Hancock" />
    <tag k="addr:housenumber" v="1055" />
    <tag k="addr:street" v="Vermont Route 100" />
    <tag k="addr:state" v="VT" />
    <tag k="ref:vcgi:esiteid" v="118531" />
  </node>
  <node id="-230" visible="true" lat="43.923949990496" lon="-72.84048979343">
    <tag k="addr:city" v="Hancock" />
    <tag k="addr:housenumber" v="1043" />
    <tag k="addr:street" v="Vermont Route 100" />
    <tag k="addr:state" v="VT" />
    <tag k="ref:vcgi:esiteid" v="118532" />
  </node>
  <node id="-231" visible="true" lat="43.923728360895" lon="-72.840314752862">
    <tag k="addr:city" v="Hancock" />
    <tag k="addr:housenumber" v="1027" />
    <tag k="addr:street" v="Vermont Route 100" />
    <tag k="addr:state" v="VT" />
    <tag k="ref:vcgi:esiteid" v="118533" />
  </node>
  <node id="-232" visible="true" lat="43.923294732531" lon="-72.840216749542">
    <tag k="addr:city" v="Hancock" />
    <tag k="addr:housenumber" v="999" />
    <tag k="addr:street" v="Vermont Route 100" />
    <tag k="addr:state" v="VT" />
    <tag k="ref:vcgi:esiteid" v="118534" />
  </node>
  <node id="-233" visible="true" lat="43.923132006915" lon="-72.825969783301">
    <tag k="addr:city" v="Rochester" />
    <tag k="addr:housenumber" v="833" />
    <tag k="addr:street" v="Churchville Road" />
    <tag k="addr:state" v="VT" />
    <tag k="ref:vcgi:esiteid" v="118535" />
  </node>
  <node id="-234" visible="true" lat="43.922806450012" lon="-72.840905062327">
    <tag k="addr:city" v="Hancock" />
    <tag k="addr:housenumber" v="976" />
    <tag k="addr:street" v="Vermont Route 100" />
    <tag k="addr:state" v="VT" />
    <tag k="ref:vcgi:esiteid" v="118536" />
  </node>
  <node id="-235" visible="true" lat="43.922145606272" lon="-72.840049435147">
    <tag k="addr:city" v="Hancock" />
    <tag k="addr:housenumber" v="919" />
    <tag k="addr:street" v="Vermont Route 100" />
    <tag k="addr:state" v="VT" />
    <tag k="ref:vcgi:esiteid" v="118537" />
  </node>
  <node id="-236" visible="true" lat="43.921993040226" lon="-72.839805956328">
    <tag k="addr:city" v="Hancock" />
    <tag k="addr:housenumber" v="907" />
    <tag k="addr:street" v="Vermont Route 100" />
    <tag k="addr:state" v="VT" />
    <tag k="ref:vcgi:esiteid" v="118538" />
  </node>
  <node id="-237" visible="true" lat="43.921971003002" lon="-72.830922146809">
    <tag k="addr:city" v="Hancock" />
    <tag k="addr:housenumber" v="21" />
    <tag k="addr:street" v="Isaacson Drive" />
    <tag k="addr:state" v="VT" />
    <tag k="ref:vcgi:esiteid" v="118539" />
  </node>
  <node id="-238" visible="true" lat="43.921922750613" lon="-72.84126878544">
    <tag k="addr:city" v="Hancock" />
    <tag k="addr:housenumber" v="894" />
    <tag k="addr:street" v="Vermont Route 100" />
    <tag k="addr:state" v="VT" />
    <tag k="ref:vcgi:esiteid" v="118540" />
  </node>
  <node id="-239" visible="true" lat="43.921639191793" lon="-72.839976824846">
    <tag k="addr:city" v="Hancock" />
    <tag k="addr:housenumber" v="887" />
    <tag k="addr:street" v="Vermont Route 100" />
    <tag k="addr:state" v="VT" />
    <tag k="ref:vcgi:esiteid" v="118541" />
  </node>
  <node id="-240" visible="true" lat="43.921741004097" lon="-72.830880319657">
    <tag k="addr:city" v="Hancock" />
    <tag k="addr:housenumber" v="27" />
    <tag k="addr:street" v="Isaacson Drive" />
    <tag k="addr:state" v="VT" />
    <tag k="ref:vcgi:esiteid" v="118542" />
  </node>
  <node id="-241" visible="true" lat="43.921605429212" lon="-72.840440119201">
    <tag k="addr:city" v="Hancock" />
    <tag k="addr:housenumber" v="882" />
    <tag k="addr:street" v="Vermont Route 100" />
    <tag k="addr:state" v="VT" />
    <tag k="ref:vcgi:esiteid" v="118543" />
  </node>
  <node id="-242" visible="true" lat="43.92167650366" lon="-72.831279922082">
    <tag k="addr:city" v="Hancock" />
    <tag k="addr:housenumber" v="45" />
    <tag k="addr:street" v="Isaacson Drive" />
    <tag k="addr:state" v="VT" />
    <tag k="ref:vcgi:esiteid" v="118544" />
  </node>
  <node id="-243" visible="true" lat="43.921423547634" lon="-72.838658731824">
    <tag k="addr:city" v="Hancock" />
    <tag k="addr:housenumber" v="72" />
    <tag k="addr:street" v="Virgin Avenue" />
    <tag k="addr:state" v="VT" />
    <tag k="ref:vcgi:esiteid" v="118545" />
  </node>
  <node id="-244" visible="true" lat="43.92142754566" lon="-72.838896718708">
    <tag k="addr:city" v="Hancock" />
    <tag k="addr:housenumber" v="58" />
    <tag k="addr:street" v="Virgin Avenue" />
    <tag k="addr:state" v="VT" />
    <tag k="ref:vcgi:esiteid" v="118546" />
  </node>
  <node id="-245" visible="true" lat="43.921355538055" lon="-72.839092206482">
    <tag k="addr:city" v="Hancock" />
    <tag k="addr:housenumber" v="48" />
    <tag k="addr:street" v="Virgin Avenue" />
    <tag k="addr:state" v="VT" />
    <tag k="ref:vcgi:esiteid" v="118547" />
  </node>
  <node id="-246" visible="true" lat="43.921302929553" lon="-72.831939981651">
    <tag k="addr:city" v="Hancock" />
    <tag k="addr:housenumber" v="80" />
    <tag k="addr:street" v="Isaacson Drive" />
    <tag k="addr:state" v="VT" />
    <tag k="ref:vcgi:esiteid" v="118548" />
  </node>
  <node id="-247" visible="true" lat="43.921330992358" lon="-72.839319588755">
    <tag k="addr:city" v="Hancock" />
    <tag k="addr:housenumber" v="38" />
    <tag k="addr:street" v="Virgin Avenue" />
    <tag k="addr:state" v="VT" />
    <tag k="ref:vcgi:esiteid" v="118549" />
  </node>
  <node id="-248" visible="true" lat="43.921304124385" lon="-72.839548093243">
    <tag k="addr:city" v="Hancock" />
    <tag k="addr:housenumber" v="26" />
    <tag k="addr:street" v="Virgin Avenue" />
    <tag k="addr:state" v="VT" />
    <tag k="ref:vcgi:esiteid" v="118550" />
  </node>
  <node id="-249" visible="true" lat="43.921342621742" lon="-72.839893467943">
    <tag k="addr:city" v="Hancock" />
    <tag k="addr:housenumber" v="16" />
    <tag k="addr:street" v="Virgin Avenue" />
    <tag k="addr:state" v="VT" />
    <tag k="ref:vcgi:esiteid" v="118551" />
  </node>
  <node id="-250" visible="true" lat="43.921148145858" lon="-72.838601658126">
    <tag k="addr:city" v="Hancock" />
    <tag k="addr:housenumber" v="69" />
    <tag k="addr:street" v="Virgin Avenue" />
    <tag k="addr:state" v="VT" />
    <tag k="ref:vcgi:esiteid" v="118552" />
  </node>
  <node id="-251" visible="true" lat="43.92112519182" lon="-72.838821039835">
    <tag k="addr:city" v="Hancock" />
    <tag k="addr:housenumber" v="59" />
    <tag k="addr:street" v="Virgin Avenue" />
    <tag k="addr:state" v="VT" />
    <tag k="ref:vcgi:esiteid" v="118553" />
  </node>
  <node id="-252" visible="true" lat="43.92111431844" lon="-72.83904803578">
    <tag k="addr:city" v="Hancock" />
    <tag k="addr:housenumber" v="49" />
    <tag k="addr:street" v="Virgin Avenue" />
    <tag k="addr:state" v="VT" />
    <tag k="ref:vcgi:esiteid" v="118554" />
  </node>
  <node id="-253" visible="true" lat="43.921083405757" lon="-72.839267005883">
    <tag k="addr:city" v="Hancock" />
    <tag k="addr:housenumber" v="37" />
    <tag k="addr:street" v="Virgin Avenue" />
    <tag k="addr:state" v="VT" />
    <tag k="ref:vcgi:esiteid" v="118555" />
  </node>
  <node id="-254" visible="true" lat="43.921064913915" lon="-72.839493288359">
    <tag k="addr:city" v="Hancock" />
    <tag k="addr:housenumber" v="27" />
    <tag k="addr:street" v="Virgin Avenue" />
    <tag k="addr:state" v="VT" />
    <tag k="ref:vcgi:esiteid" v="118556" />
  </node>
  <node id="-255" visible="true" lat="43.920846308978" lon="-72.838540983434">
    <tag k="addr:city" v="Hancock" />
    <tag k="addr:housenumber" v="70" />
    <tag k="addr:street" v="Recreation Drive" />
    <tag k="addr:state" v="VT" />
    <tag k="ref:vcgi:esiteid" v="118557" />
  </node>
  <node id="-256" visible="true" lat="43.920792659845" lon="-72.839004815741">
    <tag k="addr:city" v="Hancock" />
    <tag k="addr:housenumber" v="52" />
    <tag k="addr:street" v="Recreation Drive" />
    <tag k="addr:state" v="VT" />
    <tag k="ref:vcgi:esiteid" v="118558" />
  </node>
  <node id="-257" visible="true" lat="43.92066137103" lon="-72.840872381622">
    <tag k="addr:city" v="Hancock" />
    <tag k="addr:housenumber" v="808" />
    <tag k="addr:street" v="Vermont Route 100" />
    <tag k="addr:state" v="VT" />
    <tag k="ref:vcgi:esiteid" v="118559" />
  </node>
  <node id="-258" visible="true" lat="43.920403799161" lon="-72.839524591685">
    <tag k="addr:city" v="Hancock" />
    <tag k="addr:housenumber" v="21" />
    <tag k="addr:street" v="Recreation Drive" />
    <tag k="addr:state" v="VT" />
    <tag k="ref:vcgi:esiteid" v="118560" />
  </node>
  <node id="-259" visible="true" lat="43.920051012555" lon="-72.838995227993">
    <tag k="addr:city" v="Hancock" />
    <tag k="addr:housenumber" v="45" />
    <tag k="addr:street" v="Recreation Drive" />
    <tag k="addr:state" v="VT" />
    <tag k="ref:vcgi:esiteid" v="118561" />
  </node>
  <node id="-260" visible="true" lat="43.919801116743" lon="-72.835805892579">
    <tag k="addr:city" v="Hancock" />
    <tag k="addr:housenumber" v="241" />
    <tag k="addr:street" v="Churchville Road" />
    <tag k="addr:state" v="VT" />
    <tag k="ref:vcgi:esiteid" v="118562" />
  </node>
  <node id="-261" visible="true" lat="43.919890699703" lon="-72.836743697787">
    <tag k="addr:city" v="Hancock" />
    <tag k="addr:housenumber" v="222" />
    <tag k="addr:street" v="Churchville Road" />
    <tag k="addr:state" v="VT" />
    <tag k="ref:vcgi:esiteid" v="118563" />
  </node>
  <node id="-262" visible="true" lat="43.919308411848" lon="-72.837152763043">
    <tag k="addr:city" v="Hancock" />
    <tag k="addr:housenumber" v="183" />
    <tag k="addr:street" v="Churchville Road" />
    <tag k="addr:state" v="VT" />
    <tag k="ref:vcgi:esiteid" v="118564" />
  </node>
  <node id="-263" visible="true" lat="43.91925199912" lon="-72.839746488154">
    <tag k="addr:city" v="Hancock" />
    <tag k="addr:housenumber" v="725" />
    <tag k="addr:street" v="Vermont Route 100" />
    <tag k="addr:state" v="VT" />
    <tag k="ref:vcgi:esiteid" v="118565" />
  </node>
  <node id="-264" visible="true" lat="43.919202170401" lon="-72.837731683288">
    <tag k="addr:city" v="Hancock" />
    <tag k="addr:housenumber" v="154" />
    <tag k="addr:street" v="Churchville Road" />
    <tag k="addr:state" v="VT" />
    <tag k="ref:vcgi:esiteid" v="118566" />
  </node>
  <node id="-265" visible="true" lat="43.919100518772" lon="-72.837333988383">
    <tag k="addr:city" v="Hancock" />
    <tag k="addr:housenumber" v="159" />
    <tag k="addr:street" v="Churchville Road" />
    <tag k="addr:state" v="VT" />
    <tag k="ref:vcgi:esiteid" v="118567" />
  </node>
  <node id="-266" visible="true" lat="43.91907485862" lon="-72.838041848268">
    <tag k="addr:city" v="Hancock" />
    <tag k="addr:housenumber" v="132" />
    <tag k="addr:street" v="Churchville Road" />
    <tag k="addr:state" v="VT" />
    <tag k="ref:vcgi:esiteid" v="118568" />
  </node>
  <node id="-267" visible="true" lat="43.918813793404" lon="-72.837660737609">
    <tag k="addr:city" v="Hancock" />
    <tag k="addr:housenumber" v="141" />
    <tag k="addr:street" v="Churchville Road" />
    <tag k="addr:state" v="VT" />
    <tag k="ref:vcgi:esiteid" v="118569" />
  </node>
  <node id="-268" visible="true" lat="43.918668112728" lon="-72.838086303798">
    <tag k="addr:city" v="Hancock" />
    <tag k="addr:housenumber" v="109" />
    <tag k="addr:street" v="Churchville Road" />
    <tag k="addr:state" v="VT" />
    <tag k="ref:vcgi:esiteid" v="118570" />
  </node>
  <node id="-269" visible="true" lat="43.918655812652" lon="-72.838573357847">
    <tag k="addr:city" v="Hancock" />
    <tag k="addr:housenumber" v="96" />
    <tag k="addr:street" v="Churchville Road" />
    <tag k="addr:state" v="VT" />
    <tag k="ref:vcgi:esiteid" v="118571" />
  </node>
  <node id="-270" visible="true" lat="43.918287911431" lon="-72.838227505694">
    <tag k="addr:city" v="Hancock" />
    <tag k="addr:housenumber" v="16" />
    <tag k="addr:street" v="Bettis Road" />
    <tag k="addr:state" v="VT" />
    <tag k="ref:vcgi:esiteid" v="118572" />
  </node>
  <node id="-271" visible="true" lat="43.917824134641" lon="-72.838607462007">
    <tag k="addr:city" v="Hancock" />
    <tag k="addr:housenumber" v="35" />
    <tag k="addr:street" v="Bettis Road" />
    <tag k="addr:state" v="VT" />
    <tag k="ref:vcgi:esiteid" v="118574" />
  </node>
  <node id="-272" visible="true" lat="43.916570464326" lon="-72.840476949129">
    <tag k="addr:city" v="Hancock" />
    <tag k="addr:housenumber" v="529" />
    <tag k="addr:street" v="Vermont Route 100" />
    <tag k="addr:state" v="VT" />
    <tag k="ref:vcgi:esiteid" v="118575" />
  </node>
  <node id="-273" visible="true" lat="43.916326323513" lon="-72.840140516699">
    <tag k="addr:city" v="Hancock" />
    <tag k="addr:housenumber" v="513" />
    <tag k="addr:street" v="Vermont Route 100" />
    <tag k="addr:state" v="VT" />
    <tag k="ref:vcgi:esiteid" v="118576" />
  </node>
  <node id="-274" visible="true" lat="43.915820826355" lon="-72.840270563563">
    <tag k="addr:city" v="Hancock" />
    <tag k="addr:housenumber" v="475" />
    <tag k="addr:street" v="Vermont Route 100" />
    <tag k="addr:state" v="VT" />
    <tag k="ref:vcgi:esiteid" v="118577" />
  </node>
  <node id="-275" visible="true" lat="43.915369671702" lon="-72.839457422509">
    <tag k="addr:city" v="Hancock" />
    <tag k="addr:housenumber" v="407" />
    <tag k="addr:street" v="Vermont Route 100" />
    <tag k="addr:state" v="VT" />
    <tag k="ref:vcgi:esiteid" v="118578" />
  </node>
  <node id="-276" visible="true" lat="43.914841023836" lon="-72.838108011749">
    <tag k="addr:city" v="Hancock" />
    <tag k="addr:housenumber" v="327" />
    <tag k="addr:street" v="Vermont Route 100" />
    <tag k="addr:state" v="VT" />
    <tag k="ref:vcgi:esiteid" v="118579" />
  </node>
  <node id="-277" visible="true" lat="43.913914290431" lon="-72.833372540801">
    <tag k="addr:city" v="Hancock" />
    <tag k="addr:housenumber" v="432" />
    <tag k="addr:street" v="Bettis Road" />
    <tag k="addr:state" v="VT" />
    <tag k="ref:vcgi:esiteid" v="118580" />
  </node>
  <node id="-278" visible="true" lat="43.914185934704" lon="-72.833805453995">
    <tag k="addr:city" v="Hancock" />
    <tag k="addr:housenumber" v="418" />
    <tag k="addr:street" v="Bettis Road" />
    <tag k="addr:state" v="VT" />
    <tag k="ref:vcgi:esiteid" v="118581" />
  </node>
  <node id="-279" visible="true" lat="43.914071965982" lon="-72.837513558172">
    <tag k="addr:city" v="Hancock" />
    <tag k="addr:housenumber" v="265" />
    <tag k="addr:street" v="Vermont Route 100" />
    <tag k="addr:state" v="VT" />
    <tag k="ref:vcgi:esiteid" v="118582" />
  </node>
  <node id="-280" visible="true" lat="43.91398940082" lon="-72.83630388164">
    <tag k="addr:city" v="Hancock" />
    <tag k="addr:housenumber" v="223" />
    <tag k="addr:street" v="Vermont Route 100" />
    <tag k="addr:state" v="VT" />
    <tag k="ref:vcgi:esiteid" v="118583" />
  </node>
  <node id="-281" visible="true" lat="43.913754434435" lon="-72.836405177375">
    <tag k="addr:city" v="Hancock" />
    <tag k="addr:housenumber" v="227" />
    <tag k="addr:street" v="Vermont Route 100" />
    <tag k="addr:state" v="VT" />
    <tag k="ref:vcgi:esiteid" v="118584" />
  </node>
  <node id="-282" visible="true" lat="43.913796502532" lon="-72.839890339473">
    <tag k="addr:city" v="Hancock" />
    <tag k="addr:housenumber" v="72" />
    <tag k="addr:street" v="Tunnel Brook Road" />
    <tag k="addr:state" v="VT" />
    <tag k="ref:vcgi:esiteid" v="118585" />
  </node>
  <node id="-283" visible="true" lat="43.913611661422" lon="-72.837713389013">
    <tag k="addr:city" v="Hancock" />
    <tag k="addr:housenumber" v="262" />
    <tag k="addr:street" v="Vermont Route 100" />
    <tag k="addr:state" v="VT" />
    <tag k="ref:vcgi:esiteid" v="118586" />
  </node>
  <node id="-285" visible="true" lat="43.913711226669" lon="-72.840698864208">
    <tag k="addr:city" v="Hancock" />
    <tag k="addr:housenumber" v="91" />
    <tag k="addr:street" v="Tunnel Brook Road" />
    <tag k="addr:state" v="VT" />
    <tag k="ref:vcgi:esiteid" v="118588" />
  </node>
  <node id="-286" visible="true" lat="43.913759938877" lon="-72.835839162426">
    <tag k="addr:city" v="Hancock" />
    <tag k="addr:housenumber" v="175" />
    <tag k="addr:street" v="Vermont Route 100" />
    <tag k="addr:state" v="VT" />
    <tag k="ref:vcgi:esiteid" v="118590" />
  </node>
  <node id="-287" visible="true" lat="43.913529087753" lon="-72.839630187453">
    <tag k="addr:city" v="Hancock" />
    <tag k="addr:housenumber" v="342" />
    <tag k="addr:street" v="Vermont Route 100" />
    <tag k="addr:state" v="VT" />
    <tag k="ref:vcgi:esiteid" v="118591" />
  </node>
  <node id="-288" visible="true" lat="43.912594127307" lon="-72.835559749979">
    <tag k="addr:city" v="Hancock" />
    <tag k="addr:housenumber" v="134" />
    <tag k="addr:street" v="Vermont Route 100" />
    <tag k="addr:state" v="VT" />
    <tag k="ref:vcgi:esiteid" v="118592" />
  </node>
  <node id="-289" visible="true" lat="43.912468529763" lon="-72.841178424558">
    <tag k="addr:city" v="Hancock" />
    <tag k="addr:housenumber" v="163" />
    <tag k="addr:street" v="Tunnel Brook Road" />
    <tag k="addr:state" v="VT" />
    <tag k="ref:vcgi:esiteid" v="118593" />
  </node>
  <node id="-290" visible="true" lat="43.911986516359" lon="-72.840551064888">
    <tag k="addr:city" v="Hancock" />
    <tag k="addr:housenumber" v="203" />
    <tag k="addr:street" v="Tunnel Brook Road" />
    <tag k="addr:state" v="VT" />
    <tag k="ref:vcgi:esiteid" v="118594" />
  </node>
  <node id="-291" visible="true" lat="43.920515517439" lon="-72.836718098651">
    <tag k="addr:city" v="Hancock" />
    <tag k="addr:housenumber" v="242" />
    <tag k="addr:street" v="Churchville Road" />
    <tag k="addr:state" v="VT" />
    <tag k="ref:vcgi:esiteid" v="118596" />
  </node>
  <node id="-292" visible="true" lat="43.927688536406" lon="-72.852524040478">
    <tag k="addr:city" v="Hancock" />
    <tag k="addr:housenumber" v="595" />
    <tag k="addr:street" v="Vermont Route 125" />
    <tag k="addr:state" v="VT" />
    <tag k="ref:vcgi:esiteid" v="118597" />
  </node>
  <node id="-293" visible="true" lat="43.926089092902" lon="-72.856155715776">
    <tag k="addr:city" v="Hancock" />
    <tag k="addr:housenumber" v="799" />
    <tag k="addr:street" v="Vermont Route 125" />
    <tag k="addr:state" v="VT" />
    <tag k="ref:vcgi:esiteid" v="118598" />
  </node>
  <node id="-294" visible="true" lat="43.925673520831" lon="-72.85668181516">
    <tag k="addr:city" v="Hancock" />
    <tag k="addr:housenumber" v="829" />
    <tag k="addr:street" v="Vermont Route 125" />
    <tag k="addr:state" v="VT" />
    <tag k="ref:vcgi:esiteid" v="118599" />
  </node>
  <node id="-295" visible="true" lat="43.926602371712" lon="-72.85810300447">
    <tag k="addr:city" v="Hancock" />
    <tag k="addr:housenumber" v="797" />
    <tag k="addr:street" v="Vermont Route 125" />
    <tag k="addr:state" v="VT" />
    <tag k="ref:vcgi:esiteid" v="118600" />
  </node>
  <node id="-296" visible="true" lat="43.936333334703" lon="-72.852011732141">
    <tag k="addr:city" v="Hancock" />
    <tag k="addr:housenumber" v="952" />
    <tag k="addr:street" v="Windigo Road Extension" />
    <tag k="addr:state" v="VT" />
    <tag k="ref:vcgi:esiteid" v="118601" />
  </node>
  <node id="-297" visible="true" lat="43.927217256531" lon="-72.872458539229">
    <tag k="addr:city" v="Hancock" />
    <tag k="addr:housenumber" v="1659" />
    <tag k="addr:street" v="Vermont Route 125" />
    <tag k="addr:state" v="VT" />
    <tag k="ref:vcgi:esiteid" v="118602" />
  </node>
  <node id="-298" visible="true" lat="43.918935931176" lon="-72.83842795047">
    <tag k="addr:city" v="Hancock" />
    <tag k="addr:housenumber" v="98" />
    <tag k="addr:street" v="Churchville Road" />
    <tag k="addr:state" v="VT" />
    <tag k="ref:vcgi:esiteid" v="118604" />
  </node>
  <node id="-299" visible="true" lat="43.929779349229" lon="-72.889363576179">
    <tag k="addr:city" v="Hancock" />
    <tag k="addr:housenumber" v="250" />
    <tag k="addr:street" v="Fassett Hill Road" />
    <tag k="addr:state" v="VT" />
    <tag k="ref:vcgi:esiteid" v="118605" />
  </node>
  <node id="-300" visible="true" lat="43.912867837429" lon="-72.840757856897">
    <tag k="addr:city" v="Hancock" />
    <tag k="addr:housenumber" v="121" />
    <tag k="addr:street" v="Tunnel Brook Road" />
    <tag k="addr:state" v="VT" />
    <tag k="ref:vcgi:esiteid" v="118606" />
  </node>
  <node id="-301" visible="true" lat="43.928339515651" lon="-72.901342295404">
    <tag k="addr:city" v="Hancock" />
    <tag k="addr:housenumber" v="3142" />
    <tag k="addr:street" v="Vermont Route 125" />
    <tag k="addr:state" v="VT" />
    <tag k="ref:vcgi:esiteid" v="118607" />
  </node>
  <node id="-302" visible="true" lat="43.929598944412" lon="-72.9013699241">
    <tag k="addr:city" v="Hancock" />
    <tag k="addr:housenumber" v="3021" />
    <tag k="addr:street" v="Vermont Route 125" />
    <tag k="addr:state" v="VT" />
    <tag k="ref:vcgi:esiteid" v="118608" />
  </node>
  <node id="-303" visible="true" lat="43.928099081269" lon="-72.905914346855">
    <tag k="addr:city" v="Hancock" />
    <tag k="addr:housenumber" v="3421" />
    <tag k="addr:street" v="Vermont Route 125" />
    <tag k="addr:state" v="VT" />
    <tag k="ref:vcgi:esiteid" v="118609" />
  </node>
  <node id="-304" visible="true" lat="43.92575852101" lon="-72.830414680635">
    <tag k="addr:city" v="Hancock" />
    <tag k="addr:housenumber" v="732" />
    <tag k="addr:street" v="Churchville Road" />
    <tag k="addr:state" v="VT" />
    <tag k="ref:vcgi:esiteid" v="118610" />
  </node>
  <node id="-305" visible="true" lat="43.936034997664" lon="-72.894147812804">
    <tag k="addr:city" v="Hancock" />
    <tag k="addr:housenumber" v="838" />
    <tag k="addr:street" v="Fassett Hill Road" />
    <tag k="addr:state" v="VT" />
    <tag k="ref:vcgi:esiteid" v="118611" />
  </node>
  <node id="-306" visible="true" lat="43.927444352602" lon="-72.88660323589">
    <tag k="addr:city" v="Hancock" />
    <tag k="addr:housenumber" v="2370" />
    <tag k="addr:street" v="Vermont Route 125" />
    <tag k="addr:state" v="VT" />
    <tag k="ref:vcgi:esiteid" v="118612" />
  </node>
  <node id="-307" visible="true" lat="43.926113079173" lon="-72.875252543902">
    <tag k="addr:city" v="Hancock" />
    <tag k="addr:housenumber" v="1628" />
    <tag k="addr:street" v="Vermont Route 125" />
    <tag k="addr:state" v="VT" />
    <tag k="ref:vcgi:esiteid" v="118613" />
  </node>
  <node id="-308" visible="true" lat="43.928356635152" lon="-72.86833947457">
    <tag k="addr:city" v="Hancock" />
    <tag k="addr:housenumber" v="1435" />
    <tag k="addr:street" v="Vermont Route 125" />
    <tag k="addr:state" v="VT" />
    <tag k="ref:vcgi:esiteid" v="118614" />
  </node>
  <node id="-309" visible="true" lat="43.929658058722" lon="-72.844925952164">
    <tag k="addr:city" v="Hancock" />
    <tag k="addr:housenumber" v="321" />
    <tag k="addr:street" v="Blair Hill" />
    <tag k="addr:state" v="VT" />
    <tag k="ref:vcgi:esiteid" v="118615" />
  </node>
  <node id="-310" visible="true" lat="43.931226599428" lon="-72.844744581928">
    <tag k="addr:city" v="Hancock" />
    <tag k="addr:housenumber" v="351" />
    <tag k="addr:street" v="Blair Hill" />
    <tag k="addr:state" v="VT" />
    <tag k="ref:vcgi:esiteid" v="118616" />
  </node>
  <node id="-311" visible="true" lat="43.922374293457" lon="-72.838464219397">
    <tag k="addr:city" v="Hancock" />
    <tag k="addr:housenumber" v="85" />
    <tag k="addr:street" v="Taylor Meadow" />
    <tag k="addr:state" v="VT" />
    <tag k="ref:vcgi:esiteid" v="118617" />
  </node>
  <node id="-312" visible="true" lat="43.922611713233" lon="-72.838512969464">
    <tag k="addr:city" v="Hancock" />
    <tag k="addr:housenumber" v="99" />
    <tag k="addr:street" v="Taylor Meadow" />
    <tag k="addr:state" v="VT" />
    <tag k="ref:vcgi:esiteid" v="118618" />
  </node>
  <node id="-313" visible="true" lat="43.922945027051" lon="-72.838507381935">
    <tag k="addr:city" v="Hancock" />
    <tag k="addr:housenumber" v="121" />
    <tag k="addr:street" v="Taylor Meadow" />
    <tag k="addr:state" v="VT" />
    <tag k="ref:vcgi:esiteid" v="118619" />
  </node>
  <node id="-314" visible="true" lat="43.923160359965" lon="-72.838605026903">
    <tag k="addr:city" v="Hancock" />
    <tag k="addr:housenumber" v="137" />
    <tag k="addr:street" v="Taylor Meadow" />
    <tag k="addr:state" v="VT" />
    <tag k="ref:vcgi:esiteid" v="118620" />
  </node>
  <node id="-315" visible="true" lat="43.923428201233" lon="-72.838628125942">
    <tag k="addr:city" v="Hancock" />
    <tag k="addr:housenumber" v="155" />
    <tag k="addr:street" v="Taylor Meadow" />
    <tag k="addr:state" v="VT" />
    <tag k="ref:vcgi:esiteid" v="118621" />
  </node>
  <node id="-316" visible="true" lat="43.936456384458" lon="-72.843570955845">
    <tag k="addr:city" v="Hancock" />
    <tag k="addr:housenumber" v="1966" />
    <tag k="addr:street" v="Vermont Route 100" />
    <tag k="addr:state" v="VT" />
    <tag k="ref:vcgi:esiteid" v="118622" />
  </node>
  <node id="-317" visible="true" lat="43.937477124549" lon="-72.905135700238">
    <tag k="addr:city" v="Hancock" />
    <tag k="addr:housenumber" v="600" />
    <tag k="addr:street" v="Texas Falls Road" />
    <tag k="addr:state" v="VT" />
    <tag k="ref:vcgi:esiteid" v="118623" />
  </node>
  <node id="-318" visible="true" lat="43.914094694531" lon="-72.837116288757">
    <tag k="addr:city" v="Hancock" />
    <tag k="addr:housenumber" v="253" />
    <tag k="addr:street" v="Vermont Route 100" />
    <tag k="addr:state" v="VT" />
    <tag k="ref:vcgi:esiteid" v="118624" />
  </node>
  <node id="-319" visible="true" lat="43.943948791924" lon="-72.842071455">
    <tag k="addr:city" v="Hancock" />
    <tag k="addr:housenumber" v="2370" />
    <tag k="addr:street" v="Vermont Route 100" />
    <tag k="addr:state" v="VT" />
    <tag k="ref:vcgi:esiteid" v="118625" />
  </node>
  <node id="-320" visible="true" lat="43.877822248391" lon="-72.856968209192">
    <tag k="addr:city" v="Rochester" />
    <tag k="addr:housenumber" v="2325" />
    <tag k="addr:street" v="Maple Hill" />
    <tag k="addr:state" v="VT" />
    <tag k="ref:vcgi:esiteid" v="202969" />
  </node>
  <node id="-321" visible="true" lat="43.927085139766" lon="-72.909721993052">
    <tag k="addr:city" v="Hancock" />
    <tag k="addr:housenumber" v="3588" />
    <tag k="addr:street" v="Vermont Route 125" />
    <tag k="addr:state" v="VT" />
    <tag k="ref:vcgi:esiteid" v="306914" />
  </node>
  <node id="-322" visible="true" lat="43.918146052505" lon="-72.837873619727">
    <tag k="addr:city" v="Hancock" />
    <tag k="addr:housenumber" v="58" />
    <tag k="addr:street" v="Bettis Road" />
    <tag k="addr:state" v="VT" />
    <tag k="ref:vcgi:esiteid" v="306915" />
  </node>
  <node id="-323" visible="true" lat="43.917325758011" lon="-72.840520758048">
    <tag k="addr:city" v="Hancock" />
    <tag k="addr:housenumber" v="589" />
    <tag k="addr:street" v="Vermont Route 100" />
    <tag k="addr:state" v="VT" />
    <tag k="ref:vcgi:esiteid" v="315999" />
  </node>
  <node id="-324" visible="true" lat="43.914393753721" lon="-72.835000705257">
    <tag k="addr:city" v="Hancock" />
    <tag k="addr:housenumber" v="360" />
    <tag k="addr:street" v="Bettis Road" />
    <tag k="addr:state" v="VT" />
    <tag k="ref:vcgi:esiteid" v="316000" />
  </node>
  <node id="-325" visible="true" lat="43.876513896252" lon="-72.860852711525">
    <tag k="addr:city" v="Rochester" />
    <tag k="addr:housenumber" v="2303" />
    <tag k="addr:street" v="Maple Hill" />
    <tag k="addr:state" v="VT" />
    <tag k="ref:vcgi:esiteid" v="316001" />
  </node>
  <node id="-327" visible="true" lat="43.93435021115" lon="-72.894133273318">
    <tag k="addr:city" v="Hancock" />
    <tag k="addr:housenumber" v="788" />
    <tag k="addr:street" v="Fassett Hill Road" />
    <tag k="addr:state" v="VT" />
    <tag k="ref:vcgi:esiteid" v="329211" />
  </node>
  <node id="-328" visible="true" lat="43.931517179146" lon="-72.870321089922">
    <tag k="addr:city" v="Hancock" />
    <tag k="addr:housenumber" v="309" />
    <tag k="addr:street" v="Shampeny Hill Road" />
    <tag k="addr:state" v="VT" />
    <tag k="ref:vcgi:esiteid" v="329212" />
  </node>
  <node id="-329" visible="true" lat="43.922718020227" lon="-72.839328563146">
    <tag k="addr:city" v="Hancock" />
    <tag k="addr:housenumber" v="50" />
    <tag k="addr:street" v="Taylor Meadow" />
    <tag k="addr:state" v="VT" />
    <tag k="ref:vcgi:esiteid" v="336542" />
  </node>
  <node id="-332" visible="true" lat="43.913044227046" lon="-72.859177876232">
    <tag k="addr:city" v="Hancock" />
    <tag k="addr:housenumber" v="223" />
    <tag k="addr:street" v="Tunnel Brook Road" />
    <tag k="addr:state" v="VT" />
    <tag k="ref:vcgi:esiteid" v="341419" />
  </node>
  <node id="-334" visible="true" lat="43.940269306251" lon="-72.893575304111">
    <tag k="addr:city" v="Hancock" />
    <tag k="addr:housenumber" v="1141" />
    <tag k="addr:street" v="Fassett Hill Road" />
    <tag k="addr:state" v="VT" />
    <tag k="ref:vcgi:esiteid" v="344100" />
  </node>
  <node id="-335" visible="true" lat="43.936813042438" lon="-72.950140074768">
    <tag k="addr:city" v="Hancock" />
    <tag k="addr:housenumber" v="6148" />
    <tag k="addr:street" v="Vermont Route 125" />
    <tag k="addr:state" v="VT" />
    <tag k="ref:vcgi:esiteid" v="450388" />
  </node>
  <node id="-336" visible="true" lat="43.941469221247" lon="-72.957842482299">
    <tag k="addr:city" v="Hancock" />
    <tag k="addr:housenumber" v="6695" />
    <tag k="addr:street" v="Vermont Route 125" />
    <tag k="addr:state" v="VT" />
    <tag k="ref:vcgi:esiteid" v="450390" />
  </node>
  <node id="-337" visible="true" lat="43.971049678388" lon="-72.944305404966">
    <tag k="addr:city" v="Hancock" />
    <tag k="addr:housenumber" v="1074" />
    <tag k="addr:street" v="Steam Mill Road" />
    <tag k="addr:state" v="VT" />
    <tag k="ref:vcgi:esiteid" v="450394" />
  </node>
  <node id="-338" visible="true" lat="43.927783367575" lon="-72.901654857299">
    <tag k="addr:city" v="Hancock" />
    <tag k="addr:housenumber" v="39" />
    <tag k="addr:street" v="Boyden Brook Road" />
    <tag k="addr:state" v="VT" />
    <tag k="ref:vcgi:esiteid" v="450405" />
  </node>
  <node id="-339" visible="true" lat="43.935405028257" lon="-72.90192172683">
    <tag k="addr:city" v="Hancock" />
    <tag k="addr:housenumber" v="471" />
    <tag k="addr:street" v="Texas Falls Road" />
    <tag k="addr:state" v="VT" />
    <tag k="ref:vcgi:esiteid" v="450407" />
  </node>
  <node id="-340" visible="true" lat="43.935612543999" lon="-72.84211651297">
    <tag k="addr:city" v="Hancock" />
    <tag k="addr:housenumber" v="1863" />
    <tag k="addr:street" v="Vermont Route 100" />
    <tag k="addr:state" v="VT" />
    <tag k="ref:vcgi:esiteid" v="450409" />
  </node>
  <node id="-341" visible="true" lat="43.902562699657" lon="-72.984100569979">
    <tag k="addr:city" v="Ripton" />
    <tag k="addr:housenumber" v="3770" />
    <tag k="addr:street" v="Brooks Road" />
    <tag k="addr:state" v="VT" />
    <tag k="ref:vcgi:esiteid" v="450411" />
  </node>
  <node id="-342" visible="true" lat="43.883577823245" lon="-72.935138226436">
    <tag k="addr:city" v="Rochester" />
    <tag k="addr:housenumber" v="166" />
    <tag k="addr:street" v="Bingo Road" />
    <tag k="addr:state" v="VT" />
    <tag k="ref:vcgi:esiteid" v="451288" />
  </node>
  <node id="-343" visible="true" lat="43.884862314431" lon="-72.938864354078">
    <tag k="addr:city" v="Rochester" />
    <tag k="addr:housenumber" v="379" />
    <tag k="addr:street" v="Bingo Road" />
    <tag k="addr:state" v="VT" />
    <tag k="ref:vcgi:esiteid" v="451289" />
  </node>
  <node id="-344" visible="true" lat="43.886245250358" lon="-72.942503200073">
    <tag k="addr:city" v="Rochester" />
    <tag k="addr:housenumber" v="592" />
    <tag k="addr:street" v="Bingo Road" />
    <tag k="addr:state" v="VT" />
    <tag k="ref:vcgi:esiteid" v="451290" />
  </node>
  <node id="-345" visible="true" lat="43.884712016041" lon="-72.937766345577">
    <tag k="addr:city" v="Rochester" />
    <tag k="addr:housenumber" v="16" />
    <tag k="addr:street" v="National Forest Road 42E" />
    <tag k="addr:state" v="VT" />
    <tag k="ref:vcgi:esiteid" v="451291" />
  </node>
  <node id="-346" visible="true" lat="43.911292214656" lon="-72.840237756418">
    <tag k="addr:city" v="Hancock" />
    <tag k="addr:housenumber" v="222" />
    <tag k="addr:street" v="Tunnel Brook Road" />
    <tag k="addr:state" v="VT" />
    <tag k="ref:vcgi:esiteid" v="655495" />
  </node>
  <node id="-348" visible="true" lat="43.927852863273" lon="-72.883387244723">
    <tag k="addr:city" v="Hancock" />
    <tag k="addr:housenumber" v="2233" />
    <tag k="addr:street" v="Vermont Route 125" />
    <tag k="addr:state" v="VT" />
    <tag k="ref:vcgi:esiteid" v="760981" />
  </node>
  <node id="-349" visible="true" lat="43.927988685711" lon="-72.961763147489">
    <tag k="addr:city" v="Hancock" />
    <tag k="addr:housenumber" v="6888" />
    <tag k="addr:street" v="Vermont Route 125" />
    <tag k="addr:state" v="VT" />
    <tag k="ref:vcgi:esiteid" v="761965" />
  </node>
  <node id="-350" visible="true" lat="43.924384606965" lon="-72.8712825858">
    <tag k="addr:city" v="Hancock" />
    <tag k="addr:housenumber" v="360" />
    <tag k="addr:street" v="Treehouse Place" />
    <tag k="addr:state" v="VT" />
    <tag k="ref:vcgi:esiteid" v="766240" />
  </node>
  <node id="-351" visible="true" lat="43.92547904948" lon="-72.873773664669">
    <tag k="addr:city" v="Hancock" />
    <tag k="addr:housenumber" v="133" />
    <tag k="addr:street" v="Treehouse Place" />
    <tag k="addr:state" v="VT" />
    <tag k="ref:vcgi:esiteid" v="766241" />
  </node>
  <node id="-352" visible="true" lat="43.925341129754" lon="-72.869887290367">
    <tag k="addr:city" v="Hancock" />
    <tag k="addr:housenumber" v="242" />
    <tag k="addr:street" v="Treehouse Place" />
    <tag k="addr:state" v="VT" />
    <tag k="ref:vcgi:esiteid" v="767572" />
  </node>
  <node id="-353" visible="true" lat="43.925616006693" lon="-72.870743466847">
    <tag k="addr:city" v="Hancock" />
    <tag k="addr:housenumber" v="222" />
    <tag k="addr:street" v="Treehouse Place" />
    <tag k="addr:state" v="VT" />
    <tag k="ref:vcgi:esiteid" v="767656" />
  </node>
  <node id="-354" visible="true" lat="43.924975171428" lon="-72.870087123803">
    <tag k="addr:city" v="Hancock" />
    <tag k="addr:housenumber" v="278" />
    <tag k="addr:street" v="Treehouse Place" />
    <tag k="addr:state" v="VT" />
    <tag k="ref:vcgi:esiteid" v="767657" />
  </node>
  <node id="-355" visible="true" lat="43.923805803951" lon="-72.870731177173">
    <tag k="addr:city" v="Hancock" />
    <tag k="addr:housenumber" v="420" />
    <tag k="addr:street" v="Treehouse Place" />
    <tag k="addr:state" v="VT" />
    <tag k="ref:vcgi:esiteid" v="767658" />
  </node>
  <node id="-356" visible="true" lat="43.925324242719" lon="-72.871957324129">
    <tag k="addr:city" v="Hancock" />
    <tag k="addr:housenumber" v="233" />
    <tag k="addr:street" v="Treehouse Place" />
    <tag k="addr:state" v="VT" />
    <tag k="ref:vcgi:esiteid" v="768182" />
  </node>
  <node id="-357" visible="true" lat="43.910262198399" lon="-72.838516392203">
    <tag k="addr:city" v="Hancock" />
    <tag k="addr:housenumber" v="244" />
    <tag k="addr:street" v="Tunnel Brook Road" />
    <tag k="addr:state" v="VT" />
    <tag k="ref:vcgi:esiteid" v="769652" />
  </node>
  <node id="-358" visible="true" lat="43.939690188317" lon="-72.957700770653">
    <tag k="addr:city" v="Hancock" />
    <tag k="addr:housenumber" v="6880" />
    <tag k="addr:street" v="Vermont Route 125" />
    <tag k="addr:state" v="VT" />
    <tag k="ref:vcgi:esiteid" v="1050405" />
  </node>
  <node id="-359" visible="true" lat="43.913338901589" lon="-72.836831275244">
    <tag k="addr:city" v="Hancock" />
    <tag k="addr:housenumber" v="218" />
    <tag k="addr:street" v="Vermont Route 100" />
    <tag k="addr:state" v="VT" />
    <tag k="ref:vcgi:esiteid" v="1050438" />
  </node>
  <node id="-360" visible="true" lat="43.920178901955" lon="-72.839501275856">
    <tag k="addr:city" v="Hancock" />
    <tag k="addr:housenumber" v="783" />
    <tag k="addr:street" v="Vermont Route 100" />
    <tag k="addr:state" v="VT" />
    <tag k="ref:vcgi:esiteid" v="1050439" />
  </node>
  <node id="-361" visible="true" lat="43.926207619462" lon="-72.841087089709">
    <tag k="addr:city" v="Hancock" />
    <tag k="addr:housenumber" v="1205" />
    <tag k="addr:street" v="Vermont Route 100" />
    <tag k="addr:state" v="VT" />
    <tag k="ref:vcgi:esiteid" v="1050440" />
  </node>
  <node id="-362" visible="true" lat="43.924534426328" lon="-72.840048729718">
    <tag k="addr:city" v="Hancock" />
    <tag k="addr:housenumber" v="1083" />
    <tag k="addr:street" v="Vermont Route 100" />
    <tag k="addr:state" v="VT" />
    <tag k="ref:vcgi:esiteid" v="1050441" />
  </node>
  <node id="-364" visible="true" lat="43.935626957563" lon="-72.820025379889">
    <tag k="addr:city" v="Rochester" />
    <tag k="addr:housenumber" v="950" />
    <tag k="addr:street" v="Buttles Road" />
    <tag k="addr:state" v="VT" />
    <tag k="ref:vcgi:esiteid" v="1051475" />
  </node>
  <node id="-365" visible="true" lat="43.935807863925" lon="-72.819711972632">
    <tag k="addr:city" v="Rochester" />
    <tag k="addr:housenumber" v="964" />
    <tag k="addr:street" v="Buttles Road" />
    <tag k="addr:state" v="VT" />
    <tag k="ref:vcgi:esiteid" v="1051476" />
  </node>
  <node id="-369" visible="true" lat="43.90872326374" lon="-72.857514770568">
    <tag k="addr:city" v="Hancock" />
    <tag k="addr:housenumber" v="221" />
    <tag k="addr:street" v="Tunnel Brook Road" />
    <tag k="addr:state" v="VT" />
    <tag k="ref:vcgi:esiteid" v="1051594" />
  </node>
  <node id="-372" visible="true" lat="43.875254516076" lon="-72.856719726266">
    <tag k="addr:city" v="Rochester" />
    <tag k="addr:housenumber" v="2377" />
    <tag k="addr:street" v="Maple Hill" />
    <tag k="addr:state" v="VT" />
    <tag k="ref:vcgi:esiteid" v="1051724" />
  </node>
  <node id="-375" visible="true" lat="43.944242342852" lon="-72.894185294032">
    <tag k="addr:city" v="Hancock" />
    <tag k="addr:housenumber" v="1431" />
    <tag k="addr:street" v="Fassett Hill Road" />
    <tag k="addr:state" v="VT" />
    <tag k="ref:vcgi:esiteid" v="1052549" />
  </node>
</osm>
