<?xml version="1.0" encoding="UTF-8"?>
<osm version="0.6" generator="JOSM" upload="false">
  <node id="-100" visible="true" lat="44.923982944322" lon="-71.543857295329">
    <tag k="addr:city" v="Canaan" />
    <tag k="addr:housenumber" v="214" />
    <tag k="addr:street" v="Lewis Lane" />
    <tag k="addr:state" v="VT" />
    <tag k="ref:vcgi:esiteid" v="59207" />
  </node>
  <node id="-101" visible="true" lat="44.923088998577" lon="-71.54174897154">
    <tag k="addr:city" v="Canaan" />
    <tag k="addr:housenumber" v="312" />
    <tag k="addr:street" v="Lewis Lane" />
    <tag k="addr:state" v="VT" />
    <tag k="ref:vcgi:esiteid" v="59208" />
  </node>
  <node id="-102" visible="true" lat="44.923605328952" lon="-71.548105444091">
    <tag k="addr:city" v="Canaan" />
    <tag k="addr:housenumber" v="145" />
    <tag k="addr:street" v="Todd Hill Road" />
    <tag k="addr:state" v="VT" />
    <tag k="ref:vcgi:esiteid" v="140006" />
  </node>
  <node id="-103" visible="true" lat="44.923873142558" lon="-71.579625685967">
    <tag k="addr:city" v="Canaan" />
    <tag k="addr:housenumber" v="1952" />
    <tag k="addr:street" v="Todd Hill Road" />
    <tag k="addr:state" v="VT" />
    <tag k="ref:vcgi:esiteid" v="140007" />
  </node>
  <node id="-104" visible="true" lat="44.9225899655" lon="-71.554993166339">
    <tag k="addr:city" v="Canaan" />
    <tag k="addr:housenumber" v="501" />
    <tag k="addr:street" v="Todd Hill Road" />
    <tag k="addr:state" v="VT" />
    <tag k="ref:vcgi:esiteid" v="140008" />
  </node>
  <node id="-105" visible="true" lat="44.922622891692" lon="-71.55829608405">
    <tag k="addr:city" v="Canaan" />
    <tag k="addr:housenumber" v="654" />
    <tag k="addr:street" v="Todd Hill Road" />
    <tag k="addr:state" v="VT" />
    <tag k="ref:vcgi:esiteid" v="140009" />
  </node>
  <node id="-106" visible="true" lat="44.921553244427" lon="-71.558276685925">
    <tag k="addr:city" v="Canaan" />
    <tag k="addr:housenumber" v="685" />
    <tag k="addr:street" v="Todd Hill Road" />
    <tag k="addr:state" v="VT" />
    <tag k="ref:vcgi:esiteid" v="140010" />
  </node>
  <node id="-107" visible="true" lat="44.920936268906" lon="-71.564973495019">
    <tag k="addr:city" v="Canaan" />
    <tag k="addr:housenumber" v="986" />
    <tag k="addr:street" v="Todd Hill Road" />
    <tag k="addr:state" v="VT" />
    <tag k="ref:vcgi:esiteid" v="140011" />
  </node>
  <node id="-108" visible="true" lat="44.921020732909" lon="-71.559617935949">
    <tag k="addr:city" v="Canaan" />
    <tag k="addr:housenumber" v="755" />
    <tag k="addr:street" v="Todd Hill Road" />
    <tag k="addr:state" v="VT" />
    <tag k="ref:vcgi:esiteid" v="140012" />
  </node>
  <node id="-109" visible="true" lat="44.920752381752" lon="-71.56010153257">
    <tag k="addr:city" v="Canaan" />
    <tag k="addr:housenumber" v="797" />
    <tag k="addr:street" v="Todd Hill Road" />
    <tag k="addr:state" v="VT" />
    <tag k="ref:vcgi:esiteid" v="140013" />
  </node>
  <node id="-110" visible="true" lat="44.909828120621" lon="-71.505297837469">
    <tag k="addr:city" v="Guildhall" />
    <tag k="addr:housenumber" v="7218" />
    <tag k="addr:street" v="Vermont Route 102" />
    <tag k="addr:state" v="VT" />
    <tag k="ref:vcgi:esiteid" v="140014" />
  </node>
  <node id="-111" visible="true" lat="44.909438572874" lon="-71.50595631581">
    <tag k="addr:city" v="Guildhall" />
    <tag k="addr:housenumber" v="7217" />
    <tag k="addr:street" v="Vermont Route 102" />
    <tag k="addr:state" v="VT" />
    <tag k="ref:vcgi:esiteid" v="140015" />
  </node>
  <node id="-112" visible="true" lat="44.909322779212" lon="-71.504891998219">
    <tag k="addr:city" v="Guildhall" />
    <tag k="addr:housenumber" v="7182" />
    <tag k="addr:street" v="Vermont Route 102" />
    <tag k="addr:state" v="VT" />
    <tag k="ref:vcgi:esiteid" v="140016" />
  </node>
  <node id="-113" visible="true" lat="44.909343995087" lon="-71.503930984541">
    <tag k="addr:city" v="Guildhall" />
    <tag k="addr:housenumber" v="7168" />
    <tag k="addr:street" v="Vermont Route 102" />
    <tag k="addr:state" v="VT" />
    <tag k="ref:vcgi:esiteid" v="140017" />
  </node>
  <node id="-114" visible="true" lat="44.908885365759" lon="-71.505548632028">
    <tag k="addr:city" v="Guildhall" />
    <tag k="addr:housenumber" v="7181" />
    <tag k="addr:street" v="Vermont Route 102" />
    <tag k="addr:state" v="VT" />
    <tag k="ref:vcgi:esiteid" v="140018" />
  </node>
  <node id="-115" visible="true" lat="44.908622748185" lon="-71.505337785883">
    <tag k="addr:city" v="Guildhall" />
    <tag k="addr:housenumber" v="7153" />
    <tag k="addr:street" v="Vermont Route 102" />
    <tag k="addr:state" v="VT" />
    <tag k="ref:vcgi:esiteid" v="140019" />
  </node>
  <node id="-116" visible="true" lat="44.908299989927" lon="-71.505099718968">
    <tag k="addr:city" v="Guildhall" />
    <tag k="addr:housenumber" v="7119" />
    <tag k="addr:street" v="Vermont Route 102" />
    <tag k="addr:state" v="VT" />
    <tag k="ref:vcgi:esiteid" v="140020" />
  </node>
  <node id="-117" visible="true" lat="44.908054373444" lon="-71.504072328685">
    <tag k="addr:city" v="Guildhall" />
    <tag k="addr:housenumber" v="7098" />
    <tag k="addr:street" v="Vermont Route 102" />
    <tag k="addr:state" v="VT" />
    <tag k="ref:vcgi:esiteid" v="140021" />
  </node>
  <node id="-118" visible="true" lat="44.907846602865" lon="-71.505190592213">
    <tag k="addr:city" v="Guildhall" />
    <tag k="addr:housenumber" v="7089" />
    <tag k="addr:street" v="Vermont Route 102" />
    <tag k="addr:state" v="VT" />
    <tag k="ref:vcgi:esiteid" v="140022" />
  </node>
  <node id="-119" visible="true" lat="44.907513742954" lon="-71.504557668933">
    <tag k="addr:city" v="Guildhall" />
    <tag k="addr:housenumber" v="7061" />
    <tag k="addr:street" v="Vermont Route 102" />
    <tag k="addr:state" v="VT" />
    <tag k="ref:vcgi:esiteid" v="140023" />
  </node>
  <node id="-120" visible="true" lat="44.907206236227" lon="-71.504350389225">
    <tag k="addr:city" v="Guildhall" />
    <tag k="addr:housenumber" v="7047" />
    <tag k="addr:street" v="Vermont Route 102" />
    <tag k="addr:state" v="VT" />
    <tag k="ref:vcgi:esiteid" v="140024" />
  </node>
  <node id="-121" visible="true" lat="44.906818736628" lon="-71.503413779838">
    <tag k="addr:city" v="Guildhall" />
    <tag k="addr:housenumber" v="6998" />
    <tag k="addr:street" v="Vermont Route 102" />
    <tag k="addr:state" v="VT" />
    <tag k="ref:vcgi:esiteid" v="140025" />
  </node>
  <node id="-122" visible="true" lat="44.906686680938" lon="-71.50404583239">
    <tag k="addr:city" v="Guildhall" />
    <tag k="addr:housenumber" v="6997" />
    <tag k="addr:street" v="Vermont Route 102" />
    <tag k="addr:state" v="VT" />
    <tag k="ref:vcgi:esiteid" v="140026" />
  </node>
  <node id="-123" visible="true" lat="44.906154686376" lon="-71.503645629758">
    <tag k="addr:city" v="Guildhall" />
    <tag k="addr:housenumber" v="6951" />
    <tag k="addr:street" v="Vermont Route 102" />
    <tag k="addr:state" v="VT" />
    <tag k="ref:vcgi:esiteid" v="140027" />
  </node>
  <node id="-124" visible="true" lat="44.904742933172" lon="-71.501516237239">
    <tag k="addr:city" v="Guildhall" />
    <tag k="addr:housenumber" v="6822" />
    <tag k="addr:street" v="Vermont Route 102" />
    <tag k="addr:state" v="VT" />
    <tag k="ref:vcgi:esiteid" v="140028" />
  </node>
  <node id="-125" visible="true" lat="44.904407407184" lon="-71.502080937526">
    <tag k="addr:city" v="Guildhall" />
    <tag k="addr:housenumber" v="28" />
    <tag k="addr:street" v="Covell Road" />
    <tag k="addr:state" v="VT" />
    <tag k="ref:vcgi:esiteid" v="140029" />
  </node>
  <node id="-126" visible="true" lat="44.904125817282" lon="-71.503118691451">
    <tag k="addr:city" v="Guildhall" />
    <tag k="addr:housenumber" v="64" />
    <tag k="addr:street" v="Covell Road" />
    <tag k="addr:state" v="VT" />
    <tag k="ref:vcgi:esiteid" v="140030" />
  </node>
  <node id="-127" visible="true" lat="44.903119296857" lon="-71.50290020202">
    <tag k="addr:city" v="Guildhall" />
    <tag k="addr:housenumber" v="135" />
    <tag k="addr:street" v="Covell Road" />
    <tag k="addr:state" v="VT" />
    <tag k="ref:vcgi:esiteid" v="140031" />
  </node>
  <node id="-128" visible="true" lat="44.901972628574" lon="-71.505296845124">
    <tag k="addr:city" v="Guildhall" />
    <tag k="addr:housenumber" v="6489" />
    <tag k="addr:street" v="Vermont Route 102" />
    <tag k="addr:state" v="VT" />
    <tag k="ref:vcgi:esiteid" v="140032" />
  </node>
  <node id="-129" visible="true" lat="44.900675396046" lon="-71.51469756072">
    <tag k="addr:city" v="Guildhall" />
    <tag k="addr:housenumber" v="405" />
    <tag k="addr:street" v="Fire Tower Lane" />
    <tag k="addr:state" v="VT" />
    <tag k="ref:vcgi:esiteid" v="140033" />
  </node>
  <node id="-130" visible="true" lat="44.900342439198" lon="-71.507787922567">
    <tag k="addr:city" v="Guildhall" />
    <tag k="addr:housenumber" v="6403" />
    <tag k="addr:street" v="Vermont Route 102" />
    <tag k="addr:state" v="VT" />
    <tag k="ref:vcgi:esiteid" v="140034" />
  </node>
  <node id="-131" visible="true" lat="44.899923658645" lon="-71.508243546486">
    <tag k="addr:city" v="Guildhall" />
    <tag k="addr:housenumber" v="6349" />
    <tag k="addr:street" v="Vermont Route 102" />
    <tag k="addr:state" v="VT" />
    <tag k="ref:vcgi:esiteid" v="140035" />
  </node>
  <node id="-132" visible="true" lat="44.899691740976" lon="-71.508274255171">
    <tag k="addr:city" v="Guildhall" />
    <tag k="addr:housenumber" v="6333" />
    <tag k="addr:street" v="Vermont Route 102" />
    <tag k="addr:state" v="VT" />
    <tag k="ref:vcgi:esiteid" v="140036" />
  </node>
  <node id="-133" visible="true" lat="44.899324590302" lon="-71.508529136379">
    <tag k="addr:city" v="Guildhall" />
    <tag k="addr:housenumber" v="6311" />
    <tag k="addr:street" v="Vermont Route 102" />
    <tag k="addr:state" v="VT" />
    <tag k="ref:vcgi:esiteid" v="140037" />
  </node>
  <node id="-134" visible="true" lat="44.899128839829" lon="-71.508636054381">
    <tag k="addr:city" v="Guildhall" />
    <tag k="addr:housenumber" v="6309" />
    <tag k="addr:street" v="Vermont Route 102" />
    <tag k="addr:state" v="VT" />
    <tag k="ref:vcgi:esiteid" v="140038" />
  </node>
  <node id="-135" visible="true" lat="44.898820321302" lon="-71.508787509837">
    <tag k="addr:city" v="Guildhall" />
    <tag k="addr:housenumber" v="6291" />
    <tag k="addr:street" v="Vermont Route 102" />
    <tag k="addr:state" v="VT" />
    <tag k="ref:vcgi:esiteid" v="140039" />
  </node>
  <node id="-136" visible="true" lat="44.898588756198" lon="-71.509257799011">
    <tag k="addr:city" v="Guildhall" />
    <tag k="addr:housenumber" v="6255" />
    <tag k="addr:street" v="Vermont Route 102" />
    <tag k="addr:state" v="VT" />
    <tag k="ref:vcgi:esiteid" v="140040" />
  </node>
  <node id="-137" visible="true" lat="44.898324208243" lon="-71.509552178017">
    <tag k="addr:city" v="Guildhall" />
    <tag k="addr:housenumber" v="6225" />
    <tag k="addr:street" v="Vermont Route 102" />
    <tag k="addr:state" v="VT" />
    <tag k="ref:vcgi:esiteid" v="140041" />
  </node>
  <node id="-138" visible="true" lat="44.897508674971" lon="-71.509282817645">
    <tag k="addr:city" v="Guildhall" />
    <tag k="addr:housenumber" v="6192" />
    <tag k="addr:street" v="Vermont Route 102" />
    <tag k="addr:state" v="VT" />
    <tag k="ref:vcgi:esiteid" v="140042" />
  </node>
  <node id="-139" visible="true" lat="44.897631906946" lon="-71.509788564096">
    <tag k="addr:city" v="Guildhall" />
    <tag k="addr:housenumber" v="6175" />
    <tag k="addr:street" v="Vermont Route 102" />
    <tag k="addr:state" v="VT" />
    <tag k="ref:vcgi:esiteid" v="140043" />
  </node>
  <node id="-140" visible="true" lat="44.893115631087" lon="-71.515582817327">
    <tag k="addr:city" v="Guildhall" />
    <tag k="addr:housenumber" v="5682" />
    <tag k="addr:street" v="Vermont Route 102" />
    <tag k="addr:state" v="VT" />
    <tag k="ref:vcgi:esiteid" v="140045" />
  </node>
  <node id="-141" visible="true" lat="44.888659109429" lon="-71.601314139849">
    <tag k="addr:city" v="Canaan" />
    <tag k="addr:housenumber" v="497" />
    <tag k="addr:street" v="Mill Road" />
    <tag k="addr:state" v="VT" />
    <tag k="ref:vcgi:esiteid" v="140046" />
  </node>
  <node id="-142" visible="true" lat="44.879339796556" lon="-71.554988427115">
    <tag k="addr:city" v="Canaan" />
    <tag k="addr:housenumber" v="1032" />
    <tag k="addr:street" v="Mill Road" />
    <tag k="addr:state" v="VT" />
    <tag k="ref:vcgi:esiteid" v="140047" />
  </node>
  <node id="-143" visible="true" lat="44.877183154876" lon="-71.559312821566">
    <tag k="addr:city" v="Canaan" />
    <tag k="addr:housenumber" v="928" />
    <tag k="addr:street" v="Mill Road" />
    <tag k="addr:state" v="VT" />
    <tag k="ref:vcgi:esiteid" v="140048" />
  </node>
  <node id="-144" visible="true" lat="44.875662432778" lon="-71.587054794917">
    <tag k="addr:city" v="Canaan" />
    <tag k="addr:housenumber" v="885" />
    <tag k="addr:street" v="Wallace Road" />
    <tag k="addr:state" v="VT" />
    <tag k="ref:vcgi:esiteid" v="140049" />
  </node>
  <node id="-145" visible="true" lat="44.874189950084" lon="-71.530864267126">
    <tag k="addr:city" v="Guildhall" />
    <tag k="addr:housenumber" v="4157" />
    <tag k="addr:street" v="Vermont Route 102" />
    <tag k="addr:state" v="VT" />
    <tag k="ref:vcgi:esiteid" v="140050" />
  </node>
  <node id="-146" visible="true" lat="44.872873884793" lon="-71.561214019756">
    <tag k="addr:city" v="Canaan" />
    <tag k="addr:housenumber" v="593" />
    <tag k="addr:street" v="Mill Road" />
    <tag k="addr:state" v="VT" />
    <tag k="ref:vcgi:esiteid" v="140051" />
  </node>
  <node id="-147" visible="true" lat="44.872194874679" lon="-71.599444941551">
    <tag k="addr:city" v="Canaan" />
    <tag k="addr:housenumber" v="655" />
    <tag k="addr:street" v="Frizzell Road" />
    <tag k="addr:state" v="VT" />
    <tag k="ref:vcgi:esiteid" v="140052" />
  </node>
  <node id="-148" visible="true" lat="44.871759992452" lon="-71.562083771258">
    <tag k="addr:city" v="Canaan" />
    <tag k="addr:housenumber" v="495" />
    <tag k="addr:street" v="Mill Road" />
    <tag k="addr:state" v="VT" />
    <tag k="ref:vcgi:esiteid" v="140053" />
  </node>
  <node id="-149" visible="true" lat="44.871653184134" lon="-71.584857529071">
    <tag k="addr:city" v="Canaan" />
    <tag k="addr:housenumber" v="586" />
    <tag k="addr:street" v="Wallace Road" />
    <tag k="addr:state" v="VT" />
    <tag k="ref:vcgi:esiteid" v="140054" />
  </node>
  <node id="-150" visible="true" lat="44.869095169543" lon="-71.537155944755">
    <tag k="addr:city" v="Guildhall" />
    <tag k="addr:housenumber" v="3650" />
    <tag k="addr:street" v="Vermont Route 102" />
    <tag k="addr:state" v="VT" />
    <tag k="ref:vcgi:esiteid" v="140055" />
  </node>
  <node id="-151" visible="true" lat="44.867807965958" lon="-71.562099031353">
    <tag k="addr:city" v="Canaan" />
    <tag k="addr:housenumber" v="190" />
    <tag k="addr:street" v="Mill Road" />
    <tag k="addr:state" v="VT" />
    <tag k="ref:vcgi:esiteid" v="140056" />
  </node>
  <node id="-152" visible="true" lat="44.866907694665" lon="-71.545108359123">
    <tag k="addr:city" v="Guildhall" />
    <tag k="addr:housenumber" v="3231" />
    <tag k="addr:street" v="Vermont Route 102" />
    <tag k="addr:state" v="VT" />
    <tag k="ref:vcgi:esiteid" v="140057" />
  </node>
  <node id="-153" visible="true" lat="44.867217448814" lon="-71.564734778633">
    <tag k="addr:city" v="Canaan" />
    <tag k="addr:housenumber" v="998" />
    <tag k="addr:street" v="Sims Hill Road" />
    <tag k="addr:state" v="VT" />
    <tag k="ref:vcgi:esiteid" v="140058" />
  </node>
  <node id="-154" visible="true" lat="44.866125681639" lon="-71.547732872192">
    <tag k="addr:city" v="Guildhall" />
    <tag k="addr:housenumber" v="3079" />
    <tag k="addr:street" v="Vermont Route 102" />
    <tag k="addr:state" v="VT" />
    <tag k="ref:vcgi:esiteid" v="140059" />
  </node>
  <node id="-155" visible="true" lat="44.866204384149" lon="-71.6004479026">
    <tag k="addr:city" v="Canaan" />
    <tag k="addr:housenumber" v="3122" />
    <tag k="addr:street" v="Sims Hill Road" />
    <tag k="addr:state" v="VT" />
    <tag k="ref:vcgi:esiteid" v="140060" />
  </node>
  <node id="-156" visible="true" lat="44.86613713129" lon="-71.582095688115">
    <tag k="addr:city" v="Canaan" />
    <tag k="addr:housenumber" v="167" />
    <tag k="addr:street" v="Wallace Road" />
    <tag k="addr:state" v="VT" />
    <tag k="ref:vcgi:esiteid" v="140061" />
  </node>
  <node id="-157" visible="true" lat="44.865618329592" lon="-71.563258700955">
    <tag k="addr:city" v="Canaan" />
    <tag k="addr:housenumber" v="902" />
    <tag k="addr:street" v="Sims Hill Road" />
    <tag k="addr:state" v="VT" />
    <tag k="ref:vcgi:esiteid" v="140062" />
  </node>
  <node id="-158" visible="true" lat="44.865164377786" lon="-71.547915976387">
    <tag k="addr:city" v="Guildhall" />
    <tag k="addr:housenumber" v="3077" />
    <tag k="addr:street" v="Vermont Route 102" />
    <tag k="addr:state" v="VT" />
    <tag k="ref:vcgi:esiteid" v="140063" />
  </node>
  <node id="-159" visible="true" lat="44.864725203242" lon="-71.600171550726">
    <tag k="addr:city" v="Canaan" />
    <tag k="addr:housenumber" v="3182" />
    <tag k="addr:street" v="Sims Hill Road" />
    <tag k="addr:state" v="VT" />
    <tag k="ref:vcgi:esiteid" v="140064" />
  </node>
  <node id="-160" visible="true" lat="44.864092455515" lon="-71.602008423096">
    <tag k="addr:city" v="Canaan" />
    <tag k="addr:housenumber" v="3264" />
    <tag k="addr:street" v="Sims Hill Road" />
    <tag k="addr:state" v="VT" />
    <tag k="ref:vcgi:esiteid" v="140065" />
  </node>
  <node id="-161" visible="true" lat="44.863161376517" lon="-71.595729020369">
    <tag k="addr:city" v="Canaan" />
    <tag k="addr:housenumber" v="2883" />
    <tag k="addr:street" v="Sims Hill Road" />
    <tag k="addr:state" v="VT" />
    <tag k="ref:vcgi:esiteid" v="140066" />
  </node>
  <node id="-162" visible="true" lat="44.863095252869" lon="-71.600070726815">
    <tag k="addr:city" v="Canaan" />
    <tag k="addr:housenumber" v="3257" />
    <tag k="addr:street" v="Sims Hill Road" />
    <tag k="addr:state" v="VT" />
    <tag k="ref:vcgi:esiteid" v="140067" />
  </node>
  <node id="-163" visible="true" lat="44.86381164494" lon="-71.583675580283">
    <tag k="addr:city" v="Canaan" />
    <tag k="addr:housenumber" v="2032" />
    <tag k="addr:street" v="Sims Hill Road" />
    <tag k="addr:state" v="VT" />
    <tag k="ref:vcgi:esiteid" v="140068" />
  </node>
  <node id="-164" visible="true" lat="44.861784556254" lon="-71.550662564054">
    <tag k="addr:city" v="Guildhall" />
    <tag k="addr:housenumber" v="2779" />
    <tag k="addr:street" v="Vermont Route 102" />
    <tag k="addr:state" v="VT" />
    <tag k="ref:vcgi:esiteid" v="140069" />
  </node>
  <node id="-165" visible="true" lat="44.861151316367" lon="-71.55122713847">
    <tag k="addr:city" v="Guildhall" />
    <tag k="addr:housenumber" v="2731" />
    <tag k="addr:street" v="Vermont Route 102" />
    <tag k="addr:state" v="VT" />
    <tag k="ref:vcgi:esiteid" v="140070" />
  </node>
  <node id="-166" visible="true" lat="44.860857385254" lon="-71.588912200507">
    <tag k="addr:city" v="Canaan" />
    <tag k="addr:housenumber" v="2554" />
    <tag k="addr:street" v="Sims Hill Road" />
    <tag k="addr:state" v="VT" />
    <tag k="ref:vcgi:esiteid" v="140072" />
  </node>
  <node id="-167" visible="true" lat="44.860588719442" lon="-71.590159606926">
    <tag k="addr:city" v="Canaan" />
    <tag k="addr:housenumber" v="2597" />
    <tag k="addr:street" v="Sims Hill Road" />
    <tag k="addr:state" v="VT" />
    <tag k="ref:vcgi:esiteid" v="140073" />
  </node>
  <node id="-168" visible="true" lat="44.860525709768" lon="-71.57915074066">
    <tag k="addr:city" v="Canaan" />
    <tag k="addr:housenumber" v="1641" />
    <tag k="addr:street" v="Sims Hill Road" />
    <tag k="addr:state" v="VT" />
    <tag k="ref:vcgi:esiteid" v="140074" />
  </node>
  <node id="-169" visible="true" lat="44.859743075129" lon="-71.58410717185">
    <tag k="addr:city" v="Canaan" />
    <tag k="addr:housenumber" v="2284" />
    <tag k="addr:street" v="Sims Hill Road" />
    <tag k="addr:state" v="VT" />
    <tag k="ref:vcgi:esiteid" v="140075" />
  </node>
  <node id="-170" visible="true" lat="44.859552964646" lon="-71.601802429364">
    <tag k="addr:city" v="Canaan" />
    <tag k="addr:housenumber" v="279" />
    <tag k="addr:street" v="Graves Lane" />
    <tag k="addr:state" v="VT" />
    <tag k="ref:vcgi:esiteid" v="140076" />
  </node>
  <node id="-171" visible="true" lat="44.858680066372" lon="-71.552076112987">
    <tag k="addr:city" v="Guildhall" />
    <tag k="addr:housenumber" v="2549" />
    <tag k="addr:street" v="Vermont Route 102" />
    <tag k="addr:state" v="VT" />
    <tag k="ref:vcgi:esiteid" v="140077" />
  </node>
  <node id="-172" visible="true" lat="44.857622843341" lon="-71.551271806215">
    <tag k="addr:city" v="Guildhall" />
    <tag k="addr:housenumber" v="29" />
    <tag k="addr:street" v="Sims Hill Road" />
    <tag k="addr:state" v="VT" />
    <tag k="ref:vcgi:esiteid" v="140078" />
  </node>
  <node id="-173" visible="true" lat="44.857797455433" lon="-71.585366118941">
    <tag k="addr:city" v="Canaan" />
    <tag k="addr:housenumber" v="2397" />
    <tag k="addr:street" v="Sims Hill Road" />
    <tag k="addr:state" v="VT" />
    <tag k="ref:vcgi:esiteid" v="140079" />
  </node>
  <node id="-174" visible="true" lat="44.856487364246" lon="-71.55081295158">
    <tag k="addr:city" v="Guildhall" />
    <tag k="addr:housenumber" v="2381" />
    <tag k="addr:street" v="Vermont Route 102" />
    <tag k="addr:state" v="VT" />
    <tag k="ref:vcgi:esiteid" v="140080" />
  </node>
  <node id="-175" visible="true" lat="44.854346199308" lon="-71.551967873409">
    <tag k="addr:city" v="Guildhall" />
    <tag k="addr:housenumber" v="2217" />
    <tag k="addr:street" v="Vermont Route 102" />
    <tag k="addr:state" v="VT" />
    <tag k="ref:vcgi:esiteid" v="140081" />
  </node>
  <node id="-176" visible="true" lat="44.853888031476" lon="-71.553507688033">
    <tag k="addr:city" v="Guildhall" />
    <tag k="addr:housenumber" v="2147" />
    <tag k="addr:street" v="Vermont Route 102" />
    <tag k="addr:state" v="VT" />
    <tag k="ref:vcgi:esiteid" v="140082" />
  </node>
  <node id="-177" visible="true" lat="44.853569894634" lon="-71.556479805203">
    <tag k="addr:city" v="Guildhall" />
    <tag k="addr:housenumber" v="2063" />
    <tag k="addr:street" v="Vermont Route 102" />
    <tag k="addr:state" v="VT" />
    <tag k="ref:vcgi:esiteid" v="140083" />
  </node>
  <node id="-178" visible="true" lat="44.849972942346" lon="-71.556321777889">
    <tag k="addr:city" v="Guildhall" />
    <tag k="addr:housenumber" v="76" />
    <tag k="addr:street" v="Lyman Road" />
    <tag k="addr:state" v="VT" />
    <tag k="ref:vcgi:esiteid" v="140084" />
  </node>
  <node id="-179" visible="true" lat="44.848752307819" lon="-71.558720292162">
    <tag k="addr:city" v="Guildhall" />
    <tag k="addr:housenumber" v="1709" />
    <tag k="addr:street" v="Vermont Route 102" />
    <tag k="addr:state" v="VT" />
    <tag k="ref:vcgi:esiteid" v="140086" />
  </node>
  <node id="-180" visible="true" lat="44.845534862307" lon="-71.558559894545">
    <tag k="addr:city" v="Guildhall" />
    <tag k="addr:housenumber" v="1425" />
    <tag k="addr:street" v="Vermont Route 102" />
    <tag k="addr:state" v="VT" />
    <tag k="ref:vcgi:esiteid" v="140087" />
  </node>
  <node id="-181" visible="true" lat="44.842473293739" lon="-71.55610866742">
    <tag k="addr:city" v="Guildhall" />
    <tag k="addr:housenumber" v="1264" />
    <tag k="addr:street" v="Vermont Route 102" />
    <tag k="addr:state" v="VT" />
    <tag k="ref:vcgi:esiteid" v="140088" />
  </node>
  <node id="-182" visible="true" lat="44.832718831078" lon="-71.559117942491">
    <tag k="addr:city" v="Guildhall" />
    <tag k="addr:housenumber" v="575" />
    <tag k="addr:street" v="Vermont Route 102" />
    <tag k="addr:state" v="VT" />
    <tag k="ref:vcgi:esiteid" v="140089" />
  </node>
  <node id="-183" visible="true" lat="44.829318170068" lon="-71.561348601737">
    <tag k="addr:city" v="Guildhall" />
    <tag k="addr:housenumber" v="281" />
    <tag k="addr:street" v="Vermont Route 102" />
    <tag k="addr:state" v="VT" />
    <tag k="ref:vcgi:esiteid" v="140090" />
  </node>
  <node id="-184" visible="true" lat="44.903662313723" lon="-71.572818326074">
    <tag k="addr:city" v="Canaan" />
    <tag k="addr:housenumber" v="499" />
    <tag k="addr:street" v="Mill Road" />
    <tag k="addr:state" v="VT" />
    <tag k="ref:vcgi:esiteid" v="140091" />
  </node>
  <node id="-185" visible="true" lat="44.868836478438" lon="-71.589059993833">
    <tag k="addr:city" v="Canaan" />
    <tag k="addr:housenumber" v="511" />
    <tag k="addr:street" v="Wallace Road" />
    <tag k="addr:state" v="VT" />
    <tag k="ref:vcgi:esiteid" v="140092" />
  </node>
  <node id="-186" visible="true" lat="44.921811246757" lon="-71.557200542969">
    <tag k="addr:city" v="Canaan" />
    <tag k="addr:housenumber" v="625" />
    <tag k="addr:street" v="Todd Hill Road" />
    <tag k="addr:state" v="VT" />
    <tag k="ref:vcgi:esiteid" v="342886" />
  </node>
  <node id="-187" visible="true" lat="44.897420501653" lon="-71.510673355375">
    <tag k="addr:city" v="Guildhall" />
    <tag k="addr:housenumber" v="6161" />
    <tag k="addr:street" v="Vermont Route 102" />
    <tag k="addr:state" v="VT" />
    <tag k="ref:vcgi:esiteid" v="448516" />
  </node>
  <node id="-188" visible="true" lat="44.849698873387" lon="-71.558518174256">
    <tag k="addr:city" v="Guildhall" />
    <tag k="addr:housenumber" v="1777" />
    <tag k="addr:street" v="Vermont Route 102" />
    <tag k="addr:state" v="VT" />
    <tag k="ref:vcgi:esiteid" v="452637" />
  </node>
  <node id="-189" visible="true" lat="44.923723136469" lon="-71.557214510847">
    <tag k="addr:city" v="Canaan" />
    <tag k="addr:housenumber" v="540" />
    <tag k="addr:street" v="Todd Hill Road" />
    <tag k="addr:state" v="VT" />
    <tag k="ref:vcgi:esiteid" v="452638" />
  </node>
  <node id="-190" visible="true" lat="44.921385068019" lon="-71.562008596347">
    <tag k="addr:city" v="Canaan" />
    <tag k="addr:housenumber" v="770" />
    <tag k="addr:street" v="Todd Hill Road" />
    <tag k="addr:state" v="VT" />
    <tag k="ref:vcgi:esiteid" v="454383" />
  </node>
  <node id="-194" visible="true" lat="44.861263576107" lon="-71.589739489606">
    <tag k="addr:city" v="Canaan" />
    <tag k="addr:housenumber" v="2598" />
    <tag k="addr:street" v="Sims Hill Road" />
    <tag k="addr:state" v="VT" />
    <tag k="ref:vcgi:esiteid" v="617656" />
  </node>
  <node id="-195" visible="true" lat="44.913886059845" lon="-71.522577001874">
    <tag k="addr:city" v="Canaan" />
    <tag k="addr:housenumber" v="463" />
    <tag k="addr:street" v="Vermont Route 102" />
    <tag k="addr:state" v="VT" />
    <tag k="ref:vcgi:esiteid" v="752061" />
  </node>
  <node id="-196" visible="true" lat="44.910156810998" lon="-71.526815006657">
    <tag k="addr:city" v="Canaan" />
    <tag k="addr:housenumber" v="465" />
    <tag k="addr:street" v="Vermont Route 102" />
    <tag k="addr:state" v="VT" />
    <tag k="ref:vcgi:esiteid" v="752062" />
  </node>
  <node id="-197" visible="true" lat="44.936356095525" lon="-71.570881072447">
    <tag k="addr:city" v="Canaan" />
    <tag k="addr:housenumber" v="2111" />
    <tag k="addr:street" v="Hudson Road" />
    <tag k="addr:state" v="VT" />
    <tag k="ref:vcgi:esiteid" v="752287" />
  </node>
  <node id="-198" visible="true" lat="44.865335755465" lon="-71.603678477217">
    <tag k="addr:city" v="Canaan" />
    <tag k="addr:housenumber" v="3244" />
    <tag k="addr:street" v="Sims Hill Road" />
    <tag k="addr:state" v="VT" />
    <tag k="ref:vcgi:esiteid" v="753178" />
  </node>
  <node id="-199" visible="true" lat="44.851225807385" lon="-71.557448002671">
    <tag k="addr:city" v="Guildhall" />
    <tag k="addr:housenumber" v="1843" />
    <tag k="addr:street" v="Vermont Route 102" />
    <tag k="addr:state" v="VT" />
    <tag k="ref:vcgi:esiteid" v="753179" />
  </node>
  <node id="-201" visible="true" lat="44.831021307952" lon="-71.559374095869">
    <tag k="addr:city" v="Guildhall" />
    <tag k="addr:housenumber" v="384" />
    <tag k="addr:street" v="Vermont Route 102" />
    <tag k="addr:state" v="VT" />
    <tag k="ref:vcgi:esiteid" v="753594" />
  </node>
</osm>
