<?xml version="1.0" encoding="UTF-8"?>
<osm version="0.6" generator="JOSM" upload="false">
  <node id="-101" visible="true" lat="43.362370703472" lon="-72.993005134375">
    <tag k="addr:city" v="Danby" />
    <tag k="addr:housenumber" v="124" />
    <tag k="addr:street" v="United States Route 7" />
    <tag k="addr:state" v="VT" />
    <tag k="ref:vcgi:esiteid" v="172046" />
  </node>
  <node id="-102" visible="true" lat="43.362355444562" lon="-72.993684150221">
    <tag k="addr:city" v="Danby" />
    <tag k="addr:housenumber" v="122" />
    <tag k="addr:street" v="United States Route 7" />
    <tag k="addr:state" v="VT" />
    <tag k="ref:vcgi:esiteid" v="172047" />
  </node>
  <node id="-103" visible="true" lat="43.361977789076" lon="-72.993302679593">
    <tag k="addr:city" v="Danby" />
    <tag k="addr:housenumber" v="20" />
    <tag k="addr:street" v="Holland Heights" />
    <tag k="addr:state" v="VT" />
    <tag k="ref:vcgi:esiteid" v="172048" />
  </node>
  <node id="-104" visible="true" lat="43.361314031099" lon="-72.993607857595">
    <tag k="addr:city" v="Danby" />
    <tag k="addr:housenumber" v="19" />
    <tag k="addr:street" v="Holland Heights" />
    <tag k="addr:state" v="VT" />
    <tag k="ref:vcgi:esiteid" v="172049" />
  </node>
  <node id="-105" visible="true" lat="43.360993597836" lon="-72.992394781041">
    <tag k="addr:city" v="Danby" />
    <tag k="addr:housenumber" v="17" />
    <tag k="addr:street" v="Holland Heights" />
    <tag k="addr:state" v="VT" />
    <tag k="ref:vcgi:esiteid" v="172050" />
  </node>
  <node id="-106" visible="true" lat="43.359624121315" lon="-72.992783880992">
    <tag k="addr:city" v="Danby" />
    <tag k="addr:housenumber" v="382" />
    <tag k="addr:street" v="United States Route 7" />
    <tag k="addr:state" v="VT" />
    <tag k="ref:vcgi:esiteid" v="172051" />
  </node>
  <node id="-107" visible="true" lat="43.359059544707" lon="-72.992783881168">
    <tag k="addr:city" v="Danby" />
    <tag k="addr:housenumber" v="380" />
    <tag k="addr:street" v="United States Route 7" />
    <tag k="addr:state" v="VT" />
    <tag k="ref:vcgi:esiteid" v="172052" />
  </node>
  <node id="-108" visible="true" lat="43.358552190389" lon="-72.993089057514">
    <tag k="addr:city" v="Danby" />
    <tag k="addr:housenumber" v="442" />
    <tag k="addr:street" v="United States Route 7" />
    <tag k="addr:state" v="VT" />
    <tag k="ref:vcgi:esiteid" v="172053" />
  </node>
  <node id="-109" visible="true" lat="43.358140203515" lon="-72.993058541232">
    <tag k="addr:city" v="Danby" />
    <tag k="addr:housenumber" v="450" />
    <tag k="addr:street" v="United States Route 7" />
    <tag k="addr:state" v="VT" />
    <tag k="ref:vcgi:esiteid" v="172054" />
  </node>
  <node id="-110" visible="true" lat="43.356675357878" lon="-72.994065619497">
    <tag k="addr:city" v="Danby" />
    <tag k="addr:housenumber" v="546" />
    <tag k="addr:street" v="United States Route 7" />
    <tag k="addr:state" v="VT" />
    <tag k="ref:vcgi:esiteid" v="172055" />
  </node>
  <node id="-111" visible="true" lat="43.353505346322" lon="-72.993714668749">
    <tag k="addr:city" v="Danby" />
    <tag k="addr:housenumber" v="786" />
    <tag k="addr:street" v="United States Route 7" />
    <tag k="addr:state" v="VT" />
    <tag k="ref:vcgi:esiteid" v="172056" />
  </node>
  <node id="-112" visible="true" lat="43.353238315492" lon="-72.99333319895">
    <tag k="addr:city" v="Danby" />
    <tag k="addr:housenumber" v="788" />
    <tag k="addr:street" v="United States Route 7" />
    <tag k="addr:state" v="VT" />
    <tag k="ref:vcgi:esiteid" v="172057" />
  </node>
  <node id="-113" visible="true" lat="43.352551670142" lon="-72.993409491621">
    <tag k="addr:city" v="Danby" />
    <tag k="addr:housenumber" v="852" />
    <tag k="addr:street" v="United States Route 7" />
    <tag k="addr:state" v="VT" />
    <tag k="ref:vcgi:esiteid" v="172058" />
  </node>
  <node id="-114" visible="true" lat="43.352174016529" lon="-72.980096194551">
    <tag k="addr:city" v="Danby" />
    <tag k="addr:housenumber" v="591" />
    <tag k="addr:street" v="Brooklyn Road" />
    <tag k="addr:state" v="VT" />
    <tag k="ref:vcgi:esiteid" v="172059" />
  </node>
  <node id="-115" visible="true" lat="43.351903172339" lon="-72.982796999822">
    <tag k="addr:city" v="Danby" />
    <tag k="addr:housenumber" v="589" />
    <tag k="addr:street" v="Brooklyn Road" />
    <tag k="addr:state" v="VT" />
    <tag k="ref:vcgi:esiteid" v="172060" />
  </node>
  <node id="-116" visible="true" lat="43.351548405196" lon="-72.992333746379">
    <tag k="addr:city" v="Danby" />
    <tag k="addr:housenumber" v="907" />
    <tag k="addr:street" v="United States Route 7" />
    <tag k="addr:state" v="VT" />
    <tag k="ref:vcgi:esiteid" v="172061" />
  </node>
  <node id="-117" visible="true" lat="43.351487369198" lon="-72.979615542061">
    <tag k="addr:city" v="Danby" />
    <tag k="addr:housenumber" v="741" />
    <tag k="addr:street" v="Brooklyn Road" />
    <tag k="addr:state" v="VT" />
    <tag k="ref:vcgi:esiteid" v="172062" />
  </node>
  <node id="-118" visible="true" lat="43.351189823509" lon="-72.980309816771">
    <tag k="addr:city" v="Danby" />
    <tag k="addr:housenumber" v="693" />
    <tag k="addr:street" v="Brooklyn Road" />
    <tag k="addr:state" v="VT" />
    <tag k="ref:vcgi:esiteid" v="172063" />
  </node>
  <node id="-119" visible="true" lat="43.350877019092" lon="-72.980790469428">
    <tag k="addr:city" v="Danby" />
    <tag k="addr:housenumber" v="661" />
    <tag k="addr:street" v="Brooklyn Road" />
    <tag k="addr:state" v="VT" />
    <tag k="ref:vcgi:esiteid" v="172064" />
  </node>
  <node id="-120" visible="true" lat="43.350808353071" lon="-72.992287971629">
    <tag k="addr:city" v="Danby" />
    <tag k="addr:housenumber" v="959" />
    <tag k="addr:street" v="United States Route 7" />
    <tag k="addr:state" v="VT" />
    <tag k="ref:vcgi:esiteid" v="172065" />
  </node>
  <node id="-121" visible="true" lat="43.350838871082" lon="-72.982247683724">
    <tag k="addr:city" v="Danby" />
    <tag k="addr:housenumber" v="583" />
    <tag k="addr:street" v="Brooklyn Road" />
    <tag k="addr:state" v="VT" />
    <tag k="ref:vcgi:esiteid" v="172066" />
  </node>
  <node id="-122" visible="true" lat="43.350835057128" lon="-72.983147952145">
    <tag k="addr:city" v="Danby" />
    <tag k="addr:housenumber" v="545" />
    <tag k="addr:street" v="Brooklyn Road" />
    <tag k="addr:state" v="VT" />
    <tag k="ref:vcgi:esiteid" v="172067" />
  </node>
  <node id="-123" visible="true" lat="43.350831241586" lon="-72.981339784607">
    <tag k="addr:city" v="Danby" />
    <tag k="addr:housenumber" v="633" />
    <tag k="addr:street" v="Brooklyn Road" />
    <tag k="addr:state" v="VT" />
    <tag k="ref:vcgi:esiteid" v="172068" />
  </node>
  <node id="-124" visible="true" lat="43.350823612166" lon="-72.982552860191">
    <tag k="addr:city" v="Danby" />
    <tag k="addr:housenumber" v="571" />
    <tag k="addr:street" v="Brooklyn Road" />
    <tag k="addr:state" v="VT" />
    <tag k="ref:vcgi:esiteid" v="172069" />
  </node>
  <node id="-125" visible="true" lat="43.350815983214" lon="-72.981873843237">
    <tag k="addr:city" v="Danby" />
    <tag k="addr:housenumber" v="603" />
    <tag k="addr:street" v="Brooklyn Road" />
    <tag k="addr:state" v="VT" />
    <tag k="ref:vcgi:esiteid" v="172070" />
  </node>
  <node id="-126" visible="true" lat="43.350766391506" lon="-72.9802487826">
    <tag k="addr:city" v="Danby" />
    <tag k="addr:housenumber" v="686" />
    <tag k="addr:street" v="Brooklyn Road" />
    <tag k="addr:state" v="VT" />
    <tag k="ref:vcgi:esiteid" v="172071" />
  </node>
  <node id="-127" visible="true" lat="43.350693912059" lon="-72.980523439765">
    <tag k="addr:city" v="Danby" />
    <tag k="addr:housenumber" v="670" />
    <tag k="addr:street" v="Brooklyn Road" />
    <tag k="addr:state" v="VT" />
    <tag k="ref:vcgi:esiteid" v="172072" />
  </node>
  <node id="-128" visible="true" lat="43.350606174558" lon="-72.983880375402">
    <tag k="addr:city" v="Danby" />
    <tag k="addr:housenumber" v="507" />
    <tag k="addr:street" v="Brooklyn Road" />
    <tag k="addr:state" v="VT" />
    <tag k="ref:vcgi:esiteid" v="172073" />
  </node>
  <node id="-129" visible="true" lat="43.350552769625" lon="-72.981736513805">
    <tag k="addr:city" v="Danby" />
    <tag k="addr:housenumber" v="612" />
    <tag k="addr:street" v="Brooklyn Road" />
    <tag k="addr:state" v="VT" />
    <tag k="ref:vcgi:esiteid" v="172074" />
  </node>
  <node id="-130" visible="true" lat="43.350537511068" lon="-72.981263491867">
    <tag k="addr:city" v="Danby" />
    <tag k="addr:housenumber" v="632" />
    <tag k="addr:street" v="Brooklyn Road" />
    <tag k="addr:state" v="VT" />
    <tag k="ref:vcgi:esiteid" v="172075" />
  </node>
  <node id="-131" visible="true" lat="43.350480289874" lon="-72.993859626076">
    <tag k="addr:city" v="Danby" />
    <tag k="addr:housenumber" v="982" />
    <tag k="addr:street" v="United States Route 7" />
    <tag k="addr:state" v="VT" />
    <tag k="ref:vcgi:esiteid" v="172076" />
  </node>
  <node id="-132" visible="true" lat="43.350384921374" lon="-72.983933780053">
    <tag k="addr:city" v="Danby" />
    <tag k="addr:housenumber" v="497" />
    <tag k="addr:street" v="Brooklyn Road" />
    <tag k="addr:state" v="VT" />
    <tag k="ref:vcgi:esiteid" v="172077" />
  </node>
  <node id="-133" visible="true" lat="43.350262852887" lon="-72.983270022955">
    <tag k="addr:city" v="Danby" />
    <tag k="addr:housenumber" v="522" />
    <tag k="addr:street" v="Brooklyn Road" />
    <tag k="addr:state" v="VT" />
    <tag k="ref:vcgi:esiteid" v="172078" />
  </node>
  <node id="-134" visible="true" lat="43.350171299874" lon="-72.983598087706">
    <tag k="addr:city" v="Danby" />
    <tag k="addr:housenumber" v="506" />
    <tag k="addr:street" v="Brooklyn Road" />
    <tag k="addr:state" v="VT" />
    <tag k="ref:vcgi:esiteid" v="172079" />
  </node>
  <node id="-135" visible="true" lat="43.350117892657" lon="-72.984650944526">
    <tag k="addr:city" v="Danby" />
    <tag k="addr:housenumber" v="457" />
    <tag k="addr:street" v="Brooklyn Road" />
    <tag k="addr:state" v="VT" />
    <tag k="ref:vcgi:esiteid" v="172080" />
  </node>
  <node id="-136" visible="true" lat="43.3501217082" lon="-72.982491823852">
    <tag k="addr:city" v="Danby" />
    <tag k="addr:housenumber" v="556" />
    <tag k="addr:street" v="Brooklyn Road" />
    <tag k="addr:state" v="VT" />
    <tag k="ref:vcgi:esiteid" v="172081" />
  </node>
  <node id="-137" visible="true" lat="43.350114710123" lon="-72.992247053008">
    <tag k="addr:city" v="Danby" />
    <tag k="addr:housenumber" v="1009" />
    <tag k="addr:street" v="United States Route 7" />
    <tag k="addr:state" v="VT" />
    <tag k="ref:vcgi:esiteid" v="172082" />
  </node>
  <node id="-138" visible="true" lat="43.349934788153" lon="-72.984101626132">
    <tag k="addr:city" v="Danby" />
    <tag k="addr:housenumber" v="476" />
    <tag k="addr:street" v="Brooklyn Road" />
    <tag k="addr:state" v="VT" />
    <tag k="ref:vcgi:esiteid" v="172083" />
  </node>
  <node id="-139" visible="true" lat="43.3499157137" lon="-72.985062930826">
    <tag k="addr:city" v="Danby" />
    <tag k="addr:housenumber" v="433" />
    <tag k="addr:street" v="Brooklyn Road" />
    <tag k="addr:state" v="VT" />
    <tag k="ref:vcgi:esiteid" v="172084" />
  </node>
  <node id="-140" visible="true" lat="43.349656314262" lon="-72.993646003026">
    <tag k="addr:city" v="Danby" />
    <tag k="addr:housenumber" v="1052" />
    <tag k="addr:street" v="United States Route 7" />
    <tag k="addr:state" v="VT" />
    <tag k="ref:vcgi:esiteid" v="172085" />
  </node>
  <node id="-141" visible="true" lat="43.349637242103" lon="-72.984788273172">
    <tag k="addr:city" v="Danby" />
    <tag k="addr:housenumber" v="436" />
    <tag k="addr:street" v="Brooklyn Road" />
    <tag k="addr:state" v="VT" />
    <tag k="ref:vcgi:esiteid" v="172086" />
  </node>
  <node id="-142" visible="true" lat="43.349606722841" lon="-72.985520694304">
    <tag k="addr:city" v="Danby" />
    <tag k="addr:housenumber" v="403" />
    <tag k="addr:street" v="Brooklyn Road" />
    <tag k="addr:state" v="VT" />
    <tag k="ref:vcgi:esiteid" v="172087" />
  </node>
  <node id="-143" visible="true" lat="43.349595280785" lon="-72.981637331302">
    <tag k="addr:city" v="Danby" />
    <tag k="addr:housenumber" v="600" />
    <tag k="addr:street" v="Brooklyn Road" />
    <tag k="addr:state" v="VT" />
    <tag k="ref:vcgi:esiteid" v="172088" />
  </node>
  <node id="-144" visible="true" lat="43.349480839061" lon="-72.985146855105">
    <tag k="addr:city" v="Danby" />
    <tag k="addr:housenumber" v="414" />
    <tag k="addr:street" v="Brooklyn Road" />
    <tag k="addr:state" v="VT" />
    <tag k="ref:vcgi:esiteid" v="172089" />
  </node>
  <node id="-145" visible="true" lat="43.349301548159" lon="-72.983262393343">
    <tag k="addr:city" v="Danby" />
    <tag k="addr:housenumber" v="514" />
    <tag k="addr:street" v="Brooklyn Road" />
    <tag k="addr:state" v="VT" />
    <tag k="ref:vcgi:esiteid" v="172090" />
  </node>
  <node id="-146" visible="true" lat="43.349198551732" lon="-72.993256902818">
    <tag k="addr:city" v="Danby" />
    <tag k="addr:housenumber" v="1072" />
    <tag k="addr:street" v="United States Route 7" />
    <tag k="addr:state" v="VT" />
    <tag k="ref:vcgi:esiteid" v="172091" />
  </node>
  <node id="-147" visible="true" lat="43.349225255629" lon="-72.981339785278">
    <tag k="addr:city" v="Danby" />
    <tag k="addr:housenumber" v="602" />
    <tag k="addr:street" v="Brooklyn Road" />
    <tag k="addr:state" v="VT" />
    <tag k="ref:vcgi:esiteid" v="172092" />
  </node>
  <node id="-148" visible="true" lat="43.349080294851" lon="-72.988282537086">
    <tag k="addr:city" v="Danby" />
    <tag k="addr:housenumber" v="259" />
    <tag k="addr:street" v="Brooklyn Road" />
    <tag k="addr:state" v="VT" />
    <tag k="ref:vcgi:esiteid" v="172093" />
  </node>
  <node id="-149" visible="true" lat="43.348931522878" lon="-72.993951178109">
    <tag k="addr:city" v="Danby" />
    <tag k="addr:housenumber" v="1090" />
    <tag k="addr:street" v="United States Route 7" />
    <tag k="addr:state" v="VT" />
    <tag k="ref:vcgi:esiteid" v="172094" />
  </node>
  <node id="-150" visible="true" lat="43.348397466025" lon="-72.981263492084">
    <tag k="addr:city" v="Danby" />
    <tag k="addr:housenumber" v="382" />
    <tag k="addr:street" v="Brooklyn Road" />
    <tag k="addr:state" v="VT" />
    <tag k="ref:vcgi:esiteid" v="172095" />
  </node>
  <node id="-151" visible="true" lat="43.348180026419" lon="-72.987046574225">
    <tag k="addr:city" v="Danby" />
    <tag k="addr:housenumber" v="246" />
    <tag k="addr:street" v="Brooklyn Road" />
    <tag k="addr:state" v="VT" />
    <tag k="ref:vcgi:esiteid" v="172096" />
  </node>
  <node id="-152" visible="true" lat="43.347194674949" lon="-72.993735775842">
    <tag k="addr:city" v="Danby" />
    <tag k="addr:housenumber" v="46" />
    <tag k="addr:street" v="Mount Tabor Avenue" />
    <tag k="addr:state" v="VT" />
    <tag k="ref:vcgi:esiteid" v="172097" />
  </node>
  <node id="-153" visible="true" lat="43.347062319308" lon="-72.993966438515">
    <tag k="addr:city" v="Danby" />
    <tag k="addr:housenumber" v="60" />
    <tag k="addr:street" v="Mount Tabor Avenue" />
    <tag k="addr:state" v="VT" />
    <tag k="ref:vcgi:esiteid" v="172098" />
  </node>
  <node id="-154" visible="true" lat="43.346902102883" lon="-72.99210486424">
    <tag k="addr:city" v="Danby" />
    <tag k="addr:housenumber" v="49" />
    <tag k="addr:street" v="Mill Road" />
    <tag k="addr:state" v="VT" />
    <tag k="ref:vcgi:esiteid" v="172099" />
  </node>
  <node id="-155" visible="true" lat="43.346599653207" lon="-72.993901700128">
    <tag k="addr:city" v="Danby" />
    <tag k="addr:housenumber" v="65" />
    <tag k="addr:street" v="Mount Tabor Avenue" />
    <tag k="addr:state" v="VT" />
    <tag k="ref:vcgi:esiteid" v="172100" />
  </node>
  <node id="-156" visible="true" lat="43.346505373941" lon="-72.991906500389">
    <tag k="addr:city" v="Danby" />
    <tag k="addr:housenumber" v="71" />
    <tag k="addr:street" v="Mill Road" />
    <tag k="addr:state" v="VT" />
    <tag k="ref:vcgi:esiteid" v="172101" />
  </node>
  <node id="-157" visible="true" lat="43.3461773115" lon="-72.992303229792">
    <tag k="addr:city" v="Danby" />
    <tag k="addr:housenumber" v="92" />
    <tag k="addr:street" v="Mill Road" />
    <tag k="addr:state" v="VT" />
    <tag k="ref:vcgi:esiteid" v="172102" />
  </node>
  <node id="-158" visible="true" lat="43.346116275267" lon="-72.990166997502">
    <tag k="addr:city" v="Danby" />
    <tag k="addr:housenumber" v="83" />
    <tag k="addr:street" v="Depot Road Extension" />
    <tag k="addr:state" v="VT" />
    <tag k="ref:vcgi:esiteid" v="172103" />
  </node>
  <node id="-159" visible="true" lat="43.346097201236" lon="-72.993867256015">
    <tag k="addr:city" v="Danby" />
    <tag k="addr:housenumber" v="54" />
    <tag k="addr:street" v="Depot Road" />
    <tag k="addr:state" v="VT" />
    <tag k="ref:vcgi:esiteid" v="172104" />
  </node>
  <node id="-160" visible="true" lat="43.346033672915" lon="-72.993366348561">
    <tag k="addr:city" v="Danby" />
    <tag k="addr:housenumber" v="38" />
    <tag k="addr:street" v="Depot Road" />
    <tag k="addr:state" v="VT" />
    <tag k="ref:vcgi:esiteid" v="172105" />
  </node>
  <node id="-161" visible="true" lat="43.345856875406" lon="-72.992989874459">
    <tag k="addr:city" v="Danby" />
    <tag k="addr:housenumber" v="1300" />
    <tag k="addr:street" v="United States Route 7" />
    <tag k="addr:state" v="VT" />
    <tag k="ref:vcgi:esiteid" v="172106" />
  </node>
  <node id="-162" visible="true" lat="43.345780580772" lon="-72.993325568913">
    <tag k="addr:city" v="Danby" />
    <tag k="addr:housenumber" v="28" />
    <tag k="addr:street" v="Depot Road" />
    <tag k="addr:state" v="VT" />
    <tag k="ref:vcgi:esiteid" v="172107" />
  </node>
  <node id="-163" visible="true" lat="43.345666141238" lon="-72.993996955089">
    <tag k="addr:city" v="Danby" />
    <tag k="addr:housenumber" v="64" />
    <tag k="addr:street" v="Depot Road" />
    <tag k="addr:state" v="VT" />
    <tag k="ref:vcgi:esiteid" v="172108" />
  </node>
  <node id="-164" visible="true" lat="43.34559337358" lon="-72.990657892734">
    <tag k="addr:city" v="Danby" />
    <tag k="addr:housenumber" v="87" />
    <tag k="addr:street" v="Depot Road Extension" />
    <tag k="addr:state" v="VT" />
    <tag k="ref:vcgi:esiteid" v="172109" />
  </node>
  <node id="-165" visible="true" lat="43.345383921472" lon="-72.993728068217">
    <tag k="addr:city" v="Danby" />
    <tag k="addr:housenumber" v="55" />
    <tag k="addr:street" v="Depot Road" />
    <tag k="addr:state" v="VT" />
    <tag k="ref:vcgi:esiteid" v="172110" />
  </node>
  <node id="-166" visible="true" lat="43.345342411815" lon="-72.99206789881">
    <tag k="addr:city" v="Danby" />
    <tag k="addr:housenumber" v="1333" />
    <tag k="addr:street" v="United States Route 7" />
    <tag k="addr:state" v="VT" />
    <tag k="ref:vcgi:esiteid" v="172111" />
  </node>
  <node id="-167" visible="true" lat="43.345286749731" lon="-72.990988661229">
    <tag k="addr:city" v="Danby" />
    <tag k="addr:housenumber" v="89" />
    <tag k="addr:street" v="Depot Road Extension" />
    <tag k="addr:state" v="VT" />
    <tag k="ref:vcgi:esiteid" v="172112" />
  </node>
  <node id="-168" visible="true" lat="43.345132506839" lon="-72.991128129098">
    <tag k="addr:city" v="Danby" />
    <tag k="addr:housenumber" v="95" />
    <tag k="addr:street" v="Depot Road Extension" />
    <tag k="addr:state" v="VT" />
    <tag k="ref:vcgi:esiteid" v="172113" />
  </node>
  <node id="-169" visible="true" lat="43.345061872192" lon="-72.989959603725">
    <tag k="addr:city" v="Danby" />
    <tag k="addr:housenumber" v="85" />
    <tag k="addr:street" v="Depot Road Extension" />
    <tag k="addr:state" v="VT" />
    <tag k="ref:vcgi:esiteid" v="172114" />
  </node>
  <node id="-170" visible="true" lat="43.345006197856" lon="-72.993234014835">
    <tag k="addr:city" v="Danby" />
    <tag k="addr:housenumber" v="1362" />
    <tag k="addr:street" v="United States Route 7" />
    <tag k="addr:state" v="VT" />
    <tag k="ref:vcgi:esiteid" v="172115" />
  </node>
  <node id="-171" visible="true" lat="43.344884615554" lon="-72.992089039264">
    <tag k="addr:city" v="Danby" />
    <tag k="addr:housenumber" v="1365" />
    <tag k="addr:street" v="United States Route 7" />
    <tag k="addr:state" v="VT" />
    <tag k="ref:vcgi:esiteid" v="172116" />
  </node>
  <node id="-172" visible="true" lat="43.344842169627" lon="-72.992927376351">
    <tag k="addr:city" v="Danby" />
    <tag k="addr:housenumber" v="1366" />
    <tag k="addr:street" v="United States Route 7" />
    <tag k="addr:state" v="VT" />
    <tag k="ref:vcgi:esiteid" v="172117" />
  </node>
  <node id="-173" visible="true" lat="43.344693393311" lon="-72.991418219053">
    <tag k="addr:city" v="Danby" />
    <tag k="addr:housenumber" v="120" />
    <tag k="addr:street" v="Depot Road Extension" />
    <tag k="addr:state" v="VT" />
    <tag k="ref:vcgi:esiteid" v="172118" />
  </node>
  <node id="-174" visible="true" lat="43.341801965969" lon="-72.993240991434">
    <tag k="addr:city" v="Danby" />
    <tag k="addr:housenumber" v="1590" />
    <tag k="addr:street" v="United States Route 7" />
    <tag k="addr:state" v="VT" />
    <tag k="ref:vcgi:esiteid" v="172119" />
  </node>
  <node id="-175" visible="true" lat="43.326611724196" lon="-72.98838934793">
    <tag k="addr:city" v="Danby" />
    <tag k="addr:housenumber" v="153" />
    <tag k="addr:street" v="Norse Lodge Road" />
    <tag k="addr:state" v="VT" />
    <tag k="ref:vcgi:esiteid" v="172120" />
  </node>
  <node id="-176" visible="true" lat="43.326344695856" lon="-72.988656376965">
    <tag k="addr:city" v="Danby" />
    <tag k="addr:housenumber" v="142" />
    <tag k="addr:street" v="Norse Lodge Road" />
    <tag k="addr:state" v="VT" />
    <tag k="ref:vcgi:esiteid" v="172121" />
  </node>
  <node id="-177" visible="true" lat="43.321072782115" lon="-72.994645452303">
    <tag k="addr:city" v="Danby" />
    <tag k="addr:housenumber" v="254" />
    <tag k="addr:street" v="Troll Hill Road" />
    <tag k="addr:state" v="VT" />
    <tag k="ref:vcgi:esiteid" v="172122" />
  </node>
  <node id="-178" visible="true" lat="43.320878232703" lon="-72.992074344742">
    <tag k="addr:city" v="Danby" />
    <tag k="addr:housenumber" v="204" />
    <tag k="addr:street" v="Troll Hill Road" />
    <tag k="addr:state" v="VT" />
    <tag k="ref:vcgi:esiteid" v="172123" />
  </node>
  <node id="-179" visible="true" lat="43.320687498155" lon="-72.991685245567">
    <tag k="addr:city" v="Danby" />
    <tag k="addr:housenumber" v="217" />
    <tag k="addr:street" v="Troll Hill Road" />
    <tag k="addr:state" v="VT" />
    <tag k="ref:vcgi:esiteid" v="172124" />
  </node>
  <node id="-180" visible="true" lat="43.320023741557" lon="-72.992074345133">
    <tag k="addr:city" v="Danby" />
    <tag k="addr:housenumber" v="262" />
    <tag k="addr:street" v="Troll Hill Road" />
    <tag k="addr:state" v="VT" />
    <tag k="ref:vcgi:esiteid" v="172125" />
  </node>
  <node id="-181" visible="true" lat="43.319836820893" lon="-72.994363165559">
    <tag k="addr:city" v="Danby" />
    <tag k="addr:housenumber" v="250" />
    <tag k="addr:street" v="Troll Hill Road" />
    <tag k="addr:state" v="VT" />
    <tag k="ref:vcgi:esiteid" v="172126" />
  </node>
  <node id="-182" visible="true" lat="43.319508755938" lon="-72.992463444476">
    <tag k="addr:city" v="Danby" />
    <tag k="addr:housenumber" v="288" />
    <tag k="addr:street" v="Troll Hill Road" />
    <tag k="addr:state" v="VT" />
    <tag k="ref:vcgi:esiteid" v="172127" />
  </node>
  <node id="-183" visible="true" lat="43.318364347937" lon="-72.992638920061">
    <tag k="addr:city" v="Danby" />
    <tag k="addr:housenumber" v="356" />
    <tag k="addr:street" v="Troll Hill Road" />
    <tag k="addr:state" v="VT" />
    <tag k="ref:vcgi:esiteid" v="172128" />
  </node>
  <node id="-184" visible="true" lat="43.317860808193" lon="-72.992509220534">
    <tag k="addr:city" v="Danby" />
    <tag k="addr:housenumber" v="420" />
    <tag k="addr:street" v="Troll Hill Road" />
    <tag k="addr:state" v="VT" />
    <tag k="ref:vcgi:esiteid" v="172129" />
  </node>
  <node id="-185" visible="true" lat="43.317162718184" lon="-72.990426395092">
    <tag k="addr:city" v="East Dorset" />
    <tag k="addr:housenumber" v="69" />
    <tag k="addr:street" v="South End Road" />
    <tag k="addr:state" v="VT" />
    <tag k="ref:vcgi:esiteid" v="172130" />
  </node>
  <node id="-186" visible="true" lat="43.317006624871" lon="-72.989587878231">
    <tag k="addr:city" v="East Dorset" />
    <tag k="addr:housenumber" v="129" />
    <tag k="addr:street" v="South End Road" />
    <tag k="addr:state" v="VT" />
    <tag k="ref:vcgi:esiteid" v="172131" />
  </node>
  <node id="-187" visible="true" lat="43.316556181451" lon="-72.992844914579">
    <tag k="addr:city" v="East Dorset" />
    <tag k="addr:housenumber" v="508" />
    <tag k="addr:street" v="Troll Hill Road" />
    <tag k="addr:state" v="VT" />
    <tag k="ref:vcgi:esiteid" v="172132" />
  </node>
  <node id="-188" visible="true" lat="43.316117490716" lon="-72.992905948339">
    <tag k="addr:city" v="East Dorset" />
    <tag k="addr:housenumber" v="538" />
    <tag k="addr:street" v="Troll Hill Road" />
    <tag k="addr:state" v="VT" />
    <tag k="ref:vcgi:esiteid" v="172133" />
  </node>
  <node id="-189" visible="true" lat="43.31588479252" lon="-72.992883060144">
    <tag k="addr:city" v="East Dorset" />
    <tag k="addr:housenumber" v="554" />
    <tag k="addr:street" v="Troll Hill Road" />
    <tag k="addr:state" v="VT" />
    <tag k="ref:vcgi:esiteid" v="172134" />
  </node>
  <node id="-190" visible="true" lat="43.315824975141" lon="-72.987939516273">
    <tag k="addr:city" v="East Dorset" />
    <tag k="addr:housenumber" v="214" />
    <tag k="addr:street" v="South End Road" />
    <tag k="addr:state" v="VT" />
    <tag k="ref:vcgi:esiteid" v="172135" />
  </node>
  <node id="-191" visible="true" lat="43.31494075659" lon="-72.988081041349">
    <tag k="addr:city" v="East Dorset" />
    <tag k="addr:housenumber" v="216" />
    <tag k="addr:street" v="South End Road" />
    <tag k="addr:state" v="VT" />
    <tag k="ref:vcgi:esiteid" v="172136" />
  </node>
  <node id="-192" visible="true" lat="43.313817229009" lon="-72.987603517134">
    <tag k="addr:city" v="East Dorset" />
    <tag k="addr:housenumber" v="392" />
    <tag k="addr:street" v="South End Road" />
    <tag k="addr:state" v="VT" />
    <tag k="ref:vcgi:esiteid" v="172137" />
  </node>
  <node id="-193" visible="true" lat="43.313813413154" lon="-72.987161012515">
    <tag k="addr:city" v="East Dorset" />
    <tag k="addr:housenumber" v="395" />
    <tag k="addr:street" v="South End Road" />
    <tag k="addr:state" v="VT" />
    <tag k="ref:vcgi:esiteid" v="172138" />
  </node>
  <node id="-194" visible="true" lat="43.313725674838" lon="-72.988946292396">
    <tag k="addr:city" v="East Dorset" />
    <tag k="addr:housenumber" v="352" />
    <tag k="addr:street" v="South End Road" />
    <tag k="addr:state" v="VT" />
    <tag k="ref:vcgi:esiteid" v="172139" />
  </node>
  <node id="-195" visible="true" lat="43.313344205541" lon="-72.988274905403">
    <tag k="addr:city" v="East Dorset" />
    <tag k="addr:housenumber" v="414" />
    <tag k="addr:street" v="South End Road" />
    <tag k="addr:state" v="VT" />
    <tag k="ref:vcgi:esiteid" v="172140" />
  </node>
  <node id="-196" visible="true" lat="43.309360087698" lon="-72.994413232847">
    <tag k="addr:city" v="East Dorset" />
    <tag k="addr:housenumber" v="3848" />
    <tag k="addr:street" v="United States Route 7" />
    <tag k="addr:state" v="VT" />
    <tag k="ref:vcgi:esiteid" v="172141" />
  </node>
  <node id="-197" visible="true" lat="43.308085830987" lon="-72.985304952543">
    <tag k="addr:city" v="East Dorset" />
    <tag k="addr:housenumber" v="813" />
    <tag k="addr:street" v="South End Road" />
    <tag k="addr:state" v="VT" />
    <tag k="ref:vcgi:esiteid" v="172142" />
  </node>
  <node id="-198" visible="true" lat="43.308083737078" lon="-72.984414430421">
    <tag k="addr:city" v="East Dorset" />
    <tag k="addr:housenumber" v="799" />
    <tag k="addr:street" v="South End Road" />
    <tag k="addr:state" v="VT" />
    <tag k="ref:vcgi:esiteid" v="172143" />
  </node>
  <node id="-199" visible="true" lat="43.307725154383" lon="-72.995110844004">
    <tag k="addr:city" v="East Dorset" />
    <tag k="addr:housenumber" v="3966" />
    <tag k="addr:street" v="United States Route 7" />
    <tag k="addr:state" v="VT" />
    <tag k="ref:vcgi:esiteid" v="172144" />
  </node>
  <node id="-200" visible="true" lat="43.307706080298" lon="-72.986047119043">
    <tag k="addr:city" v="East Dorset" />
    <tag k="addr:housenumber" v="808" />
    <tag k="addr:street" v="South End Road" />
    <tag k="addr:state" v="VT" />
    <tag k="ref:vcgi:esiteid" v="172145" />
  </node>
  <node id="-201" visible="true" lat="43.306632545461" lon="-72.98436406454">
    <tag k="addr:city" v="East Dorset" />
    <tag k="addr:housenumber" v="911" />
    <tag k="addr:street" v="South End Road" />
    <tag k="addr:state" v="VT" />
    <tag k="ref:vcgi:esiteid" v="172146" />
  </node>
  <node id="-202" visible="true" lat="43.306271754626" lon="-72.985810609522">
    <tag k="addr:city" v="East Dorset" />
    <tag k="addr:housenumber" v="940" />
    <tag k="addr:street" v="South End Road" />
    <tag k="addr:state" v="VT" />
    <tag k="ref:vcgi:esiteid" v="172147" />
  </node>
  <node id="-203" visible="true" lat="43.306123912093" lon="-72.995532143581">
    <tag k="addr:city" v="East Dorset" />
    <tag k="addr:housenumber" v="4088" />
    <tag k="addr:street" v="United States Route 7" />
    <tag k="addr:state" v="VT" />
    <tag k="ref:vcgi:esiteid" v="172148" />
  </node>
  <node id="-204" visible="true" lat="43.305835797003" lon="-72.995392576093">
    <tag k="addr:city" v="East Dorset" />
    <tag k="addr:housenumber" v="4090" />
    <tag k="addr:street" v="United States Route 7" />
    <tag k="addr:state" v="VT" />
    <tag k="ref:vcgi:esiteid" v="172149" />
  </node>
  <node id="-205" visible="true" lat="43.305156833919" lon="-72.985427629081">
    <tag k="addr:city" v="East Dorset" />
    <tag k="addr:housenumber" v="1008" />
    <tag k="addr:street" v="South End Road" />
    <tag k="addr:state" v="VT" />
    <tag k="ref:vcgi:esiteid" v="172150" />
  </node>
  <node id="-206" visible="true" lat="43.304616176689" lon="-72.984155030602">
    <tag k="addr:city" v="East Dorset" />
    <tag k="addr:housenumber" v="1059" />
    <tag k="addr:street" v="South End Road" />
    <tag k="addr:state" v="VT" />
    <tag k="ref:vcgi:esiteid" v="172151" />
  </node>
  <node id="-207" visible="true" lat="43.303833371336" lon="-72.983830830917">
    <tag k="addr:city" v="East Dorset" />
    <tag k="addr:housenumber" v="1115" />
    <tag k="addr:street" v="South End Road" />
    <tag k="addr:state" v="VT" />
    <tag k="ref:vcgi:esiteid" v="172152" />
  </node>
  <node id="-208" visible="true" lat="43.303147518257" lon="-72.985001892236">
    <tag k="addr:city" v="East Dorset" />
    <tag k="addr:housenumber" v="1182" />
    <tag k="addr:street" v="South End Road" />
    <tag k="addr:state" v="VT" />
    <tag k="ref:vcgi:esiteid" v="172153" />
  </node>
  <node id="-209" visible="true" lat="43.302989105524" lon="-72.983790458887">
    <tag k="addr:city" v="East Dorset" />
    <tag k="addr:housenumber" v="1175" />
    <tag k="addr:street" v="South End Road" />
    <tag k="addr:state" v="VT" />
    <tag k="ref:vcgi:esiteid" v="172154" />
  </node>
  <node id="-210" visible="true" lat="43.301533900689" lon="-72.984635682324">
    <tag k="addr:city" v="East Dorset" />
    <tag k="addr:housenumber" v="1256" />
    <tag k="addr:street" v="South End Road" />
    <tag k="addr:state" v="VT" />
    <tag k="ref:vcgi:esiteid" v="172155" />
  </node>
  <node id="-211" visible="true" lat="43.335769671631" lon="-72.994384397289">
    <tag k="addr:city" v="Danby" />
    <tag k="addr:housenumber" v="205" />
    <tag k="addr:street" v="Griffith Hill Road" />
    <tag k="addr:state" v="VT" />
    <tag k="ref:vcgi:esiteid" v="172156" />
  </node>
  <node id="-212" visible="true" lat="43.335369543351" lon="-72.994329139539">
    <tag k="addr:city" v="Danby" />
    <tag k="addr:housenumber" v="181" />
    <tag k="addr:street" v="Griffith Hill Road" />
    <tag k="addr:state" v="VT" />
    <tag k="ref:vcgi:esiteid" v="172157" />
  </node>
  <node id="-213" visible="true" lat="43.359593031813" lon="-72.993409409074">
    <tag k="addr:city" v="Danby" />
    <tag k="addr:housenumber" v="150" />
    <tag k="addr:street" v="Holland Heights Road" />
    <tag k="addr:state" v="VT" />
    <tag k="ref:vcgi:esiteid" v="172158" />
  </node>
  <node id="-214" visible="true" lat="43.359882681401" lon="-72.993379756797">
    <tag k="addr:city" v="Danby" />
    <tag k="addr:housenumber" v="159" />
    <tag k="addr:street" v="Holland Heights Road" />
    <tag k="addr:state" v="VT" />
    <tag k="ref:vcgi:esiteid" v="172159" />
  </node>
  <node id="-215" visible="true" lat="43.305272062106" lon="-72.983973715912">
    <tag k="addr:city" v="East Dorset" />
    <tag k="addr:housenumber" v="961" />
    <tag k="addr:street" v="South End Road" />
    <tag k="addr:state" v="VT" />
    <tag k="ref:vcgi:esiteid" v="172160" />
  </node>
  <node id="-216" visible="true" lat="43.34827001681" lon="-72.991511327147">
    <tag k="addr:city" v="Danby" />
    <tag k="addr:housenumber" v="159" />
    <tag k="addr:street" v="Brooklyn Road" />
    <tag k="addr:state" v="VT" />
    <tag k="ref:vcgi:esiteid" v="172161" />
  </node>
  <node id="-217" visible="true" lat="43.350509311922" lon="-72.982193125037">
    <tag k="addr:city" v="Danby" />
    <tag k="addr:housenumber" v="584" />
    <tag k="addr:street" v="Brooklyn Road" />
    <tag k="addr:state" v="VT" />
    <tag k="ref:vcgi:esiteid" v="172162" />
  </node>
  <node id="-218" visible="true" lat="43.307029668101" lon="-72.986054746663">
    <tag k="addr:city" v="East Dorset" />
    <tag k="addr:housenumber" v="848" />
    <tag k="addr:street" v="South End Road" />
    <tag k="addr:state" v="VT" />
    <tag k="ref:vcgi:esiteid" v="172163" />
  </node>
  <node id="-219" visible="true" lat="43.307650024115" lon="-72.984595771799">
    <tag k="addr:city" v="East Dorset" />
    <tag k="addr:housenumber" v="849" />
    <tag k="addr:street" v="South End Road" />
    <tag k="addr:state" v="VT" />
    <tag k="ref:vcgi:esiteid" v="172164" />
  </node>
  <node id="-220" visible="true" lat="43.397260299125" lon="-72.991943556226">
    <tag k="addr:city" v="Wallingford" />
    <tag k="addr:housenumber" v="1106" />
    <tag k="addr:street" v="Homer Stone Road" />
    <tag k="addr:state" v="VT" />
    <tag k="ref:vcgi:esiteid" v="172165" />
  </node>
  <node id="-221" visible="true" lat="43.397104793974" lon="-72.99130370711">
    <tag k="addr:city" v="Wallingford" />
    <tag k="addr:housenumber" v="1108" />
    <tag k="addr:street" v="Homer Stone Road" />
    <tag k="addr:state" v="VT" />
    <tag k="ref:vcgi:esiteid" v="172166" />
  </node>
  <node id="-222" visible="true" lat="43.396249837704" lon="-72.99058900334">
    <tag k="addr:city" v="Wallingford" />
    <tag k="addr:housenumber" v="1124" />
    <tag k="addr:street" v="Homer Stone Road" />
    <tag k="addr:state" v="VT" />
    <tag k="ref:vcgi:esiteid" v="172167" />
  </node>
  <node id="-223" visible="true" lat="43.396732909551" lon="-72.990069422784">
    <tag k="addr:city" v="Wallingford" />
    <tag k="addr:housenumber" v="1136" />
    <tag k="addr:street" v="Homer Stone Road" />
    <tag k="addr:state" v="VT" />
    <tag k="ref:vcgi:esiteid" v="172168" />
  </node>
  <node id="-224" visible="true" lat="43.351287652676" lon="-72.993603696534">
    <tag k="addr:city" v="Danby" />
    <tag k="addr:housenumber" v="912" />
    <tag k="addr:street" v="United States Route 7" />
    <tag k="addr:state" v="VT" />
    <tag k="ref:vcgi:esiteid" v="172169" />
  </node>
  <node id="-225" visible="true" lat="43.360192250691" lon="-72.993062265301">
    <tag k="addr:city" v="Danby" />
    <tag k="addr:housenumber" v="141" />
    <tag k="addr:street" v="Holland Heights Road" />
    <tag k="addr:state" v="VT" />
    <tag k="ref:vcgi:esiteid" v="172170" />
  </node>
  <node id="-226" visible="true" lat="43.397370031115" lon="-72.989978636964">
    <tag k="addr:city" v="Wallingford" />
    <tag k="addr:housenumber" v="1083" />
    <tag k="addr:street" v="Homer Stone Road" />
    <tag k="addr:state" v="VT" />
    <tag k="ref:vcgi:esiteid" v="270085" />
  </node>
  <node id="-227" visible="true" lat="43.320270376999" lon="-72.993977078332">
    <tag k="addr:city" v="Danby" />
    <tag k="addr:housenumber" v="242" />
    <tag k="addr:street" v="Troll Hill Road" />
    <tag k="addr:state" v="VT" />
    <tag k="ref:vcgi:esiteid" v="328581" />
  </node>
  <node id="-228" visible="true" lat="43.35155174691" lon="-72.976156934166">
    <tag k="addr:city" v="Danby" />
    <tag k="addr:housenumber" v="944" />
    <tag k="addr:street" v="Brooklyn Road" />
    <tag k="addr:state" v="VT" />
    <tag k="ref:vcgi:esiteid" v="610073" />
  </node>
  <node id="-229" visible="true" lat="43.326674626907" lon="-72.990930479335">
    <tag k="addr:city" v="Danby" />
    <tag k="addr:housenumber" v="21" />
    <tag k="addr:street" v="Norse Lodge Road" />
    <tag k="addr:state" v="VT" />
    <tag k="ref:vcgi:esiteid" v="771108" />
  </node>
  <node id="-230" visible="true" lat="43.361965728402" lon="-72.991730214314">
    <tag k="addr:city" v="Danby" />
    <tag k="addr:housenumber" v="191" />
    <tag k="addr:street" v="United States Route 7" />
    <tag k="addr:state" v="VT" />
    <tag k="ref:vcgi:esiteid" v="771109" />
  </node>
  <node id="-231" visible="true" lat="43.301631379801" lon="-72.986352746089">
    <tag k="addr:city" v="East Dorset" />
    <tag k="addr:housenumber" v="1184" />
    <tag k="addr:street" v="South End Road" />
    <tag k="addr:state" v="VT" />
    <tag k="ref:vcgi:esiteid" v="900484" />
  </node>
  <node id="-232" visible="true" lat="43.312640280837" lon="-72.98668896629">
    <tag k="addr:city" v="East Dorset" />
    <tag k="addr:housenumber" v="481" />
    <tag k="addr:street" v="South End Road" />
    <tag k="addr:state" v="VT" />
    <tag k="ref:vcgi:esiteid" v="1050726" />
  </node>
</osm>
