<?xml version="1.0" encoding="UTF-8"?>
<osm version="0.6" generator="JOSM" upload="false">
  <node id="-100" visible="true" lat="43.144227217854" lon="-72.504883926439">
    <tag k="addr:city" v="Saxtons River" />
    <tag k="addr:housenumber" v="4" />
    <tag k="addr:street" v="Bellview Avenue" />
    <tag k="addr:state" v="VT" />
    <tag k="ref:vcgi:esiteid" v="203635" />
  </node>
  <node id="-101" visible="true" lat="43.144139478602" lon="-72.504052323374">
    <tag k="addr:city" v="Saxtons River" />
    <tag k="addr:housenumber" v="10" />
    <tag k="addr:street" v="Bellview Avenue" />
    <tag k="addr:state" v="VT" />
    <tag k="ref:vcgi:esiteid" v="203636" />
  </node>
  <node id="-102" visible="true" lat="43.143549074684" lon="-72.505126013692">
    <tag k="addr:city" v="Saxtons River" />
    <tag k="addr:housenumber" v="6" />
    <tag k="addr:street" v="Bellview Avenue" />
    <tag k="addr:state" v="VT" />
    <tag k="ref:vcgi:esiteid" v="203638" />
  </node>
  <node id="-103" visible="true" lat="43.143496359464" lon="-72.504177920038">
    <tag k="addr:city" v="Saxtons River" />
    <tag k="addr:housenumber" v="12" />
    <tag k="addr:street" v="Bellview Avenue" />
    <tag k="addr:state" v="VT" />
    <tag k="ref:vcgi:esiteid" v="203639" />
  </node>
  <node id="-104" visible="true" lat="43.143458269988" lon="-72.504648723834">
    <tag k="addr:city" v="Saxtons River" />
    <tag k="addr:housenumber" v="8" />
    <tag k="addr:street" v="Bellview Avenue" />
    <tag k="addr:state" v="VT" />
    <tag k="ref:vcgi:esiteid" v="203640" />
  </node>
  <node id="-105" visible="true" lat="43.143448830436" lon="-72.505712664367">
    <tag k="addr:city" v="Saxtons River" />
    <tag k="addr:housenumber" v="2" />
    <tag k="addr:street" v="Bellview Avenue" />
    <tag k="addr:state" v="VT" />
    <tag k="ref:vcgi:esiteid" v="203641" />
  </node>
  <node id="-106" visible="true" lat="43.143281172714" lon="-72.503305380936">
    <tag k="addr:city" v="Saxtons River" />
    <tag k="addr:housenumber" v="14" />
    <tag k="addr:street" v="Bellview Avenue" />
    <tag k="addr:state" v="VT" />
    <tag k="ref:vcgi:esiteid" v="203642" />
  </node>
  <node id="-107" visible="true" lat="43.142946802308" lon="-72.506142836785">
    <tag k="addr:city" v="Saxtons River" />
    <tag k="addr:housenumber" v="29" />
    <tag k="addr:street" v="Pleasant Street" />
    <tag k="addr:state" v="VT" />
    <tag k="ref:vcgi:esiteid" v="203645" />
  </node>
  <node id="-108" visible="true" lat="43.14266319213" lon="-72.506562393623">
    <tag k="addr:city" v="Saxtons River" />
    <tag k="addr:housenumber" v="28" />
    <tag k="addr:street" v="Pleasant Street" />
    <tag k="addr:state" v="VT" />
    <tag k="ref:vcgi:esiteid" v="203646" />
  </node>
  <node id="-109" visible="true" lat="43.142416263895" lon="-72.506028329302">
    <tag k="addr:city" v="Saxtons River" />
    <tag k="addr:housenumber" v="27" />
    <tag k="addr:street" v="Pleasant Street" />
    <tag k="addr:state" v="VT" />
    <tag k="ref:vcgi:esiteid" v="203648" />
  </node>
  <node id="-110" visible="true" lat="43.142354201313" lon="-72.506508989645">
    <tag k="addr:city" v="Saxtons River" />
    <tag k="addr:housenumber" v="26" />
    <tag k="addr:street" v="Pleasant Street" />
    <tag k="addr:state" v="VT" />
    <tag k="ref:vcgi:esiteid" v="203649" />
  </node>
  <node id="-111" visible="true" lat="43.14217636396" lon="-72.506528241873">
    <tag k="addr:city" v="Saxtons River" />
    <tag k="addr:housenumber" v="24" />
    <tag k="addr:street" v="Pleasant Street" />
    <tag k="addr:state" v="VT" />
    <tag k="ref:vcgi:esiteid" v="203652" />
  </node>
  <node id="-112" visible="true" lat="43.142091858445" lon="-72.50601028387">
    <tag k="addr:city" v="Saxtons River" />
    <tag k="addr:housenumber" v="23" />
    <tag k="addr:street" v="Pleasant Street" />
    <tag k="addr:state" v="VT" />
    <tag k="ref:vcgi:esiteid" v="203653" />
  </node>
  <node id="-113" visible="true" lat="43.141942212223" lon="-72.506539506425">
    <tag k="addr:city" v="Saxtons River" />
    <tag k="addr:housenumber" v="22" />
    <tag k="addr:street" v="Pleasant Street" />
    <tag k="addr:state" v="VT" />
    <tag k="ref:vcgi:esiteid" v="203656" />
  </node>
  <node id="-114" visible="true" lat="43.141755476839" lon="-72.505913888683">
    <tag k="addr:city" v="Saxtons River" />
    <tag k="addr:housenumber" v="21" />
    <tag k="addr:street" v="Pleasant Street" />
    <tag k="addr:state" v="VT" />
    <tag k="ref:vcgi:esiteid" v="203657" />
  </node>
  <node id="-115" visible="true" lat="43.14172278219" lon="-72.518213754114">
    <tag k="addr:city" v="Bellows Falls" />
    <tag k="addr:housenumber" v="68" />
    <tag k="addr:street" v="Pleasant Valley Road" />
    <tag k="addr:state" v="VT" />
    <tag k="ref:vcgi:esiteid" v="203659" />
  </node>
  <node id="-116" visible="true" lat="43.141547570957" lon="-72.50392052554">
    <tag k="addr:city" v="Saxtons River" />
    <tag k="addr:housenumber" v="9" />
    <tag k="addr:street" v="Hatfield Lane" />
    <tag k="addr:state" v="VT" />
    <tag k="ref:vcgi:esiteid" v="203660" />
  </node>
  <node id="-117" visible="true" lat="43.141526411339" lon="-72.505936783437">
    <tag k="addr:city" v="Saxtons River" />
    <tag k="addr:housenumber" v="19" />
    <tag k="addr:street" v="Pleasant Street" />
    <tag k="addr:state" v="VT" />
    <tag k="ref:vcgi:esiteid" v="203661" />
  </node>
  <node id="-118" visible="true" lat="43.141308973613" lon="-72.506417435395">
    <tag k="addr:city" v="Saxtons River" />
    <tag k="addr:housenumber" v="18" />
    <tag k="addr:street" v="Pleasant Street" />
    <tag k="addr:state" v="VT" />
    <tag k="ref:vcgi:esiteid" v="203666" />
  </node>
  <node id="-119" visible="true" lat="43.141297265043" lon="-72.504358245031">
    <tag k="addr:city" v="Saxtons River" />
    <tag k="addr:housenumber" v="7" />
    <tag k="addr:street" v="Hatfield Lane" />
    <tag k="addr:state" v="VT" />
    <tag k="ref:vcgi:esiteid" v="203671" />
  </node>
  <node id="-120" visible="true" lat="43.141137312043" lon="-72.505280654373">
    <tag k="addr:city" v="Saxtons River" />
    <tag k="addr:housenumber" v="1" />
    <tag k="addr:street" v="Hatfield Lane" />
    <tag k="addr:state" v="VT" />
    <tag k="ref:vcgi:esiteid" v="203672" />
  </node>
  <node id="-121" visible="true" lat="43.141136827633" lon="-72.518189597705">
    <tag k="addr:city" v="Bellows Falls" />
    <tag k="addr:housenumber" v="60" />
    <tag k="addr:street" v="Pleasant Valley Road" />
    <tag k="addr:state" v="VT" />
    <tag k="ref:vcgi:esiteid" v="203673" />
  </node>
  <node id="-122" visible="true" lat="43.141064832854" lon="-72.506379288744">
    <tag k="addr:city" v="Saxtons River" />
    <tag k="addr:housenumber" v="16" />
    <tag k="addr:street" v="Pleasant Street" />
    <tag k="addr:state" v="VT" />
    <tag k="ref:vcgi:esiteid" v="203676" />
  </node>
  <node id="-123" visible="true" lat="43.141215467316" lon="-72.501903881583">
    <tag k="addr:city" v="Bellows Falls" />
    <tag k="addr:housenumber" v="4" />
    <tag k="addr:street" v="Acorn Street" />
    <tag k="addr:state" v="VT" />
    <tag k="ref:vcgi:esiteid" v="203678" />
  </node>
  <node id="-124" visible="true" lat="43.140988538225" lon="-72.505784195511">
    <tag k="addr:city" v="Saxtons River" />
    <tag k="addr:housenumber" v="15" />
    <tag k="addr:street" v="Pleasant Street" />
    <tag k="addr:state" v="VT" />
    <tag k="ref:vcgi:esiteid" v="203679" />
  </node>
  <node id="-125" visible="true" lat="43.140881726175" lon="-72.506394547843">
    <tag k="addr:city" v="Saxtons River" />
    <tag k="addr:housenumber" v="14" />
    <tag k="addr:street" v="Pleasant Street" />
    <tag k="addr:state" v="VT" />
    <tag k="ref:vcgi:esiteid" v="203682" />
  </node>
  <node id="-126" visible="true" lat="43.140828321358" lon="-72.501748245031">
    <tag k="addr:city" v="Bellows Falls" />
    <tag k="addr:housenumber" v="6" />
    <tag k="addr:street" v="Oak Street" />
    <tag k="addr:state" v="VT" />
    <tag k="ref:vcgi:esiteid" v="203685" />
  </node>
  <node id="-127" visible="true" lat="43.140675394194" lon="-72.506366702722">
    <tag k="addr:city" v="Saxtons River" />
    <tag k="addr:housenumber" v="12" />
    <tag k="addr:street" v="Pleasant Street" />
    <tag k="addr:state" v="VT" />
    <tag k="ref:vcgi:esiteid" v="203688" />
  </node>
  <node id="-128" visible="true" lat="43.140639517673" lon="-72.505786640718">
    <tag k="addr:city" v="Saxtons River" />
    <tag k="addr:housenumber" v="11" />
    <tag k="addr:street" v="Pleasant Street" />
    <tag k="addr:state" v="VT" />
    <tag k="ref:vcgi:esiteid" v="203690" />
  </node>
  <node id="-129" visible="true" lat="43.140660475638" lon="-72.502183119382">
    <tag k="addr:city" v="Bellows Falls" />
    <tag k="addr:housenumber" v="3" />
    <tag k="addr:street" v="Oak Street" />
    <tag k="addr:state" v="VT" />
    <tag k="ref:vcgi:esiteid" v="203691" />
  </node>
  <node id="-130" visible="true" lat="43.14061851284" lon="-72.507622879629">
    <tag k="addr:city" v="Saxtons River" />
    <tag k="addr:housenumber" v="17" />
    <tag k="addr:street" v="Academy Avenue" />
    <tag k="addr:state" v="VT" />
    <tag k="ref:vcgi:esiteid" v="203695" />
  </node>
  <node id="-131" visible="true" lat="43.140549847519" lon="-72.508034867394">
    <tag k="addr:city" v="Saxtons River" />
    <tag k="addr:housenumber" v="16" />
    <tag k="addr:street" v="Academy Avenue" />
    <tag k="addr:state" v="VT" />
    <tag k="ref:vcgi:esiteid" v="203699" />
  </node>
  <node id="-132" visible="true" lat="43.140452599741" lon="-72.505838166944">
    <tag k="addr:city" v="Saxtons River" />
    <tag k="addr:housenumber" v="9" />
    <tag k="addr:street" v="Pleasant Street" />
    <tag k="addr:state" v="VT" />
    <tag k="ref:vcgi:esiteid" v="203700" />
  </node>
  <node id="-133" visible="true" lat="43.140404889491" lon="-72.509492083639">
    <tag k="addr:city" v="Saxtons River" />
    <tag k="addr:housenumber" v="15" />
    <tag k="addr:street" v="School Street" />
    <tag k="addr:state" v="VT" />
    <tag k="ref:vcgi:esiteid" v="203704" />
  </node>
  <node id="-134" visible="true" lat="43.140332410273" lon="-72.5075084391">
    <tag k="addr:city" v="Saxtons River" />
    <tag k="addr:housenumber" v="15" />
    <tag k="addr:street" v="Academy Avenue" />
    <tag k="addr:state" v="VT" />
    <tag k="ref:vcgi:esiteid" v="203706" />
  </node>
  <node id="-135" visible="true" lat="43.140328110385" lon="-72.518212485752">
    <tag k="addr:city" v="Bellows Falls" />
    <tag k="addr:housenumber" v="46" />
    <tag k="addr:street" v="Pleasant Valley Road" />
    <tag k="addr:state" v="VT" />
    <tag k="ref:vcgi:esiteid" v="203707" />
  </node>
  <node id="-136" visible="true" lat="43.140242064511" lon="-72.506405077035">
    <tag k="addr:city" v="Saxtons River" />
    <tag k="addr:housenumber" v="8" />
    <tag k="addr:street" v="Pleasant Street" />
    <tag k="addr:state" v="VT" />
    <tag k="ref:vcgi:esiteid" v="203709" />
  </node>
  <node id="-137" visible="true" lat="43.140263746886" lon="-72.502869764184">
    <tag k="addr:city" v="Bellows Falls" />
    <tag k="addr:housenumber" v="2" />
    <tag k="addr:street" v="Oak Street" />
    <tag k="addr:state" v="VT" />
    <tag k="ref:vcgi:esiteid" v="203710" />
  </node>
  <node id="-138" visible="true" lat="43.140237043415" lon="-72.507928055084">
    <tag k="addr:city" v="Saxtons River" />
    <tag k="addr:housenumber" v="14" />
    <tag k="addr:street" v="Academy Avenue" />
    <tag k="addr:state" v="VT" />
    <tag k="ref:vcgi:esiteid" v="203711" />
  </node>
  <node id="-139" visible="true" lat="43.140233227272" lon="-72.510453386235">
    <tag k="addr:city" v="Saxtons River" />
    <tag k="addr:housenumber" v="10" />
    <tag k="addr:street" v="Grove Street" />
    <tag k="addr:state" v="VT" />
    <tag k="ref:vcgi:esiteid" v="203712" />
  </node>
  <node id="-140" visible="true" lat="43.140195080908" lon="-72.50747029189">
    <tag k="addr:city" v="Saxtons River" />
    <tag k="addr:housenumber" v="13" />
    <tag k="addr:street" v="Academy Avenue" />
    <tag k="addr:state" v="VT" />
    <tag k="ref:vcgi:esiteid" v="203715" />
  </node>
  <node id="-141" visible="true" lat="43.14016837802" lon="-72.504922072827">
    <tag k="addr:city" v="Saxtons River" />
    <tag k="addr:housenumber" v="2" />
    <tag k="addr:street" v="Rice Road" />
    <tag k="addr:state" v="VT" />
    <tag k="ref:vcgi:esiteid" v="203717" />
  </node>
  <node id="-142" visible="true" lat="43.140111157619" lon="-72.502633255472">
    <tag k="addr:city" v="Bellows Falls" />
    <tag k="addr:housenumber" v="1" />
    <tag k="addr:street" v="Oak Street" />
    <tag k="addr:state" v="VT" />
    <tag k="ref:vcgi:esiteid" v="203718" />
  </node>
  <node id="-143" visible="true" lat="43.140031049114" lon="-72.505852858976">
    <tag k="addr:city" v="Saxtons River" />
    <tag k="addr:housenumber" v="7" />
    <tag k="addr:street" v="Pleasant Street" />
    <tag k="addr:state" v="VT" />
    <tag k="ref:vcgi:esiteid" v="203722" />
  </node>
  <node id="-144" visible="true" lat="43.139996716171" lon="-72.510430498498">
    <tag k="addr:city" v="Saxtons River" />
    <tag k="addr:housenumber" v="8" />
    <tag k="addr:street" v="Grove Street" />
    <tag k="addr:state" v="VT" />
    <tag k="ref:vcgi:esiteid" v="203723" />
  </node>
  <node id="-145" visible="true" lat="43.139989086989" lon="-72.507424516624">
    <tag k="addr:city" v="Saxtons River" />
    <tag k="addr:housenumber" v="11" />
    <tag k="addr:street" v="Academy Avenue" />
    <tag k="addr:state" v="VT" />
    <tag k="ref:vcgi:esiteid" v="203724" />
  </node>
  <node id="-146" visible="true" lat="43.139958569982" lon="-72.507813616044">
    <tag k="addr:city" v="Saxtons River" />
    <tag k="addr:housenumber" v="12" />
    <tag k="addr:street" v="Academy Avenue" />
    <tag k="addr:state" v="VT" />
    <tag k="ref:vcgi:esiteid" v="203725" />
  </node>
  <node id="-147" visible="true" lat="43.139760206076" lon="-72.507752578883">
    <tag k="addr:city" v="Saxtons River" />
    <tag k="addr:housenumber" v="10" />
    <tag k="addr:street" v="Academy Avenue" />
    <tag k="addr:state" v="VT" />
    <tag k="ref:vcgi:esiteid" v="203727" />
  </node>
  <node id="-148" visible="true" lat="43.139756390405" lon="-72.50580708276">
    <tag k="addr:city" v="Saxtons River" />
    <tag k="addr:housenumber" v="5" />
    <tag k="addr:street" v="Pleasant Street" />
    <tag k="addr:state" v="VT" />
    <tag k="ref:vcgi:esiteid" v="203728" />
  </node>
  <node id="-149" visible="true" lat="43.139823548406" lon="-72.501505938599">
    <tag k="addr:city" v="Saxtons River" />
    <tag k="addr:housenumber" v="1" />
    <tag k="addr:street" v="Main Street" />
    <tag k="addr:state" v="VT" />
    <tag k="ref:vcgi:esiteid" v="203729" />
  </node>
  <node id="-150" visible="true" lat="43.13972961423" lon="-72.518632953748">
    <tag k="addr:city" v="Bellows Falls" />
    <tag k="addr:housenumber" v="16" />
    <tag k="addr:street" v="Pleasant Valley Road" />
    <tag k="addr:state" v="VT" />
    <tag k="ref:vcgi:esiteid" v="203731" />
  </node>
  <node id="-151" visible="true" lat="43.139695355885" lon="-72.510880631826">
    <tag k="addr:city" v="Saxtons River" />
    <tag k="addr:housenumber" v="3" />
    <tag k="addr:street" v="West Street" />
    <tag k="addr:state" v="VT" />
    <tag k="ref:vcgi:esiteid" v="203732" />
  </node>
  <node id="-152" visible="true" lat="43.13967246684" lon="-72.506364028338">
    <tag k="addr:city" v="Saxtons River" />
    <tag k="addr:housenumber" v="4" />
    <tag k="addr:street" v="Pleasant Street" />
    <tag k="addr:state" v="VT" />
    <tag k="ref:vcgi:esiteid" v="203733" />
  </node>
  <node id="-153" visible="true" lat="43.139661023906" lon="-72.507271927147">
    <tag k="addr:city" v="Saxtons River" />
    <tag k="addr:housenumber" v="9" />
    <tag k="addr:street" v="Academy Avenue" />
    <tag k="addr:state" v="VT" />
    <tag k="ref:vcgi:esiteid" v="203734" />
  </node>
  <node id="-154" visible="true" lat="43.139592358668" lon="-72.50327412489">
    <tag k="addr:city" v="Bellows Falls" />
    <tag k="addr:housenumber" v="5" />
    <tag k="addr:street" v="Main Street" />
    <tag k="addr:state" v="VT" />
    <tag k="ref:vcgi:esiteid" v="203736" />
  </node>
  <node id="-155" visible="true" lat="43.139554211577" lon="-72.505814712972">
    <tag k="addr:city" v="Saxtons River" />
    <tag k="addr:housenumber" v="3" />
    <tag k="addr:street" v="Pleasant Street" />
    <tag k="addr:state" v="VT" />
    <tag k="ref:vcgi:esiteid" v="203738" />
  </node>
  <node id="-156" visible="true" lat="43.139553727519" lon="-72.518220115425">
    <tag k="addr:city" v="Bellows Falls" />
    <tag k="addr:housenumber" v="14" />
    <tag k="addr:street" v="Pleasant Valley Road" />
    <tag k="addr:state" v="VT" />
    <tag k="ref:vcgi:esiteid" v="203739" />
  </node>
  <node id="-157" visible="true" lat="43.139542766438" lon="-72.509835404122">
    <tag k="addr:city" v="Saxtons River" />
    <tag k="addr:housenumber" v="7" />
    <tag k="addr:street" v="Grove Street" />
    <tag k="addr:state" v="VT" />
    <tag k="ref:vcgi:esiteid" v="203740" />
  </node>
  <node id="-158" visible="true" lat="43.139538953254" lon="-72.503739516891">
    <tag k="addr:city" v="Saxtons River" />
    <tag k="addr:housenumber" v="7" />
    <tag k="addr:street" v="Main Street" />
    <tag k="addr:state" v="VT" />
    <tag k="ref:vcgi:esiteid" v="203741" />
  </node>
  <node id="-159" visible="true" lat="43.139512249897" lon="-72.508622331345">
    <tag k="addr:city" v="Saxtons River" />
    <tag k="addr:housenumber" v="4" />
    <tag k="addr:street" v="School Street" />
    <tag k="addr:state" v="VT" />
    <tag k="ref:vcgi:esiteid" v="203742" />
  </node>
  <node id="-160" visible="true" lat="43.139500806496" lon="-72.510590714921">
    <tag k="addr:city" v="Saxtons River" />
    <tag k="addr:housenumber" v="2" />
    <tag k="addr:street" v="West Street" />
    <tag k="addr:state" v="VT" />
    <tag k="ref:vcgi:esiteid" v="203743" />
  </node>
  <node id="-161" visible="true" lat="43.139489362149" lon="-72.509057206345">
    <tag k="addr:city" v="Saxtons River" />
    <tag k="addr:housenumber" v="1" />
    <tag k="addr:street" v="School Street Place" />
    <tag k="addr:state" v="VT" />
    <tag k="ref:vcgi:esiteid" v="203744" />
  </node>
  <node id="-162" visible="true" lat="43.139489362115" lon="-72.508248491036">
    <tag k="addr:city" v="Saxtons River" />
    <tag k="addr:housenumber" v="5" />
    <tag k="addr:street" v="School Street" />
    <tag k="addr:state" v="VT" />
    <tag k="ref:vcgi:esiteid" v="203745" />
  </node>
  <node id="-163" visible="true" lat="43.139485548241" lon="-72.507691544842">
    <tag k="addr:city" v="Saxtons River" />
    <tag k="addr:housenumber" v="8" />
    <tag k="addr:street" v="Academy Avenue" />
    <tag k="addr:state" v="VT" />
    <tag k="ref:vcgi:esiteid" v="203746" />
  </node>
  <node id="-164" visible="true" lat="43.139481732741" lon="-72.511124773155">
    <tag k="addr:city" v="Saxtons River" />
    <tag k="addr:housenumber" v="4" />
    <tag k="addr:street" v="West Street" />
    <tag k="addr:state" v="VT" />
    <tag k="ref:vcgi:esiteid" v="203747" />
  </node>
  <node id="-165" visible="true" lat="43.13948173302" lon="-72.506364028215">
    <tag k="addr:city" v="Saxtons River" />
    <tag k="addr:housenumber" v="2" />
    <tag k="addr:street" v="Pleasant Street" />
    <tag k="addr:state" v="VT" />
    <tag k="ref:vcgi:esiteid" v="203748" />
  </node>
  <node id="-166" visible="true" lat="43.139470287921" lon="-72.5116512016">
    <tag k="addr:city" v="Saxtons River" />
    <tag k="addr:housenumber" v="6" />
    <tag k="addr:street" v="West Street" />
    <tag k="addr:state" v="VT" />
    <tag k="ref:vcgi:esiteid" v="203749" />
  </node>
  <node id="-167" visible="true" lat="43.13945999666" lon="-72.5017564982">
    <tag k="addr:city" v="Saxtons River" />
    <tag k="addr:housenumber" v="2" />
    <tag k="addr:street" v="Main Street" />
    <tag k="addr:state" v="VT" />
    <tag k="ref:vcgi:esiteid" v="203750" />
  </node>
  <node id="-168" visible="true" lat="43.139413066847" lon="-72.51024739166">
    <tag k="addr:city" v="Saxtons River" />
    <tag k="addr:housenumber" v="6" />
    <tag k="addr:street" v="Grove Street" />
    <tag k="addr:state" v="VT" />
    <tag k="ref:vcgi:esiteid" v="203751" />
  </node>
  <node id="-169" visible="true" lat="43.139390179173" lon="-72.504357498576">
    <tag k="addr:city" v="Saxtons River" />
    <tag k="addr:housenumber" v="11" />
    <tag k="addr:street" v="Main Street" />
    <tag k="addr:state" v="VT" />
    <tag k="ref:vcgi:esiteid" v="203753" />
  </node>
  <node id="-170" visible="true" lat="43.139348217478" lon="-72.505829971205">
    <tag k="addr:city" v="Saxtons River" />
    <tag k="addr:housenumber" v="1" />
    <tag k="addr:street" v="Pleasant Street" />
    <tag k="addr:state" v="VT" />
    <tag k="ref:vcgi:esiteid" v="203754" />
  </node>
  <node id="-171" visible="true" lat="43.139288413797" lon="-72.508228849644">
    <tag k="addr:city" v="Saxtons River" />
    <tag k="addr:housenumber" v="3" />
    <tag k="addr:street" v="School Street" />
    <tag k="addr:state" v="VT" />
    <tag k="ref:vcgi:esiteid" v="203755" />
  </node>
  <node id="-172" visible="true" lat="43.139310071139" lon="-72.507180375133">
    <tag k="addr:city" v="Saxtons River" />
    <tag k="addr:housenumber" v="7" />
    <tag k="addr:street" v="Academy Avenue" />
    <tag k="addr:state" v="VT" />
    <tag k="ref:vcgi:esiteid" v="203756" />
  </node>
  <node id="-173" visible="true" lat="43.139306257257" lon="-72.504914444041">
    <tag k="addr:city" v="Saxtons River" />
    <tag k="addr:housenumber" v="15" />
    <tag k="addr:street" v="Main Street" />
    <tag k="addr:state" v="VT" />
    <tag k="ref:vcgi:esiteid" v="203757" />
  </node>
  <node id="-174" visible="true" lat="43.139252850495" lon="-72.505265396296">
    <tag k="addr:city" v="Saxtons River" />
    <tag k="addr:housenumber" v="17" />
    <tag k="addr:street" v="Main Street" />
    <tag k="addr:state" v="VT" />
    <tag k="ref:vcgi:esiteid" v="203758" />
  </node>
  <node id="-175" visible="true" lat="43.139312823852" lon="-72.507692245955">
    <tag k="addr:city" v="Saxtons River" />
    <tag k="addr:housenumber" v="6" />
    <tag k="addr:street" v="Academy Avenue" />
    <tag k="addr:state" v="VT" />
    <tag k="ref:vcgi:esiteid" v="203759" />
  </node>
  <node id="-176" visible="true" lat="43.139190400985" lon="-72.507184993977">
    <tag k="addr:city" v="Saxtons River" />
    <tag k="addr:housenumber" v="3" />
    <tag k="addr:street" v="Academy Avenue" />
    <tag k="addr:state" v="VT" />
    <tag k="ref:vcgi:esiteid" v="203760" />
  </node>
  <node id="-177" visible="true" lat="43.139242265228" lon="-72.5032719428">
    <tag k="addr:city" v="Saxtons River" />
    <tag k="addr:housenumber" v="2" />
    <tag k="addr:street" v="Mill Street" />
    <tag k="addr:state" v="VT" />
    <tag k="ref:vcgi:esiteid" v="203761" />
  </node>
  <node id="-178" visible="true" lat="43.139165112518" lon="-72.50904194713">
    <tag k="addr:city" v="Saxtons River" />
    <tag k="addr:housenumber" v="2" />
    <tag k="addr:street" v="School Street Place" />
    <tag k="addr:state" v="VT" />
    <tag k="ref:vcgi:esiteid" v="203762" />
  </node>
  <node id="-179" visible="true" lat="43.1391574829" lon="-72.51018635734">
    <tag k="addr:city" v="Saxtons River" />
    <tag k="addr:housenumber" v="4" />
    <tag k="addr:street" v="Grove Street" />
    <tag k="addr:state" v="VT" />
    <tag k="ref:vcgi:esiteid" v="203763" />
  </node>
  <node id="-180" visible="true" lat="43.139157483484" lon="-72.504090469282">
    <tag k="addr:city" v="Saxtons River" />
    <tag k="addr:housenumber" v="10" />
    <tag k="addr:street" v="Main Street" />
    <tag k="addr:state" v="VT" />
    <tag k="ref:vcgi:esiteid" v="203764" />
  </node>
  <node id="-181" visible="true" lat="43.139237982562" lon="-72.509739355916">
    <tag k="addr:city" v="Saxtons River" />
    <tag k="addr:housenumber" v="3" />
    <tag k="addr:street" v="Grove Street" />
    <tag k="addr:state" v="VT" />
    <tag k="ref:vcgi:esiteid" v="203765" />
  </node>
  <node id="-182" visible="true" lat="43.139149853732" lon="-72.508660477762">
    <tag k="addr:city" v="Saxtons River" />
    <tag k="addr:housenumber" v="2" />
    <tag k="addr:street" v="School Street" />
    <tag k="addr:state" v="VT" />
    <tag k="ref:vcgi:esiteid" v="203766" />
  </node>
  <node id="-183" visible="true" lat="43.139138409005" lon="-72.505852858608">
    <tag k="addr:city" v="Saxtons River" />
    <tag k="addr:housenumber" v="19" />
    <tag k="addr:street" v="Main Street" />
    <tag k="addr:state" v="VT" />
    <tag k="ref:vcgi:esiteid" v="203767" />
  </node>
  <node id="-184" visible="true" lat="43.139107891997" lon="-72.50366322378">
    <tag k="addr:city" v="Saxtons River" />
    <tag k="addr:housenumber" v="1" />
    <tag k="addr:street" v="Mill Street" />
    <tag k="addr:state" v="VT" />
    <tag k="ref:vcgi:esiteid" v="203768" />
  </node>
  <node id="-185" visible="true" lat="43.139104078695" lon="-72.506310623401">
    <tag k="addr:city" v="Saxtons River" />
    <tag k="addr:housenumber" v="21" />
    <tag k="addr:street" v="Main Street" />
    <tag k="addr:state" v="VT" />
    <tag k="ref:vcgi:esiteid" v="203769" />
  </node>
  <node id="-186" visible="true" lat="43.139027783819" lon="-72.506692092975">
    <tag k="addr:city" v="Saxtons River" />
    <tag k="addr:housenumber" v="23" />
    <tag k="addr:street" v="Main Street" />
    <tag k="addr:state" v="VT" />
    <tag k="ref:vcgi:esiteid" v="203771" />
  </node>
  <node id="-187" visible="true" lat="43.139012525561" lon="-72.50495259196">
    <tag k="addr:city" v="Saxtons River" />
    <tag k="addr:housenumber" v="16" />
    <tag k="addr:street" v="Main Street" />
    <tag k="addr:state" v="VT" />
    <tag k="ref:vcgi:esiteid" v="203772" />
  </node>
  <node id="-188" visible="true" lat="43.138940045702" lon="-72.507088821962">
    <tag k="addr:city" v="Saxtons River" />
    <tag k="addr:housenumber" v="25" />
    <tag k="addr:street" v="Main Street" />
    <tag k="addr:state" v="VT" />
    <tag k="ref:vcgi:esiteid" v="203774" />
  </node>
  <node id="-189" visible="true" lat="43.138932416574" lon="-72.505395095517">
    <tag k="addr:city" v="Saxtons River" />
    <tag k="addr:housenumber" v="18" />
    <tag k="addr:street" v="Main Street" />
    <tag k="addr:state" v="VT" />
    <tag k="ref:vcgi:esiteid" v="203775" />
  </node>
  <node id="-190" visible="true" lat="43.138916673854" lon="-72.517388509118">
    <tag k="addr:city" v="Bellows Falls" />
    <tag k="addr:housenumber" v="7" />
    <tag k="addr:street" v="Pleasant Valley Road" />
    <tag k="addr:state" v="VT" />
    <tag k="ref:vcgi:esiteid" v="203776" />
  </node>
  <node id="-191" visible="true" lat="43.138808612112" lon="-72.518291120911">
    <tag k="addr:city" v="Bellows Falls" />
    <tag k="addr:housenumber" v="12" />
    <tag k="addr:street" v="Pleasant Valley Road" />
    <tag k="addr:state" v="VT" />
    <tag k="ref:vcgi:esiteid" v="203777" />
  </node>
  <node id="-192" visible="true" lat="43.138922849567" lon="-72.502105323232">
    <tag k="addr:city" v="Saxtons River" />
    <tag k="addr:housenumber" v="4" />
    <tag k="addr:street" v="Maple Street Extension" />
    <tag k="addr:state" v="VT" />
    <tag k="ref:vcgi:esiteid" v="203778" />
  </node>
  <node id="-193" visible="true" lat="43.13884086284" lon="-72.510697527233">
    <tag k="addr:city" v="Saxtons River" />
    <tag k="addr:housenumber" v="47" />
    <tag k="addr:street" v="Main Street" />
    <tag k="addr:state" v="VT" />
    <tag k="ref:vcgi:esiteid" v="203779" />
  </node>
  <node id="-194" visible="true" lat="43.138837049682" lon="-72.507577104363">
    <tag k="addr:city" v="Saxtons River" />
    <tag k="addr:housenumber" v="27" />
    <tag k="addr:street" v="Main Street" />
    <tag k="addr:state" v="VT" />
    <tag k="ref:vcgi:esiteid" v="203780" />
  </node>
  <node id="-195" visible="true" lat="43.138802716966" lon="-72.505204360231">
    <tag k="addr:city" v="Saxtons River" />
    <tag k="addr:housenumber" v="15" />
    <tag k="addr:street" v="Maple Street" />
    <tag k="addr:state" v="VT" />
    <tag k="ref:vcgi:esiteid" v="203781" />
  </node>
  <node id="-196" visible="true" lat="43.138743635092" lon="-72.508248836957">
    <tag k="addr:city" v="Saxtons River" />
    <tag k="addr:housenumber" v="31" />
    <tag k="addr:street" v="Main Street" />
    <tag k="addr:state" v="VT" />
    <tag k="ref:vcgi:esiteid" v="203783" />
  </node>
  <node id="-197" visible="true" lat="43.13876838368" lon="-72.510445756563">
    <tag k="addr:city" v="Saxtons River" />
    <tag k="addr:housenumber" v="45" />
    <tag k="addr:street" v="Main Street" />
    <tag k="addr:state" v="VT" />
    <tag k="ref:vcgi:esiteid" v="203785" />
  </node>
  <node id="-198" visible="true" lat="43.138764325551" lon="-72.504889862271">
    <tag k="addr:city" v="Saxtons River" />
    <tag k="addr:housenumber" v="13" />
    <tag k="addr:street" v="Maple Street" />
    <tag k="addr:state" v="VT" />
    <tag k="ref:vcgi:esiteid" v="203786" />
  </node>
  <node id="-199" visible="true" lat="43.138760754762" lon="-72.511170549012">
    <tag k="addr:city" v="Saxtons River" />
    <tag k="addr:housenumber" v="49" />
    <tag k="addr:street" v="Main Street" />
    <tag k="addr:state" v="VT" />
    <tag k="ref:vcgi:esiteid" v="203787" />
  </node>
  <node id="-200" visible="true" lat="43.138766473156" lon="-72.507863679113">
    <tag k="addr:city" v="Saxtons River" />
    <tag k="addr:housenumber" v="29" />
    <tag k="addr:street" v="Main Street" />
    <tag k="addr:state" v="VT" />
    <tag k="ref:vcgi:esiteid" v="203788" />
  </node>
  <node id="-201" visible="true" lat="43.138734051439" lon="-72.503716628213">
    <tag k="addr:city" v="Saxtons River" />
    <tag k="addr:housenumber" v="5" />
    <tag k="addr:street" v="Mill Street" />
    <tag k="addr:state" v="VT" />
    <tag k="ref:vcgi:esiteid" v="203790" />
  </node>
  <node id="-202" visible="true" lat="43.138734051438" lon="-72.511498613876">
    <tag k="addr:city" v="Saxtons River" />
    <tag k="addr:housenumber" v="51" />
    <tag k="addr:street" v="Main Street" />
    <tag k="addr:state" v="VT" />
    <tag k="ref:vcgi:esiteid" v="203791" />
  </node>
  <node id="-203" visible="true" lat="43.138730237326" lon="-72.512932939537">
    <tag k="addr:city" v="Saxtons River" />
    <tag k="addr:housenumber" v="57" />
    <tag k="addr:street" v="Main Street" />
    <tag k="addr:state" v="VT" />
    <tag k="ref:vcgi:esiteid" v="203793" />
  </node>
  <node id="-204" visible="true" lat="43.138686153757" lon="-72.504634362837">
    <tag k="addr:city" v="Saxtons River" />
    <tag k="addr:housenumber" v="11" />
    <tag k="addr:street" v="Maple Street" />
    <tag k="addr:state" v="VT" />
    <tag k="ref:vcgi:esiteid" v="203794" />
  </node>
  <node id="-205" visible="true" lat="43.138699724803" lon="-72.505968884227">
    <tag k="addr:city" v="Saxtons River" />
    <tag k="addr:housenumber" v="20" />
    <tag k="addr:street" v="Main Street" />
    <tag k="addr:state" v="VT" />
    <tag k="ref:vcgi:esiteid" v="203795" />
  </node>
  <node id="-206" visible="true" lat="43.138676830929" lon="-72.509659928797">
    <tag k="addr:city" v="Saxtons River" />
    <tag k="addr:housenumber" v="1" />
    <tag k="addr:street" v="Grove Street" />
    <tag k="addr:state" v="VT" />
    <tag k="ref:vcgi:esiteid" v="203796" />
  </node>
  <node id="-207" visible="true" lat="43.138650129282" lon="-72.508614702281">
    <tag k="addr:city" v="Saxtons River" />
    <tag k="addr:housenumber" v="35" />
    <tag k="addr:street" v="Main Street" />
    <tag k="addr:state" v="VT" />
    <tag k="ref:vcgi:esiteid" v="203798" />
  </node>
  <node id="-208" visible="true" lat="43.138678408399" lon="-72.502258281313">
    <tag k="addr:city" v="Saxtons River" />
    <tag k="addr:housenumber" v="6" />
    <tag k="addr:street" v="Maple Street Extension" />
    <tag k="addr:state" v="VT" />
    <tag k="ref:vcgi:esiteid" v="203799" />
  </node>
  <node id="-209" visible="true" lat="43.13857605354" lon="-72.506452874556">
    <tag k="addr:city" v="Saxtons River" />
    <tag k="addr:housenumber" v="22" />
    <tag k="addr:street" v="Main Street" />
    <tag k="addr:state" v="VT" />
    <tag k="ref:vcgi:esiteid" v="203800" />
  </node>
  <node id="-210" visible="true" lat="43.138510270826" lon="-72.506929397258">
    <tag k="addr:city" v="Saxtons River" />
    <tag k="addr:housenumber" v="24" />
    <tag k="addr:street" v="Main Street" />
    <tag k="addr:state" v="VT" />
    <tag k="ref:vcgi:esiteid" v="203801" />
  </node>
  <node id="-211" visible="true" lat="43.138561907308" lon="-72.504316520082">
    <tag k="addr:city" v="Saxtons River" />
    <tag k="addr:housenumber" v="9" />
    <tag k="addr:street" v="Maple Street" />
    <tag k="addr:state" v="VT" />
    <tag k="ref:vcgi:esiteid" v="203802" />
  </node>
  <node id="-212" visible="true" lat="43.138550946433" lon="-72.50890461912">
    <tag k="addr:city" v="Saxtons River" />
    <tag k="addr:housenumber" v="37" />
    <tag k="addr:street" v="Main Street" />
    <tag k="addr:state" v="VT" />
    <tag k="ref:vcgi:esiteid" v="203803" />
  </node>
  <node id="-213" visible="true" lat="43.138531872688" lon="-72.50937001217">
    <tag k="addr:city" v="Saxtons River" />
    <tag k="addr:housenumber" v="39" />
    <tag k="addr:street" v="Main Street" />
    <tag k="addr:state" v="VT" />
    <tag k="ref:vcgi:esiteid" v="203804" />
  </node>
  <node id="-214" visible="true" lat="43.138515183083" lon="-72.507161790207">
    <tag k="addr:city" v="Saxtons River" />
    <tag k="addr:housenumber" v="26A" />
    <tag k="addr:street" v="Main Street" />
    <tag k="addr:state" v="VT" />
    <tag k="ref:vcgi:esiteid" v="203805" />
  </node>
  <node id="-215" visible="true" lat="43.138497539381" lon="-72.50725666777">
    <tag k="addr:city" v="Saxtons River" />
    <tag k="addr:housenumber" v="26B" />
    <tag k="addr:street" v="Main Street" />
    <tag k="addr:state" v="VT" />
    <tag k="ref:vcgi:esiteid" v="203806" />
  </node>
  <node id="-216" visible="true" lat="43.138398418049" lon="-72.507539476491">
    <tag k="addr:city" v="Saxtons River" />
    <tag k="addr:housenumber" v="26C" />
    <tag k="addr:street" v="Main Street" />
    <tag k="addr:state" v="VT" />
    <tag k="ref:vcgi:esiteid" v="203807" />
  </node>
  <node id="-217" visible="true" lat="43.138436505981" lon="-72.505768936656">
    <tag k="addr:city" v="Saxtons River" />
    <tag k="addr:housenumber" v="1" />
    <tag k="addr:street" v="River Street" />
    <tag k="addr:state" v="VT" />
    <tag k="ref:vcgi:esiteid" v="203808" />
  </node>
  <node id="-218" visible="true" lat="43.138482468925" lon="-72.504102574754">
    <tag k="addr:city" v="Saxtons River" />
    <tag k="addr:housenumber" v="7" />
    <tag k="addr:street" v="Maple Street" />
    <tag k="addr:state" v="VT" />
    <tag k="ref:vcgi:esiteid" v="203809" />
  </node>
  <node id="-219" visible="true" lat="43.138299280563" lon="-72.505080016498">
    <tag k="addr:city" v="Saxtons River" />
    <tag k="addr:housenumber" v="12" />
    <tag k="addr:street" v="Maple Street" />
    <tag k="addr:state" v="VT" />
    <tag k="ref:vcgi:esiteid" v="203810" />
  </node>
  <node id="-220" visible="true" lat="43.13826305901" lon="-72.508109385655">
    <tag k="addr:city" v="Saxtons River" />
    <tag k="addr:housenumber" v="30" />
    <tag k="addr:street" v="Main Street" />
    <tag k="addr:state" v="VT" />
    <tag k="ref:vcgi:esiteid" v="203811" />
  </node>
  <node id="-221" visible="true" lat="43.138310659565" lon="-72.507783619367">
    <tag k="addr:city" v="Saxtons River" />
    <tag k="addr:housenumber" v="28" />
    <tag k="addr:street" v="Main Street" />
    <tag k="addr:state" v="VT" />
    <tag k="ref:vcgi:esiteid" v="203812" />
  </node>
  <node id="-222" visible="true" lat="43.13829536033" lon="-72.515511676101">
    <tag k="addr:city" v="Bellows Falls" />
    <tag k="addr:housenumber" v="1" />
    <tag k="addr:street" v="Pleasant Valley Road" />
    <tag k="addr:state" v="VT" />
    <tag k="ref:vcgi:esiteid" v="203814" />
  </node>
  <node id="-223" visible="true" lat="43.138280102596" lon="-72.510201615759">
    <tag k="addr:city" v="Saxtons River" />
    <tag k="addr:housenumber" v="44" />
    <tag k="addr:street" v="Main Street" />
    <tag k="addr:state" v="VT" />
    <tag k="ref:vcgi:esiteid" v="203815" />
  </node>
  <node id="-224" visible="true" lat="43.138257214813" lon="-72.509835404518">
    <tag k="addr:city" v="Saxtons River" />
    <tag k="addr:housenumber" v="42" />
    <tag k="addr:street" v="Main Street" />
    <tag k="addr:state" v="VT" />
    <tag k="ref:vcgi:esiteid" v="203816" />
  </node>
  <node id="-225" visible="true" lat="43.138249584563" lon="-72.517419026225">
    <tag k="addr:city" v="Bellows Falls" />
    <tag k="addr:housenumber" v="6" />
    <tag k="addr:street" v="Pleasant Valley Road" />
    <tag k="addr:state" v="VT" />
    <tag k="ref:vcgi:esiteid" v="203817" />
  </node>
  <node id="-226" visible="true" lat="43.138184973726" lon="-72.508874102011">
    <tag k="addr:city" v="Saxtons River" />
    <tag k="addr:housenumber" v="38" />
    <tag k="addr:street" v="Main Street" />
    <tag k="addr:state" v="VT" />
    <tag k="ref:vcgi:esiteid" v="203819" />
  </node>
  <node id="-227" visible="true" lat="43.138169477025" lon="-72.5123607355">
    <tag k="addr:city" v="Saxtons River" />
    <tag k="addr:housenumber" v="56" />
    <tag k="addr:street" v="Main Street" />
    <tag k="addr:state" v="VT" />
    <tag k="ref:vcgi:esiteid" v="203820" />
  </node>
  <node id="-228" visible="true" lat="43.13810462668" lon="-72.508454484687">
    <tag k="addr:city" v="Saxtons River" />
    <tag k="addr:housenumber" v="36" />
    <tag k="addr:street" v="Main Street" />
    <tag k="addr:state" v="VT" />
    <tag k="ref:vcgi:esiteid" v="203825" />
  </node>
  <node id="-229" visible="true" lat="43.138104626956" lon="-72.507012527446">
    <tag k="addr:city" v="Saxtons River" />
    <tag k="addr:housenumber" v="11A" />
    <tag k="addr:street" v="River Street" />
    <tag k="addr:state" v="VT" />
    <tag k="ref:vcgi:esiteid" v="203826" />
  </node>
  <node id="-230" visible="true" lat="43.138093181821" lon="-72.51691548605">
    <tag k="addr:city" v="Bellows Falls" />
    <tag k="addr:housenumber" v="4" />
    <tag k="addr:street" v="Pleasant Valley Road" />
    <tag k="addr:state" v="VT" />
    <tag k="ref:vcgi:esiteid" v="203827" />
  </node>
  <node id="-231" visible="true" lat="43.138066480127" lon="-72.506249588794">
    <tag k="addr:city" v="Saxtons River" />
    <tag k="addr:housenumber" v="3" />
    <tag k="addr:street" v="River Street" />
    <tag k="addr:state" v="VT" />
    <tag k="ref:vcgi:esiteid" v="203828" />
  </node>
  <node id="-232" visible="true" lat="43.138016889197" lon="-72.506432694117">
    <tag k="addr:city" v="Saxtons River" />
    <tag k="addr:housenumber" v="5" />
    <tag k="addr:street" v="River Street" />
    <tag k="addr:state" v="VT" />
    <tag k="ref:vcgi:esiteid" v="203830" />
  </node>
  <node id="-233" visible="true" lat="43.138016889182" lon="-72.514542741994">
    <tag k="addr:city" v="Saxtons River" />
    <tag k="addr:housenumber" v="62" />
    <tag k="addr:street" v="Main Street" />
    <tag k="addr:state" v="VT" />
    <tag k="ref:vcgi:esiteid" v="203831" />
  </node>
  <node id="-234" visible="true" lat="43.137971111561" lon="-72.51645009156">
    <tag k="addr:city" v="Bellows Falls" />
    <tag k="addr:housenumber" v="2" />
    <tag k="addr:street" v="Pleasant Valley Road" />
    <tag k="addr:state" v="VT" />
    <tag k="ref:vcgi:esiteid" v="203832" />
  </node>
  <node id="-235" visible="true" lat="43.137944410254" lon="-72.50858418479">
    <tag k="addr:city" v="Saxtons River" />
    <tag k="addr:housenumber" v="19" />
    <tag k="addr:street" v="River Street" />
    <tag k="addr:state" v="VT" />
    <tag k="ref:vcgi:esiteid" v="203833" />
  </node>
  <node id="-236" visible="true" lat="43.13789481902" lon="-72.507065934414">
    <tag k="addr:city" v="Saxtons River" />
    <tag k="addr:housenumber" v="11" />
    <tag k="addr:street" v="River Street" />
    <tag k="addr:state" v="VT" />
    <tag k="ref:vcgi:esiteid" v="203835" />
  </node>
  <node id="-237" visible="true" lat="43.1378833739" lon="-72.507714432745">
    <tag k="addr:city" v="Saxtons River" />
    <tag k="addr:housenumber" v="13" />
    <tag k="addr:street" v="River Street" />
    <tag k="addr:state" v="VT" />
    <tag k="ref:vcgi:esiteid" v="203836" />
  </node>
  <node id="-238" visible="true" lat="43.137833782596" lon="-72.508301895988">
    <tag k="addr:city" v="Saxtons River" />
    <tag k="addr:housenumber" v="17" />
    <tag k="addr:street" v="River Street" />
    <tag k="addr:state" v="VT" />
    <tag k="ref:vcgi:esiteid" v="203837" />
  </node>
  <node id="-239" visible="true" lat="43.13774986044" lon="-72.506638688665">
    <tag k="addr:city" v="Saxtons River" />
    <tag k="addr:housenumber" v="6" />
    <tag k="addr:street" v="River Street" />
    <tag k="addr:state" v="VT" />
    <tag k="ref:vcgi:esiteid" v="203839" />
  </node>
  <node id="-240" visible="true" lat="43.137707898027" lon="-72.506951493136">
    <tag k="addr:city" v="Saxtons River" />
    <tag k="addr:housenumber" v="10" />
    <tag k="addr:street" v="River Street" />
    <tag k="addr:state" v="VT" />
    <tag k="ref:vcgi:esiteid" v="203840" />
  </node>
  <node id="-241" visible="true" lat="43.137646862116" lon="-72.507516068017">
    <tag k="addr:city" v="Saxtons River" />
    <tag k="addr:housenumber" v="12" />
    <tag k="addr:street" v="River Street" />
    <tag k="addr:state" v="VT" />
    <tag k="ref:vcgi:esiteid" v="203842" />
  </node>
  <node id="-242" visible="true" lat="43.137566753524" lon="-72.510087174758">
    <tag k="addr:city" v="Saxtons River" />
    <tag k="addr:housenumber" v="1" />
    <tag k="addr:street" v="Westminster Street" />
    <tag k="addr:state" v="VT" />
    <tag k="ref:vcgi:esiteid" v="203843" />
  </node>
  <node id="-243" visible="true" lat="43.13755912462" lon="-72.507783096258">
    <tag k="addr:city" v="Saxtons River" />
    <tag k="addr:housenumber" v="14" />
    <tag k="addr:street" v="River Street" />
    <tag k="addr:state" v="VT" />
    <tag k="ref:vcgi:esiteid" v="203844" />
  </node>
  <node id="-244" visible="true" lat="43.137532421012" lon="-72.506585281203">
    <tag k="addr:city" v="Saxtons River" />
    <tag k="addr:housenumber" v="8" />
    <tag k="addr:street" v="River Street" />
    <tag k="addr:state" v="VT" />
    <tag k="ref:vcgi:esiteid" v="203845" />
  </node>
  <node id="-245" visible="true" lat="43.137341687297" lon="-72.509789628765">
    <tag k="addr:city" v="Saxtons River" />
    <tag k="addr:housenumber" v="2" />
    <tag k="addr:street" v="Westminster Street" />
    <tag k="addr:state" v="VT" />
    <tag k="ref:vcgi:esiteid" v="203849" />
  </node>
  <node id="-246" visible="true" lat="43.137101361336" lon="-72.510377090989">
    <tag k="addr:city" v="Saxtons River" />
    <tag k="addr:housenumber" v="3" />
    <tag k="addr:street" v="Westminster Street" />
    <tag k="addr:state" v="VT" />
    <tag k="ref:vcgi:esiteid" v="203852" />
  </node>
  <node id="-247" visible="true" lat="43.137009808506" lon="-72.514229937522">
    <tag k="addr:city" v="Saxtons River" />
    <tag k="addr:housenumber" v="6" />
    <tag k="addr:street" v="Frost Place" />
    <tag k="addr:state" v="VT" />
    <tag k="ref:vcgi:esiteid" v="203853" />
  </node>
  <node id="-248" visible="true" lat="43.136909959405" lon="-72.509859287322">
    <tag k="addr:city" v="Saxtons River" />
    <tag k="addr:housenumber" v="4" />
    <tag k="addr:street" v="Westminster Street" />
    <tag k="addr:state" v="VT" />
    <tag k="ref:vcgi:esiteid" v="203856" />
  </node>
  <node id="-249" visible="true" lat="43.13689302413" lon="-72.510483271835">
    <tag k="addr:city" v="Saxtons River" />
    <tag k="addr:housenumber" v="5" />
    <tag k="addr:street" v="Westminster Street" />
    <tag k="addr:state" v="VT" />
    <tag k="ref:vcgi:esiteid" v="203857" />
  </node>
  <node id="-250" visible="true" lat="43.13652152671" lon="-72.511429948404">
    <tag k="addr:city" v="Saxtons River" />
    <tag k="addr:housenumber" v="7A" />
    <tag k="addr:street" v="Westminster Street" />
    <tag k="addr:state" v="VT" />
    <tag k="ref:vcgi:esiteid" v="203863" />
  </node>
  <node id="-251" visible="true" lat="43.13642361236" lon="-72.512737445895">
    <tag k="addr:city" v="Saxtons River" />
    <tag k="addr:housenumber" v="6" />
    <tag k="addr:street" v="Cobb Lane" />
    <tag k="addr:state" v="VT" />
    <tag k="ref:vcgi:esiteid" v="203864" />
  </node>
  <node id="-252" visible="true" lat="43.136468121212" lon="-72.512086078264">
    <tag k="addr:city" v="Saxtons River" />
    <tag k="addr:housenumber" v="8" />
    <tag k="addr:street" v="Cobb Lane" />
    <tag k="addr:state" v="VT" />
    <tag k="ref:vcgi:esiteid" v="203865" />
  </node>
  <node id="-253" visible="true" lat="43.13645192366" lon="-72.510951539977">
    <tag k="addr:city" v="Saxtons River" />
    <tag k="addr:housenumber" v="7" />
    <tag k="addr:street" v="Westminster Street" />
    <tag k="addr:state" v="VT" />
    <tag k="ref:vcgi:esiteid" v="203866" />
  </node>
  <node id="-254" visible="true" lat="43.136396912021" lon="-72.51349723309">
    <tag k="addr:city" v="Saxtons River" />
    <tag k="addr:housenumber" v="4" />
    <tag k="addr:street" v="Cobb Lane" />
    <tag k="addr:state" v="VT" />
    <tag k="ref:vcgi:esiteid" v="203867" />
  </node>
  <node id="-255" visible="true" lat="43.136370641251" lon="-72.51018947389">
    <tag k="addr:city" v="Saxtons River" />
    <tag k="addr:housenumber" v="6" />
    <tag k="addr:street" v="Westminster Street" />
    <tag k="addr:state" v="VT" />
    <tag k="ref:vcgi:esiteid" v="203868" />
  </node>
  <node id="-256" visible="true" lat="43.136098094433" lon="-72.510827226972">
    <tag k="addr:city" v="Saxtons River" />
    <tag k="addr:housenumber" v="9" />
    <tag k="addr:street" v="Westminster Street" />
    <tag k="addr:state" v="VT" />
    <tag k="ref:vcgi:esiteid" v="203871" />
  </node>
  <node id="-257" visible="true" lat="43.136063764038" lon="-72.510361832749">
    <tag k="addr:city" v="Saxtons River" />
    <tag k="addr:housenumber" v="8" />
    <tag k="addr:street" v="Westminster Street" />
    <tag k="addr:state" v="VT" />
    <tag k="ref:vcgi:esiteid" v="203873" />
  </node>
  <node id="-258" visible="true" lat="43.135804364184" lon="-72.513131305725">
    <tag k="addr:city" v="Saxtons River" />
    <tag k="addr:housenumber" v="13" />
    <tag k="addr:street" v="Clark Court" />
    <tag k="addr:state" v="VT" />
    <tag k="ref:vcgi:esiteid" v="203874" />
  </node>
  <node id="-259" visible="true" lat="43.135758586871" lon="-72.514016313228">
    <tag k="addr:city" v="Saxtons River" />
    <tag k="addr:housenumber" v="15" />
    <tag k="addr:street" v="Clark Court" />
    <tag k="addr:state" v="VT" />
    <tag k="ref:vcgi:esiteid" v="203875" />
  </node>
  <node id="-260" visible="true" lat="43.13573951477" lon="-72.51274220565">
    <tag k="addr:city" v="Saxtons River" />
    <tag k="addr:housenumber" v="11" />
    <tag k="addr:street" v="Clark Court" />
    <tag k="addr:state" v="VT" />
    <tag k="ref:vcgi:esiteid" v="203876" />
  </node>
  <node id="-261" visible="true" lat="43.135674664931" lon="-72.512353106398">
    <tag k="addr:city" v="Saxtons River" />
    <tag k="addr:housenumber" v="9" />
    <tag k="addr:street" v="Clark Court" />
    <tag k="addr:state" v="VT" />
    <tag k="ref:vcgi:esiteid" v="203878" />
  </node>
  <node id="-262" visible="true" lat="43.135663219625" lon="-72.511918229637">
    <tag k="addr:city" v="Saxtons River" />
    <tag k="addr:housenumber" v="7" />
    <tag k="addr:street" v="Clark Court" />
    <tag k="addr:state" v="VT" />
    <tag k="ref:vcgi:esiteid" v="203879" />
  </node>
  <node id="-263" visible="true" lat="43.135640332071" lon="-72.510445756197">
    <tag k="addr:city" v="Saxtons River" />
    <tag k="addr:housenumber" v="10" />
    <tag k="addr:street" v="Westminster Street" />
    <tag k="addr:state" v="VT" />
    <tag k="ref:vcgi:esiteid" v="203880" />
  </node>
  <node id="-264" visible="true" lat="43.135602185083" lon="-72.511559648012">
    <tag k="addr:city" v="Saxtons River" />
    <tag k="addr:housenumber" v="5" />
    <tag k="addr:street" v="Clark Court" />
    <tag k="addr:state" v="VT" />
    <tag k="ref:vcgi:esiteid" v="203881" />
  </node>
  <node id="-265" visible="true" lat="43.135529706198" lon="-72.51101033164">
    <tag k="addr:city" v="Saxtons River" />
    <tag k="addr:housenumber" v="11" />
    <tag k="addr:street" v="Westminster Street" />
    <tag k="addr:state" v="VT" />
    <tag k="ref:vcgi:esiteid" v="203882" />
  </node>
  <node id="-266" visible="true" lat="43.135499186897" lon="-72.513230486172">
    <tag k="addr:city" v="Saxtons River" />
    <tag k="addr:housenumber" v="12" />
    <tag k="addr:street" v="Clark Court" />
    <tag k="addr:state" v="VT" />
    <tag k="ref:vcgi:esiteid" v="203883" />
  </node>
  <node id="-267" visible="true" lat="43.135434337087" lon="-72.512871905858">
    <tag k="addr:city" v="Saxtons River" />
    <tag k="addr:housenumber" v="10" />
    <tag k="addr:street" v="Clark Court" />
    <tag k="addr:state" v="VT" />
    <tag k="ref:vcgi:esiteid" v="203884" />
  </node>
  <node id="-268" visible="true" lat="43.135350415585" lon="-72.512437028304">
    <tag k="addr:city" v="Saxtons River" />
    <tag k="addr:housenumber" v="8" />
    <tag k="addr:street" v="Clark Court" />
    <tag k="addr:state" v="VT" />
    <tag k="ref:vcgi:esiteid" v="203885" />
  </node>
  <node id="-269" visible="true" lat="43.135258862034" lon="-72.512093707665">
    <tag k="addr:city" v="Saxtons River" />
    <tag k="addr:housenumber" v="6" />
    <tag k="addr:street" v="Clark Court" />
    <tag k="addr:state" v="VT" />
    <tag k="ref:vcgi:esiteid" v="203886" />
  </node>
  <node id="-270" visible="true" lat="43.135209270446" lon="-72.51165120119">
    <tag k="addr:city" v="Saxtons River" />
    <tag k="addr:housenumber" v="4" />
    <tag k="addr:street" v="Clark Court" />
    <tag k="addr:state" v="VT" />
    <tag k="ref:vcgi:esiteid" v="203889" />
  </node>
  <node id="-271" visible="true" lat="43.135197825815" lon="-72.513833208539">
    <tag k="addr:city" v="Saxtons River" />
    <tag k="addr:housenumber" v="17" />
    <tag k="addr:street" v="Clark Court" />
    <tag k="addr:state" v="VT" />
    <tag k="ref:vcgi:esiteid" v="203890" />
  </node>
  <node id="-272" visible="true" lat="43.13518256701" lon="-72.511284989825">
    <tag k="addr:city" v="Saxtons River" />
    <tag k="addr:housenumber" v="2" />
    <tag k="addr:street" v="Clark Court" />
    <tag k="addr:state" v="VT" />
    <tag k="ref:vcgi:esiteid" v="203891" />
  </node>
  <node id="-273" visible="true" lat="43.135163494901" lon="-72.510583085605">
    <tag k="addr:city" v="Saxtons River" />
    <tag k="addr:housenumber" v="12" />
    <tag k="addr:street" v="Westminster Street" />
    <tag k="addr:state" v="VT" />
    <tag k="ref:vcgi:esiteid" v="203892" />
  </node>
  <node id="-274" visible="true" lat="43.134946057806" lon="-72.510659381037">
    <tag k="addr:city" v="Saxtons River" />
    <tag k="addr:housenumber" v="14" />
    <tag k="addr:street" v="Westminster Street" />
    <tag k="addr:state" v="VT" />
    <tag k="ref:vcgi:esiteid" v="203894" />
  </node>
  <node id="-275" visible="true" lat="43.134892650731" lon="-72.511239213476">
    <tag k="addr:city" v="Saxtons River" />
    <tag k="addr:housenumber" v="15" />
    <tag k="addr:street" v="Westminster Street" />
    <tag k="addr:state" v="VT" />
    <tag k="ref:vcgi:esiteid" v="203895" />
  </node>
  <node id="-276" visible="true" lat="43.134713359539" lon="-72.514107866862">
    <tag k="addr:city" v="Saxtons River" />
    <tag k="addr:housenumber" v="6" />
    <tag k="addr:street" v="Jed Circle" />
    <tag k="addr:state" v="VT" />
    <tag k="ref:vcgi:esiteid" v="203896" />
  </node>
  <node id="-277" visible="true" lat="43.134614177336" lon="-72.513123676368">
    <tag k="addr:city" v="Saxtons River" />
    <tag k="addr:housenumber" v="3" />
    <tag k="addr:street" v="Vancor Drive" />
    <tag k="addr:state" v="VT" />
    <tag k="ref:vcgi:esiteid" v="203898" />
  </node>
  <node id="-278" visible="true" lat="43.134568401573" lon="-72.511292619011">
    <tag k="addr:city" v="Saxtons River" />
    <tag k="addr:housenumber" v="17" />
    <tag k="addr:street" v="Westminster Street" />
    <tag k="addr:state" v="VT" />
    <tag k="ref:vcgi:esiteid" v="203900" />
  </node>
  <node id="-279" visible="true" lat="43.134514996338" lon="-72.509614151807">
    <tag k="addr:city" v="Saxtons River" />
    <tag k="addr:housenumber" v="35" />
    <tag k="addr:street" v="Warner Center Road" />
    <tag k="addr:state" v="VT" />
    <tag k="ref:vcgi:esiteid" v="203901" />
  </node>
  <node id="-280" visible="true" lat="43.13441962724" lon="-72.5083018949">
    <tag k="addr:city" v="Saxtons River" />
    <tag k="addr:housenumber" v="25" />
    <tag k="addr:street" v="Warner Center Road" />
    <tag k="addr:state" v="VT" />
    <tag k="ref:vcgi:esiteid" v="203903" />
  </node>
  <node id="-281" visible="true" lat="43.134309002105" lon="-72.513558550933">
    <tag k="addr:city" v="Saxtons River" />
    <tag k="addr:housenumber" v="2" />
    <tag k="addr:street" v="Jed Circle" />
    <tag k="addr:state" v="VT" />
    <tag k="ref:vcgi:esiteid" v="203907" />
  </node>
  <node id="-282" visible="true" lat="43.134263226488" lon="-72.512505694133">
    <tag k="addr:city" v="Saxtons River" />
    <tag k="addr:housenumber" v="2" />
    <tag k="addr:street" v="Vancor Drive" />
    <tag k="addr:state" v="VT" />
    <tag k="ref:vcgi:esiteid" v="203908" />
  </node>
  <node id="-283" visible="true" lat="43.134198376099" lon="-72.509728592831">
    <tag k="addr:city" v="Saxtons River" />
    <tag k="addr:housenumber" v="14" />
    <tag k="addr:street" v="Warner Center Road" />
    <tag k="addr:state" v="VT" />
    <tag k="ref:vcgi:esiteid" v="203909" />
  </node>
  <node id="-284" visible="true" lat="43.134099193374" lon="-72.511498613011">
    <tag k="addr:city" v="Saxtons River" />
    <tag k="addr:housenumber" v="19" />
    <tag k="addr:street" v="Westminster Street" />
    <tag k="addr:state" v="VT" />
    <tag k="ref:vcgi:esiteid" v="203911" />
  </node>
  <node id="-285" visible="true" lat="43.134064860627" lon="-72.513344926629">
    <tag k="addr:city" v="Saxtons River" />
    <tag k="addr:housenumber" v="5" />
    <tag k="addr:street" v="Vancor Drive" />
    <tag k="addr:state" v="VT" />
    <tag k="ref:vcgi:esiteid" v="203912" />
  </node>
  <node id="-286" visible="true" lat="43.133977122922" lon="-72.509751482834">
    <tag k="addr:city" v="Saxtons River" />
    <tag k="addr:housenumber" v="15" />
    <tag k="addr:street" v="Warner Center Road" />
    <tag k="addr:state" v="VT" />
    <tag k="ref:vcgi:esiteid" v="203914" />
  </node>
  <node id="-287" visible="true" lat="43.133847423074" lon="-72.512787981139">
    <tag k="addr:city" v="Saxtons River" />
    <tag k="addr:housenumber" v="6" />
    <tag k="addr:street" v="Vancor Drive" />
    <tag k="addr:state" v="VT" />
    <tag k="ref:vcgi:esiteid" v="203916" />
  </node>
  <node id="-288" visible="true" lat="43.133824535387" lon="-72.511643571069">
    <tag k="addr:city" v="Saxtons River" />
    <tag k="addr:housenumber" v="21" />
    <tag k="addr:street" v="Westminster Street" />
    <tag k="addr:state" v="VT" />
    <tag k="ref:vcgi:esiteid" v="203917" />
  </node>
  <node id="-289" visible="true" lat="43.13377112845" lon="-72.513306780588">
    <tag k="addr:city" v="Saxtons River" />
    <tag k="addr:housenumber" v="9" />
    <tag k="addr:street" v="Vancor Drive" />
    <tag k="addr:state" v="VT" />
    <tag k="ref:vcgi:esiteid" v="203918" />
  </node>
  <node id="-290" visible="true" lat="43.13372153983" lon="-72.509759111736">
    <tag k="addr:city" v="Saxtons River" />
    <tag k="addr:housenumber" v="17" />
    <tag k="addr:street" v="Warner Center Road" />
    <tag k="addr:state" v="VT" />
    <tag k="ref:vcgi:esiteid" v="203919" />
  </node>
  <node id="-291" visible="true" lat="43.133633799804" lon="-72.508881730239">
    <tag k="addr:city" v="Saxtons River" />
    <tag k="addr:housenumber" v="21" />
    <tag k="addr:street" v="Warner Center Road" />
    <tag k="addr:state" v="VT" />
    <tag k="ref:vcgi:esiteid" v="203920" />
  </node>
  <node id="-292" visible="true" lat="43.133516989292" lon="-72.511609178191">
    <tag k="addr:city" v="Putney" />
    <tag k="addr:housenumber" v="1" />
    <tag k="addr:street" v="Hartley Hill Road" />
    <tag k="addr:state" v="VT" />
    <tag k="ref:vcgi:esiteid" v="203921" />
  </node>
  <node id="-293" visible="true" lat="43.133465953271" lon="-72.513787432917">
    <tag k="addr:city" v="Saxtons River" />
    <tag k="addr:housenumber" v="27" />
    <tag k="addr:street" v="Westminster West Road" />
    <tag k="addr:state" v="VT" />
    <tag k="ref:vcgi:esiteid" v="203922" />
  </node>
  <node id="-294" visible="true" lat="43.133256145016" lon="-72.515084431087">
    <tag k="addr:city" v="Saxtons River" />
    <tag k="addr:housenumber" v="33" />
    <tag k="addr:street" v="Westminster West Road" />
    <tag k="addr:state" v="VT" />
    <tag k="ref:vcgi:esiteid" v="203926" />
  </node>
  <node id="-295" visible="true" lat="43.133234858638" lon="-72.511089693311">
    <tag k="addr:city" v="Putney" />
    <tag k="addr:housenumber" v="4" />
    <tag k="addr:street" v="Hartley Hill Road" />
    <tag k="addr:state" v="VT" />
    <tag k="ref:vcgi:esiteid" v="203927" />
  </node>
  <node id="-296" visible="true" lat="43.133337276795" lon="-72.515585508616">
    <tag k="addr:city" v="Saxtons River" />
    <tag k="addr:housenumber" v="37" />
    <tag k="addr:street" v="Westminster West Road" />
    <tag k="addr:state" v="VT" />
    <tag k="ref:vcgi:esiteid" v="203928" />
  </node>
  <node id="-297" visible="true" lat="43.133115000799" lon="-72.516266986976">
    <tag k="addr:city" v="Saxtons River" />
    <tag k="addr:housenumber" v="37 Lot 3" />
    <tag k="addr:street" v="Westminster West Road" />
    <tag k="addr:state" v="VT" />
    <tag k="ref:vcgi:esiteid" v="203930" />
  </node>
  <node id="-298" visible="true" lat="43.133222638778" lon="-72.516015124135">
    <tag k="addr:city" v="Saxtons River" />
    <tag k="addr:housenumber" v="37 Lot 2" />
    <tag k="addr:street" v="Westminster West Road" />
    <tag k="addr:state" v="VT" />
    <tag k="ref:vcgi:esiteid" v="203931" />
  </node>
  <node id="-299" visible="true" lat="43.133057779846" lon="-72.516465349729">
    <tag k="addr:city" v="Saxtons River" />
    <tag k="addr:housenumber" v="37 Lot 4" />
    <tag k="addr:street" v="Westminster West Road" />
    <tag k="addr:state" v="VT" />
    <tag k="ref:vcgi:esiteid" v="203932" />
  </node>
  <node id="-300" visible="true" lat="43.133004375166" lon="-72.516793415057">
    <tag k="addr:city" v="Saxtons River" />
    <tag k="addr:housenumber" v="37 Lot 5" />
    <tag k="addr:street" v="Westminster West Road" />
    <tag k="addr:state" v="VT" />
    <tag k="ref:vcgi:esiteid" v="203933" />
  </node>
  <node id="-301" visible="true" lat="43.132859416593" lon="-72.517075702033">
    <tag k="addr:city" v="Saxtons River" />
    <tag k="addr:housenumber" v="37 Lot 6" />
    <tag k="addr:street" v="Westminster West Road" />
    <tag k="addr:state" v="VT" />
    <tag k="ref:vcgi:esiteid" v="203934" />
  </node>
  <node id="-302" visible="true" lat="43.132790751168" lon="-72.51733510182">
    <tag k="addr:city" v="Saxtons River" />
    <tag k="addr:housenumber" v="37 Lot 7" />
    <tag k="addr:street" v="Westminster West Road" />
    <tag k="addr:state" v="VT" />
    <tag k="ref:vcgi:esiteid" v="203937" />
  </node>
  <node id="-303" visible="true" lat="43.132714458097" lon="-72.517594501298">
    <tag k="addr:city" v="Saxtons River" />
    <tag k="addr:housenumber" v="37 Lot 8" />
    <tag k="addr:street" v="Westminster West Road" />
    <tag k="addr:state" v="VT" />
    <tag k="ref:vcgi:esiteid" v="203939" />
  </node>
  <node id="-304" visible="true" lat="43.14194379969" lon="-72.517287334047">
    <tag k="addr:city" v="Bellows Falls" />
    <tag k="addr:housenumber" v="75" />
    <tag k="addr:street" v="Pleasant Valley Road" />
    <tag k="addr:state" v="VT" />
    <tag k="ref:vcgi:esiteid" v="203981" />
  </node>
  <node id="-305" visible="true" lat="43.143475280592" lon="-72.506231743708">
    <tag k="addr:city" v="Saxtons River" />
    <tag k="addr:housenumber" v="31" />
    <tag k="addr:street" v="Pleasant Street" />
    <tag k="addr:state" v="VT" />
    <tag k="ref:vcgi:esiteid" v="203983" />
  </node>
  <node id="-306" visible="true" lat="43.143760185308" lon="-72.506646573631">
    <tag k="addr:city" v="Saxtons River" />
    <tag k="addr:housenumber" v="32" />
    <tag k="addr:street" v="Pleasant Street" />
    <tag k="addr:state" v="VT" />
    <tag k="ref:vcgi:esiteid" v="203984" />
  </node>
  <node id="-307" visible="true" lat="43.137295911462" lon="-72.505082290923">
    <tag k="addr:city" v="Saxtons River" />
    <tag k="addr:housenumber" v="21" />
    <tag k="addr:street" v="Plant Road" />
    <tag k="addr:state" v="VT" />
    <tag k="ref:vcgi:esiteid" v="203990" />
  </node>
  <node id="-308" visible="true" lat="43.143772785278" lon="-72.508950395091">
    <tag k="addr:city" v="Saxtons River" />
    <tag k="addr:housenumber" v="33" />
    <tag k="addr:street" v="Shepard Lane" />
    <tag k="addr:state" v="VT" />
    <tag k="ref:vcgi:esiteid" v="204011" />
  </node>
  <node id="-309" visible="true" lat="43.143414686458" lon="-72.507996720611">
    <tag k="addr:city" v="Saxtons River" />
    <tag k="addr:housenumber" v="19" />
    <tag k="addr:street" v="Shepard Lane" />
    <tag k="addr:state" v="VT" />
    <tag k="ref:vcgi:esiteid" v="204012" />
  </node>
  <node id="-310" visible="true" lat="43.14315528706" lon="-72.509446305582">
    <tag k="addr:city" v="Saxtons River" />
    <tag k="addr:housenumber" v="3" />
    <tag k="addr:street" v="Library Way" />
    <tag k="addr:state" v="VT" />
    <tag k="ref:vcgi:esiteid" v="204013" />
  </node>
  <node id="-311" visible="true" lat="43.142472455251" lon="-72.511140031078">
    <tag k="addr:city" v="Saxtons River" />
    <tag k="addr:housenumber" v="30" />
    <tag k="addr:street" v="Sturtevant Lane" />
    <tag k="addr:state" v="VT" />
    <tag k="ref:vcgi:esiteid" v="204020" />
  </node>
  <node id="-312" visible="true" lat="43.142018506756" lon="-72.511216326021">
    <tag k="addr:city" v="Saxtons River" />
    <tag k="addr:housenumber" v="24" />
    <tag k="addr:street" v="Sturtevant Lane" />
    <tag k="addr:state" v="VT" />
    <tag k="ref:vcgi:esiteid" v="204021" />
  </node>
  <node id="-313" visible="true" lat="43.141705702522" lon="-72.511086627196">
    <tag k="addr:city" v="Saxtons River" />
    <tag k="addr:housenumber" v="20" />
    <tag k="addr:street" v="Sturtevant Lane" />
    <tag k="addr:state" v="VT" />
    <tag k="ref:vcgi:esiteid" v="204022" />
  </node>
  <node id="-314" visible="true" lat="43.141690443658" lon="-72.509179276246">
    <tag k="addr:city" v="Saxtons River" />
    <tag k="addr:housenumber" v="16" />
    <tag k="addr:street" v="Long Walk" />
    <tag k="addr:state" v="VT" />
    <tag k="ref:vcgi:esiteid" v="204023" />
  </node>
  <node id="-315" visible="true" lat="43.141640852099" lon="-72.50999562154">
    <tag k="addr:city" v="Saxtons River" />
    <tag k="addr:housenumber" v="13" />
    <tag k="addr:street" v="Sturtevant Lane" />
    <tag k="addr:state" v="VT" />
    <tag k="ref:vcgi:esiteid" v="204024" />
  </node>
  <node id="-316" visible="true" lat="43.141289899706" lon="-72.510743303499">
    <tag k="addr:city" v="Saxtons River" />
    <tag k="addr:housenumber" v="14" />
    <tag k="addr:street" v="Sturtevant Lane" />
    <tag k="addr:state" v="VT" />
    <tag k="ref:vcgi:esiteid" v="204025" />
  </node>
  <node id="-317" visible="true" lat="43.142392398654" lon="-72.507535199126">
    <tag k="addr:city" v="Saxtons River" />
    <tag k="addr:housenumber" v="23" />
    <tag k="addr:street" v="Leavitt Lane" />
    <tag k="addr:state" v="VT" />
    <tag k="ref:vcgi:esiteid" v="204026" />
  </node>
  <node id="-318" visible="true" lat="43.141545483274" lon="-72.507371109859">
    <tag k="addr:city" v="Saxtons River" />
    <tag k="addr:housenumber" v="11" />
    <tag k="addr:street" v="Leavitt Lane" />
    <tag k="addr:state" v="VT" />
    <tag k="ref:vcgi:esiteid" v="204027" />
  </node>
  <node id="-319" visible="true" lat="43.142125318848" lon="-72.508202715131">
    <tag k="addr:city" v="Saxtons River" />
    <tag k="addr:housenumber" v="5" />
    <tag k="addr:street" v="Long Walk" />
    <tag k="addr:state" v="VT" />
    <tag k="ref:vcgi:esiteid" v="204028" />
  </node>
  <node id="-320" visible="true" lat="43.141702842864" lon="-72.507921290679">
    <tag k="addr:city" v="Saxtons River" />
    <tag k="addr:housenumber" v="2" />
    <tag k="addr:street" v="Long Walk" />
    <tag k="addr:state" v="VT" />
    <tag k="ref:vcgi:esiteid" v="204029" />
  </node>
  <node id="-321" visible="true" lat="43.141717145099" lon="-72.508515519498">
    <tag k="addr:city" v="Saxtons River" />
    <tag k="addr:housenumber" v="10" />
    <tag k="addr:street" v="Long Walk" />
    <tag k="addr:state" v="VT" />
    <tag k="ref:vcgi:esiteid" v="204030" />
  </node>
  <node id="-322" visible="true" lat="43.142785260426" lon="-72.508652848365">
    <tag k="addr:city" v="Saxtons River" />
    <tag k="addr:housenumber" v="10" />
    <tag k="addr:street" v="Library Way" />
    <tag k="addr:state" v="VT" />
    <tag k="ref:vcgi:esiteid" v="204031" />
  </node>
  <node id="-323" visible="true" lat="43.142426679782" lon="-72.508553666201">
    <tag k="addr:city" v="Saxtons River" />
    <tag k="addr:housenumber" v="16" />
    <tag k="addr:street" v="Library Way" />
    <tag k="addr:state" v="VT" />
    <tag k="ref:vcgi:esiteid" v="204032" />
  </node>
  <node id="-324" visible="true" lat="43.14211266232" lon="-72.508610914447">
    <tag k="addr:city" v="Saxtons River" />
    <tag k="addr:housenumber" v="9" />
    <tag k="addr:street" v="Long Walk" />
    <tag k="addr:state" v="VT" />
    <tag k="ref:vcgi:esiteid" v="204033" />
  </node>
  <node id="-325" visible="true" lat="43.138737867029" lon="-72.512246294369">
    <tag k="addr:city" v="Saxtons River" />
    <tag k="addr:housenumber" v="5" />
    <tag k="addr:street" v="Burk Hill Street" />
    <tag k="addr:state" v="VT" />
    <tag k="ref:vcgi:esiteid" v="204034" />
  </node>
  <node id="-326" visible="true" lat="43.134969648263" lon="-72.51318208866">
    <tag k="addr:city" v="Saxtons River" />
    <tag k="addr:housenumber" v="18" />
    <tag k="addr:street" v="Clark Court" />
    <tag k="addr:state" v="VT" />
    <tag k="ref:vcgi:esiteid" v="204053" />
  </node>
  <node id="-327" visible="true" lat="43.141092009431" lon="-72.511150357975">
    <tag k="addr:city" v="Saxtons River" />
    <tag k="addr:housenumber" v="16" />
    <tag k="addr:street" v="Sturtevant Lane" />
    <tag k="addr:state" v="VT" />
    <tag k="ref:vcgi:esiteid" v="205304" />
  </node>
  <node id="-328" visible="true" lat="43.138491941975" lon="-72.507316573931">
    <tag k="addr:city" v="Saxtons River" />
    <tag k="addr:housenumber" v="26" />
    <tag k="addr:street" v="Main Street" />
    <tag k="addr:state" v="VT" />
    <tag k="ref:vcgi:esiteid" v="336590" />
  </node>
  <node id="-329" visible="true" lat="43.143131874202" lon="-72.506071903818">
    <tag k="addr:city" v="Saxtons River" />
    <tag k="addr:housenumber" v="29B" />
    <tag k="addr:street" v="Pleasant Street" />
    <tag k="addr:state" v="VT" />
    <tag k="ref:vcgi:esiteid" v="340859" />
  </node>
  <node id="-330" visible="true" lat="43.139373420855" lon="-72.517902613968">
    <tag k="addr:city" v="Bellows Falls" />
    <tag k="addr:housenumber" v="18" />
    <tag k="addr:street" v="Pleasant Valley Road" />
    <tag k="addr:state" v="VT" />
    <tag k="ref:vcgi:esiteid" v="617320" />
  </node>
  <node id="-331" visible="true" lat="43.138221737885" lon="-72.511925351936">
    <tag k="addr:city" v="Saxtons River" />
    <tag k="addr:housenumber" v="54" />
    <tag k="addr:street" v="Main Street" />
    <tag k="addr:state" v="VT" />
    <tag k="ref:vcgi:esiteid" v="753195" />
  </node>
  <node id="-332" visible="true" lat="43.13253188306" lon="-72.516902155222">
    <tag k="addr:city" v="Saxtons River" />
    <tag k="addr:housenumber" v="72" />
    <tag k="addr:street" v="Westminster West Road" />
    <tag k="addr:state" v="VT" />
    <tag k="ref:vcgi:esiteid" v="763802" />
  </node>
  <node id="-333" visible="true" lat="43.143249068412" lon="-72.511956302837">
    <tag k="addr:city" v="Saxtons River" />
    <tag k="addr:housenumber" v="40" />
    <tag k="addr:street" v="Shepard Lane" />
    <tag k="addr:state" v="VT" />
    <tag k="ref:vcgi:esiteid" v="1050227" />
  </node>
</osm>
