<?xml version="1.0" encoding="UTF-8"?>
<osm version="0.6" generator="JOSM" upload="false">
  <node id="-100" visible="true" lat="44.163110128861" lon="-73.237336630469">
    <tag k="addr:city" v="Vergennes" />
    <tag k="addr:housenumber" v="73" />
    <tag k="addr:street" v="Church Street" />
    <tag k="addr:state" v="VT" />
    <tag k="ref:vcgi:esiteid" v="270090" />
  </node>
  <node id="-101" visible="true" lat="44.163041463513" lon="-73.234284870762">
    <tag k="addr:city" v="Vergennes" />
    <tag k="addr:housenumber" v="48" />
    <tag k="addr:street" v="Plank Road" />
    <tag k="addr:state" v="VT" />
    <tag k="ref:vcgi:esiteid" v="270091" />
  </node>
  <node id="-102" visible="true" lat="44.162404409746" lon="-73.236306661395">
    <tag k="addr:city" v="Vergennes" />
    <tag k="addr:housenumber" v="47" />
    <tag k="addr:street" v="Church Street" />
    <tag k="addr:state" v="VT" />
    <tag k="ref:vcgi:esiteid" v="270092" />
  </node>
  <node id="-103" visible="true" lat="44.16143547509" lon="-73.235314838867">
    <tag k="addr:city" v="Vergennes" />
    <tag k="addr:housenumber" v="334" />
    <tag k="addr:street" v="United States Route 7" />
    <tag k="addr:state" v="VT" />
    <tag k="ref:vcgi:esiteid" v="270093" />
  </node>
  <node id="-104" visible="true" lat="44.161240250627" lon="-73.231907751661">
    <tag k="addr:city" v="Vergennes" />
    <tag k="addr:housenumber" v="494" />
    <tag k="addr:street" v="United States Route 7" />
    <tag k="addr:state" v="VT" />
    <tag k="ref:vcgi:esiteid" v="270094" />
  </node>
  <node id="-105" visible="true" lat="44.161088338314" lon="-73.227006425668">
    <tag k="addr:city" v="Vergennes" />
    <tag k="addr:housenumber" v="442" />
    <tag k="addr:street" v="Plank Road" />
    <tag k="addr:state" v="VT" />
    <tag k="ref:vcgi:esiteid" v="270095" />
  </node>
  <node id="-106" visible="true" lat="44.160792270053" lon="-73.232633040587">
    <tag k="addr:city" v="Vergennes" />
    <tag k="addr:housenumber" v="65" />
    <tag k="addr:street" v="Crosby Heights" />
    <tag k="addr:state" v="VT" />
    <tag k="ref:vcgi:esiteid" v="270096" />
  </node>
  <node id="-107" visible="true" lat="44.160670546401" lon="-73.234187584161">
    <tag k="addr:city" v="Vergennes" />
    <tag k="addr:housenumber" v="150" />
    <tag k="addr:street" v="Crosby Heights" />
    <tag k="addr:state" v="VT" />
    <tag k="ref:vcgi:esiteid" v="270097" />
  </node>
  <node id="-108" visible="true" lat="44.160278123755" lon="-73.232779750935">
    <tag k="addr:city" v="Vergennes" />
    <tag k="addr:housenumber" v="103" />
    <tag k="addr:street" v="Crosby Heights" />
    <tag k="addr:state" v="VT" />
    <tag k="ref:vcgi:esiteid" v="270098" />
  </node>
  <node id="-109" visible="true" lat="44.159959186962" lon="-73.230470173203">
    <tag k="addr:city" v="Vergennes" />
    <tag k="addr:housenumber" v="26" />
    <tag k="addr:street" v="Woodman Court" />
    <tag k="addr:state" v="VT" />
    <tag k="ref:vcgi:esiteid" v="270099" />
  </node>
  <node id="-110" visible="true" lat="44.160143969625" lon="-73.21977023451">
    <tag k="addr:city" v="Vergennes" />
    <tag k="addr:housenumber" v="808" />
    <tag k="addr:street" v="Plank Road" />
    <tag k="addr:state" v="VT" />
    <tag k="ref:vcgi:esiteid" v="270100" />
  </node>
  <node id="-111" visible="true" lat="44.159886636477" lon="-73.233261126775">
    <tag k="addr:city" v="Vergennes" />
    <tag k="addr:housenumber" v="133" />
    <tag k="addr:street" v="Crosby Heights" />
    <tag k="addr:state" v="VT" />
    <tag k="ref:vcgi:esiteid" v="270101" />
  </node>
  <node id="-112" visible="true" lat="44.159527716684" lon="-73.233478387503">
    <tag k="addr:city" v="Vergennes" />
    <tag k="addr:housenumber" v="153" />
    <tag k="addr:street" v="Crosby Heights" />
    <tag k="addr:state" v="VT" />
    <tag k="ref:vcgi:esiteid" v="270102" />
  </node>
  <node id="-113" visible="true" lat="44.159551015947" lon="-73.230050556248">
    <tag k="addr:city" v="Vergennes" />
    <tag k="addr:housenumber" v="61" />
    <tag k="addr:street" v="Woodman Court" />
    <tag k="addr:state" v="VT" />
    <tag k="ref:vcgi:esiteid" v="270103" />
  </node>
  <node id="-114" visible="true" lat="44.159473574156" lon="-73.23526658527">
    <tag k="addr:city" v="Vergennes" />
    <tag k="addr:housenumber" v="226" />
    <tag k="addr:street" v="Crosby Heights" />
    <tag k="addr:state" v="VT" />
    <tag k="ref:vcgi:esiteid" v="270104" />
  </node>
  <node id="-115" visible="true" lat="44.159216180491" lon="-73.234112815277">
    <tag k="addr:city" v="Vergennes" />
    <tag k="addr:housenumber" v="177" />
    <tag k="addr:street" v="Crosby Heights" />
    <tag k="addr:state" v="VT" />
    <tag k="ref:vcgi:esiteid" v="270105" />
  </node>
  <node id="-116" visible="true" lat="44.15924663077" lon="-73.229114469701">
    <tag k="addr:city" v="Vergennes" />
    <tag k="addr:housenumber" v="662" />
    <tag k="addr:street" v="United States Route 7" />
    <tag k="addr:state" v="VT" />
    <tag k="ref:vcgi:esiteid" v="270106" />
  </node>
  <node id="-117" visible="true" lat="44.159081808129" lon="-73.23007344435">
    <tag k="addr:city" v="Vergennes" />
    <tag k="addr:housenumber" v="101" />
    <tag k="addr:street" v="Woodman Court" />
    <tag k="addr:state" v="VT" />
    <tag k="ref:vcgi:esiteid" v="270107" />
  </node>
  <node id="-118" visible="true" lat="44.158688893992" lon="-73.214028822189">
    <tag k="addr:city" v="Vergennes" />
    <tag k="addr:housenumber" v="1111" />
    <tag k="addr:street" v="South Middlebrook Road" />
    <tag k="addr:state" v="VT" />
    <tag k="ref:vcgi:esiteid" v="270108" />
  </node>
  <node id="-119" visible="true" lat="44.15863912805" lon="-73.227099617379">
    <tag k="addr:city" v="Vergennes" />
    <tag k="addr:housenumber" v="828" />
    <tag k="addr:street" v="United States Route 7" />
    <tag k="addr:state" v="VT" />
    <tag k="ref:vcgi:esiteid" v="270109" />
  </node>
  <node id="-120" visible="true" lat="44.158546491941" lon="-73.234503165586">
    <tag k="addr:city" v="Vergennes" />
    <tag k="addr:housenumber" v="235" />
    <tag k="addr:street" v="Crosby Heights" />
    <tag k="addr:state" v="VT" />
    <tag k="ref:vcgi:esiteid" v="270110" />
  </node>
  <node id="-121" visible="true" lat="44.158600398497" lon="-73.235853061649">
    <tag k="addr:city" v="Vergennes" />
    <tag k="addr:housenumber" v="294" />
    <tag k="addr:street" v="Crosby Heights" />
    <tag k="addr:state" v="VT" />
    <tag k="ref:vcgi:esiteid" v="270111" />
  </node>
  <node id="-122" visible="true" lat="44.158116689477" lon="-73.225709428288">
    <tag k="addr:city" v="Vergennes" />
    <tag k="addr:housenumber" v="862" />
    <tag k="addr:street" v="United States Route 7" />
    <tag k="addr:state" v="VT" />
    <tag k="ref:vcgi:esiteid" v="270112" />
  </node>
  <node id="-123" visible="true" lat="44.157587703582" lon="-73.236284501876">
    <tag k="addr:city" v="Vergennes" />
    <tag k="addr:housenumber" v="334" />
    <tag k="addr:street" v="Crosby Heights" />
    <tag k="addr:state" v="VT" />
    <tag k="ref:vcgi:esiteid" v="270113" />
  </node>
  <node id="-124" visible="true" lat="44.157552075997" lon="-73.216100415192">
    <tag k="addr:city" v="Vergennes" />
    <tag k="addr:housenumber" v="1222" />
    <tag k="addr:street" v="South Middlebrook Road" />
    <tag k="addr:state" v="VT" />
    <tag k="ref:vcgi:esiteid" v="270114" />
  </node>
  <node id="-125" visible="true" lat="44.157014241935" lon="-73.225282182661">
    <tag k="addr:city" v="Vergennes" />
    <tag k="addr:housenumber" v="908" />
    <tag k="addr:street" v="United States Route 7" />
    <tag k="addr:state" v="VT" />
    <tag k="ref:vcgi:esiteid" v="270115" />
  </node>
  <node id="-126" visible="true" lat="44.156651843815" lon="-73.225144852974">
    <tag k="addr:city" v="Vergennes" />
    <tag k="addr:housenumber" v="936" />
    <tag k="addr:street" v="United States Route 7" />
    <tag k="addr:state" v="VT" />
    <tag k="ref:vcgi:esiteid" v="270116" />
  </node>
  <node id="-127" visible="true" lat="44.156704731648" lon="-73.221107292765">
    <tag k="addr:city" v="Vergennes" />
    <tag k="addr:housenumber" v="1111" />
    <tag k="addr:street" v="United States Route 7" />
    <tag k="addr:state" v="VT" />
    <tag k="ref:vcgi:esiteid" v="270117" />
  </node>
  <node id="-128" visible="true" lat="44.155486874527" lon="-73.21738569556">
    <tag k="addr:city" v="Vergennes" />
    <tag k="addr:housenumber" v="1382" />
    <tag k="addr:street" v="South Middlebrook Road" />
    <tag k="addr:state" v="VT" />
    <tag k="ref:vcgi:esiteid" v="270118" />
  </node>
  <node id="-129" visible="true" lat="44.155023556384" lon="-73.221150244308">
    <tag k="addr:city" v="Vergennes" />
    <tag k="addr:housenumber" v="1292" />
    <tag k="addr:street" v="United States Route 7" />
    <tag k="addr:state" v="VT" />
    <tag k="ref:vcgi:esiteid" v="270119" />
  </node>
  <node id="-130" visible="true" lat="44.154935231008" lon="-73.224519242481">
    <tag k="addr:city" v="Vergennes" />
    <tag k="addr:housenumber" v="1044" />
    <tag k="addr:street" v="United States Route 7" />
    <tag k="addr:state" v="VT" />
    <tag k="ref:vcgi:esiteid" v="270120" />
  </node>
  <node id="-131" visible="true" lat="44.154652627716" lon="-73.242574544474">
    <tag k="addr:city" v="Vergennes" />
    <tag k="addr:housenumber" v="207" />
    <tag k="addr:street" v="Shorewood Road" />
    <tag k="addr:state" v="VT" />
    <tag k="ref:vcgi:esiteid" v="270121" />
  </node>
  <node id="-132" visible="true" lat="44.154562559857" lon="-73.248210998163">
    <tag k="addr:city" v="Vergennes" />
    <tag k="addr:housenumber" v="34" />
    <tag k="addr:street" v="McKnight Lane" />
    <tag k="addr:state" v="VT" />
    <tag k="ref:vcgi:esiteid" v="270122" />
  </node>
  <node id="-133" visible="true" lat="44.154488261396" lon="-73.248211435673">
    <tag k="addr:city" v="Vergennes" />
    <tag k="addr:housenumber" v="32" />
    <tag k="addr:street" v="McKnight Lane" />
    <tag k="addr:state" v="VT" />
    <tag k="ref:vcgi:esiteid" v="270123" />
  </node>
  <node id="-134" visible="true" lat="44.15458101978" lon="-73.247927446184">
    <tag k="addr:city" v="Vergennes" />
    <tag k="addr:housenumber" v="22" />
    <tag k="addr:street" v="McKnight Lane" />
    <tag k="addr:state" v="VT" />
    <tag k="ref:vcgi:esiteid" v="270124" />
  </node>
  <node id="-135" visible="true" lat="44.154496373286" lon="-73.247916592661">
    <tag k="addr:city" v="Vergennes" />
    <tag k="addr:housenumber" v="20" />
    <tag k="addr:street" v="McKnight Lane" />
    <tag k="addr:state" v="VT" />
    <tag k="ref:vcgi:esiteid" v="270125" />
  </node>
  <node id="-136" visible="true" lat="44.154593212711" lon="-73.247664599951">
    <tag k="addr:city" v="Vergennes" />
    <tag k="addr:housenumber" v="10" />
    <tag k="addr:street" v="McKnight Lane" />
    <tag k="addr:state" v="VT" />
    <tag k="ref:vcgi:esiteid" v="270126" />
  </node>
  <node id="-137" visible="true" lat="44.154511490322" lon="-73.247652777411">
    <tag k="addr:city" v="Vergennes" />
    <tag k="addr:housenumber" v="8" />
    <tag k="addr:street" v="McKnight Lane" />
    <tag k="addr:state" v="VT" />
    <tag k="ref:vcgi:esiteid" v="270127" />
  </node>
  <node id="-138" visible="true" lat="44.154389260057" lon="-73.238843873092">
    <tag k="addr:city" v="Vergennes" />
    <tag k="addr:housenumber" v="946" />
    <tag k="addr:street" v="Green Street" />
    <tag k="addr:state" v="VT" />
    <tag k="ref:vcgi:esiteid" v="270128" />
  </node>
  <node id="-139" visible="true" lat="44.154288118705" lon="-73.248676114851">
    <tag k="addr:city" v="Vergennes" />
    <tag k="addr:housenumber" v="57" />
    <tag k="addr:street" v="McKnight Lane" />
    <tag k="addr:state" v="VT" />
    <tag k="ref:vcgi:esiteid" v="270129" />
  </node>
  <node id="-140" visible="true" lat="44.154376137886" lon="-73.24864226442">
    <tag k="addr:city" v="Vergennes" />
    <tag k="addr:housenumber" v="55" />
    <tag k="addr:street" v="McKnight Lane" />
    <tag k="addr:state" v="VT" />
    <tag k="ref:vcgi:esiteid" v="270130" />
  </node>
  <node id="-141" visible="true" lat="44.154231257874" lon="-73.248370629929">
    <tag k="addr:city" v="Vergennes" />
    <tag k="addr:housenumber" v="43" />
    <tag k="addr:street" v="McKnight Lane" />
    <tag k="addr:state" v="VT" />
    <tag k="ref:vcgi:esiteid" v="270131" />
  </node>
  <node id="-142" visible="true" lat="44.154187019633" lon="-73.248038059787">
    <tag k="addr:city" v="Vergennes" />
    <tag k="addr:housenumber" v="25" />
    <tag k="addr:street" v="McKnight Lane" />
    <tag k="addr:state" v="VT" />
    <tag k="ref:vcgi:esiteid" v="270132" />
  </node>
  <node id="-143" visible="true" lat="44.15433612045" lon="-73.248346251231">
    <tag k="addr:city" v="Vergennes" />
    <tag k="addr:housenumber" v="41" />
    <tag k="addr:street" v="McKnight Lane" />
    <tag k="addr:state" v="VT" />
    <tag k="ref:vcgi:esiteid" v="270133" />
  </node>
  <node id="-144" visible="true" lat="44.154156924829" lon="-73.247691041673">
    <tag k="addr:city" v="Vergennes" />
    <tag k="addr:housenumber" v="9" />
    <tag k="addr:street" v="McKnight Lane" />
    <tag k="addr:state" v="VT" />
    <tag k="ref:vcgi:esiteid" v="270134" />
  </node>
  <node id="-145" visible="true" lat="44.154291949282" lon="-73.248002739483">
    <tag k="addr:city" v="Vergennes" />
    <tag k="addr:housenumber" v="23" />
    <tag k="addr:street" v="McKnight Lane" />
    <tag k="addr:state" v="VT" />
    <tag k="ref:vcgi:esiteid" v="270135" />
  </node>
  <node id="-146" visible="true" lat="44.154250677389" lon="-73.24766478642">
    <tag k="addr:city" v="Vergennes" />
    <tag k="addr:housenumber" v="7" />
    <tag k="addr:street" v="McKnight Lane" />
    <tag k="addr:state" v="VT" />
    <tag k="ref:vcgi:esiteid" v="270136" />
  </node>
  <node id="-147" visible="true" lat="44.154170377647" lon="-73.219415946285">
    <tag k="addr:city" v="Vergennes" />
    <tag k="addr:housenumber" v="1344" />
    <tag k="addr:street" v="United States Route 7" />
    <tag k="addr:state" v="VT" />
    <tag k="ref:vcgi:esiteid" v="270137" />
  </node>
  <node id="-148" visible="true" lat="44.153913191994" lon="-73.246900271248">
    <tag k="addr:city" v="Vergennes" />
    <tag k="addr:housenumber" v="427" />
    <tag k="addr:street" v="Maple Street" />
    <tag k="addr:state" v="VT" />
    <tag k="ref:vcgi:esiteid" v="270138" />
  </node>
  <node id="-149" visible="true" lat="44.153912629154" lon="-73.240578218939">
    <tag k="addr:city" v="Vergennes" />
    <tag k="addr:housenumber" v="106" />
    <tag k="addr:street" v="Pine Oak Park" />
    <tag k="addr:state" v="VT" />
    <tag k="ref:vcgi:esiteid" v="270139" />
  </node>
  <node id="-150" visible="true" lat="44.153685549862" lon="-73.247813834585">
    <tag k="addr:city" v="Vergennes" />
    <tag k="addr:housenumber" v="438" />
    <tag k="addr:street" v="Maple Street" />
    <tag k="addr:state" v="VT" />
    <tag k="ref:vcgi:esiteid" v="270140" />
  </node>
  <node id="-151" visible="true" lat="44.153531420764" lon="-73.238015645405">
    <tag k="addr:city" v="Vergennes" />
    <tag k="addr:housenumber" v="1012" />
    <tag k="addr:street" v="Green Street" />
    <tag k="addr:state" v="VT" />
    <tag k="ref:vcgi:esiteid" v="270141" />
  </node>
  <node id="-152" visible="true" lat="44.153575083586" lon="-73.218992989949">
    <tag k="addr:city" v="Vergennes" />
    <tag k="addr:housenumber" v="1548" />
    <tag k="addr:street" v="South Middlebrook Road" />
    <tag k="addr:state" v="VT" />
    <tag k="ref:vcgi:esiteid" v="270142" />
  </node>
  <node id="-153" visible="true" lat="44.153035510256" lon="-73.237138264315">
    <tag k="addr:city" v="Vergennes" />
    <tag k="addr:housenumber" v="1058" />
    <tag k="addr:street" v="Green Street" />
    <tag k="addr:state" v="VT" />
    <tag k="ref:vcgi:esiteid" v="270143" />
  </node>
  <node id="-154" visible="true" lat="44.152935777386" lon="-73.241308109133">
    <tag k="addr:city" v="Vergennes" />
    <tag k="addr:housenumber" v="69" />
    <tag k="addr:street" v="Shorewood Road" />
    <tag k="addr:state" v="VT" />
    <tag k="ref:vcgi:esiteid" v="270144" />
  </node>
  <node id="-155" visible="true" lat="44.152768062674" lon="-73.235009563408">
    <tag k="addr:city" v="Vergennes" />
    <tag k="addr:housenumber" v="1147" />
    <tag k="addr:street" v="Green Street" />
    <tag k="addr:state" v="VT" />
    <tag k="ref:vcgi:esiteid" v="270145" />
  </node>
  <node id="-156" visible="true" lat="44.152811157741" lon="-73.234157527927">
    <tag k="addr:city" v="Vergennes" />
    <tag k="addr:housenumber" v="1237" />
    <tag k="addr:street" v="Green Street" />
    <tag k="addr:state" v="VT" />
    <tag k="ref:vcgi:esiteid" v="270146" />
  </node>
  <node id="-157" visible="true" lat="44.152731322628" lon="-73.236555787123">
    <tag k="addr:city" v="Vergennes" />
    <tag k="addr:housenumber" v="1110" />
    <tag k="addr:street" v="Green Street" />
    <tag k="addr:state" v="VT" />
    <tag k="ref:vcgi:esiteid" v="270147" />
  </node>
  <node id="-158" visible="true" lat="44.152099405967" lon="-73.243555555765">
    <tag k="addr:city" v="Vergennes" />
    <tag k="addr:housenumber" v="591" />
    <tag k="addr:street" v="Maple Street" />
    <tag k="addr:state" v="VT" />
    <tag k="ref:vcgi:esiteid" v="270148" />
  </node>
  <node id="-159" visible="true" lat="44.152469633435" lon="-73.233455690035">
    <tag k="addr:city" v="Vergennes" />
    <tag k="addr:housenumber" v="1245" />
    <tag k="addr:street" v="Green Street" />
    <tag k="addr:state" v="VT" />
    <tag k="ref:vcgi:esiteid" v="270149" />
  </node>
  <node id="-160" visible="true" lat="44.152555839472" lon="-73.21917151384">
    <tag k="addr:city" v="Vergennes" />
    <tag k="addr:housenumber" v="1608" />
    <tag k="addr:street" v="South Middlebrook Road" />
    <tag k="addr:state" v="VT" />
    <tag k="ref:vcgi:esiteid" v="270150" />
  </node>
  <node id="-161" visible="true" lat="44.152239064491" lon="-73.247586414378">
    <tag k="addr:city" v="Vergennes" />
    <tag k="addr:housenumber" v="564" />
    <tag k="addr:street" v="Maple Street" />
    <tag k="addr:state" v="VT" />
    <tag k="ref:vcgi:esiteid" v="270151" />
  </node>
  <node id="-162" visible="true" lat="44.151836840058" lon="-73.240130636039">
    <tag k="addr:city" v="Vergennes" />
    <tag k="addr:housenumber" v="192" />
    <tag k="addr:street" v="Pine Oak Park" />
    <tag k="addr:state" v="VT" />
    <tag k="ref:vcgi:esiteid" v="270152" />
  </node>
  <node id="-163" visible="true" lat="44.151322959244" lon="-73.235062049063">
    <tag k="addr:city" v="Vergennes" />
    <tag k="addr:housenumber" v="1202" />
    <tag k="addr:street" v="Green Street" />
    <tag k="addr:state" v="VT" />
    <tag k="ref:vcgi:esiteid" v="270153" />
  </node>
  <node id="-164" visible="true" lat="44.151082164422" lon="-73.233308441603">
    <tag k="addr:city" v="Vergennes" />
    <tag k="addr:housenumber" v="1265" />
    <tag k="addr:street" v="Green Street" />
    <tag k="addr:state" v="VT" />
    <tag k="ref:vcgi:esiteid" v="270154" />
  </node>
  <node id="-165" visible="true" lat="44.151215463507" lon="-73.238230886743">
    <tag k="addr:city" v="Vergennes" />
    <tag k="addr:housenumber" v="335" />
    <tag k="addr:street" v="Pine Oak Park" />
    <tag k="addr:state" v="VT" />
    <tag k="ref:vcgi:esiteid" v="270155" />
  </node>
  <node id="-166" visible="true" lat="44.151070491497" lon="-73.234118802247">
    <tag k="addr:city" v="Vergennes" />
    <tag k="addr:housenumber" v="16" />
    <tag k="addr:street" v="High Manor Park" />
    <tag k="addr:state" v="VT" />
    <tag k="ref:vcgi:esiteid" v="270156" />
  </node>
  <node id="-167" visible="true" lat="44.151233745259" lon="-73.245106157248">
    <tag k="addr:city" v="Vergennes" />
    <tag k="addr:housenumber" v="657" />
    <tag k="addr:street" v="Maple Street" />
    <tag k="addr:state" v="VT" />
    <tag k="ref:vcgi:esiteid" v="270157" />
  </node>
  <node id="-168" visible="true" lat="44.150895196869" lon="-73.234143936755">
    <tag k="addr:city" v="Vergennes" />
    <tag k="addr:housenumber" v="28" />
    <tag k="addr:street" v="High Manor Park" />
    <tag k="addr:state" v="VT" />
    <tag k="ref:vcgi:esiteid" v="270158" />
  </node>
  <node id="-169" visible="true" lat="44.150760832843" lon="-73.245165635772">
    <tag k="addr:city" v="Vergennes" />
    <tag k="addr:housenumber" v="659" />
    <tag k="addr:street" v="Maple Street" />
    <tag k="addr:state" v="VT" />
    <tag k="ref:vcgi:esiteid" v="270159" />
  </node>
  <node id="-170" visible="true" lat="44.150802132315" lon="-73.233694866111">
    <tag k="addr:city" v="Vergennes" />
    <tag k="addr:housenumber" v="33" />
    <tag k="addr:street" v="High Manor Park" />
    <tag k="addr:state" v="VT" />
    <tag k="ref:vcgi:esiteid" v="270160" />
  </node>
  <node id="-171" visible="true" lat="44.150735445054" lon="-73.234154946339">
    <tag k="addr:city" v="Vergennes" />
    <tag k="addr:housenumber" v="40" />
    <tag k="addr:street" v="High Manor Park" />
    <tag k="addr:state" v="VT" />
    <tag k="ref:vcgi:esiteid" v="270161" />
  </node>
  <node id="-172" visible="true" lat="44.150585392748" lon="-73.234195605969">
    <tag k="addr:city" v="Vergennes" />
    <tag k="addr:housenumber" v="50" />
    <tag k="addr:street" v="High Manor Park" />
    <tag k="addr:state" v="VT" />
    <tag k="ref:vcgi:esiteid" v="270162" />
  </node>
  <node id="-173" visible="true" lat="44.150529778387" lon="-73.23371118931">
    <tag k="addr:city" v="Vergennes" />
    <tag k="addr:housenumber" v="55" />
    <tag k="addr:street" v="High Manor Park" />
    <tag k="addr:state" v="VT" />
    <tag k="ref:vcgi:esiteid" v="270163" />
  </node>
  <node id="-174" visible="true" lat="44.150407610178" lon="-73.234217429243">
    <tag k="addr:city" v="Vergennes" />
    <tag k="addr:housenumber" v="62" />
    <tag k="addr:street" v="High Manor Park" />
    <tag k="addr:state" v="VT" />
    <tag k="ref:vcgi:esiteid" v="270164" />
  </node>
  <node id="-175" visible="true" lat="44.150294731254" lon="-73.245802314656">
    <tag k="addr:city" v="Vergennes" />
    <tag k="addr:housenumber" v="681" />
    <tag k="addr:street" v="Maple Street" />
    <tag k="addr:state" v="VT" />
    <tag k="ref:vcgi:esiteid" v="270165" />
  </node>
  <node id="-176" visible="true" lat="44.150224403086" lon="-73.233738374387">
    <tag k="addr:city" v="Vergennes" />
    <tag k="addr:housenumber" v="73" />
    <tag k="addr:street" v="High Manor Park" />
    <tag k="addr:state" v="VT" />
    <tag k="ref:vcgi:esiteid" v="270166" />
  </node>
  <node id="-177" visible="true" lat="44.150243111004" lon="-73.23422267476">
    <tag k="addr:city" v="Vergennes" />
    <tag k="addr:housenumber" v="80" />
    <tag k="addr:street" v="High Manor Park" />
    <tag k="addr:state" v="VT" />
    <tag k="ref:vcgi:esiteid" v="270167" />
  </node>
  <node id="-178" visible="true" lat="44.150090429516" lon="-73.234256372641">
    <tag k="addr:city" v="Vergennes" />
    <tag k="addr:housenumber" v="86" />
    <tag k="addr:street" v="High Manor Park" />
    <tag k="addr:state" v="VT" />
    <tag k="ref:vcgi:esiteid" v="270168" />
  </node>
  <node id="-179" visible="true" lat="44.149924854628" lon="-73.234670968131">
    <tag k="addr:city" v="Vergennes" />
    <tag k="addr:housenumber" v="230" />
    <tag k="addr:street" v="High Manor Park" />
    <tag k="addr:state" v="VT" />
    <tag k="ref:vcgi:esiteid" v="270169" />
  </node>
  <node id="-180" visible="true" lat="44.149946609455" lon="-73.234941280021">
    <tag k="addr:city" v="Vergennes" />
    <tag k="addr:housenumber" v="222" />
    <tag k="addr:street" v="High Manor Park" />
    <tag k="addr:state" v="VT" />
    <tag k="ref:vcgi:esiteid" v="270170" />
  </node>
  <node id="-181" visible="true" lat="44.149995033766" lon="-73.233773212062">
    <tag k="addr:city" v="Vergennes" />
    <tag k="addr:housenumber" v="93" />
    <tag k="addr:street" v="High Manor Park" />
    <tag k="addr:state" v="VT" />
    <tag k="ref:vcgi:esiteid" v="270171" />
  </node>
  <node id="-182" visible="true" lat="44.149848063669" lon="-73.247182228063">
    <tag k="addr:city" v="Vergennes" />
    <tag k="addr:housenumber" v="724" />
    <tag k="addr:street" v="Maple Street" />
    <tag k="addr:state" v="VT" />
    <tag k="ref:vcgi:esiteid" v="270172" />
  </node>
  <node id="-183" visible="true" lat="44.149935550614" lon="-73.234261444812">
    <tag k="addr:city" v="Vergennes" />
    <tag k="addr:housenumber" v="96" />
    <tag k="addr:street" v="High Manor Park" />
    <tag k="addr:state" v="VT" />
    <tag k="ref:vcgi:esiteid" v="270173" />
  </node>
  <node id="-184" visible="true" lat="44.149576739054" lon="-73.233816840861">
    <tag k="addr:city" v="Vergennes" />
    <tag k="addr:housenumber" v="103" />
    <tag k="addr:street" v="High Manor Park" />
    <tag k="addr:state" v="VT" />
    <tag k="ref:vcgi:esiteid" v="270174" />
  </node>
  <node id="-185" visible="true" lat="44.149757199871" lon="-73.234281485664">
    <tag k="addr:city" v="Vergennes" />
    <tag k="addr:housenumber" v="108" />
    <tag k="addr:street" v="High Manor Park" />
    <tag k="addr:state" v="VT" />
    <tag k="ref:vcgi:esiteid" v="270175" />
  </node>
  <node id="-186" visible="true" lat="44.149671821492" lon="-73.234857189136">
    <tag k="addr:city" v="Vergennes" />
    <tag k="addr:housenumber" v="164" />
    <tag k="addr:street" v="High Manor Park" />
    <tag k="addr:state" v="VT" />
    <tag k="ref:vcgi:esiteid" v="270176" />
  </node>
  <node id="-187" visible="true" lat="44.149649815098" lon="-73.234574181925">
    <tag k="addr:city" v="Vergennes" />
    <tag k="addr:housenumber" v="148" />
    <tag k="addr:street" v="High Manor Park" />
    <tag k="addr:state" v="VT" />
    <tag k="ref:vcgi:esiteid" v="270177" />
  </node>
  <node id="-188" visible="true" lat="44.149348335037" lon="-73.220350209635">
    <tag k="addr:city" v="Vergennes" />
    <tag k="addr:housenumber" v="1814" />
    <tag k="addr:street" v="South Middlebrook Road" />
    <tag k="addr:state" v="VT" />
    <tag k="ref:vcgi:esiteid" v="270178" />
  </node>
  <node id="-189" visible="true" lat="44.1495819794" lon="-73.234279949436">
    <tag k="addr:city" v="Vergennes" />
    <tag k="addr:housenumber" v="120" />
    <tag k="addr:street" v="High Manor Park" />
    <tag k="addr:state" v="VT" />
    <tag k="ref:vcgi:esiteid" v="270179" />
  </node>
  <node id="-190" visible="true" lat="44.149312708108" lon="-73.23507053998">
    <tag k="addr:city" v="Vergennes" />
    <tag k="addr:housenumber" v="175" />
    <tag k="addr:street" v="High Manor Park" />
    <tag k="addr:state" v="VT" />
    <tag k="ref:vcgi:esiteid" v="270180" />
  </node>
  <node id="-191" visible="true" lat="44.149303514794" lon="-73.23482793981">
    <tag k="addr:city" v="Vergennes" />
    <tag k="addr:housenumber" v="163" />
    <tag k="addr:street" v="High Manor Park" />
    <tag k="addr:state" v="VT" />
    <tag k="ref:vcgi:esiteid" v="270181" />
  </node>
  <node id="-192" visible="true" lat="44.149300964054" lon="-73.234579708508">
    <tag k="addr:city" v="Vergennes" />
    <tag k="addr:housenumber" v="149" />
    <tag k="addr:street" v="High Manor Park" />
    <tag k="addr:state" v="VT" />
    <tag k="ref:vcgi:esiteid" v="270182" />
  </node>
  <node id="-193" visible="true" lat="44.149288652851" lon="-73.234303949439">
    <tag k="addr:city" v="Vergennes" />
    <tag k="addr:housenumber" v="137" />
    <tag k="addr:street" v="High Manor Park" />
    <tag k="addr:state" v="VT" />
    <tag k="ref:vcgi:esiteid" v="270183" />
  </node>
  <node id="-194" visible="true" lat="44.149180761696" lon="-73.245981919695">
    <tag k="addr:city" v="Vergennes" />
    <tag k="addr:housenumber" v="783" />
    <tag k="addr:street" v="Maple Street" />
    <tag k="addr:state" v="VT" />
    <tag k="ref:vcgi:esiteid" v="270184" />
  </node>
  <node id="-195" visible="true" lat="44.148986959136" lon="-73.23033583267">
    <tag k="addr:city" v="Vergennes" />
    <tag k="addr:housenumber" v="1511" />
    <tag k="addr:street" v="Green Street" />
    <tag k="addr:state" v="VT" />
    <tag k="ref:vcgi:esiteid" v="270185" />
  </node>
  <node id="-196" visible="true" lat="44.148647622632" lon="-73.246979596591">
    <tag k="addr:city" v="Vergennes" />
    <tag k="addr:housenumber" v="788" />
    <tag k="addr:street" v="Maple Street" />
    <tag k="addr:state" v="VT" />
    <tag k="ref:vcgi:esiteid" v="270186" />
  </node>
  <node id="-197" visible="true" lat="44.148659146657" lon="-73.234487272361">
    <tag k="addr:city" v="Vergennes" />
    <tag k="addr:housenumber" v="125" />
    <tag k="addr:street" v="High Manor Park" />
    <tag k="addr:state" v="VT" />
    <tag k="ref:vcgi:esiteid" v="270187" />
  </node>
  <node id="-198" visible="true" lat="44.147562816934" lon="-73.241277158443">
    <tag k="addr:city" v="Vergennes" />
    <tag k="addr:housenumber" v="897" />
    <tag k="addr:street" v="Maple Street" />
    <tag k="addr:state" v="VT" />
    <tag k="ref:vcgi:esiteid" v="270188" />
  </node>
  <node id="-199" visible="true" lat="44.14740883281" lon="-73.228242387772">
    <tag k="addr:city" v="Vergennes" />
    <tag k="addr:housenumber" v="1643" />
    <tag k="addr:street" v="Green Street" />
    <tag k="addr:state" v="VT" />
    <tag k="ref:vcgi:esiteid" v="270189" />
  </node>
  <node id="-200" visible="true" lat="44.147332139377" lon="-73.246730479605">
    <tag k="addr:city" v="Vergennes" />
    <tag k="addr:housenumber" v="906" />
    <tag k="addr:street" v="Maple Street" />
    <tag k="addr:state" v="VT" />
    <tag k="ref:vcgi:esiteid" v="270190" />
  </node>
  <node id="-201" visible="true" lat="44.147183763261" lon="-73.232232561692">
    <tag k="addr:city" v="Vergennes" />
    <tag k="addr:housenumber" v="191" />
    <tag k="addr:street" v="Rabbit Run" />
    <tag k="addr:state" v="VT" />
    <tag k="ref:vcgi:esiteid" v="270191" />
  </node>
  <node id="-202" visible="true" lat="44.14719902229" lon="-73.220765578954">
    <tag k="addr:city" v="Vergennes" />
    <tag k="addr:housenumber" v="2006" />
    <tag k="addr:street" v="South Middlebrook Road" />
    <tag k="addr:state" v="VT" />
    <tag k="ref:vcgi:esiteid" v="270192" />
  </node>
  <node id="-203" visible="true" lat="44.146996842927" lon="-73.229226579955">
    <tag k="addr:city" v="Vergennes" />
    <tag k="addr:housenumber" v="17" />
    <tag k="addr:street" v="Rabbit Run" />
    <tag k="addr:state" v="VT" />
    <tag k="ref:vcgi:esiteid" v="270193" />
  </node>
  <node id="-204" visible="true" lat="44.146740309435" lon="-73.245812186787">
    <tag k="addr:city" v="Vergennes" />
    <tag k="addr:housenumber" v="949" />
    <tag k="addr:street" v="Maple Street" />
    <tag k="addr:state" v="VT" />
    <tag k="ref:vcgi:esiteid" v="270194" />
  </node>
  <node id="-205" visible="true" lat="44.146573413548" lon="-73.231210223616">
    <tag k="addr:city" v="Vergennes" />
    <tag k="addr:housenumber" v="119" />
    <tag k="addr:street" v="Rabbit Run" />
    <tag k="addr:state" v="VT" />
    <tag k="ref:vcgi:esiteid" v="270195" />
  </node>
  <node id="-206" visible="true" lat="44.14651682679" lon="-73.228355103748">
    <tag k="addr:city" v="Vergennes" />
    <tag k="addr:housenumber" v="1680" />
    <tag k="addr:street" v="Green Street" />
    <tag k="addr:state" v="VT" />
    <tag k="ref:vcgi:esiteid" v="270196" />
  </node>
  <node id="-207" visible="true" lat="44.14640556514" lon="-73.228639116538">
    <tag k="addr:city" v="Vergennes" />
    <tag k="addr:housenumber" v="1678" />
    <tag k="addr:street" v="Green Street" />
    <tag k="addr:state" v="VT" />
    <tag k="ref:vcgi:esiteid" v="270197" />
  </node>
  <node id="-208" visible="true" lat="44.146383562994" lon="-73.245994962993">
    <tag k="addr:city" v="Vergennes" />
    <tag k="addr:housenumber" v="945" />
    <tag k="addr:street" v="Maple Street" />
    <tag k="addr:state" v="VT" />
    <tag k="ref:vcgi:esiteid" v="270198" />
  </node>
  <node id="-209" visible="true" lat="44.146413271715" lon="-73.219956948577">
    <tag k="addr:city" v="Vergennes" />
    <tag k="addr:housenumber" v="2073" />
    <tag k="addr:street" v="South Middlebrook Road" />
    <tag k="addr:state" v="VT" />
    <tag k="ref:vcgi:esiteid" v="270199" />
  </node>
  <node id="-210" visible="true" lat="44.143827408696" lon="-73.22878359051">
    <tag k="addr:city" v="Vergennes" />
    <tag k="addr:housenumber" v="1750" />
    <tag k="addr:street" v="Green Street" />
    <tag k="addr:state" v="VT" />
    <tag k="ref:vcgi:esiteid" v="270200" />
  </node>
  <node id="-211" visible="true" lat="44.145261154799" lon="-73.242013449455">
    <tag k="addr:city" v="Vergennes" />
    <tag k="addr:housenumber" v="1057" />
    <tag k="addr:street" v="Maple Street" />
    <tag k="addr:state" v="VT" />
    <tag k="ref:vcgi:esiteid" v="270201" />
  </node>
  <node id="-212" visible="true" lat="44.144527170716" lon="-73.245684009011">
    <tag k="addr:city" v="Vergennes" />
    <tag k="addr:housenumber" v="1087" />
    <tag k="addr:street" v="Maple Street" />
    <tag k="addr:state" v="VT" />
    <tag k="ref:vcgi:esiteid" v="270202" />
  </node>
  <node id="-213" visible="true" lat="44.144757617306" lon="-73.222413529036">
    <tag k="addr:city" v="Vergennes" />
    <tag k="addr:housenumber" v="2192" />
    <tag k="addr:street" v="South Middlebrook Road" />
    <tag k="addr:state" v="VT" />
    <tag k="ref:vcgi:esiteid" v="270203" />
  </node>
  <node id="-214" visible="true" lat="44.14423500289" lon="-73.221292006516">
    <tag k="addr:city" v="Vergennes" />
    <tag k="addr:housenumber" v="2169" />
    <tag k="addr:street" v="South Middlebrook Road" />
    <tag k="addr:state" v="VT" />
    <tag k="ref:vcgi:esiteid" v="270204" />
  </node>
  <node id="-215" visible="true" lat="44.143891679488" lon="-73.218591199925">
    <tag k="addr:city" v="Vergennes" />
    <tag k="addr:housenumber" v="169" />
    <tag k="addr:street" v="Monroe Way" />
    <tag k="addr:state" v="VT" />
    <tag k="ref:vcgi:esiteid" v="270205" />
  </node>
  <node id="-216" visible="true" lat="44.143117296968" lon="-73.222039688414">
    <tag k="addr:city" v="Vergennes" />
    <tag k="addr:housenumber" v="6" />
    <tag k="addr:street" v="Monroe Way" />
    <tag k="addr:state" v="VT" />
    <tag k="ref:vcgi:esiteid" v="270206" />
  </node>
  <node id="-217" visible="true" lat="44.142752006314" lon="-73.245665289913">
    <tag k="addr:city" v="Vergennes" />
    <tag k="addr:housenumber" v="1261" />
    <tag k="addr:street" v="Maple Street" />
    <tag k="addr:state" v="VT" />
    <tag k="ref:vcgi:esiteid" v="270207" />
  </node>
  <node id="-218" visible="true" lat="44.142747272102" lon="-73.21878193565">
    <tag k="addr:city" v="Vergennes" />
    <tag k="addr:housenumber" v="190" />
    <tag k="addr:street" v="Monroe Way" />
    <tag k="addr:state" v="VT" />
    <tag k="ref:vcgi:esiteid" v="270208" />
  </node>
  <node id="-219" visible="true" lat="44.142691076359" lon="-73.225404410353">
    <tag k="addr:city" v="Vergennes" />
    <tag k="addr:housenumber" v="2098" />
    <tag k="addr:street" v="Green Street" />
    <tag k="addr:state" v="VT" />
    <tag k="ref:vcgi:esiteid" v="270209" />
  </node>
  <node id="-220" visible="true" lat="44.141464693217" lon="-73.242973295301">
    <tag k="addr:city" v="Vergennes" />
    <tag k="addr:housenumber" v="1200" />
    <tag k="addr:street" v="Route 66" />
    <tag k="addr:state" v="VT" />
    <tag k="ref:vcgi:esiteid" v="270210" />
  </node>
  <node id="-221" visible="true" lat="44.141512742658" lon="-73.220998639029">
    <tag k="addr:city" v="Vergennes" />
    <tag k="addr:housenumber" v="2191" />
    <tag k="addr:street" v="Green Street" />
    <tag k="addr:state" v="VT" />
    <tag k="ref:vcgi:esiteid" v="270212" />
  </node>
  <node id="-222" visible="true" lat="44.141270982802" lon="-73.228463638609">
    <tag k="addr:city" v="Vergennes" />
    <tag k="addr:housenumber" v="500" />
    <tag k="addr:street" v="Route 66" />
    <tag k="addr:state" v="VT" />
    <tag k="ref:vcgi:esiteid" v="270213" />
  </node>
  <node id="-223" visible="true" lat="44.141249937126" lon="-73.237523439937">
    <tag k="addr:city" v="Vergennes" />
    <tag k="addr:housenumber" v="918" />
    <tag k="addr:street" v="Route 66" />
    <tag k="addr:state" v="VT" />
    <tag k="ref:vcgi:esiteid" v="270214" />
  </node>
  <node id="-224" visible="true" lat="44.140988695954" lon="-73.22865437505">
    <tag k="addr:city" v="Vergennes" />
    <tag k="addr:housenumber" v="498" />
    <tag k="addr:street" v="Route 66" />
    <tag k="addr:state" v="VT" />
    <tag k="ref:vcgi:esiteid" v="270215" />
  </node>
  <node id="-225" visible="true" lat="44.140463189331" lon="-73.245190084273">
    <tag k="addr:city" v="Vergennes" />
    <tag k="addr:housenumber" v="1379" />
    <tag k="addr:street" v="Maple Street" />
    <tag k="addr:state" v="VT" />
    <tag k="ref:vcgi:esiteid" v="270216" />
  </node>
  <node id="-226" visible="true" lat="44.140323881493" lon="-73.237518477565">
    <tag k="addr:city" v="Vergennes" />
    <tag k="addr:housenumber" v="916" />
    <tag k="addr:street" v="Route 66" />
    <tag k="addr:state" v="VT" />
    <tag k="ref:vcgi:esiteid" v="270217" />
  </node>
  <node id="-227" visible="true" lat="44.140520016719" lon="-73.218356592998">
    <tag k="addr:city" v="Vergennes" />
    <tag k="addr:housenumber" v="119" />
    <tag k="addr:street" v="Moonlit Meadows" />
    <tag k="addr:state" v="VT" />
    <tag k="ref:vcgi:esiteid" v="270218" />
  </node>
  <node id="-228" visible="true" lat="44.140005793686" lon="-73.241717811114">
    <tag k="addr:city" v="Vergennes" />
    <tag k="addr:housenumber" v="1161" />
    <tag k="addr:street" v="Route 66" />
    <tag k="addr:state" v="VT" />
    <tag k="ref:vcgi:esiteid" v="270219" />
  </node>
  <node id="-229" visible="true" lat="44.139854442974" lon="-73.240597027001">
    <tag k="addr:city" v="Vergennes" />
    <tag k="addr:housenumber" v="1099" />
    <tag k="addr:street" v="Route 66" />
    <tag k="addr:state" v="VT" />
    <tag k="ref:vcgi:esiteid" v="270220" />
  </node>
  <node id="-230" visible="true" lat="44.139748427433" lon="-73.246179813494">
    <tag k="addr:city" v="Vergennes" />
    <tag k="addr:housenumber" v="1410" />
    <tag k="addr:street" v="Maple Street" />
    <tag k="addr:state" v="VT" />
    <tag k="ref:vcgi:esiteid" v="270221" />
  </node>
  <node id="-231" visible="true" lat="44.139624201362" lon="-73.225454646011">
    <tag k="addr:city" v="Vergennes" />
    <tag k="addr:housenumber" v="306" />
    <tag k="addr:street" v="Route 66" />
    <tag k="addr:state" v="VT" />
    <tag k="ref:vcgi:esiteid" v="270222" />
  </node>
  <node id="-232" visible="true" lat="44.139310228593" lon="-73.234696856176">
    <tag k="addr:city" v="Vergennes" />
    <tag k="addr:housenumber" v="821" />
    <tag k="addr:street" v="Route 66" />
    <tag k="addr:state" v="VT" />
    <tag k="ref:vcgi:esiteid" v="270223" />
  </node>
  <node id="-233" visible="true" lat="44.139222488865" lon="-73.226762283872">
    <tag k="addr:city" v="Vergennes" />
    <tag k="addr:housenumber" v="388" />
    <tag k="addr:street" v="Route 66" />
    <tag k="addr:state" v="VT" />
    <tag k="ref:vcgi:esiteid" v="270224" />
  </node>
  <node id="-234" visible="true" lat="44.13907096805" lon="-73.213511182104">
    <tag k="addr:city" v="Vergennes" />
    <tag k="addr:housenumber" v="333" />
    <tag k="addr:street" v="Schoolhouse Road" />
    <tag k="addr:state" v="VT" />
    <tag k="ref:vcgi:esiteid" v="270225" />
  </node>
  <node id="-235" visible="true" lat="44.138816806042" lon="-73.213029088648">
    <tag k="addr:city" v="Vergennes" />
    <tag k="addr:housenumber" v="320" />
    <tag k="addr:street" v="Schoolhouse Road" />
    <tag k="addr:state" v="VT" />
    <tag k="ref:vcgi:esiteid" v="270226" />
  </node>
  <node id="-236" visible="true" lat="44.138448071185" lon="-73.245339696437">
    <tag k="addr:city" v="Vergennes" />
    <tag k="addr:housenumber" v="1522" />
    <tag k="addr:street" v="Maple Street" />
    <tag k="addr:state" v="VT" />
    <tag k="ref:vcgi:esiteid" v="270227" />
  </node>
  <node id="-237" visible="true" lat="44.138536370943" lon="-73.216374946314">
    <tag k="addr:city" v="Vergennes" />
    <tag k="addr:housenumber" v="139" />
    <tag k="addr:street" v="Schoolhouse Road" />
    <tag k="addr:state" v="VT" />
    <tag k="ref:vcgi:esiteid" v="270228" />
  </node>
  <node id="-238" visible="true" lat="44.138435916308" lon="-73.219215001494">
    <tag k="addr:city" v="Vergennes" />
    <tag k="addr:housenumber" v="2431" />
    <tag k="addr:street" v="Green Street" />
    <tag k="addr:state" v="VT" />
    <tag k="ref:vcgi:esiteid" v="270229" />
  </node>
  <node id="-239" visible="true" lat="44.138027992265" lon="-73.218751449076">
    <tag k="addr:city" v="Vergennes" />
    <tag k="addr:housenumber" v="2455" />
    <tag k="addr:street" v="Green Street" />
    <tag k="addr:state" v="VT" />
    <tag k="ref:vcgi:esiteid" v="270230" />
  </node>
  <node id="-240" visible="true" lat="44.135793134452" lon="-73.242837287829">
    <tag k="addr:city" v="Vergennes" />
    <tag k="addr:housenumber" v="89" />
    <tag k="addr:street" v="Sparrow Hawk Road" />
    <tag k="addr:state" v="VT" />
    <tag k="ref:vcgi:esiteid" v="270231" />
  </node>
  <node id="-241" visible="true" lat="44.135483816363" lon="-73.246774866638">
    <tag k="addr:city" v="Vergennes" />
    <tag k="addr:housenumber" v="1696" />
    <tag k="addr:street" v="Maple Street" />
    <tag k="addr:state" v="VT" />
    <tag k="ref:vcgi:esiteid" v="270232" />
  </node>
  <node id="-242" visible="true" lat="44.135157343351" lon="-73.242189398249">
    <tag k="addr:city" v="Vergennes" />
    <tag k="addr:housenumber" v="211" />
    <tag k="addr:street" v="Sparrow Hawk Road" />
    <tag k="addr:state" v="VT" />
    <tag k="ref:vcgi:esiteid" v="270233" />
  </node>
  <node id="-243" visible="true" lat="44.135162237263" lon="-73.238943488372">
    <tag k="addr:city" v="Vergennes" />
    <tag k="addr:housenumber" v="335" />
    <tag k="addr:street" v="Sparrow Hawk Road" />
    <tag k="addr:state" v="VT" />
    <tag k="ref:vcgi:esiteid" v="270234" />
  </node>
  <node id="-244" visible="true" lat="44.134309605512" lon="-73.246369788732">
    <tag k="addr:city" v="Vergennes" />
    <tag k="addr:housenumber" v="1798" />
    <tag k="addr:street" v="Maple Street" />
    <tag k="addr:state" v="VT" />
    <tag k="ref:vcgi:esiteid" v="270235" />
  </node>
  <node id="-245" visible="true" lat="44.134363654546" lon="-73.217449999255">
    <tag k="addr:city" v="Vergennes" />
    <tag k="addr:housenumber" v="2728" />
    <tag k="addr:street" v="Green Street" />
    <tag k="addr:state" v="VT" />
    <tag k="ref:vcgi:esiteid" v="270236" />
  </node>
  <node id="-246" visible="true" lat="44.133563740733" lon="-73.2168570897">
    <tag k="addr:city" v="Vergennes" />
    <tag k="addr:housenumber" v="2784" />
    <tag k="addr:street" v="Green Street" />
    <tag k="addr:state" v="VT" />
    <tag k="ref:vcgi:esiteid" v="270237" />
  </node>
  <node id="-247" visible="true" lat="44.133110382416" lon="-73.246039483557">
    <tag k="addr:city" v="Vergennes" />
    <tag k="addr:housenumber" v="1894" />
    <tag k="addr:street" v="Maple Street" />
    <tag k="addr:state" v="VT" />
    <tag k="ref:vcgi:esiteid" v="270238" />
  </node>
  <node id="-248" visible="true" lat="44.13323649957" lon="-73.215702053629">
    <tag k="addr:city" v="Vergennes" />
    <tag k="addr:housenumber" v="2803" />
    <tag k="addr:street" v="Green Street" />
    <tag k="addr:state" v="VT" />
    <tag k="ref:vcgi:esiteid" v="270239" />
  </node>
  <node id="-249" visible="true" lat="44.132685387345" lon="-73.216239280547">
    <tag k="addr:city" v="Vergennes" />
    <tag k="addr:housenumber" v="2856" />
    <tag k="addr:street" v="Green Street" />
    <tag k="addr:state" v="VT" />
    <tag k="ref:vcgi:esiteid" v="270240" />
  </node>
  <node id="-250" visible="true" lat="44.132019377675" lon="-73.241360249142">
    <tag k="addr:city" v="Vergennes" />
    <tag k="addr:housenumber" v="170" />
    <tag k="addr:street" v="Buck Mountain Ridge" />
    <tag k="addr:state" v="VT" />
    <tag k="ref:vcgi:esiteid" v="270241" />
  </node>
  <node id="-251" visible="true" lat="44.131296682077" lon="-73.243337112849">
    <tag k="addr:city" v="Vergennes" />
    <tag k="addr:housenumber" v="85" />
    <tag k="addr:street" v="Buck Mountain Ridge" />
    <tag k="addr:state" v="VT" />
    <tag k="ref:vcgi:esiteid" v="270242" />
  </node>
  <node id="-252" visible="true" lat="44.129525527665" lon="-73.243356221556">
    <tag k="addr:city" v="Vergennes" />
    <tag k="addr:housenumber" v="2111" />
    <tag k="addr:street" v="Maple Street" />
    <tag k="addr:state" v="VT" />
    <tag k="ref:vcgi:esiteid" v="270243" />
  </node>
  <node id="-253" visible="true" lat="44.129654624592" lon="-73.245202224855">
    <tag k="addr:city" v="Vergennes" />
    <tag k="addr:housenumber" v="2142" />
    <tag k="addr:street" v="Maple Street" />
    <tag k="addr:state" v="VT" />
    <tag k="ref:vcgi:esiteid" v="270244" />
  </node>
  <node id="-254" visible="true" lat="44.12898765414" lon="-73.243752949793">
    <tag k="addr:city" v="Vergennes" />
    <tag k="addr:housenumber" v="2183" />
    <tag k="addr:street" v="Maple Street" />
    <tag k="addr:state" v="VT" />
    <tag k="ref:vcgi:esiteid" v="270245" />
  </node>
  <node id="-255" visible="true" lat="44.128251540147" lon="-73.243622038718">
    <tag k="addr:city" v="Vergennes" />
    <tag k="addr:housenumber" v="2217" />
    <tag k="addr:street" v="Maple Street" />
    <tag k="addr:state" v="VT" />
    <tag k="ref:vcgi:esiteid" v="270246" />
  </node>
  <node id="-256" visible="true" lat="44.127088745529" lon="-73.244182808709">
    <tag k="addr:city" v="Vergennes" />
    <tag k="addr:housenumber" v="2317" />
    <tag k="addr:street" v="Maple Street" />
    <tag k="addr:state" v="VT" />
    <tag k="ref:vcgi:esiteid" v="270247" />
  </node>
  <node id="-257" visible="true" lat="44.126626124424" lon="-73.243818262122">
    <tag k="addr:city" v="Vergennes" />
    <tag k="addr:housenumber" v="2387" />
    <tag k="addr:street" v="Maple Street" />
    <tag k="addr:state" v="VT" />
    <tag k="ref:vcgi:esiteid" v="270248" />
  </node>
  <node id="-258" visible="true" lat="44.125881851213" lon="-73.245518410638">
    <tag k="addr:city" v="Vergennes" />
    <tag k="addr:housenumber" v="2394" />
    <tag k="addr:street" v="Maple Street" />
    <tag k="addr:state" v="VT" />
    <tag k="ref:vcgi:esiteid" v="270250" />
  </node>
  <node id="-259" visible="true" lat="44.125527838465" lon="-73.24554821958">
    <tag k="addr:city" v="Vergennes" />
    <tag k="addr:housenumber" v="2398" />
    <tag k="addr:street" v="Maple Street" />
    <tag k="addr:state" v="VT" />
    <tag k="ref:vcgi:esiteid" v="270251" />
  </node>
  <node id="-260" visible="true" lat="44.125360769844" lon="-73.242570295289">
    <tag k="addr:city" v="Vergennes" />
    <tag k="addr:housenumber" v="2473" />
    <tag k="addr:street" v="Maple Street" />
    <tag k="addr:state" v="VT" />
    <tag k="ref:vcgi:esiteid" v="270252" />
  </node>
  <node id="-261" visible="true" lat="44.125265085933" lon="-73.24439662002">
    <tag k="addr:city" v="Vergennes" />
    <tag k="addr:housenumber" v="2442" />
    <tag k="addr:street" v="Maple Street" />
    <tag k="addr:state" v="VT" />
    <tag k="ref:vcgi:esiteid" v="270253" />
  </node>
  <node id="-262" visible="true" lat="44.124257429664" lon="-73.242608539883">
    <tag k="addr:city" v="Vergennes" />
    <tag k="addr:housenumber" v="2531" />
    <tag k="addr:street" v="Maple Street" />
    <tag k="addr:state" v="VT" />
    <tag k="ref:vcgi:esiteid" v="270254" />
  </node>
  <node id="-263" visible="true" lat="44.123575042936" lon="-73.244242520214">
    <tag k="addr:city" v="Vergennes" />
    <tag k="addr:housenumber" v="2550" />
    <tag k="addr:street" v="Maple Street" />
    <tag k="addr:state" v="VT" />
    <tag k="ref:vcgi:esiteid" v="270255" />
  </node>
  <node id="-264" visible="true" lat="44.123120649601" lon="-73.243470661838">
    <tag k="addr:city" v="Vergennes" />
    <tag k="addr:housenumber" v="2615" />
    <tag k="addr:street" v="Maple Street" />
    <tag k="addr:state" v="VT" />
    <tag k="ref:vcgi:esiteid" v="270256" />
  </node>
  <node id="-265" visible="true" lat="44.121564253058" lon="-73.243958944751">
    <tag k="addr:city" v="Vergennes" />
    <tag k="addr:housenumber" v="2680" />
    <tag k="addr:street" v="Maple Street" />
    <tag k="addr:state" v="VT" />
    <tag k="ref:vcgi:esiteid" v="270257" />
  </node>
  <node id="-266" visible="true" lat="44.119798780775" lon="-73.241419313355">
    <tag k="addr:city" v="Vergennes" />
    <tag k="addr:housenumber" v="2819" />
    <tag k="addr:street" v="Maple Street" />
    <tag k="addr:state" v="VT" />
    <tag k="ref:vcgi:esiteid" v="270258" />
  </node>
  <node id="-267" visible="true" lat="44.11962371124" lon="-73.212194519164">
    <tag k="addr:city" v="Vergennes" />
    <tag k="addr:housenumber" v="3796" />
    <tag k="addr:street" v="Green Street" />
    <tag k="addr:state" v="VT" />
    <tag k="ref:vcgi:esiteid" v="270259" />
  </node>
  <node id="-268" visible="true" lat="44.118788744995" lon="-73.21173111458">
    <tag k="addr:city" v="Vergennes" />
    <tag k="addr:housenumber" v="3846" />
    <tag k="addr:street" v="Green Street" />
    <tag k="addr:state" v="VT" />
    <tag k="ref:vcgi:esiteid" v="270260" />
  </node>
  <node id="-269" visible="true" lat="44.11754957583" lon="-73.243770090572">
    <tag k="addr:city" v="Vergennes" />
    <tag k="addr:housenumber" v="2996" />
    <tag k="addr:street" v="Maple Street" />
    <tag k="addr:state" v="VT" />
    <tag k="ref:vcgi:esiteid" v="270261" />
  </node>
  <node id="-270" visible="true" lat="44.117165374294" lon="-73.210098653778">
    <tag k="addr:city" v="Vergennes" />
    <tag k="addr:housenumber" v="3991" />
    <tag k="addr:street" v="Green Street" />
    <tag k="addr:state" v="VT" />
    <tag k="ref:vcgi:esiteid" v="270262" />
  </node>
  <node id="-271" visible="true" lat="44.116523904907" lon="-73.241934717574">
    <tag k="addr:city" v="Vergennes" />
    <tag k="addr:housenumber" v="3059" />
    <tag k="addr:street" v="Maple Street" />
    <tag k="addr:state" v="VT" />
    <tag k="ref:vcgi:esiteid" v="270263" />
  </node>
  <node id="-272" visible="true" lat="44.116387934547" lon="-73.215216474925">
    <tag k="addr:city" v="Vergennes" />
    <tag k="addr:housenumber" v="184" />
    <tag k="addr:street" v="Burnham Road" />
    <tag k="addr:state" v="VT" />
    <tag k="ref:vcgi:esiteid" v="270264" />
  </node>
  <node id="-273" visible="true" lat="44.116348732177" lon="-73.215982741484">
    <tag k="addr:city" v="Vergennes" />
    <tag k="addr:housenumber" v="173" />
    <tag k="addr:street" v="Burnham Road" />
    <tag k="addr:state" v="VT" />
    <tag k="ref:vcgi:esiteid" v="270265" />
  </node>
  <node id="-274" visible="true" lat="44.115565354942" lon="-73.241684917635">
    <tag k="addr:city" v="Vergennes" />
    <tag k="addr:housenumber" v="3123" />
    <tag k="addr:street" v="Maple Street" />
    <tag k="addr:state" v="VT" />
    <tag k="ref:vcgi:esiteid" v="270266" />
  </node>
  <node id="-275" visible="true" lat="44.115753797239" lon="-73.21624032059">
    <tag k="addr:city" v="Vergennes" />
    <tag k="addr:housenumber" v="157" />
    <tag k="addr:street" v="Burnham Road" />
    <tag k="addr:state" v="VT" />
    <tag k="ref:vcgi:esiteid" v="270267" />
  </node>
  <node id="-276" visible="true" lat="44.115598065893" lon="-73.215196116313">
    <tag k="addr:city" v="Vergennes" />
    <tag k="addr:housenumber" v="136" />
    <tag k="addr:street" v="Burnham Road" />
    <tag k="addr:state" v="VT" />
    <tag k="ref:vcgi:esiteid" v="270268" />
  </node>
  <node id="-277" visible="true" lat="44.115022045822" lon="-73.241639606288">
    <tag k="addr:city" v="Vergennes" />
    <tag k="addr:housenumber" v="3155" />
    <tag k="addr:street" v="Maple Street" />
    <tag k="addr:state" v="VT" />
    <tag k="ref:vcgi:esiteid" v="270269" />
  </node>
  <node id="-278" visible="true" lat="44.115036105778" lon="-73.207214298267">
    <tag k="addr:city" v="Vergennes" />
    <tag k="addr:housenumber" v="1311" />
    <tag k="addr:street" v="Otter Creek Highway" />
    <tag k="addr:state" v="VT" />
    <tag k="ref:vcgi:esiteid" v="270270" />
  </node>
  <node id="-279" visible="true" lat="44.115141650614" lon="-73.206624848325">
    <tag k="addr:city" v="Vergennes" />
    <tag k="addr:housenumber" v="1309" />
    <tag k="addr:street" v="Otter Creek Highway" />
    <tag k="addr:state" v="VT" />
    <tag k="ref:vcgi:esiteid" v="270271" />
  </node>
  <node id="-280" visible="true" lat="44.113599225512" lon="-73.214237723291">
    <tag k="addr:city" v="Vergennes" />
    <tag k="addr:housenumber" v="1683" />
    <tag k="addr:street" v="Otter Creek Highway" />
    <tag k="addr:state" v="VT" />
    <tag k="ref:vcgi:esiteid" v="270272" />
  </node>
  <node id="-281" visible="true" lat="44.113307201725" lon="-73.216315136494">
    <tag k="addr:city" v="Vergennes" />
    <tag k="addr:housenumber" v="1800" />
    <tag k="addr:street" v="Otter Creek Highway" />
    <tag k="addr:state" v="VT" />
    <tag k="ref:vcgi:esiteid" v="270273" />
  </node>
  <node id="-282" visible="true" lat="44.113257685411" lon="-73.214821914788">
    <tag k="addr:city" v="Vergennes" />
    <tag k="addr:housenumber" v="1745" />
    <tag k="addr:street" v="Otter Creek Highway" />
    <tag k="addr:state" v="VT" />
    <tag k="ref:vcgi:esiteid" v="270274" />
  </node>
  <node id="-283" visible="true" lat="44.111110346287" lon="-73.240703809646">
    <tag k="addr:city" v="Vergennes" />
    <tag k="addr:housenumber" v="3435" />
    <tag k="addr:street" v="Maple Street" />
    <tag k="addr:state" v="VT" />
    <tag k="ref:vcgi:esiteid" v="270275" />
  </node>
  <node id="-284" visible="true" lat="44.108335139402" lon="-73.240422634215">
    <tag k="addr:city" v="Vergennes" />
    <tag k="addr:housenumber" v="3613" />
    <tag k="addr:street" v="Maple Street" />
    <tag k="addr:state" v="VT" />
    <tag k="ref:vcgi:esiteid" v="270276" />
  </node>
  <node id="-285" visible="true" lat="44.107377391372" lon="-73.240548602867">
    <tag k="addr:city" v="Vergennes" />
    <tag k="addr:housenumber" v="3689" />
    <tag k="addr:street" v="Maple Street" />
    <tag k="addr:state" v="VT" />
    <tag k="ref:vcgi:esiteid" v="270277" />
  </node>
  <node id="-286" visible="true" lat="44.156199063705" lon="-73.227242375743">
    <tag k="addr:city" v="Vergennes" />
    <tag k="addr:housenumber" v="910" />
    <tag k="addr:street" v="United States Route 7" />
    <tag k="addr:state" v="VT" />
    <tag k="ref:vcgi:esiteid" v="270278" />
  </node>
  <node id="-287" visible="true" lat="44.162190027319" lon="-73.230671252093">
    <tag k="addr:city" v="Vergennes" />
    <tag k="addr:housenumber" v="226" />
    <tag k="addr:street" v="Plank Road" />
    <tag k="addr:state" v="VT" />
    <tag k="ref:vcgi:esiteid" v="270279" />
  </node>
  <node id="-288" visible="true" lat="44.130949521137" lon="-73.2446371844">
    <tag k="addr:city" v="Vergennes" />
    <tag k="addr:housenumber" v="2053" />
    <tag k="addr:street" v="Maple Street" />
    <tag k="addr:state" v="VT" />
    <tag k="ref:vcgi:esiteid" v="270281" />
  </node>
  <node id="-289" visible="true" lat="44.159256979402" lon="-73.214808694357">
    <tag k="addr:city" v="Vergennes" />
    <tag k="addr:housenumber" v="1090" />
    <tag k="addr:street" v="South Middlebrook Road" />
    <tag k="addr:state" v="VT" />
    <tag k="ref:vcgi:esiteid" v="270282" />
  </node>
  <node id="-290" visible="true" lat="44.156520228481" lon="-73.217139745957">
    <tag k="addr:city" v="Vergennes" />
    <tag k="addr:housenumber" v="1318" />
    <tag k="addr:street" v="South Middlebrook Road" />
    <tag k="addr:state" v="VT" />
    <tag k="ref:vcgi:esiteid" v="270283" />
  </node>
  <node id="-291" visible="true" lat="44.140046464874" lon="-73.223458756222">
    <tag k="addr:city" v="Vergennes" />
    <tag k="addr:housenumber" v="190" />
    <tag k="addr:street" v="Route 66" />
    <tag k="addr:state" v="VT" />
    <tag k="ref:vcgi:esiteid" v="270284" />
  </node>
  <node id="-292" visible="true" lat="44.138984007795" lon="-73.220819288157">
    <tag k="addr:city" v="Vergennes" />
    <tag k="addr:housenumber" v="2338" />
    <tag k="addr:street" v="Green Street" />
    <tag k="addr:state" v="VT" />
    <tag k="ref:vcgi:esiteid" v="270285" />
  </node>
  <node id="-293" visible="true" lat="44.127944749983" lon="-73.214520081307">
    <tag k="addr:city" v="Vergennes" />
    <tag k="addr:housenumber" v="3204" />
    <tag k="addr:street" v="Green Street" />
    <tag k="addr:state" v="VT" />
    <tag k="ref:vcgi:esiteid" v="270286" />
  </node>
  <node id="-294" visible="true" lat="44.127160724436" lon="-73.214254224733">
    <tag k="addr:city" v="Vergennes" />
    <tag k="addr:housenumber" v="3256" />
    <tag k="addr:street" v="Green Street" />
    <tag k="addr:state" v="VT" />
    <tag k="ref:vcgi:esiteid" v="270287" />
  </node>
  <node id="-295" visible="true" lat="44.141388308746" lon="-73.217875754262">
    <tag k="addr:city" v="Vergennes" />
    <tag k="addr:housenumber" v="220" />
    <tag k="addr:street" v="Moonlit Meadows" />
    <tag k="addr:state" v="VT" />
    <tag k="ref:vcgi:esiteid" v="270288" />
  </node>
  <node id="-296" visible="true" lat="44.137355911924" lon="-73.21830108692">
    <tag k="addr:city" v="Vergennes" />
    <tag k="addr:housenumber" v="25" />
    <tag k="addr:street" v="Schoolhouse Road" />
    <tag k="addr:state" v="VT" />
    <tag k="ref:vcgi:esiteid" v="270289" />
  </node>
  <node id="-297" visible="true" lat="44.136921174043" lon="-73.218372297222">
    <tag k="addr:city" v="Vergennes" />
    <tag k="addr:housenumber" v="2527" />
    <tag k="addr:street" v="Green Street" />
    <tag k="addr:state" v="VT" />
    <tag k="ref:vcgi:esiteid" v="270290" />
  </node>
  <node id="-298" visible="true" lat="44.116606347281" lon="-73.209794875531">
    <tag k="addr:city" v="Vergennes" />
    <tag k="addr:housenumber" v="4007" />
    <tag k="addr:street" v="Green Street" />
    <tag k="addr:state" v="VT" />
    <tag k="ref:vcgi:esiteid" v="318261" />
  </node>
  <node id="-299" visible="true" lat="44.156927578968" lon="-73.230491990256">
    <tag k="addr:city" v="Vergennes" />
    <tag k="addr:housenumber" v="912" />
    <tag k="addr:street" v="United States Route 7" />
    <tag k="addr:state" v="VT" />
    <tag k="ref:vcgi:esiteid" v="341867" />
  </node>
  <node id="-300" visible="true" lat="44.159470568052" lon="-73.217866993434">
    <tag k="addr:city" v="Vergennes" />
    <tag k="addr:housenumber" v="77" />
    <tag k="addr:street" v="Mossy Grove" />
    <tag k="addr:state" v="VT" />
    <tag k="ref:vcgi:esiteid" v="341868" />
  </node>
  <node id="-301" visible="true" lat="44.158582969474" lon="-73.218323044472">
    <tag k="addr:city" v="Vergennes" />
    <tag k="addr:housenumber" v="121" />
    <tag k="addr:street" v="Mossy Grove" />
    <tag k="addr:state" v="VT" />
    <tag k="ref:vcgi:esiteid" v="341869" />
  </node>
  <node id="-302" visible="true" lat="44.142152691304" lon="-73.22164743218">
    <tag k="addr:city" v="Vergennes" />
    <tag k="addr:housenumber" v="2111" />
    <tag k="addr:street" v="Green Street" />
    <tag k="addr:state" v="VT" />
    <tag k="ref:vcgi:esiteid" v="342495" />
  </node>
  <node id="-303" visible="true" lat="44.151549914687" lon="-73.248059746204">
    <tag k="addr:city" v="Vergennes" />
    <tag k="addr:housenumber" v="592" />
    <tag k="addr:street" v="Maple Street" />
    <tag k="addr:state" v="VT" />
    <tag k="ref:vcgi:esiteid" v="342496" />
  </node>
  <node id="-304" visible="true" lat="44.148525360508" lon="-73.245544309068">
    <tag k="addr:city" v="Vergennes" />
    <tag k="addr:housenumber" v="839" />
    <tag k="addr:street" v="Maple Street" />
    <tag k="addr:state" v="VT" />
    <tag k="ref:vcgi:esiteid" v="342497" />
  </node>
  <node id="-305" visible="true" lat="44.148111833599" lon="-73.247014274629">
    <tag k="addr:city" v="Vergennes" />
    <tag k="addr:housenumber" v="844" />
    <tag k="addr:street" v="Maple Street" />
    <tag k="addr:state" v="VT" />
    <tag k="ref:vcgi:esiteid" v="342498" />
  </node>
  <node id="-306" visible="true" lat="44.147378065028" lon="-73.250794578275">
    <tag k="addr:city" v="Vergennes" />
    <tag k="addr:housenumber" v="106" />
    <tag k="addr:street" v="Grey Heron Lane" />
    <tag k="addr:state" v="VT" />
    <tag k="ref:vcgi:esiteid" v="342499" />
  </node>
  <node id="-307" visible="true" lat="44.143895727707" lon="-73.246607918907">
    <tag k="addr:city" v="Vergennes" />
    <tag k="addr:housenumber" v="1140" />
    <tag k="addr:street" v="Maple Street" />
    <tag k="addr:state" v="VT" />
    <tag k="ref:vcgi:esiteid" v="342501" />
  </node>
  <node id="-308" visible="true" lat="44.15680434787" lon="-73.235615905729">
    <tag k="addr:city" v="Vergennes" />
    <tag k="addr:housenumber" v="369" />
    <tag k="addr:street" v="Crosby Heights" />
    <tag k="addr:state" v="VT" />
    <tag k="ref:vcgi:esiteid" v="446102" />
  </node>
  <node id="-309" visible="true" lat="44.116781348068" lon="-73.20743037472">
    <tag k="addr:city" v="Vergennes" />
    <tag k="addr:housenumber" v="1310" />
    <tag k="addr:street" v="Otter Creek Highway" />
    <tag k="addr:state" v="VT" />
    <tag k="ref:vcgi:esiteid" v="446394" />
  </node>
  <node id="-310" visible="true" lat="44.126892736866" lon="-73.240859832394">
    <tag k="addr:city" v="Vergennes" />
    <tag k="addr:housenumber" v="2397" />
    <tag k="addr:street" v="Maple Street" />
    <tag k="addr:state" v="VT" />
    <tag k="ref:vcgi:esiteid" v="448121" />
  </node>
  <node id="-311" visible="true" lat="44.1202191175" lon="-73.24188166976">
    <tag k="addr:city" v="Vergennes" />
    <tag k="addr:housenumber" v="2811" />
    <tag k="addr:street" v="Maple Street" />
    <tag k="addr:state" v="VT" />
    <tag k="ref:vcgi:esiteid" v="448122" />
  </node>
  <node id="-312" visible="true" lat="44.144522789618" lon="-73.226844127373">
    <tag k="addr:city" v="Vergennes" />
    <tag k="addr:housenumber" v="1752" />
    <tag k="addr:street" v="Green Street" />
    <tag k="addr:state" v="VT" />
    <tag k="ref:vcgi:esiteid" v="448123" />
  </node>
  <node id="-313" visible="true" lat="44.142423679489" lon="-73.246675064805">
    <tag k="addr:city" v="Vergennes" />
    <tag k="addr:housenumber" v="1248" />
    <tag k="addr:street" v="Maple Street" />
    <tag k="addr:state" v="VT" />
    <tag k="ref:vcgi:esiteid" v="448509" />
  </node>
  <node id="-314" visible="true" lat="44.154647619573" lon="-73.242388799847">
    <tag k="addr:city" v="Vergennes" />
    <tag k="addr:housenumber" v="205" />
    <tag k="addr:street" v="Shorewood Road" />
    <tag k="addr:state" v="VT" />
    <tag k="ref:vcgi:esiteid" v="448688" />
  </node>
  <node id="-315" visible="true" lat="44.115198436321" lon="-73.209769098526">
    <tag k="addr:city" v="New Haven" />
    <tag k="addr:housenumber" v="3" />
    <tag k="addr:street" v="Pearson Road" />
    <tag k="addr:state" v="VT" />
    <tag k="ref:vcgi:esiteid" v="449638" />
  </node>
  <node id="-316" visible="true" lat="44.160016417319" lon="-73.217767720836">
    <tag k="addr:city" v="Vergennes" />
    <tag k="addr:housenumber" v="23" />
    <tag k="addr:street" v="Mossy Grove" />
    <tag k="addr:state" v="VT" />
    <tag k="ref:vcgi:esiteid" v="449639" />
  </node>
  <node id="-317" visible="true" lat="44.127783251302" lon="-73.214599773786">
    <tag k="addr:city" v="Vergennes" />
    <tag k="addr:housenumber" v="3210" />
    <tag k="addr:street" v="Green Street" />
    <tag k="addr:state" v="VT" />
    <tag k="ref:vcgi:esiteid" v="449640" />
  </node>
  <node id="-318" visible="true" lat="44.12767472682" lon="-73.213609423849">
    <tag k="addr:city" v="Vergennes" />
    <tag k="addr:housenumber" v="3243" />
    <tag k="addr:street" v="Green Street" />
    <tag k="addr:state" v="VT" />
    <tag k="ref:vcgi:esiteid" v="449641" />
  </node>
  <node id="-319" visible="true" lat="44.126629138427" lon="-73.214196293634">
    <tag k="addr:city" v="Vergennes" />
    <tag k="addr:housenumber" v="3282" />
    <tag k="addr:street" v="Green Street" />
    <tag k="addr:state" v="VT" />
    <tag k="ref:vcgi:esiteid" v="449642" />
  </node>
  <node id="-320" visible="true" lat="44.151486776209" lon="-73.218960782595">
    <tag k="addr:city" v="Vergennes" />
    <tag k="addr:housenumber" v="1651" />
    <tag k="addr:street" v="South Middlebrook Road" />
    <tag k="addr:state" v="VT" />
    <tag k="ref:vcgi:esiteid" v="449643" />
  </node>
  <node id="-321" visible="true" lat="44.144160439885" lon="-73.219233012968">
    <tag k="addr:city" v="Vergennes" />
    <tag k="addr:housenumber" v="171" />
    <tag k="addr:street" v="Monroe Way" />
    <tag k="addr:state" v="VT" />
    <tag k="ref:vcgi:esiteid" v="449644" />
  </node>
  <node id="-322" visible="true" lat="44.113791394952" lon="-73.241069300538">
    <tag k="addr:city" v="Vergennes" />
    <tag k="addr:housenumber" v="3235" />
    <tag k="addr:street" v="Maple Street" />
    <tag k="addr:state" v="VT" />
    <tag k="ref:vcgi:esiteid" v="451449" />
  </node>
  <node id="-323" visible="true" lat="44.127691078595" lon="-73.24164272771">
    <tag k="addr:city" v="Vergennes" />
    <tag k="addr:housenumber" v="2219" />
    <tag k="addr:street" v="Maple Street" />
    <tag k="addr:state" v="VT" />
    <tag k="ref:vcgi:esiteid" v="452399" />
  </node>
  <node id="-324" visible="true" lat="44.144782645153" lon="-73.211273061488">
    <tag k="addr:city" v="New Haven" />
    <tag k="addr:housenumber" v="160" />
    <tag k="addr:street" v="Hidden Meadows Lane" />
    <tag k="addr:state" v="VT" />
    <tag k="ref:vcgi:esiteid" v="453059" />
  </node>
  <node id="-325" visible="true" lat="44.145336597939" lon="-73.210974868094">
    <tag k="addr:city" v="New Haven" />
    <tag k="addr:housenumber" v="152" />
    <tag k="addr:street" v="Hidden Meadows Lane" />
    <tag k="addr:state" v="VT" />
    <tag k="ref:vcgi:esiteid" v="453060" />
  </node>
  <node id="-326" visible="true" lat="44.11801673243" lon="-73.212943523247">
    <tag k="addr:city" v="Vergennes" />
    <tag k="addr:housenumber" v="3884" />
    <tag k="addr:street" v="Green Street" />
    <tag k="addr:state" v="VT" />
    <tag k="ref:vcgi:esiteid" v="453570" />
  </node>
  <node id="-327" visible="true" lat="44.149762389915" lon="-73.239910902932">
    <tag k="addr:city" v="Vergennes" />
    <tag k="addr:housenumber" v="246" />
    <tag k="addr:street" v="Pine Oak Park" />
    <tag k="addr:state" v="VT" />
    <tag k="ref:vcgi:esiteid" v="453572" />
  </node>
  <node id="-328" visible="true" lat="44.126786296509" lon="-73.21346474302">
    <tag k="addr:city" v="Vergennes" />
    <tag k="addr:housenumber" v="3289" />
    <tag k="addr:street" v="Green Street" />
    <tag k="addr:state" v="VT" />
    <tag k="ref:vcgi:esiteid" v="454413" />
  </node>
  <node id="-329" visible="true" lat="44.161391999548" lon="-73.225845271584">
    <tag k="addr:city" v="Vergennes" />
    <tag k="addr:housenumber" v="488" />
    <tag k="addr:street" v="Plank Road" />
    <tag k="addr:state" v="VT" />
    <tag k="ref:vcgi:esiteid" v="617135" />
  </node>
  <node id="-330" visible="true" lat="44.16087508535" lon="-73.229239410768">
    <tag k="addr:city" v="Vergennes" />
    <tag k="addr:housenumber" v="605" />
    <tag k="addr:street" v="United States Route 7" />
    <tag k="addr:state" v="VT" />
    <tag k="ref:vcgi:esiteid" v="617136" />
  </node>
  <node id="-331" visible="true" lat="44.16022753137" lon="-73.227723068391">
    <tag k="addr:city" v="Vergennes" />
    <tag k="addr:housenumber" v="739" />
    <tag k="addr:street" v="United States Route 7" />
    <tag k="addr:state" v="VT" />
    <tag k="ref:vcgi:esiteid" v="617137" />
  </node>
  <node id="-332" visible="true" lat="44.123722746253" lon="-73.240986705742">
    <tag k="addr:city" v="Vergennes" />
    <tag k="addr:housenumber" v="2695" />
    <tag k="addr:street" v="Maple Street" />
    <tag k="addr:state" v="VT" />
    <tag k="ref:vcgi:esiteid" v="619533" />
  </node>
  <node id="-333" visible="true" lat="44.143576337383" lon="-73.215082742258">
    <tag k="addr:city" v="New Haven" />
    <tag k="addr:housenumber" v="232" />
    <tag k="addr:street" v="Hidden Meadows Lane" />
    <tag k="addr:state" v="VT" />
    <tag k="ref:vcgi:esiteid" v="619534" />
  </node>
  <node id="-334" visible="true" lat="44.115304034483" lon="-73.243358391913">
    <tag k="addr:city" v="Vergennes" />
    <tag k="addr:housenumber" v="3020" />
    <tag k="addr:street" v="Maple Street" />
    <tag k="addr:state" v="VT" />
    <tag k="ref:vcgi:esiteid" v="655760" />
  </node>
  <node id="-335" visible="true" lat="44.115162366649" lon="-73.242989725852">
    <tag k="addr:city" v="Vergennes" />
    <tag k="addr:housenumber" v="3022" />
    <tag k="addr:street" v="Maple Street" />
    <tag k="addr:state" v="VT" />
    <tag k="ref:vcgi:esiteid" v="655761" />
  </node>
  <node id="-336" visible="true" lat="44.127651902429" lon="-73.212114373658">
    <tag k="addr:city" v="Vergennes" />
    <tag k="addr:housenumber" v="3245" />
    <tag k="addr:street" v="Green Street" />
    <tag k="addr:state" v="VT" />
    <tag k="ref:vcgi:esiteid" v="656360" />
  </node>
  <node id="-337" visible="true" lat="44.108928525245" lon="-73.220898969228">
    <tag k="addr:city" v="New Haven" />
    <tag k="addr:housenumber" v="2190" />
    <tag k="addr:street" v="Otter Creek Highway" />
    <tag k="addr:state" v="VT" />
    <tag k="ref:vcgi:esiteid" v="752765" />
  </node>
  <node id="-338" visible="true" lat="44.160725702708" lon="-73.223863133666">
    <tag k="addr:city" v="Vergennes" />
    <tag k="addr:housenumber" v="620" />
    <tag k="addr:street" v="Plank Road" />
    <tag k="addr:state" v="VT" />
    <tag k="ref:vcgi:esiteid" v="761192" />
  </node>
  <node id="-339" visible="true" lat="44.160371836272" lon="-73.223105107179">
    <tag k="addr:city" v="Vergennes" />
    <tag k="addr:housenumber" v="622" />
    <tag k="addr:street" v="Plank Road" />
    <tag k="addr:state" v="VT" />
    <tag k="ref:vcgi:esiteid" v="761193" />
  </node>
  <node id="-340" visible="true" lat="44.160583572652" lon="-73.221910658274">
    <tag k="addr:city" v="Vergennes" />
    <tag k="addr:housenumber" v="718" />
    <tag k="addr:street" v="Plank Road" />
    <tag k="addr:state" v="VT" />
    <tag k="ref:vcgi:esiteid" v="761194" />
  </node>
  <node id="-341" visible="true" lat="44.157931091336" lon="-73.22223849347">
    <tag k="addr:city" v="Vergennes" />
    <tag k="addr:housenumber" v="720" />
    <tag k="addr:street" v="Plank Road" />
    <tag k="addr:state" v="VT" />
    <tag k="ref:vcgi:esiteid" v="761195" />
  </node>
  <node id="-342" visible="true" lat="44.121842195489" lon="-73.212740515277">
    <tag k="addr:city" v="Vergennes" />
    <tag k="addr:housenumber" v="3626" />
    <tag k="addr:street" v="Green Street" />
    <tag k="addr:state" v="VT" />
    <tag k="ref:vcgi:esiteid" v="766163" />
  </node>
  <node id="-343" visible="true" lat="44.121529525301" lon="-73.21133372347">
    <tag k="addr:city" v="Vergennes" />
    <tag k="addr:housenumber" v="3705" />
    <tag k="addr:street" v="Green Street" />
    <tag k="addr:state" v="VT" />
    <tag k="ref:vcgi:esiteid" v="766164" />
  </node>
  <node id="-344" visible="true" lat="44.112725550059" lon="-73.241004567496">
    <tag k="addr:city" v="Vergennes" />
    <tag k="addr:housenumber" v="3289" />
    <tag k="addr:street" v="Maple Street" />
    <tag k="addr:state" v="VT" />
    <tag k="ref:vcgi:esiteid" v="766165" />
  </node>
  <node id="-345" visible="true" lat="44.111803947073" lon="-73.217098188752">
    <tag k="addr:city" v="Vergennes" />
    <tag k="addr:housenumber" v="1825" />
    <tag k="addr:street" v="Otter Creek Highway" />
    <tag k="addr:state" v="VT" />
    <tag k="ref:vcgi:esiteid" v="767254" />
  </node>
  <node id="-347" visible="true" lat="44.114951808258" lon="-73.216149773478">
    <tag k="addr:city" v="Vergennes" />
    <tag k="addr:housenumber" v="155" />
    <tag k="addr:street" v="Burnham Road" />
    <tag k="addr:state" v="VT" />
    <tag k="ref:vcgi:esiteid" v="768346" />
  </node>
  <node id="-349" visible="true" lat="44.133271702706" lon="-73.241517137107">
    <tag k="addr:city" v="Vergennes" />
    <tag k="addr:housenumber" v="303" />
    <tag k="addr:street" v="Buck Mountain Ridge" />
    <tag k="addr:state" v="VT" />
    <tag k="ref:vcgi:esiteid" v="768548" />
  </node>
  <node id="-350" visible="true" lat="44.146393495166" lon="-73.25324806096">
    <tag k="addr:city" v="Vergennes" />
    <tag k="addr:housenumber" v="335" />
    <tag k="addr:street" v="Grey Heron Lane" />
    <tag k="addr:state" v="VT" />
    <tag k="ref:vcgi:esiteid" v="769984" />
  </node>
  <node id="-351" visible="true" lat="44.146136065089" lon="-73.247897713144">
    <tag k="addr:city" v="Vergennes" />
    <tag k="addr:housenumber" v="86" />
    <tag k="addr:street" v="Grey Heron Lane" />
    <tag k="addr:state" v="VT" />
    <tag k="ref:vcgi:esiteid" v="769985" />
  </node>
  <node id="-352" visible="true" lat="44.138710909438" lon="-73.226764731613">
    <tag k="addr:city" v="Vergennes" />
    <tag k="addr:housenumber" v="361" />
    <tag k="addr:street" v="Route 66" />
    <tag k="addr:state" v="VT" />
    <tag k="ref:vcgi:esiteid" v="1050135" />
  </node>
</osm>
