<?xml version="1.0" encoding="UTF-8"?>
<osm version="0.6" generator="JOSM" upload="false">
  <node id="-100" visible="true" lat="43.907815363406" lon="-73.207046638599">
    <tag k="addr:city" v="Whiting" />
    <tag k="addr:housenumber" v="652" />
    <tag k="addr:street" v="North Main Street" />
    <tag k="addr:state" v="VT" />
    <tag k="ref:vcgi:esiteid" v="286065" />
  </node>
  <node id="-101" visible="true" lat="43.907571143316" lon="-73.20778795792">
    <tag k="addr:city" v="Whiting" />
    <tag k="addr:housenumber" v="648" />
    <tag k="addr:street" v="North Main Street" />
    <tag k="addr:state" v="VT" />
    <tag k="ref:vcgi:esiteid" v="286066" />
  </node>
  <node id="-102" visible="true" lat="43.905744646024" lon="-73.207626378947">
    <tag k="addr:city" v="Whiting" />
    <tag k="addr:housenumber" v="616" />
    <tag k="addr:street" v="North Main Street" />
    <tag k="addr:state" v="VT" />
    <tag k="ref:vcgi:esiteid" v="286067" />
  </node>
  <node id="-103" visible="true" lat="43.905308498767" lon="-73.234454171778">
    <tag k="addr:city" v="Whiting" />
    <tag k="addr:housenumber" v="279" />
    <tag k="addr:street" v="Barnes Road" />
    <tag k="addr:state" v="VT" />
    <tag k="ref:vcgi:esiteid" v="286068" />
  </node>
  <node id="-104" visible="true" lat="43.905149854701" lon="-73.23221310714">
    <tag k="addr:city" v="Whiting" />
    <tag k="addr:housenumber" v="270" />
    <tag k="addr:street" v="Barnes Road" />
    <tag k="addr:state" v="VT" />
    <tag k="ref:vcgi:esiteid" v="286069" />
  </node>
  <node id="-105" visible="true" lat="43.905040950277" lon="-73.208459767416">
    <tag k="addr:city" v="Whiting" />
    <tag k="addr:housenumber" v="613" />
    <tag k="addr:street" v="North Main Street" />
    <tag k="addr:state" v="VT" />
    <tag k="ref:vcgi:esiteid" v="286070" />
  </node>
  <node id="-106" visible="true" lat="43.904440070556" lon="-73.219979028139">
    <tag k="addr:city" v="Whiting" />
    <tag k="addr:housenumber" v="84" />
    <tag k="addr:street" v="Galvin Road" />
    <tag k="addr:state" v="VT" />
    <tag k="ref:vcgi:esiteid" v="286071" />
  </node>
  <node id="-107" visible="true" lat="43.904017160045" lon="-73.234705285153">
    <tag k="addr:city" v="Whiting" />
    <tag k="addr:housenumber" v="265" />
    <tag k="addr:street" v="Barnes Road" />
    <tag k="addr:state" v="VT" />
    <tag k="ref:vcgi:esiteid" v="286072" />
  </node>
  <node id="-108" visible="true" lat="43.903623837854" lon="-73.239901892554">
    <tag k="addr:city" v="Whiting" />
    <tag k="addr:housenumber" v="2454" />
    <tag k="addr:street" v="Cutting Hill Road" />
    <tag k="addr:state" v="VT" />
    <tag k="ref:vcgi:esiteid" v="286073" />
  </node>
  <node id="-109" visible="true" lat="43.903152602658" lon="-73.240262655616">
    <tag k="addr:city" v="Whiting" />
    <tag k="addr:housenumber" v="2452" />
    <tag k="addr:street" v="Cutting Hill Road" />
    <tag k="addr:state" v="VT" />
    <tag k="ref:vcgi:esiteid" v="286074" />
  </node>
  <node id="-110" visible="true" lat="43.902841674953" lon="-73.222232616208">
    <tag k="addr:city" v="Whiting" />
    <tag k="addr:housenumber" v="244" />
    <tag k="addr:street" v="North Road" />
    <tag k="addr:state" v="VT" />
    <tag k="ref:vcgi:esiteid" v="286075" />
  </node>
  <node id="-111" visible="true" lat="43.903384143281" lon="-73.227084462004">
    <tag k="addr:city" v="Whiting" />
    <tag k="addr:housenumber" v="258" />
    <tag k="addr:street" v="North Road" />
    <tag k="addr:state" v="VT" />
    <tag k="ref:vcgi:esiteid" v="286076" />
  </node>
  <node id="-112" visible="true" lat="43.902377773588" lon="-73.239064677542">
    <tag k="addr:city" v="Whiting" />
    <tag k="addr:housenumber" v="2450" />
    <tag k="addr:street" v="Cutting Hill Road" />
    <tag k="addr:state" v="VT" />
    <tag k="ref:vcgi:esiteid" v="286077" />
  </node>
  <node id="-113" visible="true" lat="43.90196222736" lon="-73.227731031577">
    <tag k="addr:city" v="Whiting" />
    <tag k="addr:housenumber" v="267" />
    <tag k="addr:street" v="North Road" />
    <tag k="addr:state" v="VT" />
    <tag k="ref:vcgi:esiteid" v="286078" />
  </node>
  <node id="-114" visible="true" lat="43.902017444541" lon="-73.228101069187">
    <tag k="addr:city" v="Whiting" />
    <tag k="addr:housenumber" v="271" />
    <tag k="addr:street" v="North Road" />
    <tag k="addr:state" v="VT" />
    <tag k="ref:vcgi:esiteid" v="286079" />
  </node>
  <node id="-115" visible="true" lat="43.902031097108" lon="-73.232349862871">
    <tag k="addr:city" v="Whiting" />
    <tag k="addr:housenumber" v="320" />
    <tag k="addr:street" v="North Road" />
    <tag k="addr:state" v="VT" />
    <tag k="ref:vcgi:esiteid" v="286080" />
  </node>
  <node id="-116" visible="true" lat="43.90214285807" lon="-73.226425173998">
    <tag k="addr:city" v="Whiting" />
    <tag k="addr:housenumber" v="249" />
    <tag k="addr:street" v="North Road" />
    <tag k="addr:state" v="VT" />
    <tag k="ref:vcgi:esiteid" v="286081" />
  </node>
  <node id="-117" visible="true" lat="43.901502048336" lon="-73.233257712997">
    <tag k="addr:city" v="Whiting" />
    <tag k="addr:housenumber" v="221" />
    <tag k="addr:street" v="Barnes Road" />
    <tag k="addr:state" v="VT" />
    <tag k="ref:vcgi:esiteid" v="286082" />
  </node>
  <node id="-118" visible="true" lat="43.901174725468" lon="-73.230518317743">
    <tag k="addr:city" v="Whiting" />
    <tag k="addr:housenumber" v="297" />
    <tag k="addr:street" v="North Road" />
    <tag k="addr:state" v="VT" />
    <tag k="ref:vcgi:esiteid" v="286083" />
  </node>
  <node id="-119" visible="true" lat="43.901060783968" lon="-73.223396815384">
    <tag k="addr:city" v="Whiting" />
    <tag k="addr:housenumber" v="220" />
    <tag k="addr:street" v="North Road" />
    <tag k="addr:state" v="VT" />
    <tag k="ref:vcgi:esiteid" v="286084" />
  </node>
  <node id="-120" visible="true" lat="43.900618677601" lon="-73.229633834356">
    <tag k="addr:city" v="Whiting" />
    <tag k="addr:housenumber" v="289" />
    <tag k="addr:street" v="North Road" />
    <tag k="addr:state" v="VT" />
    <tag k="ref:vcgi:esiteid" v="286085" />
  </node>
  <node id="-121" visible="true" lat="43.899781510949" lon="-73.23168524815">
    <tag k="addr:city" v="Whiting" />
    <tag k="addr:housenumber" v="198" />
    <tag k="addr:street" v="Barnes Road" />
    <tag k="addr:state" v="VT" />
    <tag k="ref:vcgi:esiteid" v="286086" />
  </node>
  <node id="-122" visible="true" lat="43.899422192202" lon="-73.223515179456">
    <tag k="addr:city" v="Whiting" />
    <tag k="addr:housenumber" v="190" />
    <tag k="addr:street" v="North Road" />
    <tag k="addr:state" v="VT" />
    <tag k="ref:vcgi:esiteid" v="286087" />
  </node>
  <node id="-123" visible="true" lat="43.898953612464" lon="-73.233800635832">
    <tag k="addr:city" v="Whiting" />
    <tag k="addr:housenumber" v="187" />
    <tag k="addr:street" v="Barnes Road" />
    <tag k="addr:state" v="VT" />
    <tag k="ref:vcgi:esiteid" v="286088" />
  </node>
  <node id="-124" visible="true" lat="43.894375809793" lon="-73.232712074407">
    <tag k="addr:city" v="Whiting" />
    <tag k="addr:housenumber" v="115" />
    <tag k="addr:street" v="Barnes Road" />
    <tag k="addr:state" v="VT" />
    <tag k="ref:vcgi:esiteid" v="286090" />
  </node>
  <node id="-125" visible="true" lat="43.894452207483" lon="-73.218966144664">
    <tag k="addr:city" v="Whiting" />
    <tag k="addr:housenumber" v="97" />
    <tag k="addr:street" v="North Road" />
    <tag k="addr:state" v="VT" />
    <tag k="ref:vcgi:esiteid" v="286091" />
  </node>
  <node id="-126" visible="true" lat="43.892631601901" lon="-73.197462083931">
    <tag k="addr:city" v="Whiting" />
    <tag k="addr:housenumber" v="80" />
    <tag k="addr:street" v="Gibeault Road" />
    <tag k="addr:state" v="VT" />
    <tag k="ref:vcgi:esiteid" v="286092" />
  </node>
  <node id="-127" visible="true" lat="43.892819948255" lon="-73.230704193065">
    <tag k="addr:city" v="Whiting" />
    <tag k="addr:housenumber" v="82" />
    <tag k="addr:street" v="Barnes Road" />
    <tag k="addr:state" v="VT" />
    <tag k="ref:vcgi:esiteid" v="286093" />
  </node>
  <node id="-128" visible="true" lat="43.89151126557" lon="-73.19729753559">
    <tag k="addr:city" v="Whiting" />
    <tag k="addr:housenumber" v="64" />
    <tag k="addr:street" v="Gibeault Road" />
    <tag k="addr:state" v="VT" />
    <tag k="ref:vcgi:esiteid" v="286094" />
  </node>
  <node id="-129" visible="true" lat="43.89119082847" lon="-73.215882746006">
    <tag k="addr:city" v="Whiting" />
    <tag k="addr:housenumber" v="40" />
    <tag k="addr:street" v="North Road" />
    <tag k="addr:state" v="VT" />
    <tag k="ref:vcgi:esiteid" v="286095" />
  </node>
  <node id="-130" visible="true" lat="43.889873591253" lon="-73.229376549997">
    <tag k="addr:city" v="Whiting" />
    <tag k="addr:housenumber" v="36" />
    <tag k="addr:street" v="Barnes Road" />
    <tag k="addr:state" v="VT" />
    <tag k="ref:vcgi:esiteid" v="286096" />
  </node>
  <node id="-131" visible="true" lat="43.889657793188" lon="-73.201458872995">
    <tag k="addr:city" v="Whiting" />
    <tag k="addr:housenumber" v="378" />
    <tag k="addr:street" v="North Main Street" />
    <tag k="addr:state" v="VT" />
    <tag k="ref:vcgi:esiteid" v="286097" />
  </node>
  <node id="-132" visible="true" lat="43.889053719646" lon="-73.199589387795">
    <tag k="addr:city" v="Whiting" />
    <tag k="addr:housenumber" v="24" />
    <tag k="addr:street" v="Gibeault Road" />
    <tag k="addr:state" v="VT" />
    <tag k="ref:vcgi:esiteid" v="286098" />
  </node>
  <node id="-133" visible="true" lat="43.889315718615" lon="-73.204047802709">
    <tag k="addr:city" v="Whiting" />
    <tag k="addr:housenumber" v="20" />
    <tag k="addr:street" v="Stickney Road" />
    <tag k="addr:state" v="VT" />
    <tag k="ref:vcgi:esiteid" v="286099" />
  </node>
  <node id="-134" visible="true" lat="43.88929840809" lon="-73.207859732411">
    <tag k="addr:city" v="Whiting" />
    <tag k="addr:housenumber" v="60" />
    <tag k="addr:street" v="Stickney Road" />
    <tag k="addr:state" v="VT" />
    <tag k="ref:vcgi:esiteid" v="286100" />
  </node>
  <node id="-135" visible="true" lat="43.888999087624" lon="-73.202165852721">
    <tag k="addr:city" v="Whiting" />
    <tag k="addr:housenumber" v="3" />
    <tag k="addr:street" v="Stickney Road" />
    <tag k="addr:state" v="VT" />
    <tag k="ref:vcgi:esiteid" v="286101" />
  </node>
  <node id="-136" visible="true" lat="43.888515545512" lon="-73.2139517075">
    <tag k="addr:city" v="Whiting" />
    <tag k="addr:housenumber" v="125" />
    <tag k="addr:street" v="Stickney Road" />
    <tag k="addr:state" v="VT" />
    <tag k="ref:vcgi:esiteid" v="286102" />
  </node>
  <node id="-137" visible="true" lat="43.888531984266" lon="-73.218270748549">
    <tag k="addr:city" v="Whiting" />
    <tag k="addr:housenumber" v="172" />
    <tag k="addr:street" v="Stickney Road" />
    <tag k="addr:state" v="VT" />
    <tag k="ref:vcgi:esiteid" v="286103" />
  </node>
  <node id="-138" visible="true" lat="43.888512912604" lon="-73.214601006035">
    <tag k="addr:city" v="Whiting" />
    <tag k="addr:housenumber" v="133" />
    <tag k="addr:street" v="Stickney Road" />
    <tag k="addr:state" v="VT" />
    <tag k="ref:vcgi:esiteid" v="286104" />
  </node>
  <node id="-139" visible="true" lat="43.88846332057" lon="-73.215486016773">
    <tag k="addr:city" v="Whiting" />
    <tag k="addr:housenumber" v="143" />
    <tag k="addr:street" v="Stickney Road" />
    <tag k="addr:state" v="VT" />
    <tag k="ref:vcgi:esiteid" v="286105" />
  </node>
  <node id="-140" visible="true" lat="43.888222246376" lon="-73.216035337455">
    <tag k="addr:city" v="Whiting" />
    <tag k="addr:housenumber" v="147" />
    <tag k="addr:street" v="Stickney Road" />
    <tag k="addr:state" v="VT" />
    <tag k="ref:vcgi:esiteid" v="286106" />
  </node>
  <node id="-141" visible="true" lat="43.8876957242" lon="-73.218992582677">
    <tag k="addr:city" v="Whiting" />
    <tag k="addr:housenumber" v="177" />
    <tag k="addr:street" v="Stickney Road" />
    <tag k="addr:state" v="VT" />
    <tag k="ref:vcgi:esiteid" v="286107" />
  </node>
  <node id="-142" visible="true" lat="43.888188663075" lon="-73.217713800415">
    <tag k="addr:city" v="Whiting" />
    <tag k="addr:housenumber" v="163" />
    <tag k="addr:street" v="Stickney Road" />
    <tag k="addr:state" v="VT" />
    <tag k="ref:vcgi:esiteid" v="286108" />
  </node>
  <node id="-143" visible="true" lat="43.887961351955" lon="-73.21842668868">
    <tag k="addr:city" v="Whiting" />
    <tag k="addr:housenumber" v="175" />
    <tag k="addr:street" v="Stickney Road" />
    <tag k="addr:state" v="VT" />
    <tag k="ref:vcgi:esiteid" v="286109" />
  </node>
  <node id="-144" visible="true" lat="43.887941818387" lon="-73.214473239965">
    <tag k="addr:city" v="Whiting" />
    <tag k="addr:housenumber" v="129" />
    <tag k="addr:street" v="Stickney Road" />
    <tag k="addr:state" v="VT" />
    <tag k="ref:vcgi:esiteid" v="286110" />
  </node>
  <node id="-145" visible="true" lat="43.88794833601" lon="-73.201257192315">
    <tag k="addr:city" v="Whiting" />
    <tag k="addr:housenumber" v="354" />
    <tag k="addr:street" v="North Main Street" />
    <tag k="addr:state" v="VT" />
    <tag k="ref:vcgi:esiteid" v="286111" />
  </node>
  <node id="-146" visible="true" lat="43.88774920101" lon="-73.225950383287">
    <tag k="addr:city" v="Whiting" />
    <tag k="addr:housenumber" v="254" />
    <tag k="addr:street" v="Stickney Road" />
    <tag k="addr:state" v="VT" />
    <tag k="ref:vcgi:esiteid" v="286112" />
  </node>
  <node id="-147" visible="true" lat="43.887040436744" lon="-73.232339354947">
    <tag k="addr:city" v="Whiting" />
    <tag k="addr:housenumber" v="322" />
    <tag k="addr:street" v="Stickney Road" />
    <tag k="addr:state" v="VT" />
    <tag k="ref:vcgi:esiteid" v="286113" />
  </node>
  <node id="-148" visible="true" lat="43.886700668491" lon="-73.228342990808">
    <tag k="addr:city" v="Whiting" />
    <tag k="addr:housenumber" v="283" />
    <tag k="addr:street" v="Stickney Road" />
    <tag k="addr:state" v="VT" />
    <tag k="ref:vcgi:esiteid" v="286114" />
  </node>
  <node id="-149" visible="true" lat="43.886789504691" lon="-73.22924649215">
    <tag k="addr:city" v="Whiting" />
    <tag k="addr:housenumber" v="293" />
    <tag k="addr:street" v="Stickney Road" />
    <tag k="addr:state" v="VT" />
    <tag k="ref:vcgi:esiteid" v="286115" />
  </node>
  <node id="-150" visible="true" lat="43.886303676713" lon="-73.202402954204">
    <tag k="addr:city" v="Whiting" />
    <tag k="addr:housenumber" v="329" />
    <tag k="addr:street" v="North Main Street" />
    <tag k="addr:state" v="VT" />
    <tag k="ref:vcgi:esiteid" v="286116" />
  </node>
  <node id="-151" visible="true" lat="43.886109651675" lon="-73.200890981535">
    <tag k="addr:city" v="Whiting" />
    <tag k="addr:housenumber" v="324" />
    <tag k="addr:street" v="North Main Street" />
    <tag k="addr:state" v="VT" />
    <tag k="ref:vcgi:esiteid" v="286117" />
  </node>
  <node id="-152" visible="true" lat="43.884331648939" lon="-73.201251425669">
    <tag k="addr:city" v="Whiting" />
    <tag k="addr:housenumber" v="299" />
    <tag k="addr:street" v="North Main Street" />
    <tag k="addr:state" v="VT" />
    <tag k="ref:vcgi:esiteid" v="286118" />
  </node>
  <node id="-153" visible="true" lat="43.883118928551" lon="-73.201096973294">
    <tag k="addr:city" v="Whiting" />
    <tag k="addr:housenumber" v="283" />
    <tag k="addr:street" v="North Main Street" />
    <tag k="addr:state" v="VT" />
    <tag k="ref:vcgi:esiteid" v="286119" />
  </node>
  <node id="-154" visible="true" lat="43.882833393313" lon="-73.200955638849">
    <tag k="addr:city" v="Whiting" />
    <tag k="addr:housenumber" v="277" />
    <tag k="addr:street" v="North Main Street" />
    <tag k="addr:state" v="VT" />
    <tag k="ref:vcgi:esiteid" v="286120" />
  </node>
  <node id="-155" visible="true" lat="43.881408533818" lon="-73.20014810197">
    <tag k="addr:city" v="Whiting" />
    <tag k="addr:housenumber" v="258" />
    <tag k="addr:street" v="North Main Street" />
    <tag k="addr:state" v="VT" />
    <tag k="ref:vcgi:esiteid" v="286121" />
  </node>
  <node id="-156" visible="true" lat="43.879043273789" lon="-73.200804694668">
    <tag k="addr:city" v="Whiting" />
    <tag k="addr:housenumber" v="223" />
    <tag k="addr:street" v="North Main Street" />
    <tag k="addr:state" v="VT" />
    <tag k="ref:vcgi:esiteid" v="286122" />
  </node>
  <node id="-157" visible="true" lat="43.876099884549" lon="-73.198968372335">
    <tag k="addr:city" v="Whiting" />
    <tag k="addr:housenumber" v="178" />
    <tag k="addr:street" v="North Main Street" />
    <tag k="addr:state" v="VT" />
    <tag k="ref:vcgi:esiteid" v="286123" />
  </node>
  <node id="-158" visible="true" lat="43.874955475296" lon="-73.199693165591">
    <tag k="addr:city" v="Whiting" />
    <tag k="addr:housenumber" v="161" />
    <tag k="addr:street" v="North Main Street" />
    <tag k="addr:state" v="VT" />
    <tag k="ref:vcgi:esiteid" v="286124" />
  </node>
  <node id="-159" visible="true" lat="43.874373772885" lon="-73.198888811107">
    <tag k="addr:city" v="Whiting" />
    <tag k="addr:housenumber" v="152" />
    <tag k="addr:street" v="North Main Street" />
    <tag k="addr:state" v="VT" />
    <tag k="ref:vcgi:esiteid" v="286125" />
  </node>
  <node id="-160" visible="true" lat="43.874316184623" lon="-73.20004971694">
    <tag k="addr:city" v="Whiting" />
    <tag k="addr:housenumber" v="149" />
    <tag k="addr:street" v="North Main Street" />
    <tag k="addr:state" v="VT" />
    <tag k="ref:vcgi:esiteid" v="286126" />
  </node>
  <node id="-161" visible="true" lat="43.87246632347" lon="-73.199634986412">
    <tag k="addr:city" v="Whiting" />
    <tag k="addr:housenumber" v="123" />
    <tag k="addr:street" v="North Main Street" />
    <tag k="addr:state" v="VT" />
    <tag k="ref:vcgi:esiteid" v="286128" />
  </node>
  <node id="-162" visible="true" lat="43.87015470225" lon="-73.199838381816">
    <tag k="addr:city" v="Whiting" />
    <tag k="addr:housenumber" v="91" />
    <tag k="addr:street" v="North Main Street" />
    <tag k="addr:state" v="VT" />
    <tag k="ref:vcgi:esiteid" v="286129" />
  </node>
  <node id="-163" visible="true" lat="43.869191466517" lon="-73.199677904801">
    <tag k="addr:city" v="Whiting" />
    <tag k="addr:housenumber" v="77" />
    <tag k="addr:street" v="North Main Street" />
    <tag k="addr:state" v="VT" />
    <tag k="ref:vcgi:esiteid" v="286130" />
  </node>
  <node id="-164" visible="true" lat="43.86832340691" lon="-73.199079450984">
    <tag k="addr:city" v="Whiting" />
    <tag k="addr:housenumber" v="64" />
    <tag k="addr:street" v="North Main Street" />
    <tag k="addr:state" v="VT" />
    <tag k="ref:vcgi:esiteid" v="286131" />
  </node>
  <node id="-165" visible="true" lat="43.866943754261" lon="-73.200237251846">
    <tag k="addr:city" v="Whiting" />
    <tag k="addr:housenumber" v="43" />
    <tag k="addr:street" v="North Main Street" />
    <tag k="addr:state" v="VT" />
    <tag k="ref:vcgi:esiteid" v="286132" />
  </node>
  <node id="-166" visible="true" lat="43.866280791899" lon="-73.200217850219">
    <tag k="addr:city" v="Whiting" />
    <tag k="addr:housenumber" v="33" />
    <tag k="addr:street" v="North Main Street" />
    <tag k="addr:state" v="VT" />
    <tag k="ref:vcgi:esiteid" v="286133" />
  </node>
  <node id="-167" visible="true" lat="43.865517911518" lon="-73.200578173831">
    <tag k="addr:city" v="Whiting" />
    <tag k="addr:housenumber" v="23" />
    <tag k="addr:street" v="North Main Street" />
    <tag k="addr:state" v="VT" />
    <tag k="ref:vcgi:esiteid" v="286134" />
  </node>
  <node id="-168" visible="true" lat="43.865052520216" lon="-73.200059374463">
    <tag k="addr:city" v="Whiting" />
    <tag k="addr:housenumber" v="18" />
    <tag k="addr:street" v="North Main Street" />
    <tag k="addr:state" v="VT" />
    <tag k="ref:vcgi:esiteid" v="286135" />
  </node>
  <node id="-169" visible="true" lat="43.864993738239" lon="-73.200771906092">
    <tag k="addr:city" v="Whiting" />
    <tag k="addr:housenumber" v="13" />
    <tag k="addr:street" v="North Main Street" />
    <tag k="addr:state" v="VT" />
    <tag k="ref:vcgi:esiteid" v="286136" />
  </node>
  <node id="-170" visible="true" lat="43.864613829435" lon="-73.200105152441">
    <tag k="addr:city" v="Whiting" />
    <tag k="addr:housenumber" v="12" />
    <tag k="addr:street" v="North Main Street" />
    <tag k="addr:state" v="VT" />
    <tag k="ref:vcgi:esiteid" v="286137" />
  </node>
  <node id="-171" visible="true" lat="43.864418763105" lon="-73.204318382023">
    <tag k="addr:city" v="Whiting" />
    <tag k="addr:housenumber" v="42" />
    <tag k="addr:street" v="Shoreham Whiting Road" />
    <tag k="addr:state" v="VT" />
    <tag k="ref:vcgi:esiteid" v="286138" />
  </node>
  <node id="-172" visible="true" lat="43.86373351385" lon="-73.198945063947">
    <tag k="addr:city" v="Whiting" />
    <tag k="addr:housenumber" v="13" />
    <tag k="addr:street" v="Leicester Whiting Road" />
    <tag k="addr:state" v="VT" />
    <tag k="ref:vcgi:esiteid" v="286139" />
  </node>
  <node id="-173" visible="true" lat="43.863858746287" lon="-73.200925058999">
    <tag k="addr:city" v="Whiting" />
    <tag k="addr:housenumber" v="4" />
    <tag k="addr:street" v="South Main Street" />
    <tag k="addr:state" v="VT" />
    <tag k="ref:vcgi:esiteid" v="286140" />
  </node>
  <node id="-174" visible="true" lat="43.863785918998" lon="-73.202076220282">
    <tag k="addr:city" v="Whiting" />
    <tag k="addr:housenumber" v="15" />
    <tag k="addr:street" v="Shoreham Whiting Road" />
    <tag k="addr:state" v="VT" />
    <tag k="ref:vcgi:esiteid" v="286141" />
  </node>
  <node id="-175" visible="true" lat="43.863813058626" lon="-73.200314612513">
    <tag k="addr:city" v="Whiting" />
    <tag k="addr:housenumber" v="3" />
    <tag k="addr:street" v="South Main Street" />
    <tag k="addr:state" v="VT" />
    <tag k="ref:vcgi:esiteid" v="286142" />
  </node>
  <node id="-176" visible="true" lat="43.863114652493" lon="-73.210824452962">
    <tag k="addr:city" v="Whiting" />
    <tag k="addr:housenumber" v="123" />
    <tag k="addr:street" v="Shoreham Whiting Road" />
    <tag k="addr:state" v="VT" />
    <tag k="ref:vcgi:esiteid" v="286143" />
  </node>
  <node id="-177" visible="true" lat="43.862823382909" lon="-73.215689335159">
    <tag k="addr:city" v="Whiting" />
    <tag k="addr:housenumber" v="176" />
    <tag k="addr:street" v="Shoreham Whiting Road" />
    <tag k="addr:state" v="VT" />
    <tag k="ref:vcgi:esiteid" v="286144" />
  </node>
  <node id="-178" visible="true" lat="43.862740005642" lon="-73.222470270716">
    <tag k="addr:city" v="Whiting" />
    <tag k="addr:housenumber" v="249" />
    <tag k="addr:street" v="Shoreham Whiting Road" />
    <tag k="addr:state" v="VT" />
    <tag k="ref:vcgi:esiteid" v="286145" />
  </node>
  <node id="-179" visible="true" lat="43.862057747254" lon="-73.212614294486">
    <tag k="addr:city" v="Whiting" />
    <tag k="addr:housenumber" v="143" />
    <tag k="addr:street" v="Shoreham Whiting Road" />
    <tag k="addr:state" v="VT" />
    <tag k="ref:vcgi:esiteid" v="286146" />
  </node>
  <node id="-180" visible="true" lat="43.860780734886" lon="-73.185435922196">
    <tag k="addr:city" v="Whiting" />
    <tag k="addr:housenumber" v="25" />
    <tag k="addr:street" v="Crosby Road" />
    <tag k="addr:state" v="VT" />
    <tag k="ref:vcgi:esiteid" v="286147" />
  </node>
  <node id="-181" visible="true" lat="43.860644977302" lon="-73.189015986186">
    <tag k="addr:city" v="Whiting" />
    <tag k="addr:housenumber" v="131" />
    <tag k="addr:street" v="Leicester Whiting Road" />
    <tag k="addr:state" v="VT" />
    <tag k="ref:vcgi:esiteid" v="286148" />
  </node>
  <node id="-182" visible="true" lat="43.859774033815" lon="-73.18538307745">
    <tag k="addr:city" v="Whiting" />
    <tag k="addr:housenumber" v="10" />
    <tag k="addr:street" v="Crosby Road" />
    <tag k="addr:state" v="VT" />
    <tag k="ref:vcgi:esiteid" v="286149" />
  </node>
  <node id="-183" visible="true" lat="43.85965130635" lon="-73.212303145259">
    <tag k="addr:city" v="Whiting" />
    <tag k="addr:housenumber" v="57" />
    <tag k="addr:street" v="West Road" />
    <tag k="addr:state" v="VT" />
    <tag k="ref:vcgi:esiteid" v="286150" />
  </node>
  <node id="-184" visible="true" lat="43.859448867516" lon="-73.213509471004">
    <tag k="addr:city" v="Whiting" />
    <tag k="addr:housenumber" v="54" />
    <tag k="addr:street" v="West Road" />
    <tag k="addr:state" v="VT" />
    <tag k="ref:vcgi:esiteid" v="286151" />
  </node>
  <node id="-185" visible="true" lat="43.8590587272" lon="-73.201549027462">
    <tag k="addr:city" v="Whiting" />
    <tag k="addr:housenumber" v="75" />
    <tag k="addr:street" v="South Main Street" />
    <tag k="addr:state" v="VT" />
    <tag k="ref:vcgi:esiteid" v="286152" />
  </node>
  <node id="-186" visible="true" lat="43.858791375464" lon="-73.213397054468">
    <tag k="addr:city" v="Whiting" />
    <tag k="addr:housenumber" v="66" />
    <tag k="addr:street" v="West Road" />
    <tag k="addr:state" v="VT" />
    <tag k="ref:vcgi:esiteid" v="286153" />
  </node>
  <node id="-187" visible="true" lat="43.858540342312" lon="-73.20125206751">
    <tag k="addr:city" v="Whiting" />
    <tag k="addr:housenumber" v="79" />
    <tag k="addr:street" v="South Main Street" />
    <tag k="addr:state" v="VT" />
    <tag k="ref:vcgi:esiteid" v="286154" />
  </node>
  <node id="-188" visible="true" lat="43.859254846419" lon="-73.188320574866">
    <tag k="addr:city" v="Whiting" />
    <tag k="addr:housenumber" v="132" />
    <tag k="addr:street" v="Leicester Whiting Road" />
    <tag k="addr:state" v="VT" />
    <tag k="ref:vcgi:esiteid" v="286155" />
  </node>
  <node id="-189" visible="true" lat="43.858192075586" lon="-73.201440903477">
    <tag k="addr:city" v="Whiting" />
    <tag k="addr:housenumber" v="87" />
    <tag k="addr:street" v="South Main Street" />
    <tag k="addr:state" v="VT" />
    <tag k="ref:vcgi:esiteid" v="286156" />
  </node>
  <node id="-190" visible="true" lat="43.858018263534" lon="-73.184428004721">
    <tag k="addr:city" v="Whiting" />
    <tag k="addr:housenumber" v="185" />
    <tag k="addr:street" v="Leicester Whiting Road" />
    <tag k="addr:state" v="VT" />
    <tag k="ref:vcgi:esiteid" v="286157" />
  </node>
  <node id="-191" visible="true" lat="43.857041557579" lon="-73.212477472492">
    <tag k="addr:city" v="Whiting" />
    <tag k="addr:housenumber" v="156" />
    <tag k="addr:street" v="West Road" />
    <tag k="addr:state" v="VT" />
    <tag k="ref:vcgi:esiteid" v="286158" />
  </node>
  <node id="-192" visible="true" lat="43.85686805729" lon="-73.208284887688">
    <tag k="addr:city" v="Whiting" />
    <tag k="addr:housenumber" v="92" />
    <tag k="addr:street" v="Bilodeau Road" />
    <tag k="addr:state" v="VT" />
    <tag k="ref:vcgi:esiteid" v="286159" />
  </node>
  <node id="-193" visible="true" lat="43.856770032564" lon="-73.202495351">
    <tag k="addr:city" v="Whiting" />
    <tag k="addr:housenumber" v="112" />
    <tag k="addr:street" v="South Main Street" />
    <tag k="addr:state" v="VT" />
    <tag k="ref:vcgi:esiteid" v="286160" />
  </node>
  <node id="-194" visible="true" lat="43.856507595597" lon="-73.209619009262">
    <tag k="addr:city" v="Whiting" />
    <tag k="addr:housenumber" v="99" />
    <tag k="addr:street" v="Bilodeau Road" />
    <tag k="addr:state" v="VT" />
    <tag k="ref:vcgi:esiteid" v="286161" />
  </node>
  <node id="-195" visible="true" lat="43.856049164737" lon="-73.208046137943">
    <tag k="addr:city" v="Whiting" />
    <tag k="addr:housenumber" v="85" />
    <tag k="addr:street" v="Bilodeau Road" />
    <tag k="addr:state" v="VT" />
    <tag k="ref:vcgi:esiteid" v="286162" />
  </node>
  <node id="-196" visible="true" lat="43.856656822452" lon="-73.184991910325">
    <tag k="addr:city" v="Whiting" />
    <tag k="addr:housenumber" v="210" />
    <tag k="addr:street" v="Leicester Whiting Road" />
    <tag k="addr:state" v="VT" />
    <tag k="ref:vcgi:esiteid" v="286163" />
  </node>
  <node id="-197" visible="true" lat="43.855608930825" lon="-73.207253625008">
    <tag k="addr:city" v="Whiting" />
    <tag k="addr:housenumber" v="73" />
    <tag k="addr:street" v="Bilodeau Road" />
    <tag k="addr:state" v="VT" />
    <tag k="ref:vcgi:esiteid" v="286164" />
  </node>
  <node id="-198" visible="true" lat="43.854274224868" lon="-73.201520542347">
    <tag k="addr:city" v="Whiting" />
    <tag k="addr:housenumber" v="8" />
    <tag k="addr:street" v="Bilodeau Road" />
    <tag k="addr:state" v="VT" />
    <tag k="ref:vcgi:esiteid" v="286165" />
  </node>
  <node id="-199" visible="true" lat="43.854135989474" lon="-73.211529181908">
    <tag k="addr:city" v="Whiting" />
    <tag k="addr:housenumber" v="202" />
    <tag k="addr:street" v="West Road" />
    <tag k="addr:state" v="VT" />
    <tag k="ref:vcgi:esiteid" v="286166" />
  </node>
  <node id="-200" visible="true" lat="43.854038669144" lon="-73.176647203017">
    <tag k="addr:city" v="Whiting" />
    <tag k="addr:housenumber" v="297" />
    <tag k="addr:street" v="Leicester Whiting Road" />
    <tag k="addr:state" v="VT" />
    <tag k="ref:vcgi:esiteid" v="286167" />
  </node>
  <node id="-201" visible="true" lat="43.853615301642" lon="-73.175347448412">
    <tag k="addr:city" v="Whiting" />
    <tag k="addr:housenumber" v="315" />
    <tag k="addr:street" v="Leicester Whiting Road" />
    <tag k="addr:state" v="VT" />
    <tag k="ref:vcgi:esiteid" v="286168" />
  </node>
  <node id="-202" visible="true" lat="43.853040189655" lon="-73.211627997939">
    <tag k="addr:city" v="Whiting" />
    <tag k="addr:housenumber" v="216" />
    <tag k="addr:street" v="West Road" />
    <tag k="addr:state" v="VT" />
    <tag k="ref:vcgi:esiteid" v="286169" />
  </node>
  <node id="-203" visible="true" lat="43.852404305026" lon="-73.174740165736">
    <tag k="addr:city" v="Whiting" />
    <tag k="addr:housenumber" v="314" />
    <tag k="addr:street" v="Leicester Whiting Road" />
    <tag k="addr:state" v="VT" />
    <tag k="ref:vcgi:esiteid" v="286170" />
  </node>
  <node id="-204" visible="true" lat="43.852517782468" lon="-73.211362926422">
    <tag k="addr:city" v="Whiting" />
    <tag k="addr:housenumber" v="226" />
    <tag k="addr:street" v="West Road" />
    <tag k="addr:state" v="VT" />
    <tag k="ref:vcgi:esiteid" v="286171" />
  </node>
  <node id="-205" visible="true" lat="43.852761563393" lon="-73.169557044716">
    <tag k="addr:city" v="Whiting" />
    <tag k="addr:housenumber" v="373" />
    <tag k="addr:street" v="Leicester Whiting Road" />
    <tag k="addr:state" v="VT" />
    <tag k="ref:vcgi:esiteid" v="286172" />
  </node>
  <node id="-206" visible="true" lat="43.85237959604" lon="-73.200845834774">
    <tag k="addr:city" v="Whiting" />
    <tag k="addr:housenumber" v="176" />
    <tag k="addr:street" v="South Main Street" />
    <tag k="addr:state" v="VT" />
    <tag k="ref:vcgi:esiteid" v="286173" />
  </node>
  <node id="-207" visible="true" lat="43.852205235612" lon="-73.200173276665">
    <tag k="addr:city" v="Whiting" />
    <tag k="addr:housenumber" v="180" />
    <tag k="addr:street" v="South Main Street" />
    <tag k="addr:state" v="VT" />
    <tag k="ref:vcgi:esiteid" v="286174" />
  </node>
  <node id="-208" visible="true" lat="43.851988020233" lon="-73.164081818298">
    <tag k="addr:city" v="Whiting" />
    <tag k="addr:housenumber" v="433" />
    <tag k="addr:street" v="Leicester Whiting Road" />
    <tag k="addr:state" v="VT" />
    <tag k="ref:vcgi:esiteid" v="286175" />
  </node>
  <node id="-209" visible="true" lat="43.851885481075" lon="-73.166710677375">
    <tag k="addr:city" v="Whiting" />
    <tag k="addr:housenumber" v="410" />
    <tag k="addr:street" v="Leicester Whiting Road" />
    <tag k="addr:state" v="VT" />
    <tag k="ref:vcgi:esiteid" v="286176" />
  </node>
  <node id="-210" visible="true" lat="43.851052578286" lon="-73.211320363392">
    <tag k="addr:city" v="Whiting" />
    <tag k="addr:housenumber" v="246" />
    <tag k="addr:street" v="West Road" />
    <tag k="addr:state" v="VT" />
    <tag k="ref:vcgi:esiteid" v="286177" />
  </node>
  <node id="-211" visible="true" lat="43.850986885202" lon="-73.199650239559">
    <tag k="addr:city" v="Whiting" />
    <tag k="addr:housenumber" v="198" />
    <tag k="addr:street" v="South Main Street" />
    <tag k="addr:state" v="VT" />
    <tag k="ref:vcgi:esiteid" v="286178" />
  </node>
  <node id="-212" visible="true" lat="43.850434596464" lon="-73.199532945079">
    <tag k="addr:city" v="Whiting" />
    <tag k="addr:housenumber" v="206" />
    <tag k="addr:street" v="South Main Street" />
    <tag k="addr:state" v="VT" />
    <tag k="ref:vcgi:esiteid" v="286179" />
  </node>
  <node id="-213" visible="true" lat="43.849826078932" lon="-73.198275638294">
    <tag k="addr:city" v="Whiting" />
    <tag k="addr:housenumber" v="219" />
    <tag k="addr:street" v="South Main Street" />
    <tag k="addr:state" v="VT" />
    <tag k="ref:vcgi:esiteid" v="286180" />
  </node>
  <node id="-214" visible="true" lat="43.849361712163" lon="-73.211691365009">
    <tag k="addr:city" v="Whiting" />
    <tag k="addr:housenumber" v="270" />
    <tag k="addr:street" v="West Road" />
    <tag k="addr:state" v="VT" />
    <tag k="ref:vcgi:esiteid" v="286181" />
  </node>
  <node id="-215" visible="true" lat="43.849339777929" lon="-73.209817374134">
    <tag k="addr:city" v="Whiting" />
    <tag k="addr:housenumber" v="277" />
    <tag k="addr:street" v="West Road" />
    <tag k="addr:state" v="VT" />
    <tag k="ref:vcgi:esiteid" v="286182" />
  </node>
  <node id="-216" visible="true" lat="43.849339778342" lon="-73.198907334301">
    <tag k="addr:city" v="Whiting" />
    <tag k="addr:housenumber" v="224" />
    <tag k="addr:street" v="South Main Street" />
    <tag k="addr:state" v="VT" />
    <tag k="ref:vcgi:esiteid" v="286183" />
  </node>
  <node id="-217" visible="true" lat="43.848706918066" lon="-73.201705454249">
    <tag k="addr:city" v="Whiting" />
    <tag k="addr:housenumber" v="32" />
    <tag k="addr:street" v="Murray Road" />
    <tag k="addr:state" v="VT" />
    <tag k="ref:vcgi:esiteid" v="286184" />
  </node>
  <node id="-218" visible="true" lat="43.848242174659" lon="-73.197975847984">
    <tag k="addr:city" v="Whiting" />
    <tag k="addr:housenumber" v="241" />
    <tag k="addr:street" v="South Main Street" />
    <tag k="addr:state" v="VT" />
    <tag k="ref:vcgi:esiteid" v="286185" />
  </node>
  <node id="-219" visible="true" lat="43.847920892142" lon="-73.209523792671">
    <tag k="addr:city" v="Whiting" />
    <tag k="addr:housenumber" v="289" />
    <tag k="addr:street" v="West Road" />
    <tag k="addr:state" v="VT" />
    <tag k="ref:vcgi:esiteid" v="286186" />
  </node>
  <node id="-220" visible="true" lat="43.846997673127" lon="-73.206900229788">
    <tag k="addr:city" v="Whiting" />
    <tag k="addr:housenumber" v="91" />
    <tag k="addr:street" v="Murray Road" />
    <tag k="addr:state" v="VT" />
    <tag k="ref:vcgi:esiteid" v="286187" />
  </node>
  <node id="-221" visible="true" lat="43.847050509608" lon="-73.169631535736">
    <tag k="addr:city" v="Whiting" />
    <tag k="addr:housenumber" v="79" />
    <tag k="addr:street" v="Sawyer Needham Road" />
    <tag k="addr:state" v="VT" />
    <tag k="ref:vcgi:esiteid" v="286188" />
  </node>
  <node id="-222" visible="true" lat="43.846502986478" lon="-73.197762260577">
    <tag k="addr:city" v="Whiting" />
    <tag k="addr:housenumber" v="264" />
    <tag k="addr:street" v="South Main Street" />
    <tag k="addr:state" v="VT" />
    <tag k="ref:vcgi:esiteid" v="286189" />
  </node>
  <node id="-223" visible="true" lat="43.846119842309" lon="-73.210600586259">
    <tag k="addr:city" v="Whiting" />
    <tag k="addr:housenumber" v="326" />
    <tag k="addr:street" v="West Road" />
    <tag k="addr:state" v="VT" />
    <tag k="ref:vcgi:esiteid" v="286190" />
  </node>
  <node id="-224" visible="true" lat="43.845120722892" lon="-73.209092580193">
    <tag k="addr:city" v="Whiting" />
    <tag k="addr:housenumber" v="337" />
    <tag k="addr:street" v="West Road" />
    <tag k="addr:state" v="VT" />
    <tag k="ref:vcgi:esiteid" v="286191" />
  </node>
  <node id="-225" visible="true" lat="43.84524244772" lon="-73.197655240544">
    <tag k="addr:city" v="Whiting" />
    <tag k="addr:housenumber" v="292" />
    <tag k="addr:street" v="South Main Street" />
    <tag k="addr:state" v="VT" />
    <tag k="ref:vcgi:esiteid" v="286192" />
  </node>
  <node id="-226" visible="true" lat="43.84385424338" lon="-73.196435409623">
    <tag k="addr:city" v="Whiting" />
    <tag k="addr:housenumber" v="308" />
    <tag k="addr:street" v="South Main Street" />
    <tag k="addr:state" v="VT" />
    <tag k="ref:vcgi:esiteid" v="286193" />
  </node>
  <node id="-227" visible="true" lat="43.842423730875" lon="-73.195184188888">
    <tag k="addr:city" v="Whiting" />
    <tag k="addr:housenumber" v="327" />
    <tag k="addr:street" v="South Main Street" />
    <tag k="addr:state" v="VT" />
    <tag k="ref:vcgi:esiteid" v="286194" />
  </node>
  <node id="-228" visible="true" lat="43.841538719855" lon="-73.210229360347">
    <tag k="addr:city" v="Whiting" />
    <tag k="addr:housenumber" v="389" />
    <tag k="addr:street" v="West Road" />
    <tag k="addr:state" v="VT" />
    <tag k="ref:vcgi:esiteid" v="286195" />
  </node>
  <node id="-229" visible="true" lat="43.841430759201" lon="-73.170715177662">
    <tag k="addr:city" v="Whiting" />
    <tag k="addr:housenumber" v="165" />
    <tag k="addr:street" v="Sawyer Needham Road" />
    <tag k="addr:state" v="VT" />
    <tag k="ref:vcgi:esiteid" v="286196" />
  </node>
  <node id="-230" visible="true" lat="43.840618634215" lon="-73.195508838758">
    <tag k="addr:city" v="Whiting" />
    <tag k="addr:housenumber" v="358" />
    <tag k="addr:street" v="South Main Street" />
    <tag k="addr:state" v="VT" />
    <tag k="ref:vcgi:esiteid" v="286197" />
  </node>
  <node id="-231" visible="true" lat="43.839300572712" lon="-73.214728096833">
    <tag k="addr:city" v="Whiting" />
    <tag k="addr:housenumber" v="454" />
    <tag k="addr:street" v="West Road" />
    <tag k="addr:state" v="VT" />
    <tag k="ref:vcgi:esiteid" v="286198" />
  </node>
  <node id="-232" visible="true" lat="43.839176144226" lon="-73.172693020495">
    <tag k="addr:city" v="Whiting" />
    <tag k="addr:housenumber" v="184" />
    <tag k="addr:street" v="Sawyer Needham Road" />
    <tag k="addr:state" v="VT" />
    <tag k="ref:vcgi:esiteid" v="286199" />
  </node>
  <node id="-233" visible="true" lat="43.838979459271" lon="-73.196740390123">
    <tag k="addr:city" v="Whiting" />
    <tag k="addr:housenumber" v="98" />
    <tag k="addr:street" v="Leno Lane" />
    <tag k="addr:state" v="VT" />
    <tag k="ref:vcgi:esiteid" v="286200" />
  </node>
  <node id="-234" visible="true" lat="43.838049362312" lon="-73.21477316711">
    <tag k="addr:city" v="Whiting" />
    <tag k="addr:housenumber" v="447" />
    <tag k="addr:street" v="West Road" />
    <tag k="addr:state" v="VT" />
    <tag k="ref:vcgi:esiteid" v="286201" />
  </node>
  <node id="-235" visible="true" lat="43.861340100191" lon="-73.201012042514">
    <tag k="addr:city" v="Whiting" />
    <tag k="addr:housenumber" v="39" />
    <tag k="addr:street" v="South Main Street" />
    <tag k="addr:state" v="VT" />
    <tag k="ref:vcgi:esiteid" v="286202" />
  </node>
  <node id="-236" visible="true" lat="43.863159029379" lon="-73.200573532864">
    <tag k="addr:city" v="Whiting" />
    <tag k="addr:housenumber" v="13" />
    <tag k="addr:street" v="South Main Street" />
    <tag k="addr:state" v="VT" />
    <tag k="ref:vcgi:esiteid" v="286204" />
  </node>
  <node id="-237" visible="true" lat="43.86277397125" lon="-73.200612787356">
    <tag k="addr:city" v="Whiting" />
    <tag k="addr:housenumber" v="23" />
    <tag k="addr:street" v="South Main Street" />
    <tag k="addr:state" v="VT" />
    <tag k="ref:vcgi:esiteid" v="286205" />
  </node>
  <node id="-238" visible="true" lat="43.862130460433" lon="-73.200776537961">
    <tag k="addr:city" v="Whiting" />
    <tag k="addr:housenumber" v="27" />
    <tag k="addr:street" v="South Main Street" />
    <tag k="addr:state" v="VT" />
    <tag k="ref:vcgi:esiteid" v="286206" />
  </node>
  <node id="-239" visible="true" lat="43.862017552872" lon="-73.200855050708">
    <tag k="addr:city" v="Whiting" />
    <tag k="addr:housenumber" v="29" />
    <tag k="addr:street" v="South Main Street" />
    <tag k="addr:state" v="VT" />
    <tag k="ref:vcgi:esiteid" v="286207" />
  </node>
  <node id="-240" visible="true" lat="43.863600871567" lon="-73.201019276951">
    <tag k="addr:city" v="Whiting" />
    <tag k="addr:housenumber" v="8" />
    <tag k="addr:street" v="South Main Street" />
    <tag k="addr:state" v="VT" />
    <tag k="ref:vcgi:esiteid" v="286208" />
  </node>
  <node id="-241" visible="true" lat="43.86332225706" lon="-73.201075944212">
    <tag k="addr:city" v="Whiting" />
    <tag k="addr:housenumber" v="12" />
    <tag k="addr:street" v="South Main Street" />
    <tag k="addr:state" v="VT" />
    <tag k="ref:vcgi:esiteid" v="286209" />
  </node>
  <node id="-242" visible="true" lat="43.862813291827" lon="-73.201234300964">
    <tag k="addr:city" v="Whiting" />
    <tag k="addr:housenumber" v="20" />
    <tag k="addr:street" v="South Main Street" />
    <tag k="addr:state" v="VT" />
    <tag k="ref:vcgi:esiteid" v="286210" />
  </node>
  <node id="-243" visible="true" lat="43.862325477883" lon="-73.201275243624">
    <tag k="addr:city" v="Whiting" />
    <tag k="addr:housenumber" v="26" />
    <tag k="addr:street" v="South Main Street" />
    <tag k="addr:state" v="VT" />
    <tag k="ref:vcgi:esiteid" v="286211" />
  </node>
  <node id="-244" visible="true" lat="43.862035837445" lon="-73.201339573881">
    <tag k="addr:city" v="Whiting" />
    <tag k="addr:housenumber" v="32" />
    <tag k="addr:street" v="South Main Street" />
    <tag k="addr:state" v="VT" />
    <tag k="ref:vcgi:esiteid" v="286212" />
  </node>
  <node id="-245" visible="true" lat="43.861619896616" lon="-73.201447326486">
    <tag k="addr:city" v="Whiting" />
    <tag k="addr:housenumber" v="38" />
    <tag k="addr:street" v="South Main Street" />
    <tag k="addr:state" v="VT" />
    <tag k="ref:vcgi:esiteid" v="286213" />
  </node>
  <node id="-246" visible="true" lat="43.860940274813" lon="-73.201760729968">
    <tag k="addr:city" v="Whiting" />
    <tag k="addr:housenumber" v="48" />
    <tag k="addr:street" v="South Main Street" />
    <tag k="addr:state" v="VT" />
    <tag k="ref:vcgi:esiteid" v="286214" />
  </node>
  <node id="-247" visible="true" lat="43.859717910443" lon="-73.20204963755">
    <tag k="addr:city" v="Whiting" />
    <tag k="addr:housenumber" v="68" />
    <tag k="addr:street" v="South Main Street" />
    <tag k="addr:state" v="VT" />
    <tag k="ref:vcgi:esiteid" v="286215" />
  </node>
  <node id="-248" visible="true" lat="43.847838749621" lon="-73.20444349003">
    <tag k="addr:city" v="Whiting" />
    <tag k="addr:housenumber" v="62" />
    <tag k="addr:street" v="Murray Road" />
    <tag k="addr:state" v="VT" />
    <tag k="ref:vcgi:esiteid" v="286216" />
  </node>
  <node id="-249" visible="true" lat="43.846904689751" lon="-73.212639906061">
    <tag k="addr:city" v="Whiting" />
    <tag k="addr:housenumber" v="150" />
    <tag k="addr:street" v="Murray Road" />
    <tag k="addr:state" v="VT" />
    <tag k="ref:vcgi:esiteid" v="286217" />
  </node>
  <node id="-250" visible="true" lat="43.846642786608" lon="-73.218163933738">
    <tag k="addr:city" v="Whiting" />
    <tag k="addr:housenumber" v="208" />
    <tag k="addr:street" v="Murray Road" />
    <tag k="addr:state" v="VT" />
    <tag k="ref:vcgi:esiteid" v="286218" />
  </node>
  <node id="-251" visible="true" lat="43.84385329263" lon="-73.210057490286">
    <tag k="addr:city" v="Whiting" />
    <tag k="addr:housenumber" v="351" />
    <tag k="addr:street" v="West Road" />
    <tag k="addr:state" v="VT" />
    <tag k="ref:vcgi:esiteid" v="286219" />
  </node>
  <node id="-252" visible="true" lat="43.842726000467" lon="-73.21078128144">
    <tag k="addr:city" v="Whiting" />
    <tag k="addr:housenumber" v="372" />
    <tag k="addr:street" v="West Road" />
    <tag k="addr:state" v="VT" />
    <tag k="ref:vcgi:esiteid" v="286220" />
  </node>
  <node id="-253" visible="true" lat="43.847187678132" lon="-73.209744694352">
    <tag k="addr:city" v="Whiting" />
    <tag k="addr:housenumber" v="118" />
    <tag k="addr:street" v="Murray Road" />
    <tag k="addr:state" v="VT" />
    <tag k="ref:vcgi:esiteid" v="286221" />
  </node>
  <node id="-254" visible="true" lat="43.864584015427" lon="-73.201070292984">
    <tag k="addr:city" v="Whiting" />
    <tag k="addr:housenumber" v="7" />
    <tag k="addr:street" v="North Main Street" />
    <tag k="addr:state" v="VT" />
    <tag k="ref:vcgi:esiteid" v="286222" />
  </node>
  <node id="-255" visible="true" lat="43.858569902338" lon="-73.212498085152">
    <tag k="addr:city" v="Whiting" />
    <tag k="addr:housenumber" v="142" />
    <tag k="addr:street" v="Bilodeau Road" />
    <tag k="addr:state" v="VT" />
    <tag k="ref:vcgi:esiteid" v="286223" />
  </node>
  <node id="-256" visible="true" lat="43.856502206862" lon="-73.212789801191">
    <tag k="addr:city" v="Whiting" />
    <tag k="addr:housenumber" v="158" />
    <tag k="addr:street" v="West Road" />
    <tag k="addr:state" v="VT" />
    <tag k="ref:vcgi:esiteid" v="286225" />
  </node>
  <node id="-257" visible="true" lat="43.844803594464" lon="-73.210722741888">
    <tag k="addr:city" v="Whiting" />
    <tag k="addr:housenumber" v="340" />
    <tag k="addr:street" v="West Road" />
    <tag k="addr:state" v="VT" />
    <tag k="ref:vcgi:esiteid" v="286226" />
  </node>
  <node id="-258" visible="true" lat="43.903214964975" lon="-73.229310237468">
    <tag k="addr:city" v="Whiting" />
    <tag k="addr:housenumber" v="278" />
    <tag k="addr:street" v="North Road" />
    <tag k="addr:state" v="VT" />
    <tag k="ref:vcgi:esiteid" v="286227" />
  </node>
  <node id="-259" visible="true" lat="43.887789562251" lon="-73.227674082096">
    <tag k="addr:city" v="Whiting" />
    <tag k="addr:housenumber" v="274" />
    <tag k="addr:street" v="Stickney Road" />
    <tag k="addr:state" v="VT" />
    <tag k="ref:vcgi:esiteid" v="286228" />
  </node>
  <node id="-260" visible="true" lat="43.901378899523" lon="-73.232275458135">
    <tag k="addr:city" v="Whiting" />
    <tag k="addr:housenumber" v="214" />
    <tag k="addr:street" v="Barnes Road" />
    <tag k="addr:state" v="VT" />
    <tag k="ref:vcgi:esiteid" v="286229" />
  </node>
  <node id="-261" visible="true" lat="43.845381627952" lon="-73.214663438411">
    <tag k="addr:city" v="Whiting" />
    <tag k="addr:housenumber" v="179" />
    <tag k="addr:street" v="Murray Road" />
    <tag k="addr:state" v="VT" />
    <tag k="ref:vcgi:esiteid" v="286230" />
  </node>
  <node id="-262" visible="true" lat="43.844871410349" lon="-73.168707690728">
    <tag k="addr:city" v="Whiting" />
    <tag k="addr:housenumber" v="101" />
    <tag k="addr:street" v="Sawyer Needham Road" />
    <tag k="addr:state" v="VT" />
    <tag k="ref:vcgi:esiteid" v="286231" />
  </node>
  <node id="-263" visible="true" lat="43.890951607923" lon="-73.224290933234">
    <tag k="addr:city" v="Whiting" />
    <tag k="addr:housenumber" v="212" />
    <tag k="addr:street" v="Stickney Road" />
    <tag k="addr:state" v="VT" />
    <tag k="ref:vcgi:esiteid" v="286232" />
  </node>
  <node id="-264" visible="true" lat="43.882689218178" lon="-73.227883594541">
    <tag k="addr:city" v="Whiting" />
    <tag k="addr:housenumber" v="299" />
    <tag k="addr:street" v="Stickney Road" />
    <tag k="addr:state" v="VT" />
    <tag k="ref:vcgi:esiteid" v="286233" />
  </node>
  <node id="-265" visible="true" lat="43.85282365455" lon="-73.207926982521">
    <tag k="addr:city" v="Whiting" />
    <tag k="addr:housenumber" v="235" />
    <tag k="addr:street" v="West Road" />
    <tag k="addr:state" v="VT" />
    <tag k="ref:vcgi:esiteid" v="286234" />
  </node>
  <node id="-266" visible="true" lat="43.862868810345" lon="-73.207274071105">
    <tag k="addr:city" v="Whiting" />
    <tag k="addr:housenumber" v="53" />
    <tag k="addr:street" v="Shoreham Whiting Road" />
    <tag k="addr:state" v="VT" />
    <tag k="ref:vcgi:esiteid" v="286235" />
  </node>
  <node id="-267" visible="true" lat="43.861248937952" lon="-73.194394760215">
    <tag k="addr:city" v="Whiting" />
    <tag k="addr:housenumber" v="46" />
    <tag k="addr:street" v="Leicester Whiting Road" />
    <tag k="addr:state" v="VT" />
    <tag k="ref:vcgi:esiteid" v="286236" />
  </node>
  <node id="-268" visible="true" lat="43.864049616622" lon="-73.199884458329">
    <tag k="addr:city" v="Whiting" />
    <tag k="addr:housenumber" v="5" />
    <tag k="addr:street" v="Leicester Whiting Road" />
    <tag k="addr:state" v="VT" />
    <tag k="ref:vcgi:esiteid" v="286237" />
  </node>
  <node id="-269" visible="true" lat="43.867606424877" lon="-73.199988853281">
    <tag k="addr:city" v="Whiting" />
    <tag k="addr:housenumber" v="53" />
    <tag k="addr:street" v="North Main Street" />
    <tag k="addr:state" v="VT" />
    <tag k="ref:vcgi:esiteid" v="286238" />
  </node>
  <node id="-270" visible="true" lat="43.847126309629" lon="-73.201111564416">
    <tag k="addr:city" v="Whiting" />
    <tag k="addr:housenumber" v="33" />
    <tag k="addr:street" v="Murray Road" />
    <tag k="addr:state" v="VT" />
    <tag k="ref:vcgi:esiteid" v="286239" />
  </node>
  <node id="-271" visible="true" lat="43.848520940616" lon="-73.206091940273">
    <tag k="addr:city" v="Whiting" />
    <tag k="addr:housenumber" v="84" />
    <tag k="addr:street" v="Murray Road" />
    <tag k="addr:state" v="VT" />
    <tag k="ref:vcgi:esiteid" v="286240" />
  </node>
  <node id="-272" visible="true" lat="43.851175872833" lon="-73.207995370742">
    <tag k="addr:city" v="Whiting" />
    <tag k="addr:housenumber" v="269" />
    <tag k="addr:street" v="West Road" />
    <tag k="addr:state" v="VT" />
    <tag k="ref:vcgi:esiteid" v="286241" />
  </node>
  <node id="-273" visible="true" lat="43.885334368699" lon="-73.200560545854">
    <tag k="addr:city" v="Whiting" />
    <tag k="addr:housenumber" v="300" />
    <tag k="addr:street" v="North Main Street" />
    <tag k="addr:state" v="VT" />
    <tag k="ref:vcgi:esiteid" v="326831" />
  </node>
  <node id="-274" visible="true" lat="43.879821046717" lon="-73.200960939717">
    <tag k="addr:city" v="Whiting" />
    <tag k="addr:housenumber" v="243" />
    <tag k="addr:street" v="North Main Street" />
    <tag k="addr:state" v="VT" />
    <tag k="ref:vcgi:esiteid" v="326832" />
  </node>
  <node id="-275" visible="true" lat="43.853743482755" lon="-73.200168470076">
    <tag k="addr:city" v="Whiting" />
    <tag k="addr:housenumber" v="159" />
    <tag k="addr:street" v="South Main Street" />
    <tag k="addr:state" v="VT" />
    <tag k="ref:vcgi:esiteid" v="326833" />
  </node>
  <node id="-276" visible="true" lat="43.854194477029" lon="-73.174791634467">
    <tag k="addr:city" v="Whiting" />
    <tag k="addr:housenumber" v="317" />
    <tag k="addr:street" v="Leicester Whiting Road" />
    <tag k="addr:state" v="VT" />
    <tag k="ref:vcgi:esiteid" v="326834" />
  </node>
  <node id="-277" visible="true" lat="43.840974733878" lon="-73.170363615313">
    <tag k="addr:city" v="Whiting" />
    <tag k="addr:housenumber" v="167" />
    <tag k="addr:street" v="Sawyer Needham Road" />
    <tag k="addr:state" v="VT" />
    <tag k="ref:vcgi:esiteid" v="333909" />
  </node>
  <node id="-278" visible="true" lat="43.851647433608" lon="-73.212344345468">
    <tag k="addr:city" v="Whiting" />
    <tag k="addr:housenumber" v="236" />
    <tag k="addr:street" v="West Road" />
    <tag k="addr:state" v="VT" />
    <tag k="ref:vcgi:esiteid" v="333910" />
  </node>
  <node id="-279" visible="true" lat="43.851522940975" lon="-73.172867569701">
    <tag k="addr:city" v="Whiting" />
    <tag k="addr:housenumber" v="350" />
    <tag k="addr:street" v="Leicester Whiting Road" />
    <tag k="addr:state" v="VT" />
    <tag k="ref:vcgi:esiteid" v="449634" />
  </node>
  <node id="-280" visible="true" lat="43.847408787445" lon="-73.210603408665">
    <tag k="addr:city" v="Whiting" />
    <tag k="addr:housenumber" v="294" />
    <tag k="addr:street" v="West Road" />
    <tag k="addr:state" v="VT" />
    <tag k="ref:vcgi:esiteid" v="455562" />
  </node>
  <node id="-281" visible="true" lat="43.851070154308" lon="-73.163955896346">
    <tag k="addr:city" v="Whiting" />
    <tag k="addr:housenumber" v="438" />
    <tag k="addr:street" v="Leicester Whiting Road" />
    <tag k="addr:state" v="VT" />
    <tag k="ref:vcgi:esiteid" v="600013" />
  </node>
  <node id="-282" visible="true" lat="43.851847072662" lon="-73.163149815778">
    <tag k="addr:city" v="Whiting" />
    <tag k="addr:housenumber" v="445" />
    <tag k="addr:street" v="Leicester Whiting Road" />
    <tag k="addr:state" v="VT" />
    <tag k="ref:vcgi:esiteid" v="612982" />
  </node>
  <node id="-283" visible="true" lat="43.850765605967" lon="-73.162589935003">
    <tag k="addr:city" v="Whiting" />
    <tag k="addr:housenumber" v="444" />
    <tag k="addr:street" v="Leicester Whiting Road" />
    <tag k="addr:state" v="VT" />
    <tag k="ref:vcgi:esiteid" v="612983" />
  </node>
  <node id="-284" visible="true" lat="43.889078249065" lon="-73.19781109777">
    <tag k="addr:city" v="Whiting" />
    <tag k="addr:housenumber" v="38" />
    <tag k="addr:street" v="Gibeault Road" />
    <tag k="addr:state" v="VT" />
    <tag k="ref:vcgi:esiteid" v="617276" />
  </node>
  <node id="-285" visible="true" lat="43.850091084973" lon="-73.212130051318">
    <tag k="addr:city" v="Whiting" />
    <tag k="addr:housenumber" v="258" />
    <tag k="addr:street" v="West Road" />
    <tag k="addr:state" v="VT" />
    <tag k="ref:vcgi:esiteid" v="620487" />
  </node>
  <node id="-286" visible="true" lat="43.839175144684" lon="-73.195938151222">
    <tag k="addr:city" v="Whiting" />
    <tag k="addr:housenumber" v="50" />
    <tag k="addr:street" v="Leno Lane" />
    <tag k="addr:state" v="VT" />
    <tag k="ref:vcgi:esiteid" v="646491" />
  </node>
  <node id="-287" visible="true" lat="43.838435140863" lon="-73.195614197563">
    <tag k="addr:city" v="Whiting" />
    <tag k="addr:housenumber" v="43" />
    <tag k="addr:street" v="Leno Lane" />
    <tag k="addr:state" v="VT" />
    <tag k="ref:vcgi:esiteid" v="646492" />
  </node>
  <node id="-288" visible="true" lat="43.90668983194" lon="-73.220106150716">
    <tag k="addr:city" v="Whiting" />
    <tag k="addr:housenumber" v="119" />
    <tag k="addr:street" v="Galvin Road" />
    <tag k="addr:state" v="VT" />
    <tag k="ref:vcgi:esiteid" v="655745" />
  </node>
  <node id="-289" visible="true" lat="43.904094415637" lon="-73.219759996702">
    <tag k="addr:city" v="Whiting" />
    <tag k="addr:housenumber" v="74" />
    <tag k="addr:street" v="Galvin Road" />
    <tag k="addr:state" v="VT" />
    <tag k="ref:vcgi:esiteid" v="655813" />
  </node>
  <node id="-290" visible="true" lat="43.847068924466" lon="-73.216833463651">
    <tag k="addr:city" v="Whiting" />
    <tag k="addr:housenumber" v="196" />
    <tag k="addr:street" v="Murray Road" />
    <tag k="addr:state" v="VT" />
    <tag k="ref:vcgi:esiteid" v="656173" />
  </node>
  <node id="-291" visible="true" lat="43.863115084259" lon="-73.204679812892">
    <tag k="addr:city" v="Whiting" />
    <tag k="addr:housenumber" v="41" />
    <tag k="addr:street" v="Shoreham Whiting Road" />
    <tag k="addr:state" v="VT" />
    <tag k="ref:vcgi:esiteid" v="750732" />
  </node>
  <node id="-292" visible="true" lat="43.852020988251" lon="-73.176909157437">
    <tag k="addr:city" v="Whiting" />
    <tag k="addr:housenumber" v="316" />
    <tag k="addr:street" v="Leicester Whiting Road" />
    <tag k="addr:state" v="VT" />
    <tag k="ref:vcgi:esiteid" v="754074" />
  </node>
  <node id="-293" visible="true" lat="43.851320665258" lon="-73.168447432425">
    <tag k="addr:city" v="Whiting" />
    <tag k="addr:housenumber" v="1" />
    <tag k="addr:street" v="Sawyer Needham Road" />
    <tag k="addr:state" v="VT" />
    <tag k="ref:vcgi:esiteid" v="754075" />
  </node>
  <node id="-294" visible="true" lat="43.84800355979" lon="-73.211202012854">
    <tag k="addr:city" v="Whiting" />
    <tag k="addr:housenumber" v="286" />
    <tag k="addr:street" v="West Road" />
    <tag k="addr:state" v="VT" />
    <tag k="ref:vcgi:esiteid" v="754425" />
  </node>
  <node id="-295" visible="true" lat="43.859994993303" lon="-73.203057987447">
    <tag k="addr:city" v="Whiting" />
    <tag k="addr:housenumber" v="70" />
    <tag k="addr:street" v="South Main Street" />
    <tag k="addr:state" v="VT" />
    <tag k="ref:vcgi:esiteid" v="760380" />
  </node>
  <node id="-296" visible="true" lat="43.889228034601" lon="-73.202477361259">
    <tag k="addr:city" v="Whiting" />
    <tag k="addr:housenumber" v="5" />
    <tag k="addr:street" v="Stickney Road" />
    <tag k="addr:state" v="VT" />
    <tag k="ref:vcgi:esiteid" v="760960" />
  </node>
  <node id="-297" visible="true" lat="43.846146460823" lon="-73.212327933382">
    <tag k="addr:city" v="Whiting" />
    <tag k="addr:housenumber" v="147" />
    <tag k="addr:street" v="Murray Road" />
    <tag k="addr:state" v="VT" />
    <tag k="ref:vcgi:esiteid" v="762721" />
  </node>
  <node id="-298" visible="true" lat="43.838080309159" lon="-73.218407249502">
    <tag k="addr:city" v="Whiting" />
    <tag k="addr:housenumber" v="491" />
    <tag k="addr:street" v="West Road" />
    <tag k="addr:state" v="VT" />
    <tag k="ref:vcgi:esiteid" v="762841" />
  </node>
  <node id="-300" visible="true" lat="43.873632649687" lon="-73.199663541039">
    <tag k="addr:city" v="Whiting" />
    <tag k="addr:housenumber" v="141" />
    <tag k="addr:street" v="North Main Street" />
    <tag k="addr:state" v="VT" />
    <tag k="ref:vcgi:esiteid" v="764471" />
  </node>
  <node id="-301" visible="true" lat="43.854423480569" lon="-73.202659454701">
    <tag k="addr:city" v="Whiting" />
    <tag k="addr:housenumber" v="18" />
    <tag k="addr:street" v="Bilodeau Road" />
    <tag k="addr:state" v="VT" />
    <tag k="ref:vcgi:esiteid" v="764476" />
  </node>
  <node id="-302" visible="true" lat="43.873089518887" lon="-73.199966821373">
    <tag k="addr:city" v="Whiting" />
    <tag k="addr:housenumber" v="133" />
    <tag k="addr:street" v="North Main Street" />
    <tag k="addr:state" v="VT" />
    <tag k="ref:vcgi:esiteid" v="764620" />
  </node>
  <node id="-303" visible="true" lat="43.854421321343" lon="-73.201960888171">
    <tag k="addr:city" v="Whiting" />
    <tag k="addr:housenumber" v="22" />
    <tag k="addr:street" v="Bilodeau Road" />
    <tag k="addr:state" v="VT" />
    <tag k="ref:vcgi:esiteid" v="764621" />
  </node>
  <node id="-304" visible="true" lat="43.84835249451" lon="-73.200432672115">
    <tag k="addr:city" v="Whiting" />
    <tag k="addr:housenumber" v="26" />
    <tag k="addr:street" v="Murray Road" />
    <tag k="addr:state" v="VT" />
    <tag k="ref:vcgi:esiteid" v="768949" />
  </node>
  <node id="-305" visible="true" lat="43.903417827997" lon="-73.219565836368">
    <tag k="addr:city" v="Whiting" />
    <tag k="addr:housenumber" v="68" />
    <tag k="addr:street" v="Galvin Road" />
    <tag k="addr:state" v="VT" />
    <tag k="ref:vcgi:esiteid" v="772079" />
  </node>
  <node id="-306" visible="true" lat="43.902520270147" lon="-73.219611428989">
    <tag k="addr:city" v="Whiting" />
    <tag k="addr:housenumber" v="58" />
    <tag k="addr:street" v="Galvin Road" />
    <tag k="addr:state" v="VT" />
    <tag k="ref:vcgi:esiteid" v="772080" />
  </node>
  <node id="-307" visible="true" lat="43.887297011274" lon="-73.231391938387">
    <tag k="addr:city" v="Whiting" />
    <tag k="addr:housenumber" v="316" />
    <tag k="addr:street" v="Stickney Road" />
    <tag k="addr:state" v="VT" />
    <tag k="ref:vcgi:esiteid" v="772596" />
  </node>
</osm>
